<gpx xmlns:ns3="http://www.garmin.com/xmlschemas/TrackPointExtension/v1" xmlns="http://www.topografix.com/GPX/1/1" xmlns:xsi="http://www.w3.org/2001/XMLSchema-instance" xmlns:ns2="http://www.garmin.com/xmlschemas/GpxExtensions/v3" creator="Garmin Connect" version="1.1" xsi:schemaLocation="http://www.topografix.com/GPX/1/1 http://www.topografix.com/GPX/11.xsd">
  <extensions>
<distance>300.0</distance>
<average_hr>103.0</average_hr>
<average_speed>0.974025974025974</average_speed>
<start_time>2023-02-08T03:50:52+00:00</start_time>
<end_time>2023-02-08T03:56:00+00:00</end_time>
<moving_time>303.0</moving_time>
<elapsed_time>314.0</elapsed_time>
</extensions>
<metadata>
    <link href="connect.garmin.com">
      <text>Garmin Connect</text>
    </link>
    <time>2023-02-08T03:50:52.000Z</time>
  </metadata>
  <trk>
    <name>步行</name>
    <type>walking</type>
    <trkseg/>
  </trk>
</gpx>
