<gpx xmlns:ns3="http://www.garmin.com/xmlschemas/TrackPointExtension/v1" xmlns="http://www.topografix.com/GPX/1/1" xmlns:xsi="http://www.w3.org/2001/XMLSchema-instance" xmlns:ns2="http://www.garmin.com/xmlschemas/GpxExtensions/v3" creator="Garmin Connect" version="1.1" xsi:schemaLocation="http://www.topografix.com/GPX/1/1 http://www.topografix.com/GPX/11.xsd">
  <extensions>
<distance>750.0</distance>
<average_hr>151.0</average_hr>
<average_speed>2.5951557093425603</average_speed>
<start_time>2023-10-20T12:08:32+00:00</start_time>
<end_time>2023-10-20T12:13:21+00:00</end_time>
<moving_time>283.0</moving_time>
<elapsed_time>292.0</elapsed_time>
</extensions>
<metadata>
    <link href="connect.garmin.com">
      <text>Garmin Connect</text>
    </link>
    <time>2023-10-20T12:08:32.000Z</time>
  </metadata>
  <trk>
    <name>南京市 跑步</name>
    <type>running</type>
    <trkseg>
      <trkpt lat="31.9687270559370517730712890625" lon="118.824218697845935821533203125">
        <ele>6</ele>
        <time>2023-10-20T12:08:37.000Z</time>
        <extensions>
          <ns3:TrackPointExtension>
            <ns3:hr>115</ns3:hr>
            <ns3:cad>75</ns3:cad>
          </ns3:TrackPointExtension>
        </extensions>
      </trkpt>
      <trkpt lat="31.96873853914439678192138671875" lon="118.824218697845935821533203125">
        <ele>6</ele>
        <time>2023-10-20T12:08:38.000Z</time>
        <extensions>
          <ns3:TrackPointExtension/>
        </extensions>
      </trkpt>
      <trkpt lat="31.96875379420816898345947265625" lon="118.82421107031404972076416015625">
        <ele>6</ele>
        <time>2023-10-20T12:08:39.000Z</time>
        <extensions>
          <ns3:TrackPointExtension/>
        </extensions>
      </trkpt>
      <trkpt lat="31.96876904927194118499755859375" lon="118.82421107031404972076416015625">
        <ele>6</ele>
        <time>2023-10-20T12:08:40.000Z</time>
        <extensions>
          <ns3:TrackPointExtension/>
        </extensions>
      </trkpt>
      <trkpt lat="31.9687823764979839324951171875" lon="118.82419581525027751922607421875">
        <ele>5.80000019073486328125</ele>
        <time>2023-10-20T12:08:41.000Z</time>
        <extensions>
          <ns3:TrackPointExtension/>
        </extensions>
      </trkpt>
      <trkpt lat="31.9687880761921405792236328125" lon="118.82416530512273311614990234375">
        <ele>5.80000019073486328125</ele>
        <time>2023-10-20T12:08:42.000Z</time>
        <extensions>
          <ns3:TrackPointExtension>
            <ns3:hr>126</ns3:hr>
            <ns3:cad>79</ns3:cad>
          </ns3:TrackPointExtension>
        </extensions>
      </trkpt>
      <trkpt lat="31.96879955939948558807373046875" lon="118.82415005005896091461181640625">
        <ele>5.80000019073486328125</ele>
        <time>2023-10-20T12:08:43.000Z</time>
        <extensions>
          <ns3:TrackPointExtension/>
        </extensions>
      </trkpt>
      <trkpt lat="31.96880911476910114288330078125" lon="118.82413479499518871307373046875">
        <ele>5.80000019073486328125</ele>
        <time>2023-10-20T12:08:44.000Z</time>
        <extensions>
          <ns3:TrackPointExtension/>
        </extensions>
      </trkpt>
      <trkpt lat="31.9688185863196849822998046875" lon="118.8241119123995304107666015625">
        <ele>5.80000019073486328125</ele>
        <time>2023-10-20T12:08:45.000Z</time>
        <extensions>
          <ns3:TrackPointExtension/>
        </extensions>
      </trkpt>
      <trkpt lat="31.968828141689300537109375" lon="118.82408902980387210845947265625">
        <ele>5.599999904632568359375</ele>
        <time>2023-10-20T12:08:46.000Z</time>
        <extensions>
          <ns3:TrackPointExtension/>
        </extensions>
      </trkpt>
      <trkpt lat="31.96883576922118663787841796875" lon="118.82406614720821380615234375">
        <ele>5.599999904632568359375</ele>
        <time>2023-10-20T12:08:47.000Z</time>
        <extensions>
          <ns3:TrackPointExtension>
            <ns3:hr>133</ns3:hr>
            <ns3:cad>89</ns3:cad>
          </ns3:TrackPointExtension>
        </extensions>
      </trkpt>
      <trkpt lat="31.968841552734375" lon="118.82404326461255550384521484375">
        <ele>5.599999904632568359375</ele>
        <time>2023-10-20T12:08:48.000Z</time>
        <extensions>
          <ns3:TrackPointExtension/>
        </extensions>
      </trkpt>
      <trkpt lat="31.96884918026626110076904296875" lon="118.8240203820168972015380859375">
        <ele>5.599999904632568359375</ele>
        <time>2023-10-20T12:08:49.000Z</time>
        <extensions>
          <ns3:TrackPointExtension/>
        </extensions>
      </trkpt>
      <trkpt lat="31.9688568077981472015380859375" lon="118.823997415602207183837890625">
        <ele>5.599999904632568359375</ele>
        <time>2023-10-20T12:08:50.000Z</time>
        <extensions>
          <ns3:TrackPointExtension/>
        </extensions>
      </trkpt>
      <trkpt lat="31.9688625074923038482666015625" lon="118.82397453300654888153076171875">
        <ele>5.599999904632568359375</ele>
        <time>2023-10-20T12:08:51.000Z</time>
        <extensions>
          <ns3:TrackPointExtension/>
        </extensions>
      </trkpt>
      <trkpt lat="31.9688682071864604949951171875" lon="118.82394402287900447845458984375">
        <ele>5.599999904632568359375</ele>
        <time>2023-10-20T12:08:52.000Z</time>
        <extensions>
          <ns3:TrackPointExtension>
            <ns3:hr>141</ns3:hr>
            <ns3:cad>90</ns3:cad>
          </ns3:TrackPointExtension>
        </extensions>
      </trkpt>
      <trkpt lat="31.9688739068806171417236328125" lon="118.8239211402833461761474609375">
        <ele>5.80000019073486328125</ele>
        <time>2023-10-20T12:08:53.000Z</time>
        <extensions>
          <ns3:TrackPointExtension/>
        </extensions>
      </trkpt>
      <trkpt lat="31.96888153441250324249267578125" lon="118.82389825768768787384033203125">
        <ele>5.80000019073486328125</ele>
        <time>2023-10-20T12:08:54.000Z</time>
        <extensions>
          <ns3:TrackPointExtension/>
        </extensions>
      </trkpt>
      <trkpt lat="31.96888539008796215057373046875" lon="118.82386774756014347076416015625">
        <ele>5.80000019073486328125</ele>
        <time>2023-10-20T12:08:55.000Z</time>
        <extensions>
          <ns3:TrackPointExtension/>
        </extensions>
      </trkpt>
      <trkpt lat="31.96889108978211879730224609375" lon="118.82383723743259906768798828125">
        <ele>6</ele>
        <time>2023-10-20T12:08:56.000Z</time>
        <extensions>
          <ns3:TrackPointExtension/>
        </extensions>
      </trkpt>
      <trkpt lat="31.96889494545757770538330078125" lon="118.823814354836940765380859375">
        <ele>5.80000019073486328125</ele>
        <time>2023-10-20T12:08:57.000Z</time>
        <extensions>
          <ns3:TrackPointExtension>
            <ns3:hr>146</ns3:hr>
            <ns3:cad>89</ns3:cad>
          </ns3:TrackPointExtension>
        </extensions>
      </trkpt>
      <trkpt lat="31.96890064515173435211181640625" lon="118.8237838447093963623046875">
        <ele>5.80000019073486328125</ele>
        <time>2023-10-20T12:08:58.000Z</time>
        <extensions>
          <ns3:TrackPointExtension/>
        </extensions>
      </trkpt>
      <trkpt lat="31.96890634484589099884033203125" lon="118.82376096211373805999755859375">
        <ele>5.80000019073486328125</ele>
        <time>2023-10-20T12:08:59.000Z</time>
        <extensions>
          <ns3:TrackPointExtension/>
        </extensions>
      </trkpt>
      <trkpt lat="31.96891020052134990692138671875" lon="118.82373045198619365692138671875">
        <ele>5.80000019073486328125</ele>
        <time>2023-10-20T12:09:00.000Z</time>
        <extensions>
          <ns3:TrackPointExtension/>
        </extensions>
      </trkpt>
      <trkpt lat="31.96891590021550655364990234375" lon="118.82369994185864925384521484375">
        <ele>5.80000019073486328125</ele>
        <time>2023-10-20T12:09:01.000Z</time>
        <extensions>
          <ns3:TrackPointExtension/>
        </extensions>
      </trkpt>
      <trkpt lat="31.968919672071933746337890625" lon="118.8236770592629909515380859375">
        <ele>5.80000019073486328125</ele>
        <time>2023-10-20T12:09:02.000Z</time>
        <extensions>
          <ns3:TrackPointExtension>
            <ns3:hr>150</ns3:hr>
            <ns3:cad>90</ns3:cad>
          </ns3:TrackPointExtension>
        </extensions>
      </trkpt>
      <trkpt lat="31.96892545558512210845947265625" lon="118.82364646531641483306884765625">
        <ele>5.599999904632568359375</ele>
        <time>2023-10-20T12:09:03.000Z</time>
        <extensions>
          <ns3:TrackPointExtension/>
        </extensions>
      </trkpt>
      <trkpt lat="31.96893115527927875518798828125" lon="118.82361595518887042999267578125">
        <ele>5.599999904632568359375</ele>
        <time>2023-10-20T12:09:04.000Z</time>
        <extensions>
          <ns3:TrackPointExtension/>
        </extensions>
      </trkpt>
      <trkpt lat="31.96893501095473766326904296875" lon="118.82358544506132602691650390625">
        <ele>5.599999904632568359375</ele>
        <time>2023-10-20T12:09:05.000Z</time>
        <extensions>
          <ns3:TrackPointExtension/>
        </extensions>
      </trkpt>
      <trkpt lat="31.96893878281116485595703125" lon="118.82355493493378162384033203125">
        <ele>5.599999904632568359375</ele>
        <time>2023-10-20T12:09:06.000Z</time>
        <extensions>
          <ns3:TrackPointExtension/>
        </extensions>
      </trkpt>
      <trkpt lat="31.9689426384866237640380859375" lon="118.82352442480623722076416015625">
        <ele>5.599999904632568359375</ele>
        <time>2023-10-20T12:09:07.000Z</time>
        <extensions>
          <ns3:TrackPointExtension>
            <ns3:hr>152</ns3:hr>
            <ns3:cad>89</ns3:cad>
          </ns3:TrackPointExtension>
        </extensions>
      </trkpt>
      <trkpt lat="31.96894641034305095672607421875" lon="118.82349391467869281768798828125">
        <ele>5.599999904632568359375</ele>
        <time>2023-10-20T12:09:08.000Z</time>
        <extensions>
          <ns3:TrackPointExtension/>
        </extensions>
      </trkpt>
      <trkpt lat="31.9689483381807804107666015625" lon="118.82346340455114841461181640625">
        <ele>5.599999904632568359375</ele>
        <time>2023-10-20T12:09:09.000Z</time>
        <extensions>
          <ns3:TrackPointExtension/>
        </extensions>
      </trkpt>
      <trkpt lat="31.96895026601850986480712890625" lon="118.8234252668917179107666015625">
        <ele>5.400000095367431640625</ele>
        <time>2023-10-20T12:09:10.000Z</time>
        <extensions>
          <ns3:TrackPointExtension/>
        </extensions>
      </trkpt>
      <trkpt lat="31.96895026601850986480712890625" lon="118.8233947567641735076904296875">
        <ele>5.19999980926513671875</ele>
        <time>2023-10-20T12:09:11.000Z</time>
        <extensions>
          <ns3:TrackPointExtension/>
        </extensions>
      </trkpt>
      <trkpt lat="31.96895026601850986480712890625" lon="118.8233642466366291046142578125">
        <ele>4.80000019073486328125</ele>
        <time>2023-10-20T12:09:12.000Z</time>
        <extensions>
          <ns3:TrackPointExtension>
            <ns3:hr>157</ns3:hr>
            <ns3:cad>90</ns3:cad>
          </ns3:TrackPointExtension>
        </extensions>
      </trkpt>
      <trkpt lat="31.9689483381807804107666015625" lon="118.8233337365090847015380859375">
        <ele>4.599999904632568359375</ele>
        <time>2023-10-20T12:09:13.000Z</time>
        <extensions>
          <ns3:TrackPointExtension/>
        </extensions>
      </trkpt>
      <trkpt lat="31.96894641034305095672607421875" lon="118.8232955150306224822998046875">
        <ele>4.599999904632568359375</ele>
        <time>2023-10-20T12:09:14.000Z</time>
        <extensions>
          <ns3:TrackPointExtension/>
        </extensions>
      </trkpt>
      <trkpt lat="31.9689426384866237640380859375" lon="118.8232650049030780792236328125">
        <ele>4.400000095367431640625</ele>
        <time>2023-10-20T12:09:15.000Z</time>
        <extensions>
          <ns3:TrackPointExtension/>
        </extensions>
      </trkpt>
      <trkpt lat="31.96893878281116485595703125" lon="118.8232344947755336761474609375">
        <ele>4.400000095367431640625</ele>
        <time>2023-10-20T12:09:16.000Z</time>
        <extensions>
          <ns3:TrackPointExtension/>
        </extensions>
      </trkpt>
      <trkpt lat="31.96893501095473766326904296875" lon="118.82319635711610317230224609375">
        <ele>4.19999980926513671875</ele>
        <time>2023-10-20T12:09:17.000Z</time>
        <extensions>
          <ns3:TrackPointExtension>
            <ns3:hr>157</ns3:hr>
            <ns3:cad>90</ns3:cad>
          </ns3:TrackPointExtension>
        </extensions>
      </trkpt>
      <trkpt lat="31.9689292274415493011474609375" lon="118.82316584698855876922607421875">
        <ele>4</ele>
        <time>2023-10-20T12:09:18.000Z</time>
        <extensions>
          <ns3:TrackPointExtension/>
        </extensions>
      </trkpt>
      <trkpt lat="31.96892545558512210845947265625" lon="118.823127709329128265380859375">
        <ele>4</ele>
        <time>2023-10-20T12:09:19.000Z</time>
        <extensions>
          <ns3:TrackPointExtension/>
        </extensions>
      </trkpt>
      <trkpt lat="31.968919672071933746337890625" lon="118.8230971992015838623046875">
        <ele>4</ele>
        <time>2023-10-20T12:09:20.000Z</time>
        <extensions>
          <ns3:TrackPointExtension/>
        </extensions>
      </trkpt>
      <trkpt lat="31.96891590021550655364990234375" lon="118.823066689074039459228515625">
        <ele>4</ele>
        <time>2023-10-20T12:09:21.000Z</time>
        <extensions>
          <ns3:TrackPointExtension/>
        </extensions>
      </trkpt>
      <trkpt lat="31.96891204454004764556884765625" lon="118.82302855141460895538330078125">
        <ele>4</ele>
        <time>2023-10-20T12:09:22.000Z</time>
        <extensions>
          <ns3:TrackPointExtension>
            <ns3:hr>157</ns3:hr>
            <ns3:cad>89</ns3:cad>
          </ns3:TrackPointExtension>
        </extensions>
      </trkpt>
      <trkpt lat="31.9689044170081615447998046875" lon="118.82299804128706455230712890625">
        <ele>4.19999980926513671875</ele>
        <time>2023-10-20T12:09:23.000Z</time>
        <extensions>
          <ns3:TrackPointExtension/>
        </extensions>
      </trkpt>
      <trkpt lat="31.96890064515173435211181640625" lon="118.82295981980860233306884765625">
        <ele>4.19999980926513671875</ele>
        <time>2023-10-20T12:09:24.000Z</time>
        <extensions>
          <ns3:TrackPointExtension/>
        </extensions>
      </trkpt>
      <trkpt lat="31.96889494545757770538330078125" lon="118.82292930968105792999267578125">
        <ele>4.400000095367431640625</ele>
        <time>2023-10-20T12:09:25.000Z</time>
        <extensions>
          <ns3:TrackPointExtension/>
        </extensions>
      </trkpt>
      <trkpt lat="31.96888916194438934326171875" lon="118.8228911720216274261474609375">
        <ele>4.400000095367431640625</ele>
        <time>2023-10-20T12:09:26.000Z</time>
        <extensions>
          <ns3:TrackPointExtension/>
        </extensions>
      </trkpt>
      <trkpt lat="31.968883462250232696533203125" lon="118.82285303436219692230224609375">
        <ele>4.599999904632568359375</ele>
        <time>2023-10-20T12:09:27.000Z</time>
        <extensions>
          <ns3:TrackPointExtension>
            <ns3:hr>158</ns3:hr>
            <ns3:cad>90</ns3:cad>
          </ns3:TrackPointExtension>
        </extensions>
      </trkpt>
      <trkpt lat="31.96887583471834659576416015625" lon="118.82281489670276641845703125">
        <ele>4.80000019073486328125</ele>
        <time>2023-10-20T12:09:28.000Z</time>
        <extensions>
          <ns3:TrackPointExtension/>
        </extensions>
      </trkpt>
      <trkpt lat="31.9688682071864604949951171875" lon="118.822784386575222015380859375">
        <ele>5</ele>
        <time>2023-10-20T12:09:29.000Z</time>
        <extensions>
          <ns3:TrackPointExtension/>
        </extensions>
      </trkpt>
      <trkpt lat="31.9688625074923038482666015625" lon="118.82274624891579151153564453125">
        <ele>5.400000095367431640625</ele>
        <time>2023-10-20T12:09:30.000Z</time>
        <extensions>
          <ns3:TrackPointExtension/>
        </extensions>
      </trkpt>
      <trkpt lat="31.96885487996041774749755859375" lon="118.8227081112563610076904296875">
        <ele>5.599999904632568359375</ele>
        <time>2023-10-20T12:09:31.000Z</time>
        <extensions>
          <ns3:TrackPointExtension/>
        </extensions>
      </trkpt>
      <trkpt lat="31.96884532459080219268798828125" lon="118.8226776011288166046142578125">
        <ele>5.80000019073486328125</ele>
        <time>2023-10-20T12:09:32.000Z</time>
        <extensions>
          <ns3:TrackPointExtension>
            <ns3:hr>158</ns3:hr>
            <ns3:cad>89</ns3:cad>
          </ns3:TrackPointExtension>
        </extensions>
      </trkpt>
      <trkpt lat="31.968833841383457183837890625" lon="118.82263946346938610076904296875">
        <ele>6</ele>
        <time>2023-10-20T12:09:33.000Z</time>
        <extensions>
          <ns3:TrackPointExtension/>
        </extensions>
      </trkpt>
      <trkpt lat="31.96882051415741443634033203125" lon="118.8226088695228099822998046875">
        <ele>6.19999980926513671875</ele>
        <time>2023-10-20T12:09:34.000Z</time>
        <extensions>
          <ns3:TrackPointExtension/>
        </extensions>
      </trkpt>
      <trkpt lat="31.9688071869313716888427734375" lon="118.82258598692715167999267578125">
        <ele>6.19999980926513671875</ele>
        <time>2023-10-20T12:09:35.000Z</time>
        <extensions>
          <ns3:TrackPointExtension/>
        </extensions>
      </trkpt>
      <trkpt lat="31.96879000402987003326416015625" lon="118.822563104331493377685546875">
        <ele>6.19999980926513671875</ele>
        <time>2023-10-20T12:09:36.000Z</time>
        <extensions>
          <ns3:TrackPointExtension/>
        </extensions>
      </trkpt>
      <trkpt lat="31.968772821128368377685546875" lon="118.8225478492677211761474609375">
        <ele>6.19999980926513671875</ele>
        <time>2023-10-20T12:09:37.000Z</time>
        <extensions>
          <ns3:TrackPointExtension>
            <ns3:hr>157</ns3:hr>
            <ns3:cad>89</ns3:cad>
          </ns3:TrackPointExtension>
        </extensions>
      </trkpt>
      <trkpt lat="31.96875379420816898345947265625" lon="118.82252496667206287384033203125">
        <ele>6.19999980926513671875</ele>
        <time>2023-10-20T12:09:38.000Z</time>
        <extensions>
          <ns3:TrackPointExtension/>
        </extensions>
      </trkpt>
      <trkpt lat="31.9687327556312084197998046875" lon="118.8225173391401767730712890625">
        <ele>6.19999980926513671875</ele>
        <time>2023-10-20T12:09:39.000Z</time>
        <extensions>
          <ns3:TrackPointExtension/>
        </extensions>
      </trkpt>
      <trkpt lat="31.968711800873279571533203125" lon="118.82250971160829067230224609375">
        <ele>6</ele>
        <time>2023-10-20T12:09:40.000Z</time>
        <extensions>
          <ns3:TrackPointExtension/>
        </extensions>
      </trkpt>
      <trkpt lat="31.968686990439891815185546875" lon="118.822502084076404571533203125">
        <ele>6</ele>
        <time>2023-10-20T12:09:41.000Z</time>
        <extensions>
          <ns3:TrackPointExtension/>
        </extensions>
      </trkpt>
      <trkpt lat="31.968662180006504058837890625" lon="118.82249445654451847076416015625">
        <ele>5.80000019073486328125</ele>
        <time>2023-10-20T12:09:42.000Z</time>
        <extensions>
          <ns3:TrackPointExtension>
            <ns3:hr>159</ns3:hr>
            <ns3:cad>89</ns3:cad>
          </ns3:TrackPointExtension>
        </extensions>
      </trkpt>
      <trkpt lat="31.96863745339214801788330078125" lon="118.82249445654451847076416015625">
        <ele>5.599999904632568359375</ele>
        <time>2023-10-20T12:09:43.000Z</time>
        <extensions>
          <ns3:TrackPointExtension/>
        </extensions>
      </trkpt>
      <trkpt lat="31.96861264295876026153564453125" lon="118.8224868290126323699951171875">
        <ele>5.400000095367431640625</ele>
        <time>2023-10-20T12:09:44.000Z</time>
        <extensions>
          <ns3:TrackPointExtension/>
        </extensions>
      </trkpt>
      <trkpt lat="31.96858783252537250518798828125" lon="118.8224868290126323699951171875">
        <ele>5</ele>
        <time>2023-10-20T12:09:45.000Z</time>
        <extensions>
          <ns3:TrackPointExtension/>
        </extensions>
      </trkpt>
      <trkpt lat="31.968564949929714202880859375" lon="118.8224868290126323699951171875">
        <ele>4.80000019073486328125</ele>
        <time>2023-10-20T12:09:46.000Z</time>
        <extensions>
          <ns3:TrackPointExtension/>
        </extensions>
      </trkpt>
      <trkpt lat="31.968540139496326446533203125" lon="118.82247920148074626922607421875">
        <ele>4.599999904632568359375</ele>
        <time>2023-10-20T12:09:47.000Z</time>
        <extensions>
          <ns3:TrackPointExtension>
            <ns3:hr>157</ns3:hr>
            <ns3:cad>90</ns3:cad>
          </ns3:TrackPointExtension>
        </extensions>
      </trkpt>
      <trkpt lat="31.96851725690066814422607421875" lon="118.82247920148074626922607421875">
        <ele>4.400000095367431640625</ele>
        <time>2023-10-20T12:09:48.000Z</time>
        <extensions>
          <ns3:TrackPointExtension/>
        </extensions>
      </trkpt>
      <trkpt lat="31.9684943743050098419189453125" lon="118.82247157394886016845703125">
        <ele>4.19999980926513671875</ele>
        <time>2023-10-20T12:09:49.000Z</time>
        <extensions>
          <ns3:TrackPointExtension/>
        </extensions>
      </trkpt>
      <trkpt lat="31.96847149170935153961181640625" lon="118.82247157394886016845703125">
        <ele>4</ele>
        <time>2023-10-20T12:09:50.000Z</time>
        <extensions>
          <ns3:TrackPointExtension/>
        </extensions>
      </trkpt>
      <trkpt lat="31.96845053695142269134521484375" lon="118.82246394641697406768798828125">
        <ele>4</ele>
        <time>2023-10-20T12:09:51.000Z</time>
        <extensions>
          <ns3:TrackPointExtension/>
        </extensions>
      </trkpt>
      <trkpt lat="31.968429498374462127685546875" lon="118.82246394641697406768798828125">
        <ele>4</ele>
        <time>2023-10-20T12:09:52.000Z</time>
        <extensions>
          <ns3:TrackPointExtension>
            <ns3:hr>158</ns3:hr>
            <ns3:cad>89</ns3:cad>
          </ns3:TrackPointExtension>
        </extensions>
      </trkpt>
      <trkpt lat="31.96840661577880382537841796875" lon="118.8224563188850879669189453125">
        <ele>4</ele>
        <time>2023-10-20T12:09:53.000Z</time>
        <extensions>
          <ns3:TrackPointExtension/>
        </extensions>
      </trkpt>
      <trkpt lat="31.96838566102087497711181640625" lon="118.8224563188850879669189453125">
        <ele>4</ele>
        <time>2023-10-20T12:09:54.000Z</time>
        <extensions>
          <ns3:TrackPointExtension/>
        </extensions>
      </trkpt>
      <trkpt lat="31.9683627784252166748046875" lon="118.82244869135320186614990234375">
        <ele>4</ele>
        <time>2023-10-20T12:09:55.000Z</time>
        <extensions>
          <ns3:TrackPointExtension/>
        </extensions>
      </trkpt>
      <trkpt lat="31.9683418236672878265380859375" lon="118.822441063821315765380859375">
        <ele>4</ele>
        <time>2023-10-20T12:09:56.000Z</time>
        <extensions>
          <ns3:TrackPointExtension/>
        </extensions>
      </trkpt>
      <trkpt lat="31.9683227129280567169189453125" lon="118.82243343628942966461181640625">
        <ele>4.19999980926513671875</ele>
        <time>2023-10-20T12:09:57.000Z</time>
        <extensions>
          <ns3:TrackPointExtension>
            <ns3:hr>159</ns3:hr>
            <ns3:cad>90</ns3:cad>
          </ns3:TrackPointExtension>
        </extensions>
      </trkpt>
      <trkpt lat="31.96830175817012786865234375" lon="118.82241818122565746307373046875">
        <ele>4.19999980926513671875</ele>
        <time>2023-10-20T12:09:58.000Z</time>
        <extensions>
          <ns3:TrackPointExtension/>
        </extensions>
      </trkpt>
      <trkpt lat="31.968282647430896759033203125" lon="118.8224105536937713623046875">
        <ele>4.19999980926513671875</ele>
        <time>2023-10-20T12:09:59.000Z</time>
        <extensions>
          <ns3:TrackPointExtension/>
        </extensions>
      </trkpt>
      <trkpt lat="31.9682616926729679107666015625" lon="118.8223952986299991607666015625">
        <ele>4.400000095367431640625</ele>
        <time>2023-10-20T12:10:00.000Z</time>
        <extensions>
          <ns3:TrackPointExtension/>
        </extensions>
      </trkpt>
      <trkpt lat="31.96823881007730960845947265625" lon="118.82238767109811305999755859375">
        <ele>4.400000095367431640625</ele>
        <time>2023-10-20T12:10:01.000Z</time>
        <extensions>
          <ns3:TrackPointExtension/>
        </extensions>
      </trkpt>
      <trkpt lat="31.9682177715003490447998046875" lon="118.82237241603434085845947265625">
        <ele>4.599999904632568359375</ele>
        <time>2023-10-20T12:10:02.000Z</time>
        <extensions>
          <ns3:TrackPointExtension>
            <ns3:hr>157</ns3:hr>
            <ns3:cad>89</ns3:cad>
          </ns3:TrackPointExtension>
        </extensions>
      </trkpt>
      <trkpt lat="31.96819488890469074249267578125" lon="118.82235716097056865692138671875">
        <ele>4.599999904632568359375</ele>
        <time>2023-10-20T12:10:03.000Z</time>
        <extensions>
          <ns3:TrackPointExtension/>
        </extensions>
      </trkpt>
      <trkpt lat="31.968172006309032440185546875" lon="118.82234953343868255615234375">
        <ele>4.80000019073486328125</ele>
        <time>2023-10-20T12:10:04.000Z</time>
        <extensions>
          <ns3:TrackPointExtension/>
        </extensions>
      </trkpt>
      <trkpt lat="31.9681510515511035919189453125" lon="118.8223342783749103546142578125">
        <ele>5</ele>
        <time>2023-10-20T12:10:05.000Z</time>
        <extensions>
          <ns3:TrackPointExtension/>
        </extensions>
      </trkpt>
      <trkpt lat="31.96812816895544528961181640625" lon="118.82232665084302425384521484375">
        <ele>5.400000095367431640625</ele>
        <time>2023-10-20T12:10:06.000Z</time>
        <extensions>
          <ns3:TrackPointExtension/>
        </extensions>
      </trkpt>
      <trkpt lat="31.9681052863597869873046875" lon="118.82232665084302425384521484375">
        <ele>5.400000095367431640625</ele>
        <time>2023-10-20T12:10:07.000Z</time>
        <extensions>
          <ns3:TrackPointExtension>
            <ns3:hr>158</ns3:hr>
            <ns3:cad>89</ns3:cad>
          </ns3:TrackPointExtension>
        </extensions>
      </trkpt>
      <trkpt lat="31.96808240376412868499755859375" lon="118.82232665084302425384521484375">
        <ele>5.599999904632568359375</ele>
        <time>2023-10-20T12:10:08.000Z</time>
        <extensions>
          <ns3:TrackPointExtension/>
        </extensions>
      </trkpt>
      <trkpt lat="31.9680595211684703826904296875" lon="118.82232665084302425384521484375">
        <ele>5.80000019073486328125</ele>
        <time>2023-10-20T12:10:09.000Z</time>
        <extensions>
          <ns3:TrackPointExtension/>
        </extensions>
      </trkpt>
      <trkpt lat="31.96803663857281208038330078125" lon="118.82232665084302425384521484375">
        <ele>6</ele>
        <time>2023-10-20T12:10:10.000Z</time>
        <extensions>
          <ns3:TrackPointExtension/>
        </extensions>
      </trkpt>
      <trkpt lat="31.968013755977153778076171875" lon="118.8223342783749103546142578125">
        <ele>6</ele>
        <time>2023-10-20T12:10:11.000Z</time>
        <extensions>
          <ns3:TrackPointExtension/>
        </extensions>
      </trkpt>
      <trkpt lat="31.96799271740019321441650390625" lon="118.8223342783749103546142578125">
        <ele>6.19999980926513671875</ele>
        <time>2023-10-20T12:10:12.000Z</time>
        <extensions>
          <ns3:TrackPointExtension>
            <ns3:hr>157</ns3:hr>
            <ns3:cad>90</ns3:cad>
          </ns3:TrackPointExtension>
        </extensions>
      </trkpt>
      <trkpt lat="31.967969834804534912109375" lon="118.82234190590679645538330078125">
        <ele>6.400000095367431640625</ele>
        <time>2023-10-20T12:10:13.000Z</time>
        <extensions>
          <ns3:TrackPointExtension/>
        </extensions>
      </trkpt>
      <trkpt lat="31.9679488800466060638427734375" lon="118.82234190590679645538330078125">
        <ele>6.400000095367431640625</ele>
        <time>2023-10-20T12:10:14.000Z</time>
        <extensions>
          <ns3:TrackPointExtension/>
        </extensions>
      </trkpt>
      <trkpt lat="31.967927925288677215576171875" lon="118.82234953343868255615234375">
        <ele>6.599999904632568359375</ele>
        <time>2023-10-20T12:10:15.000Z</time>
        <extensions>
          <ns3:TrackPointExtension/>
        </extensions>
      </trkpt>
      <trkpt lat="31.96790688671171665191650390625" lon="118.82235716097056865692138671875">
        <ele>6.599999904632568359375</ele>
        <time>2023-10-20T12:10:16.000Z</time>
        <extensions>
          <ns3:TrackPointExtension/>
        </extensions>
      </trkpt>
      <trkpt lat="31.967884004116058349609375" lon="118.82235716097056865692138671875">
        <ele>6.599999904632568359375</ele>
        <time>2023-10-20T12:10:17.000Z</time>
        <extensions>
          <ns3:TrackPointExtension>
            <ns3:hr>158</ns3:hr>
            <ns3:cad>89</ns3:cad>
          </ns3:TrackPointExtension>
        </extensions>
      </trkpt>
      <trkpt lat="31.9678630493581295013427734375" lon="118.8223647885024547576904296875">
        <ele>6.599999904632568359375</ele>
        <time>2023-10-20T12:10:18.000Z</time>
        <extensions>
          <ns3:TrackPointExtension/>
        </extensions>
      </trkpt>
      <trkpt lat="31.96784016676247119903564453125" lon="118.8223647885024547576904296875">
        <ele>6.599999904632568359375</ele>
        <time>2023-10-20T12:10:19.000Z</time>
        <extensions>
          <ns3:TrackPointExtension/>
        </extensions>
      </trkpt>
      <trkpt lat="31.967817284166812896728515625" lon="118.82237241603434085845947265625">
        <ele>6.599999904632568359375</ele>
        <time>2023-10-20T12:10:20.000Z</time>
        <extensions>
          <ns3:TrackPointExtension/>
        </extensions>
      </trkpt>
      <trkpt lat="31.96779440157115459442138671875" lon="118.82237241603434085845947265625">
        <ele>6.599999904632568359375</ele>
        <time>2023-10-20T12:10:21.000Z</time>
        <extensions>
          <ns3:TrackPointExtension/>
        </extensions>
      </trkpt>
      <trkpt lat="31.9677715189754962921142578125" lon="118.822380043566226959228515625">
        <ele>6.599999904632568359375</ele>
        <time>2023-10-20T12:10:22.000Z</time>
        <extensions>
          <ns3:TrackPointExtension>
            <ns3:hr>158</ns3:hr>
            <ns3:cad>87</ns3:cad>
          </ns3:TrackPointExtension>
        </extensions>
      </trkpt>
      <trkpt lat="31.96775048039853572845458984375" lon="118.822380043566226959228515625">
        <ele>6.599999904632568359375</ele>
        <time>2023-10-20T12:10:23.000Z</time>
        <extensions>
          <ns3:TrackPointExtension/>
        </extensions>
      </trkpt>
      <trkpt lat="31.9677275978028774261474609375" lon="118.822380043566226959228515625">
        <ele>6.599999904632568359375</ele>
        <time>2023-10-20T12:10:24.000Z</time>
        <extensions>
          <ns3:TrackPointExtension/>
        </extensions>
      </trkpt>
      <trkpt lat="31.96770471520721912384033203125" lon="118.82238767109811305999755859375">
        <ele>6.400000095367431640625</ele>
        <time>2023-10-20T12:10:25.000Z</time>
        <extensions>
          <ns3:TrackPointExtension/>
        </extensions>
      </trkpt>
      <trkpt lat="31.96767990477383136749267578125" lon="118.82238767109811305999755859375">
        <ele>6.599999904632568359375</ele>
        <time>2023-10-20T12:10:26.000Z</time>
        <extensions>
          <ns3:TrackPointExtension/>
        </extensions>
      </trkpt>
      <trkpt lat="31.967657022178173065185546875" lon="118.82238767109811305999755859375">
        <ele>6.599999904632568359375</ele>
        <time>2023-10-20T12:10:27.000Z</time>
        <extensions>
          <ns3:TrackPointExtension>
            <ns3:hr>158</ns3:hr>
            <ns3:cad>87</ns3:cad>
          </ns3:TrackPointExtension>
        </extensions>
      </trkpt>
      <trkpt lat="31.96763413958251476287841796875" lon="118.8223952986299991607666015625">
        <ele>6.599999904632568359375</ele>
        <time>2023-10-20T12:10:28.000Z</time>
        <extensions>
          <ns3:TrackPointExtension/>
        </extensions>
      </trkpt>
      <trkpt lat="31.9676112569868564605712890625" lon="118.8223952986299991607666015625">
        <ele>6.599999904632568359375</ele>
        <time>2023-10-20T12:10:29.000Z</time>
        <extensions>
          <ns3:TrackPointExtension/>
        </extensions>
      </trkpt>
      <trkpt lat="31.96758837439119815826416015625" lon="118.8223952986299991607666015625">
        <ele>6.599999904632568359375</ele>
        <time>2023-10-20T12:10:30.000Z</time>
        <extensions>
          <ns3:TrackPointExtension/>
        </extensions>
      </trkpt>
      <trkpt lat="31.96756356395781040191650390625" lon="118.8223952986299991607666015625">
        <ele>6.400000095367431640625</ele>
        <time>2023-10-20T12:10:31.000Z</time>
        <extensions>
          <ns3:TrackPointExtension/>
        </extensions>
      </trkpt>
      <trkpt lat="31.967540681362152099609375" lon="118.8223952986299991607666015625">
        <ele>6.400000095367431640625</ele>
        <time>2023-10-20T12:10:32.000Z</time>
        <extensions>
          <ns3:TrackPointExtension>
            <ns3:hr>158</ns3:hr>
            <ns3:cad>88</ns3:cad>
          </ns3:TrackPointExtension>
        </extensions>
      </trkpt>
      <trkpt lat="31.96751587092876434326171875" lon="118.8223952986299991607666015625">
        <ele>6.19999980926513671875</ele>
        <time>2023-10-20T12:10:33.000Z</time>
        <extensions>
          <ns3:TrackPointExtension/>
        </extensions>
      </trkpt>
      <trkpt lat="31.96749298833310604095458984375" lon="118.8223952986299991607666015625">
        <ele>6.19999980926513671875</ele>
        <time>2023-10-20T12:10:34.000Z</time>
        <extensions>
          <ns3:TrackPointExtension/>
        </extensions>
      </trkpt>
      <trkpt lat="31.96746826171875" lon="118.82238767109811305999755859375">
        <ele>6.19999980926513671875</ele>
        <time>2023-10-20T12:10:35.000Z</time>
        <extensions>
          <ns3:TrackPointExtension/>
        </extensions>
      </trkpt>
      <trkpt lat="31.9674452953040599822998046875" lon="118.82238767109811305999755859375">
        <ele>6</ele>
        <time>2023-10-20T12:10:36.000Z</time>
        <extensions>
          <ns3:TrackPointExtension/>
        </extensions>
      </trkpt>
      <trkpt lat="31.96742241270840167999267578125" lon="118.82238767109811305999755859375">
        <ele>6</ele>
        <time>2023-10-20T12:10:37.000Z</time>
        <extensions>
          <ns3:TrackPointExtension>
            <ns3:hr>159</ns3:hr>
            <ns3:cad>89</ns3:cad>
          </ns3:TrackPointExtension>
        </extensions>
      </trkpt>
      <trkpt lat="31.967399530112743377685546875" lon="118.82238767109811305999755859375">
        <ele>5.80000019073486328125</ele>
        <time>2023-10-20T12:10:38.000Z</time>
        <extensions>
          <ns3:TrackPointExtension/>
        </extensions>
      </trkpt>
      <trkpt lat="31.9673785753548145294189453125" lon="118.82238767109811305999755859375">
        <ele>5.599999904632568359375</ele>
        <time>2023-10-20T12:10:39.000Z</time>
        <extensions>
          <ns3:TrackPointExtension/>
        </extensions>
      </trkpt>
      <trkpt lat="31.96735569275915622711181640625" lon="118.822380043566226959228515625">
        <ele>5.599999904632568359375</ele>
        <time>2023-10-20T12:10:40.000Z</time>
        <extensions>
          <ns3:TrackPointExtension/>
        </extensions>
      </trkpt>
      <trkpt lat="31.96733473800122737884521484375" lon="118.822380043566226959228515625">
        <ele>5.400000095367431640625</ele>
        <time>2023-10-20T12:10:41.000Z</time>
        <extensions>
          <ns3:TrackPointExtension/>
        </extensions>
      </trkpt>
      <trkpt lat="31.967313699424266815185546875" lon="118.822380043566226959228515625">
        <ele>5.400000095367431640625</ele>
        <time>2023-10-20T12:10:42.000Z</time>
        <extensions>
          <ns3:TrackPointExtension>
            <ns3:hr>157</ns3:hr>
            <ns3:cad>88</ns3:cad>
          </ns3:TrackPointExtension>
        </extensions>
      </trkpt>
      <trkpt lat="31.9672927446663379669189453125" lon="118.822380043566226959228515625">
        <ele>5.19999980926513671875</ele>
        <time>2023-10-20T12:10:43.000Z</time>
        <extensions>
          <ns3:TrackPointExtension/>
        </extensions>
      </trkpt>
      <trkpt lat="31.9672736339271068572998046875" lon="118.822380043566226959228515625">
        <ele>5.19999980926513671875</ele>
        <time>2023-10-20T12:10:44.000Z</time>
        <extensions>
          <ns3:TrackPointExtension/>
        </extensions>
      </trkpt>
      <trkpt lat="31.967252679169178009033203125" lon="118.82237241603434085845947265625">
        <ele>5.19999980926513671875</ele>
        <time>2023-10-20T12:10:45.000Z</time>
        <extensions>
          <ns3:TrackPointExtension/>
        </extensions>
      </trkpt>
      <trkpt lat="31.96723365224897861480712890625" lon="118.82237241603434085845947265625">
        <ele>5.19999980926513671875</ele>
        <time>2023-10-20T12:10:46.000Z</time>
        <extensions>
          <ns3:TrackPointExtension/>
        </extensions>
      </trkpt>
      <trkpt lat="31.96721454150974750518798828125" lon="118.82237241603434085845947265625">
        <ele>5</ele>
        <time>2023-10-20T12:10:47.000Z</time>
        <extensions>
          <ns3:TrackPointExtension>
            <ns3:hr>157</ns3:hr>
            <ns3:cad>85</ns3:cad>
          </ns3:TrackPointExtension>
        </extensions>
      </trkpt>
      <trkpt lat="31.96719543077051639556884765625" lon="118.8223647885024547576904296875">
        <ele>5</ele>
        <time>2023-10-20T12:10:48.000Z</time>
        <extensions>
          <ns3:TrackPointExtension/>
        </extensions>
      </trkpt>
      <trkpt lat="31.9671764038503170013427734375" lon="118.8223647885024547576904296875">
        <ele>5</ele>
        <time>2023-10-20T12:10:49.000Z</time>
        <extensions>
          <ns3:TrackPointExtension/>
        </extensions>
      </trkpt>
      <trkpt lat="31.9671572931110858917236328125" lon="118.82235716097056865692138671875">
        <ele>5</ele>
        <time>2023-10-20T12:10:50.000Z</time>
        <extensions>
          <ns3:TrackPointExtension/>
        </extensions>
      </trkpt>
      <trkpt lat="31.9671401940286159515380859375" lon="118.82234953343868255615234375">
        <ele>5</ele>
        <time>2023-10-20T12:10:51.000Z</time>
        <extensions>
          <ns3:TrackPointExtension/>
        </extensions>
      </trkpt>
      <trkpt lat="31.9671210832893848419189453125" lon="118.82234190590679645538330078125">
        <ele>5</ele>
        <time>2023-10-20T12:10:52.000Z</time>
        <extensions>
          <ns3:TrackPointExtension>
            <ns3:hr>159</ns3:hr>
            <ns3:cad>85</ns3:cad>
          </ns3:TrackPointExtension>
        </extensions>
      </trkpt>
      <trkpt lat="31.96710390038788318634033203125" lon="118.8223342783749103546142578125">
        <ele>5</ele>
        <time>2023-10-20T12:10:53.000Z</time>
        <extensions>
          <ns3:TrackPointExtension/>
        </extensions>
      </trkpt>
      <trkpt lat="31.96708671748638153076171875" lon="118.8223342783749103546142578125">
        <ele>4.80000019073486328125</ele>
        <time>2023-10-20T12:10:54.000Z</time>
        <extensions>
          <ns3:TrackPointExtension/>
        </extensions>
      </trkpt>
      <trkpt lat="31.96706769056618213653564453125" lon="118.82232665084302425384521484375">
        <ele>4.80000019073486328125</ele>
        <time>2023-10-20T12:10:55.000Z</time>
        <extensions>
          <ns3:TrackPointExtension/>
        </extensions>
      </trkpt>
      <trkpt lat="31.96705243550240993499755859375" lon="118.82232665084302425384521484375">
        <ele>4.80000019073486328125</ele>
        <time>2023-10-20T12:10:56.000Z</time>
        <extensions>
          <ns3:TrackPointExtension/>
        </extensions>
      </trkpt>
      <trkpt lat="31.9670352526009082794189453125" lon="118.82232665084302425384521484375">
        <ele>4.80000019073486328125</ele>
        <time>2023-10-20T12:10:57.000Z</time>
        <extensions>
          <ns3:TrackPointExtension>
            <ns3:hr>159</ns3:hr>
            <ns3:cad>85</ns3:cad>
          </ns3:TrackPointExtension>
        </extensions>
      </trkpt>
      <trkpt lat="31.96701806969940662384033203125" lon="118.82232665084302425384521484375">
        <ele>4.80000019073486328125</ele>
        <time>2023-10-20T12:10:58.000Z</time>
        <extensions>
          <ns3:TrackPointExtension/>
        </extensions>
      </trkpt>
      <trkpt lat="31.96700088679790496826171875" lon="118.82232665084302425384521484375">
        <ele>4.80000019073486328125</ele>
        <time>2023-10-20T12:10:59.000Z</time>
        <extensions>
          <ns3:TrackPointExtension/>
        </extensions>
      </trkpt>
      <trkpt lat="31.9669856317341327667236328125" lon="118.8223342783749103546142578125">
        <ele>4.80000019073486328125</ele>
        <time>2023-10-20T12:11:00.000Z</time>
        <extensions>
          <ns3:TrackPointExtension/>
        </extensions>
      </trkpt>
      <trkpt lat="31.96697230450809001922607421875" lon="118.82234190590679645538330078125">
        <ele>4.80000019073486328125</ele>
        <time>2023-10-20T12:11:01.000Z</time>
        <extensions>
          <ns3:TrackPointExtension/>
        </extensions>
      </trkpt>
      <trkpt lat="31.966958977282047271728515625" lon="118.82234953343868255615234375">
        <ele>4.80000019073486328125</ele>
        <time>2023-10-20T12:11:02.000Z</time>
        <extensions>
          <ns3:TrackPointExtension>
            <ns3:hr>159</ns3:hr>
            <ns3:cad>84</ns3:cad>
          </ns3:TrackPointExtension>
        </extensions>
      </trkpt>
      <trkpt lat="31.96694749407470226287841796875" lon="118.82235716097056865692138671875">
        <ele>4.599999904632568359375</ele>
        <time>2023-10-20T12:11:03.000Z</time>
        <extensions>
          <ns3:TrackPointExtension/>
        </extensions>
      </trkpt>
      <trkpt lat="31.96694179438054561614990234375" lon="118.8223647885024547576904296875">
        <ele>4.599999904632568359375</ele>
        <time>2023-10-20T12:11:04.000Z</time>
        <extensions>
          <ns3:TrackPointExtension/>
        </extensions>
      </trkpt>
      <trkpt lat="31.96693793870508670806884765625" lon="118.82237241603434085845947265625">
        <ele>4.599999904632568359375</ele>
        <time>2023-10-20T12:11:05.000Z</time>
        <extensions>
          <ns3:TrackPointExtension/>
        </extensions>
      </trkpt>
      <trkpt lat="31.96693793870508670806884765625" lon="118.822380043566226959228515625">
        <ele>4.599999904632568359375</ele>
        <time>2023-10-20T12:11:06.000Z</time>
        <extensions>
          <ns3:TrackPointExtension/>
        </extensions>
      </trkpt>
      <trkpt lat="31.96694179438054561614990234375" lon="118.82238767109811305999755859375">
        <ele>4.400000095367431640625</ele>
        <time>2023-10-20T12:11:07.000Z</time>
        <extensions>
          <ns3:TrackPointExtension>
            <ns3:hr>159</ns3:hr>
            <ns3:cad>87</ns3:cad>
          </ns3:TrackPointExtension>
        </extensions>
      </trkpt>
      <trkpt lat="31.96695134975016117095947265625" lon="118.82238767109811305999755859375">
        <ele>4.400000095367431640625</ele>
        <time>2023-10-20T12:11:08.000Z</time>
        <extensions>
          <ns3:TrackPointExtension/>
        </extensions>
      </trkpt>
      <trkpt lat="31.96696274913847446441650390625" lon="118.82238767109811305999755859375">
        <ele>4.400000095367431640625</ele>
        <time>2023-10-20T12:11:09.000Z</time>
        <extensions>
          <ns3:TrackPointExtension/>
        </extensions>
      </trkpt>
      <trkpt lat="31.96697616018354892730712890625" lon="118.82238767109811305999755859375">
        <ele>4.400000095367431640625</ele>
        <time>2023-10-20T12:11:10.000Z</time>
        <extensions>
          <ns3:TrackPointExtension/>
        </extensions>
      </trkpt>
      <trkpt lat="31.966995187103748321533203125" lon="118.82238767109811305999755859375">
        <ele>4.400000095367431640625</ele>
        <time>2023-10-20T12:11:11.000Z</time>
        <extensions>
          <ns3:TrackPointExtension/>
        </extensions>
      </trkpt>
      <trkpt lat="31.9670161418616771697998046875" lon="118.82238767109811305999755859375">
        <ele>4.400000095367431640625</ele>
        <time>2023-10-20T12:11:12.000Z</time>
        <extensions>
          <ns3:TrackPointExtension>
            <ns3:hr>159</ns3:hr>
            <ns3:cad>89</ns3:cad>
          </ns3:TrackPointExtension>
        </extensions>
      </trkpt>
      <trkpt lat="31.9670391082763671875" lon="118.82238767109811305999755859375">
        <ele>4.400000095367431640625</ele>
        <time>2023-10-20T12:11:13.000Z</time>
        <extensions>
          <ns3:TrackPointExtension/>
        </extensions>
      </trkpt>
      <trkpt lat="31.96706383489072322845458984375" lon="118.82238767109811305999755859375">
        <ele>4.400000095367431640625</ele>
        <time>2023-10-20T12:11:14.000Z</time>
        <extensions>
          <ns3:TrackPointExtension/>
        </extensions>
      </trkpt>
      <trkpt lat="31.9670905731618404388427734375" lon="118.82238767109811305999755859375">
        <ele>4.599999904632568359375</ele>
        <time>2023-10-20T12:11:15.000Z</time>
        <extensions>
          <ns3:TrackPointExtension/>
        </extensions>
      </trkpt>
      <trkpt lat="31.9671153835952281951904296875" lon="118.822380043566226959228515625">
        <ele>4.599999904632568359375</ele>
        <time>2023-10-20T12:11:16.000Z</time>
        <extensions>
          <ns3:TrackPointExtension/>
        </extensions>
      </trkpt>
      <trkpt lat="31.967142038047313690185546875" lon="118.822380043566226959228515625">
        <ele>4.80000019073486328125</ele>
        <time>2023-10-20T12:11:17.000Z</time>
        <extensions>
          <ns3:TrackPointExtension>
            <ns3:hr>159</ns3:hr>
            <ns3:cad>90</ns3:cad>
          </ns3:TrackPointExtension>
        </extensions>
      </trkpt>
      <trkpt lat="31.967166848480701446533203125" lon="118.822380043566226959228515625">
        <ele>4.80000019073486328125</ele>
        <time>2023-10-20T12:11:18.000Z</time>
        <extensions>
          <ns3:TrackPointExtension/>
        </extensions>
      </trkpt>
      <trkpt lat="31.96719358675181865692138671875" lon="118.82237241603434085845947265625">
        <ele>5</ele>
        <time>2023-10-20T12:11:19.000Z</time>
        <extensions>
          <ns3:TrackPointExtension/>
        </extensions>
      </trkpt>
      <trkpt lat="31.96721839718520641326904296875" lon="118.82237241603434085845947265625">
        <ele>5</ele>
        <time>2023-10-20T12:11:20.000Z</time>
        <extensions>
          <ns3:TrackPointExtension/>
        </extensions>
      </trkpt>
      <trkpt lat="31.96724505163729190826416015625" lon="118.82237241603434085845947265625">
        <ele>5.19999980926513671875</ele>
        <time>2023-10-20T12:11:21.000Z</time>
        <extensions>
          <ns3:TrackPointExtension/>
        </extensions>
      </trkpt>
      <trkpt lat="31.96726986207067966461181640625" lon="118.82237241603434085845947265625">
        <ele>5.19999980926513671875</ele>
        <time>2023-10-20T12:11:22.000Z</time>
        <extensions>
          <ns3:TrackPointExtension>
            <ns3:hr>159</ns3:hr>
            <ns3:cad>89</ns3:cad>
          </ns3:TrackPointExtension>
        </extensions>
      </trkpt>
      <trkpt lat="31.967296600341796875" lon="118.8223647885024547576904296875">
        <ele>5.400000095367431640625</ele>
        <time>2023-10-20T12:11:23.000Z</time>
        <extensions>
          <ns3:TrackPointExtension/>
        </extensions>
      </trkpt>
      <trkpt lat="31.96732132695615291595458984375" lon="118.8223647885024547576904296875">
        <ele>5.599999904632568359375</ele>
        <time>2023-10-20T12:11:24.000Z</time>
        <extensions>
          <ns3:TrackPointExtension/>
        </extensions>
      </trkpt>
      <trkpt lat="31.96734613738954067230224609375" lon="118.8223647885024547576904296875">
        <ele>5.599999904632568359375</ele>
        <time>2023-10-20T12:11:25.000Z</time>
        <extensions>
          <ns3:TrackPointExtension/>
        </extensions>
      </trkpt>
      <trkpt lat="31.967369019985198974609375" lon="118.8223647885024547576904296875">
        <ele>5.80000019073486328125</ele>
        <time>2023-10-20T12:11:26.000Z</time>
        <extensions>
          <ns3:TrackPointExtension/>
        </extensions>
      </trkpt>
      <trkpt lat="31.96739383041858673095703125" lon="118.82235716097056865692138671875">
        <ele>6</ele>
        <time>2023-10-20T12:11:27.000Z</time>
        <extensions>
          <ns3:TrackPointExtension>
            <ns3:hr>159</ns3:hr>
            <ns3:cad>90</ns3:cad>
          </ns3:TrackPointExtension>
        </extensions>
      </trkpt>
      <trkpt lat="31.96741671301424503326416015625" lon="118.82235716097056865692138671875">
        <ele>6</ele>
        <time>2023-10-20T12:11:28.000Z</time>
        <extensions>
          <ns3:TrackPointExtension/>
        </extensions>
      </trkpt>
      <trkpt lat="31.96744152344763278961181640625" lon="118.82235716097056865692138671875">
        <ele>6.19999980926513671875</ele>
        <time>2023-10-20T12:11:29.000Z</time>
        <extensions>
          <ns3:TrackPointExtension/>
        </extensions>
      </trkpt>
      <trkpt lat="31.9674644060432910919189453125" lon="118.82235716097056865692138671875">
        <ele>6.19999980926513671875</ele>
        <time>2023-10-20T12:11:30.000Z</time>
        <extensions>
          <ns3:TrackPointExtension/>
        </extensions>
      </trkpt>
      <trkpt lat="31.96748728863894939422607421875" lon="118.82234953343868255615234375">
        <ele>6.400000095367431640625</ele>
        <time>2023-10-20T12:11:31.000Z</time>
        <extensions>
          <ns3:TrackPointExtension/>
        </extensions>
      </trkpt>
      <trkpt lat="31.967510171234607696533203125" lon="118.82234953343868255615234375">
        <ele>6.400000095367431640625</ele>
        <time>2023-10-20T12:11:32.000Z</time>
        <extensions>
          <ns3:TrackPointExtension>
            <ns3:hr>159</ns3:hr>
            <ns3:cad>90</ns3:cad>
          </ns3:TrackPointExtension>
        </extensions>
      </trkpt>
      <trkpt lat="31.96753305383026599884033203125" lon="118.82234953343868255615234375">
        <ele>6.599999904632568359375</ele>
        <time>2023-10-20T12:11:33.000Z</time>
        <extensions>
          <ns3:TrackPointExtension/>
        </extensions>
      </trkpt>
      <trkpt lat="31.9675559364259243011474609375" lon="118.82234953343868255615234375">
        <ele>6.599999904632568359375</ele>
        <time>2023-10-20T12:11:34.000Z</time>
        <extensions>
          <ns3:TrackPointExtension/>
        </extensions>
      </trkpt>
      <trkpt lat="31.96757697500288486480712890625" lon="118.82234953343868255615234375">
        <ele>6.599999904632568359375</ele>
        <time>2023-10-20T12:11:35.000Z</time>
        <extensions>
          <ns3:TrackPointExtension/>
        </extensions>
      </trkpt>
      <trkpt lat="31.9675998575985431671142578125" lon="118.82234190590679645538330078125">
        <ele>6.80000019073486328125</ele>
        <time>2023-10-20T12:11:36.000Z</time>
        <extensions>
          <ns3:TrackPointExtension/>
        </extensions>
      </trkpt>
      <trkpt lat="31.96762458421289920806884765625" lon="118.82234190590679645538330078125">
        <ele>6.80000019073486328125</ele>
        <time>2023-10-20T12:11:37.000Z</time>
        <extensions>
          <ns3:TrackPointExtension>
            <ns3:hr>159</ns3:hr>
            <ns3:cad>89</ns3:cad>
          </ns3:TrackPointExtension>
        </extensions>
      </trkpt>
      <trkpt lat="31.96764755062758922576904296875" lon="118.82234190590679645538330078125">
        <ele>6.80000019073486328125</ele>
        <time>2023-10-20T12:11:38.000Z</time>
        <extensions>
          <ns3:TrackPointExtension/>
        </extensions>
      </trkpt>
      <trkpt lat="31.96766850538551807403564453125" lon="118.82234190590679645538330078125">
        <ele>6.80000019073486328125</ele>
        <time>2023-10-20T12:11:39.000Z</time>
        <extensions>
          <ns3:TrackPointExtension/>
        </extensions>
      </trkpt>
      <trkpt lat="31.9676913879811763763427734375" lon="118.8223342783749103546142578125">
        <ele>6.80000019073486328125</ele>
        <time>2023-10-20T12:11:40.000Z</time>
        <extensions>
          <ns3:TrackPointExtension/>
        </extensions>
      </trkpt>
      <trkpt lat="31.96771427057683467864990234375" lon="118.8223342783749103546142578125">
        <ele>6.80000019073486328125</ele>
        <time>2023-10-20T12:11:41.000Z</time>
        <extensions>
          <ns3:TrackPointExtension/>
        </extensions>
      </trkpt>
      <trkpt lat="31.96773522533476352691650390625" lon="118.8223342783749103546142578125">
        <ele>6.80000019073486328125</ele>
        <time>2023-10-20T12:11:42.000Z</time>
        <extensions>
          <ns3:TrackPointExtension>
            <ns3:hr>158</ns3:hr>
            <ns3:cad>90</ns3:cad>
          </ns3:TrackPointExtension>
        </extensions>
      </trkpt>
      <trkpt lat="31.9677581079304218292236328125" lon="118.8223342783749103546142578125">
        <ele>6.80000019073486328125</ele>
        <time>2023-10-20T12:11:43.000Z</time>
        <extensions>
          <ns3:TrackPointExtension/>
        </extensions>
      </trkpt>
      <trkpt lat="31.96778099052608013153076171875" lon="118.8223342783749103546142578125">
        <ele>6.80000019073486328125</ele>
        <time>2023-10-20T12:11:44.000Z</time>
        <extensions>
          <ns3:TrackPointExtension/>
        </extensions>
      </trkpt>
      <trkpt lat="31.9678020291030406951904296875" lon="118.8223342783749103546142578125">
        <ele>6.80000019073486328125</ele>
        <time>2023-10-20T12:11:45.000Z</time>
        <extensions>
          <ns3:TrackPointExtension/>
        </extensions>
      </trkpt>
      <trkpt lat="31.96782298386096954345703125" lon="118.8223342783749103546142578125">
        <ele>6.80000019073486328125</ele>
        <time>2023-10-20T12:11:46.000Z</time>
        <extensions>
          <ns3:TrackPointExtension/>
        </extensions>
      </trkpt>
      <trkpt lat="31.9678439386188983917236328125" lon="118.8223342783749103546142578125">
        <ele>6.80000019073486328125</ele>
        <time>2023-10-20T12:11:47.000Z</time>
        <extensions>
          <ns3:TrackPointExtension>
            <ns3:hr>158</ns3:hr>
            <ns3:cad>90</ns3:cad>
          </ns3:TrackPointExtension>
        </extensions>
      </trkpt>
      <trkpt lat="31.9678630493581295013427734375" lon="118.8223342783749103546142578125">
        <ele>6.80000019073486328125</ele>
        <time>2023-10-20T12:11:48.000Z</time>
        <extensions>
          <ns3:TrackPointExtension/>
        </extensions>
      </trkpt>
      <trkpt lat="31.967884004116058349609375" lon="118.8223342783749103546142578125">
        <ele>6.80000019073486328125</ele>
        <time>2023-10-20T12:11:49.000Z</time>
        <extensions>
          <ns3:TrackPointExtension/>
        </extensions>
      </trkpt>
      <trkpt lat="31.96790504269301891326904296875" lon="118.8223342783749103546142578125">
        <ele>6.80000019073486328125</ele>
        <time>2023-10-20T12:11:50.000Z</time>
        <extensions>
          <ns3:TrackPointExtension/>
        </extensions>
      </trkpt>
      <trkpt lat="31.9679240696132183074951171875" lon="118.8223342783749103546142578125">
        <ele>6.80000019073486328125</ele>
        <time>2023-10-20T12:11:51.000Z</time>
        <extensions>
          <ns3:TrackPointExtension/>
        </extensions>
      </trkpt>
      <trkpt lat="31.96794502437114715576171875" lon="118.8223342783749103546142578125">
        <ele>6.599999904632568359375</ele>
        <time>2023-10-20T12:11:52.000Z</time>
        <extensions>
          <ns3:TrackPointExtension>
            <ns3:hr>158</ns3:hr>
            <ns3:cad>89</ns3:cad>
          </ns3:TrackPointExtension>
        </extensions>
      </trkpt>
      <trkpt lat="31.967964135110378265380859375" lon="118.8223342783749103546142578125">
        <ele>6.400000095367431640625</ele>
        <time>2023-10-20T12:11:53.000Z</time>
        <extensions>
          <ns3:TrackPointExtension/>
        </extensions>
      </trkpt>
      <trkpt lat="31.9679850898683071136474609375" lon="118.8223342783749103546142578125">
        <ele>6.19999980926513671875</ele>
        <time>2023-10-20T12:11:54.000Z</time>
        <extensions>
          <ns3:TrackPointExtension/>
        </extensions>
      </trkpt>
      <trkpt lat="31.96800612844526767730712890625" lon="118.8223342783749103546142578125">
        <ele>6.19999980926513671875</ele>
        <time>2023-10-20T12:11:55.000Z</time>
        <extensions>
          <ns3:TrackPointExtension/>
        </extensions>
      </trkpt>
      <trkpt lat="31.96802708320319652557373046875" lon="118.8223342783749103546142578125">
        <ele>6</ele>
        <time>2023-10-20T12:11:56.000Z</time>
        <extensions>
          <ns3:TrackPointExtension/>
        </extensions>
      </trkpt>
      <trkpt lat="31.968049965798854827880859375" lon="118.8223342783749103546142578125">
        <ele>5.80000019073486328125</ele>
        <time>2023-10-20T12:11:57.000Z</time>
        <extensions>
          <ns3:TrackPointExtension>
            <ns3:hr>147</ns3:hr>
            <ns3:cad>89</ns3:cad>
          </ns3:TrackPointExtension>
        </extensions>
      </trkpt>
      <trkpt lat="31.9680709205567836761474609375" lon="118.82234190590679645538330078125">
        <ele>5.599999904632568359375</ele>
        <time>2023-10-20T12:11:58.000Z</time>
        <extensions>
          <ns3:TrackPointExtension/>
        </extensions>
      </trkpt>
      <trkpt lat="31.96809380315244197845458984375" lon="118.82234190590679645538330078125">
        <ele>5.400000095367431640625</ele>
        <time>2023-10-20T12:11:59.000Z</time>
        <extensions>
          <ns3:TrackPointExtension/>
        </extensions>
      </trkpt>
      <trkpt lat="31.96811668574810028076171875" lon="118.82234190590679645538330078125">
        <ele>5.19999980926513671875</ele>
        <time>2023-10-20T12:12:00.000Z</time>
        <extensions>
          <ns3:TrackPointExtension/>
        </extensions>
      </trkpt>
      <trkpt lat="31.96813956834375858306884765625" lon="118.82234953343868255615234375">
        <ele>5</ele>
        <time>2023-10-20T12:12:01.000Z</time>
        <extensions>
          <ns3:TrackPointExtension/>
        </extensions>
      </trkpt>
      <trkpt lat="31.968160606920719146728515625" lon="118.82234953343868255615234375">
        <ele>5</ele>
        <time>2023-10-20T12:12:02.000Z</time>
        <extensions>
          <ns3:TrackPointExtension>
            <ns3:hr>147</ns3:hr>
            <ns3:cad>90</ns3:cad>
          </ns3:TrackPointExtension>
        </extensions>
      </trkpt>
      <trkpt lat="31.96818348951637744903564453125" lon="118.82234953343868255615234375">
        <ele>4.80000019073486328125</ele>
        <time>2023-10-20T12:12:03.000Z</time>
        <extensions>
          <ns3:TrackPointExtension/>
        </extensions>
      </trkpt>
      <trkpt lat="31.96820444427430629730224609375" lon="118.82235716097056865692138671875">
        <ele>4.599999904632568359375</ele>
        <time>2023-10-20T12:12:04.000Z</time>
        <extensions>
          <ns3:TrackPointExtension/>
        </extensions>
      </trkpt>
      <trkpt lat="31.96822539903223514556884765625" lon="118.82235716097056865692138671875">
        <ele>4.599999904632568359375</ele>
        <time>2023-10-20T12:12:05.000Z</time>
        <extensions>
          <ns3:TrackPointExtension/>
        </extensions>
      </trkpt>
      <trkpt lat="31.968246437609195709228515625" lon="118.82235716097056865692138671875">
        <ele>4.599999904632568359375</ele>
        <time>2023-10-20T12:12:06.000Z</time>
        <extensions>
          <ns3:TrackPointExtension/>
        </extensions>
      </trkpt>
      <trkpt lat="31.96826932020485401153564453125" lon="118.8223647885024547576904296875">
        <ele>4.599999904632568359375</ele>
        <time>2023-10-20T12:12:07.000Z</time>
        <extensions>
          <ns3:TrackPointExtension>
            <ns3:hr>142</ns3:hr>
            <ns3:cad>90</ns3:cad>
          </ns3:TrackPointExtension>
        </extensions>
      </trkpt>
      <trkpt lat="31.96828834712505340576171875" lon="118.8223647885024547576904296875">
        <ele>4.599999904632568359375</ele>
        <time>2023-10-20T12:12:08.000Z</time>
        <extensions>
          <ns3:TrackPointExtension/>
        </extensions>
      </trkpt>
      <trkpt lat="31.96830938570201396942138671875" lon="118.8223647885024547576904296875">
        <ele>4.599999904632568359375</ele>
        <time>2023-10-20T12:12:09.000Z</time>
        <extensions>
          <ns3:TrackPointExtension/>
        </extensions>
      </trkpt>
      <trkpt lat="31.96833034045994281768798828125" lon="118.82237241603434085845947265625">
        <ele>4.599999904632568359375</ele>
        <time>2023-10-20T12:12:10.000Z</time>
        <extensions>
          <ns3:TrackPointExtension/>
        </extensions>
      </trkpt>
      <trkpt lat="31.96834945119917392730712890625" lon="118.822380043566226959228515625">
        <ele>4.599999904632568359375</ele>
        <time>2023-10-20T12:12:11.000Z</time>
        <extensions>
          <ns3:TrackPointExtension/>
        </extensions>
      </trkpt>
      <trkpt lat="31.96837040595710277557373046875" lon="118.822380043566226959228515625">
        <ele>4.599999904632568359375</ele>
        <time>2023-10-20T12:12:12.000Z</time>
        <extensions>
          <ns3:TrackPointExtension>
            <ns3:hr>142</ns3:hr>
            <ns3:cad>90</ns3:cad>
          </ns3:TrackPointExtension>
        </extensions>
      </trkpt>
      <trkpt lat="31.9683894328773021697998046875" lon="118.82238767109811305999755859375">
        <ele>4.400000095367431640625</ele>
        <time>2023-10-20T12:12:13.000Z</time>
        <extensions>
          <ns3:TrackPointExtension/>
        </extensions>
      </trkpt>
      <trkpt lat="31.9684085436165332794189453125" lon="118.8223952986299991607666015625">
        <ele>4.400000095367431640625</ele>
        <time>2023-10-20T12:12:14.000Z</time>
        <extensions>
          <ns3:TrackPointExtension/>
        </extensions>
      </trkpt>
      <trkpt lat="31.9684276543557643890380859375" lon="118.8224105536937713623046875">
        <ele>4.19999980926513671875</ele>
        <time>2023-10-20T12:12:15.000Z</time>
        <extensions>
          <ns3:TrackPointExtension/>
        </extensions>
      </trkpt>
      <trkpt lat="31.96844668127596378326416015625" lon="118.82241818122565746307373046875">
        <ele>4.19999980926513671875</ele>
        <time>2023-10-20T12:12:16.000Z</time>
        <extensions>
          <ns3:TrackPointExtension/>
        </extensions>
      </trkpt>
      <trkpt lat="31.96846579201519489288330078125" lon="118.82243343628942966461181640625">
        <ele>4.19999980926513671875</ele>
        <time>2023-10-20T12:12:17.000Z</time>
        <extensions>
          <ns3:TrackPointExtension>
            <ns3:hr>143</ns3:hr>
            <ns3:cad>89</ns3:cad>
          </ns3:TrackPointExtension>
        </extensions>
      </trkpt>
      <trkpt lat="31.96848289109766483306884765625" lon="118.82244869135320186614990234375">
        <ele>4.19999980926513671875</ele>
        <time>2023-10-20T12:12:18.000Z</time>
        <extensions>
          <ns3:TrackPointExtension/>
        </extensions>
      </trkpt>
      <trkpt lat="31.96850200183689594268798828125" lon="118.82246394641697406768798828125">
        <ele>4.400000095367431640625</ele>
        <time>2023-10-20T12:12:19.000Z</time>
        <extensions>
          <ns3:TrackPointExtension/>
        </extensions>
      </trkpt>
      <trkpt lat="31.9685191847383975982666015625" lon="118.82247920148074626922607421875">
        <ele>4.400000095367431640625</ele>
        <time>2023-10-20T12:12:20.000Z</time>
        <extensions>
          <ns3:TrackPointExtension/>
        </extensions>
      </trkpt>
      <trkpt lat="31.96853636763989925384521484375" lon="118.82249445654451847076416015625">
        <ele>4.400000095367431640625</ele>
        <time>2023-10-20T12:12:21.000Z</time>
        <extensions>
          <ns3:TrackPointExtension/>
        </extensions>
      </trkpt>
      <trkpt lat="31.96855346672236919403076171875" lon="118.8225173391401767730712890625">
        <ele>4.400000095367431640625</ele>
        <time>2023-10-20T12:12:22.000Z</time>
        <extensions>
          <ns3:TrackPointExtension>
            <ns3:hr>142</ns3:hr>
            <ns3:cad>89</ns3:cad>
          </ns3:TrackPointExtension>
        </extensions>
      </trkpt>
      <trkpt lat="31.96857257746160030364990234375" lon="118.822532594203948974609375">
        <ele>4.599999904632568359375</ele>
        <time>2023-10-20T12:12:23.000Z</time>
        <extensions>
          <ns3:TrackPointExtension/>
        </extensions>
      </trkpt>
      <trkpt lat="31.96859168820083141326904296875" lon="118.8225478492677211761474609375">
        <ele>4.599999904632568359375</ele>
        <time>2023-10-20T12:12:24.000Z</time>
        <extensions>
          <ns3:TrackPointExtension/>
        </extensions>
      </trkpt>
      <trkpt lat="31.9686107151210308074951171875" lon="118.822563104331493377685546875">
        <ele>4.80000019073486328125</ele>
        <time>2023-10-20T12:12:25.000Z</time>
        <extensions>
          <ns3:TrackPointExtension/>
        </extensions>
      </trkpt>
      <trkpt lat="31.9686298258602619171142578125" lon="118.8225783593952655792236328125">
        <ele>4.80000019073486328125</ele>
        <time>2023-10-20T12:12:26.000Z</time>
        <extensions>
          <ns3:TrackPointExtension/>
        </extensions>
      </trkpt>
      <trkpt lat="31.968650780618190765380859375" lon="118.82259361445903778076171875">
        <ele>5</ele>
        <time>2023-10-20T12:12:27.000Z</time>
        <extensions>
          <ns3:TrackPointExtension>
            <ns3:hr>146</ns3:hr>
            <ns3:cad>90</ns3:cad>
          </ns3:TrackPointExtension>
        </extensions>
      </trkpt>
      <trkpt lat="31.9686717353761196136474609375" lon="118.8226088695228099822998046875">
        <ele>5.19999980926513671875</ele>
        <time>2023-10-20T12:12:28.000Z</time>
        <extensions>
          <ns3:TrackPointExtension/>
        </extensions>
      </trkpt>
      <trkpt lat="31.96869277395308017730712890625" lon="118.82261649705469608306884765625">
        <ele>5.19999980926513671875</ele>
        <time>2023-10-20T12:12:29.000Z</time>
        <extensions>
          <ns3:TrackPointExtension/>
        </extensions>
      </trkpt>
      <trkpt lat="31.96871372871100902557373046875" lon="118.8226318359375">
        <ele>5.400000095367431640625</ele>
        <time>2023-10-20T12:12:30.000Z</time>
        <extensions>
          <ns3:TrackPointExtension/>
        </extensions>
      </trkpt>
      <trkpt lat="31.9687327556312084197998046875" lon="118.8226470910012722015380859375">
        <ele>5.400000095367431640625</ele>
        <time>2023-10-20T12:12:31.000Z</time>
        <extensions>
          <ns3:TrackPointExtension/>
        </extensions>
      </trkpt>
      <trkpt lat="31.96875379420816898345947265625" lon="118.822662346065044403076171875">
        <ele>5.599999904632568359375</ele>
        <time>2023-10-20T12:12:32.000Z</time>
        <extensions>
          <ns3:TrackPointExtension>
            <ns3:hr>149</ns3:hr>
            <ns3:cad>90</ns3:cad>
          </ns3:TrackPointExtension>
        </extensions>
      </trkpt>
      <trkpt lat="31.968772821128368377685546875" lon="118.8226776011288166046142578125">
        <ele>5.400000095367431640625</ele>
        <time>2023-10-20T12:12:33.000Z</time>
        <extensions>
          <ns3:TrackPointExtension/>
        </extensions>
      </trkpt>
      <trkpt lat="31.9687919318675994873046875" lon="118.82269285619258880615234375">
        <ele>5.400000095367431640625</ele>
        <time>2023-10-20T12:12:34.000Z</time>
        <extensions>
          <ns3:TrackPointExtension/>
        </extensions>
      </trkpt>
      <trkpt lat="31.96880911476910114288330078125" lon="118.8227081112563610076904296875">
        <ele>5.400000095367431640625</ele>
        <time>2023-10-20T12:12:35.000Z</time>
        <extensions>
          <ns3:TrackPointExtension/>
        </extensions>
      </trkpt>
      <trkpt lat="31.96882621385157108306884765625" lon="118.82273099385201930999755859375">
        <ele>5.19999980926513671875</ele>
        <time>2023-10-20T12:12:36.000Z</time>
        <extensions>
          <ns3:TrackPointExtension/>
        </extensions>
      </trkpt>
      <trkpt lat="31.968841552734375" lon="118.82274624891579151153564453125">
        <ele>5.19999980926513671875</ele>
        <time>2023-10-20T12:12:37.000Z</time>
        <extensions>
          <ns3:TrackPointExtension>
            <ns3:hr>147</ns3:hr>
            <ns3:cad>90</ns3:cad>
          </ns3:TrackPointExtension>
        </extensions>
      </trkpt>
      <trkpt lat="31.9688568077981472015380859375" lon="118.8227691315114498138427734375">
        <ele>5.19999980926513671875</ele>
        <time>2023-10-20T12:12:38.000Z</time>
        <extensions>
          <ns3:TrackPointExtension/>
        </extensions>
      </trkpt>
      <trkpt lat="31.96887013502418994903564453125" lon="118.82279201410710811614990234375">
        <ele>5</ele>
        <time>2023-10-20T12:12:39.000Z</time>
        <extensions>
          <ns3:TrackPointExtension/>
        </extensions>
      </trkpt>
      <trkpt lat="31.96888153441250324249267578125" lon="118.82281489670276641845703125">
        <ele>4.80000019073486328125</ele>
        <time>2023-10-20T12:12:40.000Z</time>
        <extensions>
          <ns3:TrackPointExtension/>
        </extensions>
      </trkpt>
      <trkpt lat="31.9688930176198482513427734375" lon="118.82283777929842472076416015625">
        <ele>4.80000019073486328125</ele>
        <time>2023-10-20T12:12:41.000Z</time>
        <extensions>
          <ns3:TrackPointExtension/>
        </extensions>
      </trkpt>
      <trkpt lat="31.96890257298946380615234375" lon="118.8228606618940830230712890625">
        <ele>4.599999904632568359375</ele>
        <time>2023-10-20T12:12:42.000Z</time>
        <extensions>
          <ns3:TrackPointExtension>
            <ns3:hr>145</ns3:hr>
            <ns3:cad>90</ns3:cad>
          </ns3:TrackPointExtension>
        </extensions>
      </trkpt>
      <trkpt lat="31.96891204454004764556884765625" lon="118.82288354448974132537841796875">
        <ele>4.599999904632568359375</ele>
        <time>2023-10-20T12:12:43.000Z</time>
        <extensions>
          <ns3:TrackPointExtension/>
        </extensions>
      </trkpt>
      <trkpt lat="31.968919672071933746337890625" lon="118.822906427085399627685546875">
        <ele>4.599999904632568359375</ele>
        <time>2023-10-20T12:12:44.000Z</time>
        <extensions>
          <ns3:TrackPointExtension/>
        </extensions>
      </trkpt>
      <trkpt lat="31.9689273834228515625" lon="118.82292930968105792999267578125">
        <ele>4.400000095367431640625</ele>
        <time>2023-10-20T12:12:45.000Z</time>
        <extensions>
          <ns3:TrackPointExtension/>
        </extensions>
      </trkpt>
      <trkpt lat="31.96893501095473766326904296875" lon="118.82295981980860233306884765625">
        <ele>4.400000095367431640625</ele>
        <time>2023-10-20T12:12:46.000Z</time>
        <extensions>
          <ns3:TrackPointExtension/>
        </extensions>
      </trkpt>
      <trkpt lat="31.96893878281116485595703125" lon="118.82298278622329235076904296875">
        <ele>4.19999980926513671875</ele>
        <time>2023-10-20T12:12:47.000Z</time>
        <extensions>
          <ns3:TrackPointExtension>
            <ns3:hr>146</ns3:hr>
            <ns3:cad>90</ns3:cad>
          </ns3:TrackPointExtension>
        </extensions>
      </trkpt>
      <trkpt lat="31.9689426384866237640380859375" lon="118.823005668818950653076171875">
        <ele>4.19999980926513671875</ele>
        <time>2023-10-20T12:12:48.000Z</time>
        <extensions>
          <ns3:TrackPointExtension/>
        </extensions>
      </trkpt>
      <trkpt lat="31.96894641034305095672607421875" lon="118.82303617894649505615234375">
        <ele>4.19999980926513671875</ele>
        <time>2023-10-20T12:12:49.000Z</time>
        <extensions>
          <ns3:TrackPointExtension/>
        </extensions>
      </trkpt>
      <trkpt lat="31.96895026601850986480712890625" lon="118.82305906154215335845947265625">
        <ele>4</ele>
        <time>2023-10-20T12:12:50.000Z</time>
        <extensions>
          <ns3:TrackPointExtension/>
        </extensions>
      </trkpt>
      <trkpt lat="31.96895211003720760345458984375" lon="118.82308957166969776153564453125">
        <ele>4</ele>
        <time>2023-10-20T12:12:51.000Z</time>
        <extensions>
          <ns3:TrackPointExtension/>
        </extensions>
      </trkpt>
      <trkpt lat="31.96895211003720760345458984375" lon="118.8231124542653560638427734375">
        <ele>4</ele>
        <time>2023-10-20T12:12:52.000Z</time>
        <extensions>
          <ns3:TrackPointExtension>
            <ns3:hr>145</ns3:hr>
            <ns3:cad>89</ns3:cad>
          </ns3:TrackPointExtension>
        </extensions>
      </trkpt>
      <trkpt lat="31.96895211003720760345458984375" lon="118.8231429643929004669189453125">
        <ele>4</ele>
        <time>2023-10-20T12:12:53.000Z</time>
        <extensions>
          <ns3:TrackPointExtension/>
        </extensions>
      </trkpt>
      <trkpt lat="31.96895026601850986480712890625" lon="118.82316584698855876922607421875">
        <ele>4</ele>
        <time>2023-10-20T12:12:54.000Z</time>
        <extensions>
          <ns3:TrackPointExtension/>
        </extensions>
      </trkpt>
      <trkpt lat="31.9689483381807804107666015625" lon="118.82319635711610317230224609375">
        <ele>4.19999980926513671875</ele>
        <time>2023-10-20T12:12:55.000Z</time>
        <extensions>
          <ns3:TrackPointExtension/>
        </extensions>
      </trkpt>
      <trkpt lat="31.968944482505321502685546875" lon="118.823219239711761474609375">
        <ele>4.19999980926513671875</ele>
        <time>2023-10-20T12:12:56.000Z</time>
        <extensions>
          <ns3:TrackPointExtension/>
        </extensions>
      </trkpt>
      <trkpt lat="31.96894071064889430999755859375" lon="118.823249749839305877685546875">
        <ele>4.400000095367431640625</ele>
        <time>2023-10-20T12:12:57.000Z</time>
        <extensions>
          <ns3:TrackPointExtension>
            <ns3:hr>145</ns3:hr>
            <ns3:cad>89</ns3:cad>
          </ns3:TrackPointExtension>
        </extensions>
      </trkpt>
      <trkpt lat="31.96893501095473766326904296875" lon="118.82327263243496417999267578125">
        <ele>4.400000095367431640625</ele>
        <time>2023-10-20T12:12:58.000Z</time>
        <extensions>
          <ns3:TrackPointExtension/>
        </extensions>
      </trkpt>
      <trkpt lat="31.9689292274415493011474609375" lon="118.82330314256250858306884765625">
        <ele>4.599999904632568359375</ele>
        <time>2023-10-20T12:12:59.000Z</time>
        <extensions>
          <ns3:TrackPointExtension/>
        </extensions>
      </trkpt>
      <trkpt lat="31.9689235277473926544189453125" lon="118.82332610897719860076904296875">
        <ele>4.599999904632568359375</ele>
        <time>2023-10-20T12:13:00.000Z</time>
        <extensions>
          <ns3:TrackPointExtension/>
        </extensions>
      </trkpt>
      <trkpt lat="31.96891590021550655364990234375" lon="118.82335661910474300384521484375">
        <ele>5</ele>
        <time>2023-10-20T12:13:01.000Z</time>
        <extensions>
          <ns3:TrackPointExtension/>
        </extensions>
      </trkpt>
      <trkpt lat="31.968908272683620452880859375" lon="118.82337950170040130615234375">
        <ele>5.400000095367431640625</ele>
        <time>2023-10-20T12:13:02.000Z</time>
        <extensions>
          <ns3:TrackPointExtension>
            <ns3:hr>145</ns3:hr>
            <ns3:cad>89</ns3:cad>
          </ns3:TrackPointExtension>
        </extensions>
      </trkpt>
      <trkpt lat="31.96890064515173435211181640625" lon="118.82340238429605960845947265625">
        <ele>5.599999904632568359375</ele>
        <time>2023-10-20T12:13:03.000Z</time>
        <extensions>
          <ns3:TrackPointExtension/>
        </extensions>
      </trkpt>
      <trkpt lat="31.96889108978211879730224609375" lon="118.8234252668917179107666015625">
        <ele>6</ele>
        <time>2023-10-20T12:13:04.000Z</time>
        <extensions>
          <ns3:TrackPointExtension/>
        </extensions>
      </trkpt>
      <trkpt lat="31.968883462250232696533203125" lon="118.8234557770192623138427734375">
        <ele>6</ele>
        <time>2023-10-20T12:13:05.000Z</time>
        <extensions>
          <ns3:TrackPointExtension/>
        </extensions>
      </trkpt>
      <trkpt lat="31.96887583471834659576416015625" lon="118.82347865961492061614990234375">
        <ele>6</ele>
        <time>2023-10-20T12:13:06.000Z</time>
        <extensions>
          <ns3:TrackPointExtension/>
        </extensions>
      </trkpt>
      <trkpt lat="31.96886627934873104095458984375" lon="118.82350154221057891845703125">
        <ele>6.19999980926513671875</ele>
        <time>2023-10-20T12:13:07.000Z</time>
        <extensions>
          <ns3:TrackPointExtension>
            <ns3:hr>143</ns3:hr>
            <ns3:cad>90</ns3:cad>
          </ns3:TrackPointExtension>
        </extensions>
      </trkpt>
      <trkpt lat="31.968858651816844940185546875" lon="118.82352442480623722076416015625">
        <ele>6.19999980926513671875</ele>
        <time>2023-10-20T12:13:08.000Z</time>
        <extensions>
          <ns3:TrackPointExtension/>
        </extensions>
      </trkpt>
      <trkpt lat="31.96884918026626110076904296875" lon="118.8235473074018955230712890625">
        <ele>6.19999980926513671875</ele>
        <time>2023-10-20T12:13:09.000Z</time>
        <extensions>
          <ns3:TrackPointExtension/>
        </extensions>
      </trkpt>
      <trkpt lat="31.96883962489664554595947265625" lon="118.82357018999755382537841796875">
        <ele>6.19999980926513671875</ele>
        <time>2023-10-20T12:13:10.000Z</time>
        <extensions>
          <ns3:TrackPointExtension/>
        </extensions>
      </trkpt>
      <trkpt lat="31.9688319973647594451904296875" lon="118.823593072593212127685546875">
        <ele>6.400000095367431640625</ele>
        <time>2023-10-20T12:13:11.000Z</time>
        <extensions>
          <ns3:TrackPointExtension/>
        </extensions>
      </trkpt>
      <trkpt lat="31.96882051415741443634033203125" lon="118.82361595518887042999267578125">
        <ele>6.400000095367431640625</ele>
        <time>2023-10-20T12:13:12.000Z</time>
        <extensions>
          <ns3:TrackPointExtension>
            <ns3:hr>143</ns3:hr>
            <ns3:cad>90</ns3:cad>
          </ns3:TrackPointExtension>
        </extensions>
      </trkpt>
      <trkpt lat="31.96881095878779888153076171875" lon="118.8236388377845287322998046875">
        <ele>6.400000095367431640625</ele>
        <time>2023-10-20T12:13:13.000Z</time>
        <extensions>
          <ns3:TrackPointExtension/>
        </extensions>
      </trkpt>
      <trkpt lat="31.9688014872372150421142578125" lon="118.823654092848300933837890625">
        <ele>6.599999904632568359375</ele>
        <time>2023-10-20T12:13:14.000Z</time>
        <extensions>
          <ns3:TrackPointExtension/>
        </extensions>
      </trkpt>
      <trkpt lat="31.9687919318675994873046875" lon="118.8236770592629909515380859375">
        <ele>6.599999904632568359375</ele>
        <time>2023-10-20T12:13:15.000Z</time>
        <extensions>
          <ns3:TrackPointExtension/>
        </extensions>
      </trkpt>
      <trkpt lat="31.96878044866025447845458984375" lon="118.82369994185864925384521484375">
        <ele>6.80000019073486328125</ele>
        <time>2023-10-20T12:13:16.000Z</time>
        <extensions>
          <ns3:TrackPointExtension/>
        </extensions>
      </trkpt>
      <trkpt lat="31.96876904927194118499755859375" lon="118.82372282445430755615234375">
        <ele>6.80000019073486328125</ele>
        <time>2023-10-20T12:13:17.000Z</time>
        <extensions>
          <ns3:TrackPointExtension>
            <ns3:hr>141</ns3:hr>
            <ns3:cad>89</ns3:cad>
          </ns3:TrackPointExtension>
        </extensions>
      </trkpt>
      <trkpt lat="31.96874993853271007537841796875" lon="118.82373045198619365692138671875">
        <ele>6.80000019073486328125</ele>
        <time>2023-10-20T12:13:18.000Z</time>
        <extensions>
          <ns3:TrackPointExtension/>
        </extensions>
      </trkpt>
      <trkpt lat="31.96874423883855342864990234375" lon="118.823753334581851959228515625">
        <ele>6.80000019073486328125</ele>
        <time>2023-10-20T12:13:19.000Z</time>
        <extensions>
          <ns3:TrackPointExtension/>
        </extensions>
      </trkpt>
      <trkpt lat="31.9687327556312084197998046875" lon="118.82377621717751026153564453125">
        <ele>6.80000019073486328125</ele>
        <time>2023-10-20T12:13:20.000Z</time>
        <extensions>
          <ns3:TrackPointExtension/>
        </extensions>
      </trkpt>
      <trkpt lat="31.96872328408062458038330078125" lon="118.82379147224128246307373046875">
        <ele>6.80000019073486328125</ele>
        <time>2023-10-20T12:13:21.000Z</time>
        <extensions>
          <ns3:TrackPointExtension/>
        </extensions>
      </trkpt>
    </trkseg>
  </trk>
</gpx>
