<gpx xmlns:ns3="http://www.garmin.com/xmlschemas/TrackPointExtension/v1" xmlns="http://www.topografix.com/GPX/1/1" xmlns:xsi="http://www.w3.org/2001/XMLSchema-instance" xmlns:ns2="http://www.garmin.com/xmlschemas/GpxExtensions/v3" creator="Garmin Connect" version="1.1" xsi:schemaLocation="http://www.topografix.com/GPX/1/1 http://www.topografix.com/GPX/11.xsd">
  <extensions>
<distance>6100.0</distance>
<average_hr>163.0</average_hr>
<average_speed>2.3425499231950844</average_speed>
<start_time>2021-01-11T03:36:53+00:00</start_time>
<end_time>2021-01-11T04:20:17+00:00</end_time>
<moving_time>2604.0</moving_time>
<elapsed_time>2611.0</elapsed_time>
</extensions>
<metadata>
    <link href="connect.garmin.com">
      <text>Garmin Connect</text>
    </link>
    <time>2021-01-11T03:36:53.000Z</time>
  </metadata>
  <trk>
    <name>室内跑步</name>
    <type>indoor_running</type>
    <trkseg/>
  </trk>
</gpx>
