<gpx xmlns:ns3="http://www.garmin.com/xmlschemas/TrackPointExtension/v1" xmlns="http://www.topografix.com/GPX/1/1" xmlns:xsi="http://www.w3.org/2001/XMLSchema-instance" xmlns:ns2="http://www.garmin.com/xmlschemas/GpxExtensions/v3" creator="Garmin Connect" version="1.1" xsi:schemaLocation="http://www.topografix.com/GPX/1/1 http://www.topografix.com/GPX/11.xsd">
  <extensions>
<distance>210.0</distance>
<average_hr>102.0</average_hr>
<average_speed>1.044776119402985</average_speed>
<start_time>2023-04-15T02:02:12+00:00</start_time>
<end_time>2023-04-15T02:05:33+00:00</end_time>
<moving_time>188.0</moving_time>
<elapsed_time>205.0</elapsed_time>
</extensions>
<metadata>
    <link href="connect.garmin.com">
      <text>Garmin Connect</text>
    </link>
    <time>2023-04-15T02:02:12.000Z</time>
  </metadata>
  <trk>
    <name>南京市 徒步</name>
    <type>hiking</type>
    <trkseg>
      <trkpt lat="31.98335833847522735595703125" lon="118.922912590205669403076171875">
        <ele>57.59999847412109375</ele>
        <time>2023-04-15T02:02:17.000Z</time>
        <extensions>
          <ns3:TrackPointExtension/>
        </extensions>
      </trkpt>
      <trkpt lat="31.98336982168257236480712890625" lon="118.92290496267378330230712890625">
        <ele>57.59999847412109375</ele>
        <time>2023-04-15T02:02:18.000Z</time>
        <extensions>
          <ns3:TrackPointExtension/>
        </extensions>
      </trkpt>
      <trkpt lat="31.9833831489086151123046875" lon="118.92290496267378330230712890625">
        <ele>57.59999847412109375</ele>
        <time>2023-04-15T02:02:19.000Z</time>
        <extensions>
          <ns3:TrackPointExtension/>
        </extensions>
      </trkpt>
      <trkpt lat="31.983388848602771759033203125" lon="118.9228973351418972015380859375">
        <ele>57.799999237060546875</ele>
        <time>2023-04-15T02:02:20.000Z</time>
        <extensions>
          <ns3:TrackPointExtension/>
        </extensions>
      </trkpt>
      <trkpt lat="31.98339454829692840576171875" lon="118.9228973351418972015380859375">
        <ele>57.799999237060546875</ele>
        <time>2023-04-15T02:02:21.000Z</time>
        <extensions>
          <ns3:TrackPointExtension/>
        </extensions>
      </trkpt>
      <trkpt lat="31.98339647613465785980224609375" lon="118.922882080078125">
        <ele>57.799999237060546875</ele>
        <time>2023-04-15T02:02:22.000Z</time>
        <extensions>
          <ns3:TrackPointExtension>
            <ns3:hr>89</ns3:hr>
          </ns3:TrackPointExtension>
        </extensions>
      </trkpt>
      <trkpt lat="31.98340217582881450653076171875" lon="118.922874368727207183837890625">
        <ele>57.799999237060546875</ele>
        <time>2023-04-15T02:02:23.000Z</time>
        <extensions>
          <ns3:TrackPointExtension/>
        </extensions>
      </trkpt>
      <trkpt lat="31.98340795934200286865234375" lon="118.92286674119532108306884765625">
        <ele>57.799999237060546875</ele>
        <time>2023-04-15T02:02:24.000Z</time>
        <extensions>
          <ns3:TrackPointExtension/>
        </extensions>
      </trkpt>
      <trkpt lat="31.98341173119843006134033203125" lon="118.92286674119532108306884765625">
        <ele>58</ele>
        <time>2023-04-15T02:02:25.000Z</time>
        <extensions>
          <ns3:TrackPointExtension/>
        </extensions>
      </trkpt>
      <trkpt lat="31.98341743089258670806884765625" lon="118.9228591136634349822998046875">
        <ele>58</ele>
        <time>2023-04-15T02:02:26.000Z</time>
        <extensions>
          <ns3:TrackPointExtension/>
        </extensions>
      </trkpt>
      <trkpt lat="31.98342128656804561614990234375" lon="118.92285148613154888153076171875">
        <ele>58</ele>
        <time>2023-04-15T02:02:27.000Z</time>
        <extensions>
          <ns3:TrackPointExtension>
            <ns3:hr>94</ns3:hr>
          </ns3:TrackPointExtension>
        </extensions>
      </trkpt>
      <trkpt lat="31.9834289140999317169189453125" lon="118.92284385859966278076171875">
        <ele>58</ele>
        <time>2023-04-15T02:02:28.000Z</time>
        <extensions>
          <ns3:TrackPointExtension/>
        </extensions>
      </trkpt>
      <trkpt lat="31.9834346137940883636474609375" lon="118.92283623106777667999267578125">
        <ele>58</ele>
        <time>2023-04-15T02:02:29.000Z</time>
        <extensions>
          <ns3:TrackPointExtension/>
        </extensions>
      </trkpt>
      <trkpt lat="31.98344039730727672576904296875" lon="118.9228286035358905792236328125">
        <ele>58.200000762939453125</ele>
        <time>2023-04-15T02:02:30.000Z</time>
        <extensions>
          <ns3:TrackPointExtension/>
        </extensions>
      </trkpt>
      <trkpt lat="31.98344609700143337249755859375" lon="118.922813348472118377685546875">
        <ele>58.200000762939453125</ele>
        <time>2023-04-15T02:02:31.000Z</time>
        <extensions>
          <ns3:TrackPointExtension/>
        </extensions>
      </trkpt>
      <trkpt lat="31.98345179669559001922607421875" lon="118.92280572094023227691650390625">
        <ele>58.200000762939453125</ele>
        <time>2023-04-15T02:02:32.000Z</time>
        <extensions>
          <ns3:TrackPointExtension>
            <ns3:hr>98</ns3:hr>
          </ns3:TrackPointExtension>
        </extensions>
      </trkpt>
      <trkpt lat="31.98345749638974666595458984375" lon="118.9227980934083461761474609375">
        <ele>58.40000152587890625</ele>
        <time>2023-04-15T02:02:33.000Z</time>
        <extensions>
          <ns3:TrackPointExtension/>
        </extensions>
      </trkpt>
      <trkpt lat="31.983463279902935028076171875" lon="118.92279046587646007537841796875">
        <ele>58.40000152587890625</ele>
        <time>2023-04-15T02:02:34.000Z</time>
        <extensions>
          <ns3:TrackPointExtension/>
        </extensions>
      </trkpt>
      <trkpt lat="31.98346705175936222076416015625" lon="118.922782838344573974609375">
        <ele>58.40000152587890625</ele>
        <time>2023-04-15T02:02:35.000Z</time>
        <extensions>
          <ns3:TrackPointExtension/>
        </extensions>
      </trkpt>
      <trkpt lat="31.98347275145351886749267578125" lon="118.92277521081268787384033203125">
        <ele>58.40000152587890625</ele>
        <time>2023-04-15T02:02:36.000Z</time>
        <extensions>
          <ns3:TrackPointExtension/>
        </extensions>
      </trkpt>
      <trkpt lat="31.983474679291248321533203125" lon="118.92275995574891567230224609375">
        <ele>58.40000152587890625</ele>
        <time>2023-04-15T02:02:37.000Z</time>
        <extensions>
          <ns3:TrackPointExtension>
            <ns3:hr>98</ns3:hr>
          </ns3:TrackPointExtension>
        </extensions>
      </trkpt>
      <trkpt lat="31.98347660712897777557373046875" lon="118.922752328217029571533203125">
        <ele>58.59999847412109375</ele>
        <time>2023-04-15T02:02:38.000Z</time>
        <extensions>
          <ns3:TrackPointExtension/>
        </extensions>
      </trkpt>
      <trkpt lat="31.98347660712897777557373046875" lon="118.92274470068514347076416015625">
        <ele>58.59999847412109375</ele>
        <time>2023-04-15T02:02:39.000Z</time>
        <extensions>
          <ns3:TrackPointExtension/>
        </extensions>
      </trkpt>
      <trkpt lat="31.98347660712897777557373046875" lon="118.9227370731532573699951171875">
        <ele>58.59999847412109375</ele>
        <time>2023-04-15T02:02:40.000Z</time>
        <extensions>
          <ns3:TrackPointExtension/>
        </extensions>
      </trkpt>
      <trkpt lat="31.98347660712897777557373046875" lon="118.92272944562137126922607421875">
        <ele>58.59999847412109375</ele>
        <time>2023-04-15T02:02:41.000Z</time>
        <extensions>
          <ns3:TrackPointExtension/>
        </extensions>
      </trkpt>
      <trkpt lat="31.98347660712897777557373046875" lon="118.92272181808948516845703125">
        <ele>58.59999847412109375</ele>
        <time>2023-04-15T02:02:42.000Z</time>
        <extensions>
          <ns3:TrackPointExtension>
            <ns3:hr>99</ns3:hr>
          </ns3:TrackPointExtension>
        </extensions>
      </trkpt>
      <trkpt lat="31.983474679291248321533203125" lon="118.92271419055759906768798828125">
        <ele>58.59999847412109375</ele>
        <time>2023-04-15T02:02:43.000Z</time>
        <extensions>
          <ns3:TrackPointExtension/>
        </extensions>
      </trkpt>
      <trkpt lat="31.98347090743482112884521484375" lon="118.9227065630257129669189453125">
        <ele>58.59999847412109375</ele>
        <time>2023-04-15T02:02:44.000Z</time>
        <extensions>
          <ns3:TrackPointExtension/>
        </extensions>
      </trkpt>
      <trkpt lat="31.9834689795970916748046875" lon="118.92269893549382686614990234375">
        <ele>58.799999237060546875</ele>
        <time>2023-04-15T02:02:45.000Z</time>
        <extensions>
          <ns3:TrackPointExtension/>
        </extensions>
      </trkpt>
      <trkpt lat="31.98346705175936222076416015625" lon="118.92269893549382686614990234375">
        <ele>58.799999237060546875</ele>
        <time>2023-04-15T02:02:46.000Z</time>
        <extensions>
          <ns3:TrackPointExtension/>
        </extensions>
      </trkpt>
      <trkpt lat="31.9834651239216327667236328125" lon="118.922691307961940765380859375">
        <ele>58.799999237060546875</ele>
        <time>2023-04-15T02:02:47.000Z</time>
        <extensions>
          <ns3:TrackPointExtension>
            <ns3:hr>99</ns3:hr>
          </ns3:TrackPointExtension>
        </extensions>
      </trkpt>
      <trkpt lat="31.98346135206520557403564453125" lon="118.92268368043005466461181640625">
        <ele>58.799999237060546875</ele>
        <time>2023-04-15T02:02:48.000Z</time>
        <extensions>
          <ns3:TrackPointExtension/>
        </extensions>
      </trkpt>
      <trkpt lat="31.9834594242274761199951171875" lon="118.9226760528981685638427734375">
        <ele>58.799999237060546875</ele>
        <time>2023-04-15T02:02:49.000Z</time>
        <extensions>
          <ns3:TrackPointExtension/>
        </extensions>
      </trkpt>
      <trkpt lat="31.9834594242274761199951171875" lon="118.9226760528981685638427734375">
        <ele>58.799999237060546875</ele>
        <time>2023-04-15T02:02:50.000Z</time>
        <extensions>
          <ns3:TrackPointExtension/>
        </extensions>
      </trkpt>
      <trkpt lat="31.98345565237104892730712890625" lon="118.92266842536628246307373046875">
        <ele>58.799999237060546875</ele>
        <time>2023-04-15T02:02:51.000Z</time>
        <extensions>
          <ns3:TrackPointExtension/>
        </extensions>
      </trkpt>
      <trkpt lat="31.9834537245333194732666015625" lon="118.9226607978343963623046875">
        <ele>58.799999237060546875</ele>
        <time>2023-04-15T02:02:52.000Z</time>
        <extensions>
          <ns3:TrackPointExtension>
            <ns3:hr>97</ns3:hr>
          </ns3:TrackPointExtension>
        </extensions>
      </trkpt>
      <trkpt lat="31.983449868857860565185546875" lon="118.9226607978343963623046875">
        <ele>58.799999237060546875</ele>
        <time>2023-04-15T02:02:53.000Z</time>
        <extensions>
          <ns3:TrackPointExtension/>
        </extensions>
      </trkpt>
      <trkpt lat="31.98344609700143337249755859375" lon="118.92265317030251026153564453125">
        <ele>58.799999237060546875</ele>
        <time>2023-04-15T02:02:54.000Z</time>
        <extensions>
          <ns3:TrackPointExtension/>
        </extensions>
      </trkpt>
      <trkpt lat="31.98344416916370391845703125" lon="118.92265317030251026153564453125">
        <ele>58.799999237060546875</ele>
        <time>2023-04-15T02:02:55.000Z</time>
        <extensions>
          <ns3:TrackPointExtension/>
        </extensions>
      </trkpt>
      <trkpt lat="31.983438469469547271728515625" lon="118.92265317030251026153564453125">
        <ele>58.799999237060546875</ele>
        <time>2023-04-15T02:02:56.000Z</time>
        <extensions>
          <ns3:TrackPointExtension/>
        </extensions>
      </trkpt>
      <trkpt lat="31.9834346137940883636474609375" lon="118.9226455427706241607666015625">
        <ele>58.799999237060546875</ele>
        <time>2023-04-15T02:02:57.000Z</time>
        <extensions>
          <ns3:TrackPointExtension>
            <ns3:hr>97</ns3:hr>
          </ns3:TrackPointExtension>
        </extensions>
      </trkpt>
      <trkpt lat="31.9834289140999317169189453125" lon="118.9226455427706241607666015625">
        <ele>58.799999237060546875</ele>
        <time>2023-04-15T02:02:58.000Z</time>
        <extensions>
          <ns3:TrackPointExtension/>
        </extensions>
      </trkpt>
      <trkpt lat="31.983425058424472808837890625" lon="118.9226455427706241607666015625">
        <ele>58.799999237060546875</ele>
        <time>2023-04-15T02:02:59.000Z</time>
        <extensions>
          <ns3:TrackPointExtension/>
        </extensions>
      </trkpt>
      <trkpt lat="31.98341743089258670806884765625" lon="118.92263791523873805999755859375">
        <ele>58.799999237060546875</ele>
        <time>2023-04-15T02:03:00.000Z</time>
        <extensions>
          <ns3:TrackPointExtension/>
        </extensions>
      </trkpt>
      <trkpt lat="31.983413659036159515380859375" lon="118.92263791523873805999755859375">
        <ele>58.799999237060546875</ele>
        <time>2023-04-15T02:03:01.000Z</time>
        <extensions>
          <ns3:TrackPointExtension/>
        </extensions>
      </trkpt>
      <trkpt lat="31.9834098033607006072998046875" lon="118.92263791523873805999755859375">
        <ele>58.799999237060546875</ele>
        <time>2023-04-15T02:03:02.000Z</time>
        <extensions>
          <ns3:TrackPointExtension>
            <ns3:hr>96</ns3:hr>
          </ns3:TrackPointExtension>
        </extensions>
      </trkpt>
      <trkpt lat="31.98340603150427341461181640625" lon="118.922630287706851959228515625">
        <ele>58.799999237060546875</ele>
        <time>2023-04-15T02:03:03.000Z</time>
        <extensions>
          <ns3:TrackPointExtension/>
        </extensions>
      </trkpt>
      <trkpt lat="31.98340217582881450653076171875" lon="118.922630287706851959228515625">
        <ele>58.799999237060546875</ele>
        <time>2023-04-15T02:03:04.000Z</time>
        <extensions>
          <ns3:TrackPointExtension/>
        </extensions>
      </trkpt>
      <trkpt lat="31.98339647613465785980224609375" lon="118.922630287706851959228515625">
        <ele>58.59999847412109375</ele>
        <time>2023-04-15T02:03:05.000Z</time>
        <extensions>
          <ns3:TrackPointExtension/>
        </extensions>
      </trkpt>
      <trkpt lat="31.9833927042782306671142578125" lon="118.92262266017496585845947265625">
        <ele>58.799999237060546875</ele>
        <time>2023-04-15T02:03:06.000Z</time>
        <extensions>
          <ns3:TrackPointExtension/>
        </extensions>
      </trkpt>
      <trkpt lat="31.983388848602771759033203125" lon="118.92262266017496585845947265625">
        <ele>58.59999847412109375</ele>
        <time>2023-04-15T02:03:07.000Z</time>
        <extensions>
          <ns3:TrackPointExtension>
            <ns3:hr>100</ns3:hr>
          </ns3:TrackPointExtension>
        </extensions>
      </trkpt>
      <trkpt lat="31.98338507674634456634521484375" lon="118.92262266017496585845947265625">
        <ele>58.59999847412109375</ele>
        <time>2023-04-15T02:03:08.000Z</time>
        <extensions>
          <ns3:TrackPointExtension/>
        </extensions>
      </trkpt>
      <trkpt lat="31.98338122107088565826416015625" lon="118.9226150326430797576904296875">
        <ele>58.799999237060546875</ele>
        <time>2023-04-15T02:03:09.000Z</time>
        <extensions>
          <ns3:TrackPointExtension/>
        </extensions>
      </trkpt>
      <trkpt lat="31.983377449214458465576171875" lon="118.9226150326430797576904296875">
        <ele>58.59999847412109375</ele>
        <time>2023-04-15T02:03:10.000Z</time>
        <extensions>
          <ns3:TrackPointExtension/>
        </extensions>
      </trkpt>
      <trkpt lat="31.98337166570127010345458984375" lon="118.92260740511119365692138671875">
        <ele>58.799999237060546875</ele>
        <time>2023-04-15T02:03:11.000Z</time>
        <extensions>
          <ns3:TrackPointExtension/>
        </extensions>
      </trkpt>
      <trkpt lat="31.98336596600711345672607421875" lon="118.92260740511119365692138671875">
        <ele>58.799999237060546875</ele>
        <time>2023-04-15T02:03:12.000Z</time>
        <extensions>
          <ns3:TrackPointExtension>
            <ns3:hr>101</ns3:hr>
          </ns3:TrackPointExtension>
        </extensions>
      </trkpt>
      <trkpt lat="31.98336026631295680999755859375" lon="118.92259977757930755615234375">
        <ele>58.799999237060546875</ele>
        <time>2023-04-15T02:03:13.000Z</time>
        <extensions>
          <ns3:TrackPointExtension/>
        </extensions>
      </trkpt>
      <trkpt lat="31.983352638781070709228515625" lon="118.92259977757930755615234375">
        <ele>58.799999237060546875</ele>
        <time>2023-04-15T02:03:14.000Z</time>
        <extensions>
          <ns3:TrackPointExtension/>
        </extensions>
      </trkpt>
      <trkpt lat="31.9833469390869140625" lon="118.92259215004742145538330078125">
        <ele>58.799999237060546875</ele>
        <time>2023-04-15T02:03:15.000Z</time>
        <extensions>
          <ns3:TrackPointExtension/>
        </extensions>
      </trkpt>
      <trkpt lat="31.98334115557372570037841796875" lon="118.9225845225155353546142578125">
        <ele>58.799999237060546875</ele>
        <time>2023-04-15T02:03:16.000Z</time>
        <extensions>
          <ns3:TrackPointExtension/>
        </extensions>
      </trkpt>
      <trkpt lat="31.98333545587956905364990234375" lon="118.92257689498364925384521484375">
        <ele>58.799999237060546875</ele>
        <time>2023-04-15T02:03:17.000Z</time>
        <extensions>
          <ns3:TrackPointExtension>
            <ns3:hr>100</ns3:hr>
          </ns3:TrackPointExtension>
        </extensions>
      </trkpt>
      <trkpt lat="31.98332975618541240692138671875" lon="118.922569267451763153076171875">
        <ele>58.799999237060546875</ele>
        <time>2023-04-15T02:03:18.000Z</time>
        <extensions>
          <ns3:TrackPointExtension/>
        </extensions>
      </trkpt>
      <trkpt lat="31.9833239726722240447998046875" lon="118.92256163991987705230712890625">
        <ele>58.799999237060546875</ele>
        <time>2023-04-15T02:03:19.000Z</time>
        <extensions>
          <ns3:TrackPointExtension/>
        </extensions>
      </trkpt>
      <trkpt lat="31.9833182729780673980712890625" lon="118.9225540123879909515380859375">
        <ele>59</ele>
        <time>2023-04-15T02:03:20.000Z</time>
        <extensions>
          <ns3:TrackPointExtension/>
        </extensions>
      </trkpt>
      <trkpt lat="31.9833125732839107513427734375" lon="118.92254638485610485076904296875">
        <ele>59</ele>
        <time>2023-04-15T02:03:21.000Z</time>
        <extensions>
          <ns3:TrackPointExtension/>
        </extensions>
      </trkpt>
      <trkpt lat="31.98330871760845184326171875" lon="118.92253875732421875">
        <ele>59</ele>
        <time>2023-04-15T02:03:22.000Z</time>
        <extensions>
          <ns3:TrackPointExtension>
            <ns3:hr>100</ns3:hr>
          </ns3:TrackPointExtension>
        </extensions>
      </trkpt>
      <trkpt lat="31.9833068735897541046142578125" lon="118.922531045973300933837890625">
        <ele>59</ele>
        <time>2023-04-15T02:03:23.000Z</time>
        <extensions>
          <ns3:TrackPointExtension/>
        </extensions>
      </trkpt>
      <trkpt lat="31.98330494575202465057373046875" lon="118.922531045973300933837890625">
        <ele>59</ele>
        <time>2023-04-15T02:03:24.000Z</time>
        <extensions>
          <ns3:TrackPointExtension/>
        </extensions>
      </trkpt>
      <trkpt lat="31.98330494575202465057373046875" lon="118.92252341844141483306884765625">
        <ele>59</ele>
        <time>2023-04-15T02:03:25.000Z</time>
        <extensions>
          <ns3:TrackPointExtension/>
        </extensions>
      </trkpt>
      <trkpt lat="31.98330494575202465057373046875" lon="118.92252341844141483306884765625">
        <ele>59</ele>
        <time>2023-04-15T02:03:26.000Z</time>
        <extensions>
          <ns3:TrackPointExtension/>
        </extensions>
      </trkpt>
      <trkpt lat="31.98330871760845184326171875" lon="118.92252341844141483306884765625">
        <ele>59.200000762939453125</ele>
        <time>2023-04-15T02:03:27.000Z</time>
        <extensions>
          <ns3:TrackPointExtension>
            <ns3:hr>100</ns3:hr>
          </ns3:TrackPointExtension>
        </extensions>
      </trkpt>
      <trkpt lat="31.9833125732839107513427734375" lon="118.922531045973300933837890625">
        <ele>59</ele>
        <time>2023-04-15T02:03:28.000Z</time>
        <extensions>
          <ns3:TrackPointExtension/>
        </extensions>
      </trkpt>
      <trkpt lat="31.9833182729780673980712890625" lon="118.92253875732421875">
        <ele>59</ele>
        <time>2023-04-15T02:03:29.000Z</time>
        <extensions>
          <ns3:TrackPointExtension/>
        </extensions>
      </trkpt>
      <trkpt lat="31.9833239726722240447998046875" lon="118.92254638485610485076904296875">
        <ele>59</ele>
        <time>2023-04-15T02:03:30.000Z</time>
        <extensions>
          <ns3:TrackPointExtension/>
        </extensions>
      </trkpt>
      <trkpt lat="31.98332975618541240692138671875" lon="118.9225540123879909515380859375">
        <ele>59</ele>
        <time>2023-04-15T02:03:31.000Z</time>
        <extensions>
          <ns3:TrackPointExtension/>
        </extensions>
      </trkpt>
      <trkpt lat="31.98333545587956905364990234375" lon="118.92256163991987705230712890625">
        <ele>59</ele>
        <time>2023-04-15T02:03:32.000Z</time>
        <extensions>
          <ns3:TrackPointExtension>
            <ns3:hr>103</ns3:hr>
          </ns3:TrackPointExtension>
        </extensions>
      </trkpt>
      <trkpt lat="31.9833430834114551544189453125" lon="118.922569267451763153076171875">
        <ele>58.799999237060546875</ele>
        <time>2023-04-15T02:03:33.000Z</time>
        <extensions>
          <ns3:TrackPointExtension/>
        </extensions>
      </trkpt>
      <trkpt lat="31.9833487831056118011474609375" lon="118.92257689498364925384521484375">
        <ele>58.799999237060546875</ele>
        <time>2023-04-15T02:03:34.000Z</time>
        <extensions>
          <ns3:TrackPointExtension/>
        </extensions>
      </trkpt>
      <trkpt lat="31.98335456661880016326904296875" lon="118.9225845225155353546142578125">
        <ele>58.799999237060546875</ele>
        <time>2023-04-15T02:03:35.000Z</time>
        <extensions>
          <ns3:TrackPointExtension/>
        </extensions>
      </trkpt>
      <trkpt lat="31.983364038169384002685546875" lon="118.92259215004742145538330078125">
        <ele>58.799999237060546875</ele>
        <time>2023-04-15T02:03:36.000Z</time>
        <extensions>
          <ns3:TrackPointExtension/>
        </extensions>
      </trkpt>
      <trkpt lat="31.98337166570127010345458984375" lon="118.92259977757930755615234375">
        <ele>58.799999237060546875</ele>
        <time>2023-04-15T02:03:37.000Z</time>
        <extensions>
          <ns3:TrackPointExtension>
            <ns3:hr>106</ns3:hr>
          </ns3:TrackPointExtension>
        </extensions>
      </trkpt>
      <trkpt lat="31.9833792932331562042236328125" lon="118.92260740511119365692138671875">
        <ele>58.799999237060546875</ele>
        <time>2023-04-15T02:03:38.000Z</time>
        <extensions>
          <ns3:TrackPointExtension/>
        </extensions>
      </trkpt>
      <trkpt lat="31.98338692076504230499267578125" lon="118.92260740511119365692138671875">
        <ele>58.799999237060546875</ele>
        <time>2023-04-15T02:03:39.000Z</time>
        <extensions>
          <ns3:TrackPointExtension/>
        </extensions>
      </trkpt>
      <trkpt lat="31.98339454829692840576171875" lon="118.9226150326430797576904296875">
        <ele>58.799999237060546875</ele>
        <time>2023-04-15T02:03:40.000Z</time>
        <extensions>
          <ns3:TrackPointExtension/>
        </extensions>
      </trkpt>
      <trkpt lat="31.98340603150427341461181640625" lon="118.9226150326430797576904296875">
        <ele>58.799999237060546875</ele>
        <time>2023-04-15T02:03:41.000Z</time>
        <extensions>
          <ns3:TrackPointExtension/>
        </extensions>
      </trkpt>
      <trkpt lat="31.98341558687388896942138671875" lon="118.9226150326430797576904296875">
        <ele>58.799999237060546875</ele>
        <time>2023-04-15T02:03:42.000Z</time>
        <extensions>
          <ns3:TrackPointExtension>
            <ns3:hr>106</ns3:hr>
          </ns3:TrackPointExtension>
        </extensions>
      </trkpt>
      <trkpt lat="31.98342698626220226287841796875" lon="118.92260740511119365692138671875">
        <ele>59</ele>
        <time>2023-04-15T02:03:43.000Z</time>
        <extensions>
          <ns3:TrackPointExtension/>
        </extensions>
      </trkpt>
      <trkpt lat="31.98343654163181781768798828125" lon="118.92260740511119365692138671875">
        <ele>59</ele>
        <time>2023-04-15T02:03:44.000Z</time>
        <extensions>
          <ns3:TrackPointExtension/>
        </extensions>
      </trkpt>
      <trkpt lat="31.9834480248391628265380859375" lon="118.92260740511119365692138671875">
        <ele>59</ele>
        <time>2023-04-15T02:03:45.000Z</time>
        <extensions>
          <ns3:TrackPointExtension/>
        </extensions>
      </trkpt>
      <trkpt lat="31.98345749638974666595458984375" lon="118.92260740511119365692138671875">
        <ele>59</ele>
        <time>2023-04-15T02:03:46.000Z</time>
        <extensions>
          <ns3:TrackPointExtension/>
        </extensions>
      </trkpt>
      <trkpt lat="31.9834689795970916748046875" lon="118.92259977757930755615234375">
        <ele>59</ele>
        <time>2023-04-15T02:03:47.000Z</time>
        <extensions>
          <ns3:TrackPointExtension>
            <ns3:hr>100</ns3:hr>
          </ns3:TrackPointExtension>
        </extensions>
      </trkpt>
      <trkpt lat="31.98347660712897777557373046875" lon="118.92259977757930755615234375">
        <ele>59</ele>
        <time>2023-04-15T02:03:48.000Z</time>
        <extensions>
          <ns3:TrackPointExtension/>
        </extensions>
      </trkpt>
      <trkpt lat="31.98348800651729106903076171875" lon="118.92259215004742145538330078125">
        <ele>59</ele>
        <time>2023-04-15T02:03:49.000Z</time>
        <extensions>
          <ns3:TrackPointExtension/>
        </extensions>
      </trkpt>
      <trkpt lat="31.9834956340491771697998046875" lon="118.9225845225155353546142578125">
        <ele>59.200000762939453125</ele>
        <time>2023-04-15T02:03:50.000Z</time>
        <extensions>
          <ns3:TrackPointExtension/>
        </extensions>
      </trkpt>
      <trkpt lat="31.98350711725652217864990234375" lon="118.9225845225155353546142578125">
        <ele>59.200000762939453125</ele>
        <time>2023-04-15T02:03:51.000Z</time>
        <extensions>
          <ns3:TrackPointExtension/>
        </extensions>
      </trkpt>
      <trkpt lat="31.9835147447884082794189453125" lon="118.92257689498364925384521484375">
        <ele>59.200000762939453125</ele>
        <time>2023-04-15T02:03:52.000Z</time>
        <extensions>
          <ns3:TrackPointExtension>
            <ns3:hr>101</ns3:hr>
          </ns3:TrackPointExtension>
        </extensions>
      </trkpt>
      <trkpt lat="31.983524300158023834228515625" lon="118.922569267451763153076171875">
        <ele>59.200000762939453125</ele>
        <time>2023-04-15T02:03:53.000Z</time>
        <extensions>
          <ns3:TrackPointExtension/>
        </extensions>
      </trkpt>
      <trkpt lat="31.9835338555276393890380859375" lon="118.922569267451763153076171875">
        <ele>59.200000762939453125</ele>
        <time>2023-04-15T02:03:54.000Z</time>
        <extensions>
          <ns3:TrackPointExtension/>
        </extensions>
      </trkpt>
      <trkpt lat="31.98354148305952548980712890625" lon="118.92256163991987705230712890625">
        <ele>59.200000762939453125</ele>
        <time>2023-04-15T02:03:55.000Z</time>
        <extensions>
          <ns3:TrackPointExtension/>
        </extensions>
      </trkpt>
      <trkpt lat="31.983549110591411590576171875" lon="118.9225540123879909515380859375">
        <ele>59.200000762939453125</ele>
        <time>2023-04-15T02:03:56.000Z</time>
        <extensions>
          <ns3:TrackPointExtension/>
        </extensions>
      </trkpt>
      <trkpt lat="31.98355858214199542999267578125" lon="118.92254638485610485076904296875">
        <ele>59.200000762939453125</ele>
        <time>2023-04-15T02:03:57.000Z</time>
        <extensions>
          <ns3:TrackPointExtension>
            <ns3:hr>102</ns3:hr>
          </ns3:TrackPointExtension>
        </extensions>
      </trkpt>
      <trkpt lat="31.98356813751161098480224609375" lon="118.92254638485610485076904296875">
        <ele>59.200000762939453125</ele>
        <time>2023-04-15T02:03:58.000Z</time>
        <extensions>
          <ns3:TrackPointExtension/>
        </extensions>
      </trkpt>
      <trkpt lat="31.98357769288122653961181640625" lon="118.92253875732421875">
        <ele>59.200000762939453125</ele>
        <time>2023-04-15T02:03:59.000Z</time>
        <extensions>
          <ns3:TrackPointExtension/>
        </extensions>
      </trkpt>
      <trkpt lat="31.983585320413112640380859375" lon="118.922531045973300933837890625">
        <ele>59.40000152587890625</ele>
        <time>2023-04-15T02:04:00.000Z</time>
        <extensions>
          <ns3:TrackPointExtension/>
        </extensions>
      </trkpt>
      <trkpt lat="31.9835948757827281951904296875" lon="118.92252341844141483306884765625">
        <ele>59.40000152587890625</ele>
        <time>2023-04-15T02:04:01.000Z</time>
        <extensions>
          <ns3:TrackPointExtension/>
        </extensions>
      </trkpt>
      <trkpt lat="31.98360443115234375" lon="118.9225157909095287322998046875">
        <ele>59.40000152587890625</ele>
        <time>2023-04-15T02:04:02.000Z</time>
        <extensions>
          <ns3:TrackPointExtension>
            <ns3:hr>102</ns3:hr>
          </ns3:TrackPointExtension>
        </extensions>
      </trkpt>
      <trkpt lat="31.983610130846500396728515625" lon="118.92250816337764263153076171875">
        <ele>59.40000152587890625</ele>
        <time>2023-04-15T02:04:03.000Z</time>
        <extensions>
          <ns3:TrackPointExtension/>
        </extensions>
      </trkpt>
      <trkpt lat="31.98361775837838649749755859375" lon="118.92250053584575653076171875">
        <ele>59.40000152587890625</ele>
        <time>2023-04-15T02:04:04.000Z</time>
        <extensions>
          <ns3:TrackPointExtension/>
        </extensions>
      </trkpt>
      <trkpt lat="31.9836253859102725982666015625" lon="118.92249290831387042999267578125">
        <ele>59.40000152587890625</ele>
        <time>2023-04-15T02:04:05.000Z</time>
        <extensions>
          <ns3:TrackPointExtension/>
        </extensions>
      </trkpt>
      <trkpt lat="31.98363301344215869903564453125" lon="118.92247765325009822845458984375">
        <ele>59.59999847412109375</ele>
        <time>2023-04-15T02:04:06.000Z</time>
        <extensions>
          <ns3:TrackPointExtension/>
        </extensions>
      </trkpt>
      <trkpt lat="31.98363871313631534576416015625" lon="118.922470025718212127685546875">
        <ele>59.59999847412109375</ele>
        <time>2023-04-15T02:04:07.000Z</time>
        <extensions>
          <ns3:TrackPointExtension>
            <ns3:hr>105</ns3:hr>
          </ns3:TrackPointExtension>
        </extensions>
      </trkpt>
      <trkpt lat="31.983646340668201446533203125" lon="118.92246239818632602691650390625">
        <ele>59.59999847412109375</ele>
        <time>2023-04-15T02:04:08.000Z</time>
        <extensions>
          <ns3:TrackPointExtension/>
        </extensions>
      </trkpt>
      <trkpt lat="31.98365204036235809326171875" lon="118.9224547706544399261474609375">
        <ele>59.59999847412109375</ele>
        <time>2023-04-15T02:04:09.000Z</time>
        <extensions>
          <ns3:TrackPointExtension/>
        </extensions>
      </trkpt>
      <trkpt lat="31.98365782387554645538330078125" lon="118.922439515590667724609375">
        <ele>59.59999847412109375</ele>
        <time>2023-04-15T02:04:10.000Z</time>
        <extensions>
          <ns3:TrackPointExtension/>
        </extensions>
      </trkpt>
      <trkpt lat="31.98366545140743255615234375" lon="118.92243188805878162384033203125">
        <ele>59.59999847412109375</ele>
        <time>2023-04-15T02:04:11.000Z</time>
        <extensions>
          <ns3:TrackPointExtension/>
        </extensions>
      </trkpt>
      <trkpt lat="31.98366922326385974884033203125" lon="118.92241663299500942230224609375">
        <ele>59.799999237060546875</ele>
        <time>2023-04-15T02:04:12.000Z</time>
        <extensions>
          <ns3:TrackPointExtension>
            <ns3:hr>105</ns3:hr>
          </ns3:TrackPointExtension>
        </extensions>
      </trkpt>
      <trkpt lat="31.98367492295801639556884765625" lon="118.922409005463123321533203125">
        <ele>59.799999237060546875</ele>
        <time>2023-04-15T02:04:13.000Z</time>
        <extensions>
          <ns3:TrackPointExtension/>
        </extensions>
      </trkpt>
      <trkpt lat="31.9836807064712047576904296875" lon="118.92240137793123722076416015625">
        <ele>59.799999237060546875</ele>
        <time>2023-04-15T02:04:14.000Z</time>
        <extensions>
          <ns3:TrackPointExtension/>
        </extensions>
      </trkpt>
      <trkpt lat="31.98368833400309085845947265625" lon="118.9223937503993511199951171875">
        <ele>59.799999237060546875</ele>
        <time>2023-04-15T02:04:15.000Z</time>
        <extensions>
          <ns3:TrackPointExtension/>
        </extensions>
      </trkpt>
      <trkpt lat="31.98369403369724750518798828125" lon="118.92237849533557891845703125">
        <ele>59.799999237060546875</ele>
        <time>2023-04-15T02:04:16.000Z</time>
        <extensions>
          <ns3:TrackPointExtension/>
        </extensions>
      </trkpt>
      <trkpt lat="31.98369973339140415191650390625" lon="118.92237086780369281768798828125">
        <ele>59.799999237060546875</ele>
        <time>2023-04-15T02:04:17.000Z</time>
        <extensions>
          <ns3:TrackPointExtension>
            <ns3:hr>106</ns3:hr>
          </ns3:TrackPointExtension>
        </extensions>
      </trkpt>
      <trkpt lat="31.98370928876101970672607421875" lon="118.9223632402718067169189453125">
        <ele>60</ele>
        <time>2023-04-15T02:04:18.000Z</time>
        <extensions>
          <ns3:TrackPointExtension/>
        </extensions>
      </trkpt>
      <trkpt lat="31.98371498845517635345458984375" lon="118.92235561273992061614990234375">
        <ele>60</ele>
        <time>2023-04-15T02:04:19.000Z</time>
        <extensions>
          <ns3:TrackPointExtension/>
        </extensions>
      </trkpt>
      <trkpt lat="31.98372454382479190826416015625" lon="118.922347985208034515380859375">
        <ele>60</ele>
        <time>2023-04-15T02:04:20.000Z</time>
        <extensions>
          <ns3:TrackPointExtension/>
        </extensions>
      </trkpt>
      <trkpt lat="31.98373024351894855499267578125" lon="118.9223327301442623138427734375">
        <ele>60</ele>
        <time>2023-04-15T02:04:21.000Z</time>
        <extensions>
          <ns3:TrackPointExtension/>
        </extensions>
      </trkpt>
      <trkpt lat="31.98373787105083465576171875" lon="118.92232510261237621307373046875">
        <ele>60.200000762939453125</ele>
        <time>2023-04-15T02:04:22.000Z</time>
        <extensions>
          <ns3:TrackPointExtension>
            <ns3:hr>108</ns3:hr>
          </ns3:TrackPointExtension>
        </extensions>
      </trkpt>
      <trkpt lat="31.9837474264204502105712890625" lon="118.9223174750804901123046875">
        <ele>60.200000762939453125</ele>
        <time>2023-04-15T02:04:23.000Z</time>
        <extensions>
          <ns3:TrackPointExtension/>
        </extensions>
      </trkpt>
      <trkpt lat="31.98375505395233631134033203125" lon="118.92230984754860401153564453125">
        <ele>60.200000762939453125</ele>
        <time>2023-04-15T02:04:24.000Z</time>
        <extensions>
          <ns3:TrackPointExtension/>
        </extensions>
      </trkpt>
      <trkpt lat="31.98376460932195186614990234375" lon="118.9223022200167179107666015625">
        <ele>60.200000762939453125</ele>
        <time>2023-04-15T02:04:25.000Z</time>
        <extensions>
          <ns3:TrackPointExtension/>
        </extensions>
      </trkpt>
      <trkpt lat="31.9837722368538379669189453125" lon="118.92229459248483180999755859375">
        <ele>60.200000762939453125</ele>
        <time>2023-04-15T02:04:26.000Z</time>
        <extensions>
          <ns3:TrackPointExtension/>
        </extensions>
      </trkpt>
      <trkpt lat="31.98377986438572406768798828125" lon="118.922286964952945709228515625">
        <ele>60.200000762939453125</ele>
        <time>2023-04-15T02:04:27.000Z</time>
        <extensions>
          <ns3:TrackPointExtension>
            <ns3:hr>108</ns3:hr>
          </ns3:TrackPointExtension>
        </extensions>
      </trkpt>
      <trkpt lat="31.98378941975533962249755859375" lon="118.92227933742105960845947265625">
        <ele>60.200000762939453125</ele>
        <time>2023-04-15T02:04:28.000Z</time>
        <extensions>
          <ns3:TrackPointExtension/>
        </extensions>
      </trkpt>
      <trkpt lat="31.98379511944949626922607421875" lon="118.9222717098891735076904296875">
        <ele>60.40000152587890625</ele>
        <time>2023-04-15T02:04:29.000Z</time>
        <extensions>
          <ns3:TrackPointExtension/>
        </extensions>
      </trkpt>
      <trkpt lat="31.98380081914365291595458984375" lon="118.92226408235728740692138671875">
        <ele>60.40000152587890625</ele>
        <time>2023-04-15T02:04:30.000Z</time>
        <extensions>
          <ns3:TrackPointExtension/>
        </extensions>
      </trkpt>
      <trkpt lat="31.983806602656841278076171875" lon="118.92224882729351520538330078125">
        <ele>60.40000152587890625</ele>
        <time>2023-04-15T02:04:31.000Z</time>
        <extensions>
          <ns3:TrackPointExtension/>
        </extensions>
      </trkpt>
      <trkpt lat="31.98381037451326847076416015625" lon="118.9222411997616291046142578125">
        <ele>60.40000152587890625</ele>
        <time>2023-04-15T02:04:32.000Z</time>
        <extensions>
          <ns3:TrackPointExtension>
            <ns3:hr>107</ns3:hr>
          </ns3:TrackPointExtension>
        </extensions>
      </trkpt>
      <trkpt lat="31.9838123023509979248046875" lon="118.92223357222974300384521484375">
        <ele>60.59999847412109375</ele>
        <time>2023-04-15T02:04:33.000Z</time>
        <extensions>
          <ns3:TrackPointExtension/>
        </extensions>
      </trkpt>
      <trkpt lat="31.9838123023509979248046875" lon="118.922225944697856903076171875">
        <ele>60.59999847412109375</ele>
        <time>2023-04-15T02:04:34.000Z</time>
        <extensions>
          <ns3:TrackPointExtension/>
        </extensions>
      </trkpt>
      <trkpt lat="31.9838084466755390167236328125" lon="118.922225944697856903076171875">
        <ele>60.59999847412109375</ele>
        <time>2023-04-15T02:04:35.000Z</time>
        <extensions>
          <ns3:TrackPointExtension/>
        </extensions>
      </trkpt>
      <trkpt lat="31.98380467481911182403564453125" lon="118.92221831716597080230712890625">
        <ele>60.59999847412109375</ele>
        <time>2023-04-15T02:04:36.000Z</time>
        <extensions>
          <ns3:TrackPointExtension/>
        </extensions>
      </trkpt>
      <trkpt lat="31.98380081914365291595458984375" lon="118.9222106896340847015380859375">
        <ele>60.799999237060546875</ele>
        <time>2023-04-15T02:04:37.000Z</time>
        <extensions>
          <ns3:TrackPointExtension>
            <ns3:hr>105</ns3:hr>
          </ns3:TrackPointExtension>
        </extensions>
      </trkpt>
      <trkpt lat="31.983793191611766815185546875" lon="118.92220306210219860076904296875">
        <ele>60.799999237060546875</ele>
        <time>2023-04-15T02:04:38.000Z</time>
        <extensions>
          <ns3:TrackPointExtension/>
        </extensions>
      </trkpt>
      <trkpt lat="31.98378556407988071441650390625" lon="118.9221954345703125">
        <ele>60.799999237060546875</ele>
        <time>2023-04-15T02:04:39.000Z</time>
        <extensions>
          <ns3:TrackPointExtension/>
        </extensions>
      </trkpt>
      <trkpt lat="31.9837779365479946136474609375" lon="118.922187723219394683837890625">
        <ele>61</ele>
        <time>2023-04-15T02:04:40.000Z</time>
        <extensions>
          <ns3:TrackPointExtension/>
        </extensions>
      </trkpt>
      <trkpt lat="31.98377030901610851287841796875" lon="118.922187723219394683837890625">
        <ele>61</ele>
        <time>2023-04-15T02:04:41.000Z</time>
        <extensions>
          <ns3:TrackPointExtension/>
        </extensions>
      </trkpt>
      <trkpt lat="31.983762681484222412109375" lon="118.92218009568750858306884765625">
        <ele>61</ele>
        <time>2023-04-15T02:04:42.000Z</time>
        <extensions>
          <ns3:TrackPointExtension>
            <ns3:hr>104</ns3:hr>
          </ns3:TrackPointExtension>
        </extensions>
      </trkpt>
      <trkpt lat="31.9837531261146068572998046875" lon="118.9221724681556224822998046875">
        <ele>61.200000762939453125</ele>
        <time>2023-04-15T02:04:43.000Z</time>
        <extensions>
          <ns3:TrackPointExtension/>
        </extensions>
      </trkpt>
      <trkpt lat="31.9837474264204502105712890625" lon="118.92216484062373638153076171875">
        <ele>61.200000762939453125</ele>
        <time>2023-04-15T02:04:44.000Z</time>
        <extensions>
          <ns3:TrackPointExtension/>
        </extensions>
      </trkpt>
      <trkpt lat="31.9837417267262935638427734375" lon="118.92215721309185028076171875">
        <ele>61.40000152587890625</ele>
        <time>2023-04-15T02:04:45.000Z</time>
        <extensions>
          <ns3:TrackPointExtension/>
        </extensions>
      </trkpt>
      <trkpt lat="31.9837360270321369171142578125" lon="118.92214958555996417999267578125">
        <ele>61.40000152587890625</ele>
        <time>2023-04-15T02:04:46.000Z</time>
        <extensions>
          <ns3:TrackPointExtension/>
        </extensions>
      </trkpt>
      <trkpt lat="31.98373409919440746307373046875" lon="118.92213433049619197845458984375">
        <ele>61.40000152587890625</ele>
        <time>2023-04-15T02:04:47.000Z</time>
        <extensions>
          <ns3:TrackPointExtension>
            <ns3:hr>104</ns3:hr>
          </ns3:TrackPointExtension>
        </extensions>
      </trkpt>
      <trkpt lat="31.98373024351894855499267578125" lon="118.922126702964305877685546875">
        <ele>61.59999847412109375</ele>
        <time>2023-04-15T02:04:48.000Z</time>
        <extensions>
          <ns3:TrackPointExtension/>
        </extensions>
      </trkpt>
      <trkpt lat="31.9837264716625213623046875" lon="118.92211907543241977691650390625">
        <ele>61.59999847412109375</ele>
        <time>2023-04-15T02:04:49.000Z</time>
        <extensions>
          <ns3:TrackPointExtension/>
        </extensions>
      </trkpt>
      <trkpt lat="31.9837226159870624542236328125" lon="118.92210382036864757537841796875">
        <ele>61.59999847412109375</ele>
        <time>2023-04-15T02:04:50.000Z</time>
        <extensions>
          <ns3:TrackPointExtension/>
        </extensions>
      </trkpt>
      <trkpt lat="31.983720771968364715576171875" lon="118.922096192836761474609375">
        <ele>61.799999237060546875</ele>
        <time>2023-04-15T02:04:51.000Z</time>
        <extensions>
          <ns3:TrackPointExtension/>
        </extensions>
      </trkpt>
      <trkpt lat="31.9837169162929058074951171875" lon="118.9220809377729892730712890625">
        <ele>61.799999237060546875</ele>
        <time>2023-04-15T02:04:52.000Z</time>
        <extensions>
          <ns3:TrackPointExtension>
            <ns3:hr>108</ns3:hr>
          </ns3:TrackPointExtension>
        </extensions>
      </trkpt>
      <trkpt lat="31.98371498845517635345458984375" lon="118.92207331024110317230224609375">
        <ele>62</ele>
        <time>2023-04-15T02:04:53.000Z</time>
        <extensions>
          <ns3:TrackPointExtension/>
        </extensions>
      </trkpt>
      <trkpt lat="31.98371314443647861480712890625" lon="118.92205805517733097076416015625">
        <ele>62</ele>
        <time>2023-04-15T02:04:54.000Z</time>
        <extensions>
          <ns3:TrackPointExtension/>
        </extensions>
      </trkpt>
      <trkpt lat="31.98370928876101970672607421875" lon="118.92204280011355876922607421875">
        <ele>62.200000762939453125</ele>
        <time>2023-04-15T02:04:55.000Z</time>
        <extensions>
          <ns3:TrackPointExtension/>
        </extensions>
      </trkpt>
      <trkpt lat="31.9837055169045925140380859375" lon="118.92202754504978656768798828125">
        <ele>62.200000762939453125</ele>
        <time>2023-04-15T02:04:56.000Z</time>
        <extensions>
          <ns3:TrackPointExtension/>
        </extensions>
      </trkpt>
      <trkpt lat="31.98370358906686305999755859375" lon="118.9220199175179004669189453125">
        <ele>62.40000152587890625</ele>
        <time>2023-04-15T02:04:57.000Z</time>
        <extensions>
          <ns3:TrackPointExtension>
            <ns3:hr>109</ns3:hr>
          </ns3:TrackPointExtension>
        </extensions>
      </trkpt>
      <trkpt lat="31.98369973339140415191650390625" lon="118.92201228998601436614990234375">
        <ele>62.40000152587890625</ele>
        <time>2023-04-15T02:04:58.000Z</time>
        <extensions>
          <ns3:TrackPointExtension/>
        </extensions>
      </trkpt>
      <trkpt lat="31.98369788937270641326904296875" lon="118.92199703492224216461181640625">
        <ele>62.40000152587890625</ele>
        <time>2023-04-15T02:04:59.000Z</time>
        <extensions>
          <ns3:TrackPointExtension/>
        </extensions>
      </trkpt>
      <trkpt lat="31.983695961534976959228515625" lon="118.9219894073903560638427734375">
        <ele>62.59999847412109375</ele>
        <time>2023-04-15T02:05:00.000Z</time>
        <extensions>
          <ns3:TrackPointExtension/>
        </extensions>
      </trkpt>
      <trkpt lat="31.98369403369724750518798828125" lon="118.92198177985846996307373046875">
        <ele>62.59999847412109375</ele>
        <time>2023-04-15T02:05:01.000Z</time>
        <extensions>
          <ns3:TrackPointExtension/>
        </extensions>
      </trkpt>
      <trkpt lat="31.98369403369724750518798828125" lon="118.9219741523265838623046875">
        <ele>62.59999847412109375</ele>
        <time>2023-04-15T02:05:02.000Z</time>
        <extensions>
          <ns3:TrackPointExtension>
            <ns3:hr>109</ns3:hr>
          </ns3:TrackPointExtension>
        </extensions>
      </trkpt>
      <trkpt lat="31.98369403369724750518798828125" lon="118.9219588972628116607666015625">
        <ele>62.799999237060546875</ele>
        <time>2023-04-15T02:05:03.000Z</time>
        <extensions>
          <ns3:TrackPointExtension/>
        </extensions>
      </trkpt>
      <trkpt lat="31.98369403369724750518798828125" lon="118.92195126973092555999755859375">
        <ele>62.799999237060546875</ele>
        <time>2023-04-15T02:05:04.000Z</time>
        <extensions>
          <ns3:TrackPointExtension/>
        </extensions>
      </trkpt>
      <trkpt lat="31.98369403369724750518798828125" lon="118.92193601466715335845947265625">
        <ele>63</ele>
        <time>2023-04-15T02:05:05.000Z</time>
        <extensions>
          <ns3:TrackPointExtension/>
        </extensions>
      </trkpt>
      <trkpt lat="31.98369403369724750518798828125" lon="118.9219283871352672576904296875">
        <ele>63</ele>
        <time>2023-04-15T02:05:06.000Z</time>
        <extensions>
          <ns3:TrackPointExtension/>
        </extensions>
      </trkpt>
      <trkpt lat="31.98369403369724750518798828125" lon="118.92191313207149505615234375">
        <ele>63</ele>
        <time>2023-04-15T02:05:07.000Z</time>
        <extensions>
          <ns3:TrackPointExtension>
            <ns3:hr>107</ns3:hr>
          </ns3:TrackPointExtension>
        </extensions>
      </trkpt>
      <trkpt lat="31.98369403369724750518798828125" lon="118.92190550453960895538330078125">
        <ele>63.200000762939453125</ele>
        <time>2023-04-15T02:05:08.000Z</time>
        <extensions>
          <ns3:TrackPointExtension/>
        </extensions>
      </trkpt>
      <trkpt lat="31.98369403369724750518798828125" lon="118.92189024947583675384521484375">
        <ele>63.200000762939453125</ele>
        <time>2023-04-15T02:05:09.000Z</time>
        <extensions>
          <ns3:TrackPointExtension/>
        </extensions>
      </trkpt>
      <trkpt lat="31.98369403369724750518798828125" lon="118.92187499441206455230712890625">
        <ele>63.40000152587890625</ele>
        <time>2023-04-15T02:05:10.000Z</time>
        <extensions>
          <ns3:TrackPointExtension/>
        </extensions>
      </trkpt>
      <trkpt lat="31.98369403369724750518798828125" lon="118.92185973934829235076904296875">
        <ele>63.40000152587890625</ele>
        <time>2023-04-15T02:05:11.000Z</time>
        <extensions>
          <ns3:TrackPointExtension/>
        </extensions>
      </trkpt>
      <trkpt lat="31.98369403369724750518798828125" lon="118.92185211181640625">
        <ele>63.59999847412109375</ele>
        <time>2023-04-15T02:05:12.000Z</time>
        <extensions>
          <ns3:TrackPointExtension>
            <ns3:hr>107</ns3:hr>
          </ns3:TrackPointExtension>
        </extensions>
      </trkpt>
      <trkpt lat="31.9836921058595180511474609375" lon="118.92183677293360233306884765625">
        <ele>63.59999847412109375</ele>
        <time>2023-04-15T02:05:13.000Z</time>
        <extensions>
          <ns3:TrackPointExtension/>
        </extensions>
      </trkpt>
      <trkpt lat="31.9836921058595180511474609375" lon="118.92182151786983013153076171875">
        <ele>63.799999237060546875</ele>
        <time>2023-04-15T02:05:14.000Z</time>
        <extensions>
          <ns3:TrackPointExtension/>
        </extensions>
      </trkpt>
      <trkpt lat="31.9836902618408203125" lon="118.92181389033794403076171875">
        <ele>63.799999237060546875</ele>
        <time>2023-04-15T02:05:15.000Z</time>
        <extensions>
          <ns3:TrackPointExtension/>
        </extensions>
      </trkpt>
      <trkpt lat="31.9836902618408203125" lon="118.9217986352741718292236328125">
        <ele>63.799999237060546875</ele>
        <time>2023-04-15T02:05:16.000Z</time>
        <extensions>
          <ns3:TrackPointExtension/>
        </extensions>
      </trkpt>
      <trkpt lat="31.9836902618408203125" lon="118.92179100774228572845458984375">
        <ele>64</ele>
        <time>2023-04-15T02:05:17.000Z</time>
        <extensions>
          <ns3:TrackPointExtension>
            <ns3:hr>106</ns3:hr>
          </ns3:TrackPointExtension>
        </extensions>
      </trkpt>
      <trkpt lat="31.9836921058595180511474609375" lon="118.92177575267851352691650390625">
        <ele>64</ele>
        <time>2023-04-15T02:05:18.000Z</time>
        <extensions>
          <ns3:TrackPointExtension/>
        </extensions>
      </trkpt>
      <trkpt lat="31.98369403369724750518798828125" lon="118.9217681251466274261474609375">
        <ele>64</ele>
        <time>2023-04-15T02:05:19.000Z</time>
        <extensions>
          <ns3:TrackPointExtension/>
        </extensions>
      </trkpt>
      <trkpt lat="31.983695961534976959228515625" lon="118.921752870082855224609375">
        <ele>64.1999969482421875</ele>
        <time>2023-04-15T02:05:20.000Z</time>
        <extensions>
          <ns3:TrackPointExtension/>
        </extensions>
      </trkpt>
      <trkpt lat="31.98369973339140415191650390625" lon="118.92174524255096912384033203125">
        <ele>64.1999969482421875</ele>
        <time>2023-04-15T02:05:21.000Z</time>
        <extensions>
          <ns3:TrackPointExtension/>
        </extensions>
      </trkpt>
      <trkpt lat="31.9837055169045925140380859375" lon="118.9217376150190830230712890625">
        <ele>64.1999969482421875</ele>
        <time>2023-04-15T02:05:22.000Z</time>
        <extensions>
          <ns3:TrackPointExtension>
            <ns3:hr>105</ns3:hr>
          </ns3:TrackPointExtension>
        </extensions>
      </trkpt>
      <trkpt lat="31.9837112165987491607666015625" lon="118.921722359955310821533203125">
        <ele>64.40000152587890625</ele>
        <time>2023-04-15T02:05:23.000Z</time>
        <extensions>
          <ns3:TrackPointExtension/>
        </extensions>
      </trkpt>
      <trkpt lat="31.98371884413063526153564453125" lon="118.92171473242342472076416015625">
        <ele>64.40000152587890625</ele>
        <time>2023-04-15T02:05:24.000Z</time>
        <extensions>
          <ns3:TrackPointExtension/>
        </extensions>
      </trkpt>
      <trkpt lat="31.9837264716625213623046875" lon="118.9217071048915386199951171875">
        <ele>64.40000152587890625</ele>
        <time>2023-04-15T02:05:25.000Z</time>
        <extensions>
          <ns3:TrackPointExtension/>
        </extensions>
      </trkpt>
      <trkpt lat="31.98373787105083465576171875" lon="118.92169947735965251922607421875">
        <ele>64.59999847412109375</ele>
        <time>2023-04-15T02:05:26.000Z</time>
        <extensions>
          <ns3:TrackPointExtension/>
        </extensions>
      </trkpt>
      <trkpt lat="31.98374549858272075653076171875" lon="118.92169947735965251922607421875">
        <ele>64.59999847412109375</ele>
        <time>2023-04-15T02:05:27.000Z</time>
        <extensions>
          <ns3:TrackPointExtension>
            <ns3:hr>105</ns3:hr>
          </ns3:TrackPointExtension>
        </extensions>
      </trkpt>
      <trkpt lat="31.983756981790065765380859375" lon="118.92169184982776641845703125">
        <ele>64.59999847412109375</ele>
        <time>2023-04-15T02:05:28.000Z</time>
        <extensions>
          <ns3:TrackPointExtension/>
        </extensions>
      </trkpt>
      <trkpt lat="31.9837665371596813201904296875" lon="118.92169184982776641845703125">
        <ele>64.59999847412109375</ele>
        <time>2023-04-15T02:05:29.000Z</time>
        <extensions>
          <ns3:TrackPointExtension/>
        </extensions>
      </trkpt>
      <trkpt lat="31.9837779365479946136474609375" lon="118.92168422229588031768798828125">
        <ele>64.8000030517578125</ele>
        <time>2023-04-15T02:05:30.000Z</time>
        <extensions>
          <ns3:TrackPointExtension/>
        </extensions>
      </trkpt>
      <trkpt lat="31.98378941975533962249755859375" lon="118.9216765947639942169189453125">
        <ele>64.8000030517578125</ele>
        <time>2023-04-15T02:05:31.000Z</time>
        <extensions>
          <ns3:TrackPointExtension/>
        </extensions>
      </trkpt>
      <trkpt lat="31.98379897512495517730712890625" lon="118.9216765947639942169189453125">
        <ele>64.8000030517578125</ele>
        <time>2023-04-15T02:05:32.000Z</time>
        <extensions>
          <ns3:TrackPointExtension>
            <ns3:hr>104</ns3:hr>
          </ns3:TrackPointExtension>
        </extensions>
      </trkpt>
    </trkseg>
  </trk>
</gpx>
