<gpx xmlns:ns3="http://www.garmin.com/xmlschemas/TrackPointExtension/v1" xmlns="http://www.topografix.com/GPX/1/1" xmlns:xsi="http://www.w3.org/2001/XMLSchema-instance" xmlns:ns2="http://www.garmin.com/xmlschemas/GpxExtensions/v3" creator="Garmin Connect" version="1.1" xsi:schemaLocation="http://www.topografix.com/GPX/1/1 http://www.topografix.com/GPX/11.xsd">
  <extensions>
<distance>775.0</distance>
<average_hr>129.0</average_hr>
<average_speed>0.5142667551426675</average_speed>
<start_time>2022-07-12T14:31:32+00:00</start_time>
<end_time>2022-07-12T14:56:39+00:00</end_time>
<moving_time>1451.0</moving_time>
<elapsed_time>1518.0</elapsed_time>
</extensions>
<metadata>
    <link href="connect.garmin.com">
      <text>Garmin Connect</text>
    </link>
    <time>2022-07-12T14:31:32.000Z</time>
  </metadata>
  <trk>
    <name>游泳</name>
    <type>swimming</type>
    <trkseg/>
  </trk>
</gpx>
