<gpx xmlns:ns3="http://www.garmin.com/xmlschemas/TrackPointExtension/v1" xmlns="http://www.topografix.com/GPX/1/1" xmlns:xsi="http://www.w3.org/2001/XMLSchema-instance" xmlns:ns2="http://www.garmin.com/xmlschemas/GpxExtensions/v3" creator="Garmin Connect" version="1.1" xsi:schemaLocation="http://www.topografix.com/GPX/1/1 http://www.topografix.com/GPX/11.xsd">
  <extensions>
<distance>650.0</distance>
<average_hr>146.0</average_hr>
<average_speed>2.3297491039426523</average_speed>
<start_time>2023-05-30T10:12:21+00:00</start_time>
<end_time>2023-05-30T10:17:00+00:00</end_time>
<moving_time>247.0</moving_time>
<elapsed_time>302.0</elapsed_time>
</extensions>
<metadata>
    <link href="connect.garmin.com">
      <text>Garmin Connect</text>
    </link>
    <time>2023-05-30T10:12:21.000Z</time>
  </metadata>
  <trk>
    <name>南京市 跑步</name>
    <type>running</type>
    <trkseg>
      <trkpt lat="31.99537656269967555999755859375" lon="118.7439269386231899261474609375">
        <ele>6</ele>
        <time>2023-05-30T10:12:27.000Z</time>
        <extensions>
          <ns3:TrackPointExtension/>
        </extensions>
      </trkpt>
      <trkpt lat="31.9954090006649494171142578125" lon="118.74391931109130382537841796875">
        <ele>6</ele>
        <time>2023-05-30T10:12:28.000Z</time>
        <extensions>
          <ns3:TrackPointExtension/>
        </extensions>
      </trkpt>
      <trkpt lat="31.9954090006649494171142578125" lon="118.743881173431873321533203125">
        <ele>6</ele>
        <time>2023-05-30T10:12:29.000Z</time>
        <extensions>
          <ns3:TrackPointExtension/>
        </extensions>
      </trkpt>
      <trkpt lat="31.99541277252137660980224609375" lon="118.7438354082405567169189453125">
        <ele>6</ele>
        <time>2023-05-30T10:12:30.000Z</time>
        <extensions>
          <ns3:TrackPointExtension/>
        </extensions>
      </trkpt>
      <trkpt lat="31.99539751745760440826416015625" lon="118.74382778070867061614990234375">
        <ele>6</ele>
        <time>2023-05-30T10:12:31.000Z</time>
        <extensions>
          <ns3:TrackPointExtension>
            <ns3:hr>137</ns3:hr>
            <ns3:cad>79</ns3:cad>
          </ns3:TrackPointExtension>
        </extensions>
      </trkpt>
      <trkpt lat="31.9953650794923305511474609375" lon="118.74384303577244281768798828125">
        <ele>6</ele>
        <time>2023-05-30T10:12:32.000Z</time>
        <extensions>
          <ns3:TrackPointExtension/>
        </extensions>
      </trkpt>
      <trkpt lat="31.9953536801040172576904296875" lon="118.74382778070867061614990234375">
        <ele>6</ele>
        <time>2023-05-30T10:12:33.000Z</time>
        <extensions>
          <ns3:TrackPointExtension/>
        </extensions>
      </trkpt>
      <trkpt lat="31.9953402690589427947998046875" lon="118.74381252564489841461181640625">
        <ele>6</ele>
        <time>2023-05-30T10:12:34.000Z</time>
        <extensions>
          <ns3:TrackPointExtension/>
        </extensions>
      </trkpt>
      <trkpt lat="31.99532124213874340057373046875" lon="118.7438048981130123138427734375">
        <ele>6</ele>
        <time>2023-05-30T10:12:35.000Z</time>
        <extensions>
          <ns3:TrackPointExtension/>
        </extensions>
      </trkpt>
      <trkpt lat="31.99530213139951229095458984375" lon="118.74379727058112621307373046875">
        <ele>6</ele>
        <time>2023-05-30T10:12:36.000Z</time>
        <extensions>
          <ns3:TrackPointExtension>
            <ns3:hr>135</ns3:hr>
            <ns3:cad>83</ns3:cad>
          </ns3:TrackPointExtension>
        </extensions>
      </trkpt>
      <trkpt lat="31.99528117664158344268798828125" lon="118.7437896430492401123046875">
        <ele>6</ele>
        <time>2023-05-30T10:12:37.000Z</time>
        <extensions>
          <ns3:TrackPointExtension/>
        </extensions>
      </trkpt>
      <trkpt lat="31.99526022188365459442138671875" lon="118.74378201551735401153564453125">
        <ele>6</ele>
        <time>2023-05-30T10:12:38.000Z</time>
        <extensions>
          <ns3:TrackPointExtension/>
        </extensions>
      </trkpt>
      <trkpt lat="31.99523918330669403076171875" lon="118.7437743879854679107666015625">
        <ele>6</ele>
        <time>2023-05-30T10:12:39.000Z</time>
        <extensions>
          <ns3:TrackPointExtension/>
        </extensions>
      </trkpt>
      <trkpt lat="31.99521630071103572845458984375" lon="118.74376676045358180999755859375">
        <ele>6</ele>
        <time>2023-05-30T10:12:40.000Z</time>
        <extensions>
          <ns3:TrackPointExtension/>
        </extensions>
      </trkpt>
      <trkpt lat="31.9951934181153774261474609375" lon="118.743759132921695709228515625">
        <ele>6</ele>
        <time>2023-05-30T10:12:41.000Z</time>
        <extensions>
          <ns3:TrackPointExtension>
            <ns3:hr>133</ns3:hr>
            <ns3:cad>86</ns3:cad>
          </ns3:TrackPointExtension>
        </extensions>
      </trkpt>
      <trkpt lat="31.99517053551971912384033203125" lon="118.7437438778579235076904296875">
        <ele>6</ele>
        <time>2023-05-30T10:12:42.000Z</time>
        <extensions>
          <ns3:TrackPointExtension/>
        </extensions>
      </trkpt>
      <trkpt lat="31.99514958076179027557373046875" lon="118.74373625032603740692138671875">
        <ele>6</ele>
        <time>2023-05-30T10:12:43.000Z</time>
        <extensions>
          <ns3:TrackPointExtension/>
        </extensions>
      </trkpt>
      <trkpt lat="31.9951266981661319732666015625" lon="118.74372099526226520538330078125">
        <ele>6</ele>
        <time>2023-05-30T10:12:44.000Z</time>
        <extensions>
          <ns3:TrackPointExtension/>
        </extensions>
      </trkpt>
      <trkpt lat="31.99510381557047367095947265625" lon="118.74370574019849300384521484375">
        <ele>6.19999980926513671875</ele>
        <time>2023-05-30T10:12:45.000Z</time>
        <extensions>
          <ns3:TrackPointExtension/>
        </extensions>
      </trkpt>
      <trkpt lat="31.99508093297481536865234375" lon="118.74369048513472080230712890625">
        <ele>6.400000095367431640625</ele>
        <time>2023-05-30T10:12:46.000Z</time>
        <extensions>
          <ns3:TrackPointExtension>
            <ns3:hr>133</ns3:hr>
            <ns3:cad>85</ns3:cad>
          </ns3:TrackPointExtension>
        </extensions>
      </trkpt>
      <trkpt lat="31.99505805037915706634521484375" lon="118.7436676025390625">
        <ele>6.599999904632568359375</ele>
        <time>2023-05-30T10:12:47.000Z</time>
        <extensions>
          <ns3:TrackPointExtension/>
        </extensions>
      </trkpt>
      <trkpt lat="31.995037011802196502685546875" lon="118.74365226365625858306884765625">
        <ele>6.80000019073486328125</ele>
        <time>2023-05-30T10:12:48.000Z</time>
        <extensions>
          <ns3:TrackPointExtension/>
        </extensions>
      </trkpt>
      <trkpt lat="31.99501412920653820037841796875" lon="118.74362938106060028076171875">
        <ele>6.80000019073486328125</ele>
        <time>2023-05-30T10:12:49.000Z</time>
        <extensions>
          <ns3:TrackPointExtension/>
        </extensions>
      </trkpt>
      <trkpt lat="31.99499317444860935211181640625" lon="118.74360649846494197845458984375">
        <ele>7</ele>
        <time>2023-05-30T10:12:50.000Z</time>
        <extensions>
          <ns3:TrackPointExtension/>
        </extensions>
      </trkpt>
      <trkpt lat="31.994975991547107696533203125" lon="118.7435836158692836761474609375">
        <ele>7.19999980926513671875</ele>
        <time>2023-05-30T10:12:51.000Z</time>
        <extensions>
          <ns3:TrackPointExtension>
            <ns3:hr>135</ns3:hr>
            <ns3:cad>83</ns3:cad>
          </ns3:TrackPointExtension>
        </extensions>
      </trkpt>
      <trkpt lat="31.99495880864560604095458984375" lon="118.7435531057417392730712890625">
        <ele>7.19999980926513671875</ele>
        <time>2023-05-30T10:12:52.000Z</time>
        <extensions>
          <ns3:TrackPointExtension/>
        </extensions>
      </trkpt>
      <trkpt lat="31.99494170956313610076904296875" lon="118.74353022314608097076416015625">
        <ele>7.400000095367431640625</ele>
        <time>2023-05-30T10:12:53.000Z</time>
        <extensions>
          <ns3:TrackPointExtension/>
        </extensions>
      </trkpt>
      <trkpt lat="31.994926370680332183837890625" lon="118.74350734055042266845703125">
        <ele>7.599999904632568359375</ele>
        <time>2023-05-30T10:12:54.000Z</time>
        <extensions>
          <ns3:TrackPointExtension/>
        </extensions>
      </trkpt>
      <trkpt lat="31.9949111156165599822998046875" lon="118.74348445795476436614990234375">
        <ele>7.599999904632568359375</ele>
        <time>2023-05-30T10:12:55.000Z</time>
        <extensions>
          <ns3:TrackPointExtension/>
        </extensions>
      </trkpt>
      <trkpt lat="31.99489586055278778076171875" lon="118.74346920289099216461181640625">
        <ele>7.80000019073486328125</ele>
        <time>2023-05-30T10:12:56.000Z</time>
        <extensions>
          <ns3:TrackPointExtension>
            <ns3:hr>137</ns3:hr>
            <ns3:cad>83</ns3:cad>
          </ns3:TrackPointExtension>
        </extensions>
      </trkpt>
      <trkpt lat="31.9948844611644744873046875" lon="118.74345394782721996307373046875">
        <ele>7.80000019073486328125</ele>
        <time>2023-05-30T10:12:57.000Z</time>
        <extensions>
          <ns3:TrackPointExtension/>
        </extensions>
      </trkpt>
      <trkpt lat="31.99487683363258838653564453125" lon="118.7434463202953338623046875">
        <ele>7.80000019073486328125</ele>
        <time>2023-05-30T10:12:58.000Z</time>
        <extensions>
          <ns3:TrackPointExtension/>
        </extensions>
      </trkpt>
      <trkpt lat="31.99487113393843173980712890625" lon="118.74343869276344776153564453125">
        <ele>8</ele>
        <time>2023-05-30T10:12:59.000Z</time>
        <extensions>
          <ns3:TrackPointExtension/>
        </extensions>
      </trkpt>
      <trkpt lat="31.99486727826297283172607421875" lon="118.74343869276344776153564453125">
        <ele>8</ele>
        <time>2023-05-30T10:13:00.000Z</time>
        <extensions>
          <ns3:TrackPointExtension/>
        </extensions>
      </trkpt>
      <trkpt lat="31.99486727826297283172607421875" lon="118.74343869276344776153564453125">
        <ele>8</ele>
        <time>2023-05-30T10:13:01.000Z</time>
        <extensions>
          <ns3:TrackPointExtension>
            <ns3:hr>137</ns3:hr>
            <ns3:cad>82</ns3:cad>
          </ns3:TrackPointExtension>
        </extensions>
      </trkpt>
      <trkpt lat="31.9948692061007022857666015625" lon="118.74343869276344776153564453125">
        <ele>8</ele>
        <time>2023-05-30T10:13:02.000Z</time>
        <extensions>
          <ns3:TrackPointExtension/>
        </extensions>
      </trkpt>
      <trkpt lat="31.9948692061007022857666015625" lon="118.74343869276344776153564453125">
        <ele>8</ele>
        <time>2023-05-30T10:13:03.000Z</time>
        <extensions>
          <ns3:TrackPointExtension/>
        </extensions>
      </trkpt>
      <trkpt lat="31.9948692061007022857666015625" lon="118.7434463202953338623046875">
        <ele>8</ele>
        <time>2023-05-30T10:13:04.000Z</time>
        <extensions>
          <ns3:TrackPointExtension/>
        </extensions>
      </trkpt>
      <trkpt lat="31.9948692061007022857666015625" lon="118.74345394782721996307373046875">
        <ele>8</ele>
        <time>2023-05-30T10:13:05.000Z</time>
        <extensions>
          <ns3:TrackPointExtension/>
        </extensions>
      </trkpt>
      <trkpt lat="31.9948692061007022857666015625" lon="118.74345394782721996307373046875">
        <ele>8</ele>
        <time>2023-05-30T10:13:06.000Z</time>
        <extensions>
          <ns3:TrackPointExtension>
            <ns3:hr>138</ns3:hr>
            <ns3:cad>81</ns3:cad>
          </ns3:TrackPointExtension>
        </extensions>
      </trkpt>
      <trkpt lat="31.9948692061007022857666015625" lon="118.74345394782721996307373046875">
        <ele>8</ele>
        <time>2023-05-30T10:13:07.000Z</time>
        <extensions>
          <ns3:TrackPointExtension/>
        </extensions>
      </trkpt>
      <trkpt lat="31.994865350425243377685546875" lon="118.7434463202953338623046875">
        <ele>8</ele>
        <time>2023-05-30T10:13:08.000Z</time>
        <extensions>
          <ns3:TrackPointExtension/>
        </extensions>
      </trkpt>
      <trkpt lat="31.99485965073108673095703125" lon="118.74343869276344776153564453125">
        <ele>8</ele>
        <time>2023-05-30T10:13:09.000Z</time>
        <extensions>
          <ns3:TrackPointExtension/>
        </extensions>
      </trkpt>
      <trkpt lat="31.994853951036930084228515625" lon="118.7434310652315616607666015625">
        <ele>8</ele>
        <time>2023-05-30T10:13:10.000Z</time>
        <extensions>
          <ns3:TrackPointExtension/>
        </extensions>
      </trkpt>
      <trkpt lat="31.99484246782958507537841796875" lon="118.74342343769967555999755859375">
        <ele>8.19999980926513671875</ele>
        <time>2023-05-30T10:13:11.000Z</time>
        <extensions>
          <ns3:TrackPointExtension>
            <ns3:hr>139</ns3:hr>
            <ns3:cad>82</ns3:cad>
          </ns3:TrackPointExtension>
        </extensions>
      </trkpt>
      <trkpt lat="31.99482721276581287384033203125" lon="118.74340818263590335845947265625">
        <ele>8.19999980926513671875</ele>
        <time>2023-05-30T10:13:12.000Z</time>
        <extensions>
          <ns3:TrackPointExtension/>
        </extensions>
      </trkpt>
      <trkpt lat="31.99481002986431121826171875" lon="118.74339292757213115692138671875">
        <ele>8.3999996185302734375</ele>
        <time>2023-05-30T10:13:13.000Z</time>
        <extensions>
          <ns3:TrackPointExtension/>
        </extensions>
      </trkpt>
      <trkpt lat="31.99479100294411182403564453125" lon="118.74337767250835895538330078125">
        <ele>8.3999996185302734375</ele>
        <time>2023-05-30T10:13:14.000Z</time>
        <extensions>
          <ns3:TrackPointExtension/>
        </extensions>
      </trkpt>
      <trkpt lat="31.99477189220488071441650390625" lon="118.7433700449764728546142578125">
        <ele>8.6000003814697265625</ele>
        <time>2023-05-30T10:13:15.000Z</time>
        <extensions>
          <ns3:TrackPointExtension/>
        </extensions>
      </trkpt>
      <trkpt lat="31.994754709303379058837890625" lon="118.743354789912700653076171875">
        <ele>8.6000003814697265625</ele>
        <time>2023-05-30T10:13:16.000Z</time>
        <extensions>
          <ns3:TrackPointExtension>
            <ns3:hr>144</ns3:hr>
            <ns3:cad>83</ns3:cad>
          </ns3:TrackPointExtension>
        </extensions>
      </trkpt>
      <trkpt lat="31.99473568238317966461181640625" lon="118.7433395348489284515380859375">
        <ele>8.6000003814697265625</ele>
        <time>2023-05-30T10:13:17.000Z</time>
        <extensions>
          <ns3:TrackPointExtension/>
        </extensions>
      </trkpt>
      <trkpt lat="31.99471657164394855499267578125" lon="118.74332427978515625">
        <ele>8.80000019073486328125</ele>
        <time>2023-05-30T10:13:18.000Z</time>
        <extensions>
          <ns3:TrackPointExtension/>
        </extensions>
      </trkpt>
      <trkpt lat="31.9946975447237491607666015625" lon="118.74330894090235233306884765625">
        <ele>8.80000019073486328125</ele>
        <time>2023-05-30T10:13:19.000Z</time>
        <extensions>
          <ns3:TrackPointExtension/>
        </extensions>
      </trkpt>
      <trkpt lat="31.9946784339845180511474609375" lon="118.74328605830669403076171875">
        <ele>8.80000019073486328125</ele>
        <time>2023-05-30T10:13:20.000Z</time>
        <extensions>
          <ns3:TrackPointExtension/>
        </extensions>
      </trkpt>
      <trkpt lat="31.99466125108301639556884765625" lon="118.7432708032429218292236328125">
        <ele>9</ele>
        <time>2023-05-30T10:13:21.000Z</time>
        <extensions>
          <ns3:TrackPointExtension>
            <ns3:hr>149</ns3:hr>
            <ns3:cad>83</ns3:cad>
          </ns3:TrackPointExtension>
        </extensions>
      </trkpt>
      <trkpt lat="31.99464415200054645538330078125" lon="118.74324792064726352691650390625">
        <ele>9</ele>
        <time>2023-05-30T10:13:22.000Z</time>
        <extensions>
          <ns3:TrackPointExtension/>
        </extensions>
      </trkpt>
      <trkpt lat="31.99462504126131534576416015625" lon="118.74323266558349132537841796875">
        <ele>9</ele>
        <time>2023-05-30T10:13:23.000Z</time>
        <extensions>
          <ns3:TrackPointExtension/>
        </extensions>
      </trkpt>
      <trkpt lat="31.9946060143411159515380859375" lon="118.7432097829878330230712890625">
        <ele>9.19999980926513671875</ele>
        <time>2023-05-30T10:13:24.000Z</time>
        <extensions>
          <ns3:TrackPointExtension/>
        </extensions>
      </trkpt>
      <trkpt lat="31.99458883143961429595947265625" lon="118.74318690039217472076416015625">
        <ele>9.19999980926513671875</ele>
        <time>2023-05-30T10:13:25.000Z</time>
        <extensions>
          <ns3:TrackPointExtension/>
        </extensions>
      </trkpt>
      <trkpt lat="31.994571648538112640380859375" lon="118.74316401779651641845703125">
        <ele>9.19999980926513671875</ele>
        <time>2023-05-30T10:13:26.000Z</time>
        <extensions>
          <ns3:TrackPointExtension>
            <ns3:hr>153</ns3:hr>
            <ns3:cad>84</ns3:cad>
          </ns3:TrackPointExtension>
        </extensions>
      </trkpt>
      <trkpt lat="31.9945563934743404388427734375" lon="118.74314113520085811614990234375">
        <ele>9.19999980926513671875</ele>
        <time>2023-05-30T10:13:27.000Z</time>
        <extensions>
          <ns3:TrackPointExtension/>
        </extensions>
      </trkpt>
      <trkpt lat="31.9945411384105682373046875" lon="118.7431182526051998138427734375">
        <ele>9.19999980926513671875</ele>
        <time>2023-05-30T10:13:28.000Z</time>
        <extensions>
          <ns3:TrackPointExtension/>
        </extensions>
      </trkpt>
      <trkpt lat="31.99452395550906658172607421875" lon="118.74309537000954151153564453125">
        <ele>9.19999980926513671875</ele>
        <time>2023-05-30T10:13:29.000Z</time>
        <extensions>
          <ns3:TrackPointExtension/>
        </extensions>
      </trkpt>
      <trkpt lat="31.9945067726075649261474609375" lon="118.743072487413883209228515625">
        <ele>9</ele>
        <time>2023-05-30T10:13:30.000Z</time>
        <extensions>
          <ns3:TrackPointExtension/>
        </extensions>
      </trkpt>
      <trkpt lat="31.99448958970606327056884765625" lon="118.74304960481822490692138671875">
        <ele>9</ele>
        <time>2023-05-30T10:13:31.000Z</time>
        <extensions>
          <ns3:TrackPointExtension>
            <ns3:hr>156</ns3:hr>
            <ns3:cad>85</ns3:cad>
          </ns3:TrackPointExtension>
        </extensions>
      </trkpt>
      <trkpt lat="31.99447249062359333038330078125" lon="118.7430267222225666046142578125">
        <ele>9</ele>
        <time>2023-05-30T10:13:32.000Z</time>
        <extensions>
          <ns3:TrackPointExtension/>
        </extensions>
      </trkpt>
      <trkpt lat="31.99445723555982112884521484375" lon="118.7429962120950222015380859375">
        <ele>9</ele>
        <time>2023-05-30T10:13:33.000Z</time>
        <extensions>
          <ns3:TrackPointExtension/>
        </extensions>
      </trkpt>
      <trkpt lat="31.9944400526583194732666015625" lon="118.742973245680332183837890625">
        <ele>9</ele>
        <time>2023-05-30T10:13:34.000Z</time>
        <extensions>
          <ns3:TrackPointExtension/>
        </extensions>
      </trkpt>
      <trkpt lat="31.994424797594547271728515625" lon="118.74295036308467388153076171875">
        <ele>9</ele>
        <time>2023-05-30T10:13:35.000Z</time>
        <extensions>
          <ns3:TrackPointExtension/>
        </extensions>
      </trkpt>
      <trkpt lat="31.9944095425307750701904296875" lon="118.74291985295712947845458984375">
        <ele>9</ele>
        <time>2023-05-30T10:13:36.000Z</time>
        <extensions>
          <ns3:TrackPointExtension>
            <ns3:hr>158</ns3:hr>
            <ns3:cad>86</ns3:cad>
          </ns3:TrackPointExtension>
        </extensions>
      </trkpt>
      <trkpt lat="31.99439235962927341461181640625" lon="118.7428969703614711761474609375">
        <ele>9</ele>
        <time>2023-05-30T10:13:37.000Z</time>
        <extensions>
          <ns3:TrackPointExtension/>
        </extensions>
      </trkpt>
      <trkpt lat="31.99437710456550121307373046875" lon="118.74287408776581287384033203125">
        <ele>9</ele>
        <time>2023-05-30T10:13:38.000Z</time>
        <extensions>
          <ns3:TrackPointExtension/>
        </extensions>
      </trkpt>
      <trkpt lat="31.9943599216639995574951171875" lon="118.74284357763826847076416015625">
        <ele>9</ele>
        <time>2023-05-30T10:13:39.000Z</time>
        <extensions>
          <ns3:TrackPointExtension/>
        </extensions>
      </trkpt>
      <trkpt lat="31.994338966906070709228515625" lon="118.74282069504261016845703125">
        <ele>9</ele>
        <time>2023-05-30T10:13:40.000Z</time>
        <extensions>
          <ns3:TrackPointExtension/>
        </extensions>
      </trkpt>
      <trkpt lat="31.994319856166839599609375" lon="118.74279781244695186614990234375">
        <ele>9</ele>
        <time>2023-05-30T10:13:41.000Z</time>
        <extensions>
          <ns3:TrackPointExtension>
            <ns3:hr>159</ns3:hr>
            <ns3:cad>90</ns3:cad>
          </ns3:TrackPointExtension>
        </extensions>
      </trkpt>
      <trkpt lat="31.9942989014089107513427734375" lon="118.74278255738317966461181640625">
        <ele>9</ele>
        <time>2023-05-30T10:13:42.000Z</time>
        <extensions>
          <ns3:TrackPointExtension/>
        </extensions>
      </trkpt>
      <trkpt lat="31.994277946650981903076171875" lon="118.7427596747875213623046875">
        <ele>9</ele>
        <time>2023-05-30T10:13:43.000Z</time>
        <extensions>
          <ns3:TrackPointExtension/>
        </extensions>
      </trkpt>
      <trkpt lat="31.99425690807402133941650390625" lon="118.74273679219186305999755859375">
        <ele>8.80000019073486328125</ele>
        <time>2023-05-30T10:13:44.000Z</time>
        <extensions>
          <ns3:TrackPointExtension/>
        </extensions>
      </trkpt>
      <trkpt lat="31.994234025478363037109375" lon="118.74272153712809085845947265625">
        <ele>8.80000019073486328125</ele>
        <time>2023-05-30T10:13:45.000Z</time>
        <extensions>
          <ns3:TrackPointExtension/>
        </extensions>
      </trkpt>
      <trkpt lat="31.9942073710262775421142578125" lon="118.74270628206431865692138671875">
        <ele>8.6000003814697265625</ele>
        <time>2023-05-30T10:13:46.000Z</time>
        <extensions>
          <ns3:TrackPointExtension>
            <ns3:hr>160</ns3:hr>
            <ns3:cad>90</ns3:cad>
          </ns3:TrackPointExtension>
        </extensions>
      </trkpt>
      <trkpt lat="31.9941825605928897857666015625" lon="118.74269102700054645538330078125">
        <ele>8.6000003814697265625</ele>
        <time>2023-05-30T10:13:47.000Z</time>
        <extensions>
          <ns3:TrackPointExtension/>
        </extensions>
      </trkpt>
      <trkpt lat="31.994153894484043121337890625" lon="118.7426833994686603546142578125">
        <ele>8.3999996185302734375</ele>
        <time>2023-05-30T10:13:48.000Z</time>
        <extensions>
          <ns3:TrackPointExtension/>
        </extensions>
      </trkpt>
      <trkpt lat="31.9941272400319576263427734375" lon="118.742668144404888153076171875">
        <ele>8.3999996185302734375</ele>
        <time>2023-05-30T10:13:49.000Z</time>
        <extensions>
          <ns3:TrackPointExtension/>
        </extensions>
      </trkpt>
      <trkpt lat="31.99410050176084041595458984375" lon="118.74266051687300205230712890625">
        <ele>8.3999996185302734375</ele>
        <time>2023-05-30T10:13:50.000Z</time>
        <extensions>
          <ns3:TrackPointExtension/>
        </extensions>
      </trkpt>
      <trkpt lat="31.99407384730875492095947265625" lon="118.7426528893411159515380859375">
        <ele>8.3999996185302734375</ele>
        <time>2023-05-30T10:13:51.000Z</time>
        <extensions>
          <ns3:TrackPointExtension>
            <ns3:hr>159</ns3:hr>
            <ns3:cad>88</ns3:cad>
          </ns3:TrackPointExtension>
        </extensions>
      </trkpt>
      <trkpt lat="31.99404903687536716461181640625" lon="118.74263763427734375">
        <ele>8.19999980926513671875</ele>
        <time>2023-05-30T10:13:52.000Z</time>
        <extensions>
          <ns3:TrackPointExtension/>
        </extensions>
      </trkpt>
      <trkpt lat="31.9940222986042499542236328125" lon="118.742629922926425933837890625">
        <ele>8.19999980926513671875</ele>
        <time>2023-05-30T10:13:53.000Z</time>
        <extensions>
          <ns3:TrackPointExtension/>
        </extensions>
      </trkpt>
      <trkpt lat="31.99399757198989391326904296875" lon="118.7426146678626537322998046875">
        <ele>8.19999980926513671875</ele>
        <time>2023-05-30T10:13:54.000Z</time>
        <extensions>
          <ns3:TrackPointExtension/>
        </extensions>
      </trkpt>
      <trkpt lat="31.99397276155650615692138671875" lon="118.74260704033076763153076171875">
        <ele>8.19999980926513671875</ele>
        <time>2023-05-30T10:13:55.000Z</time>
        <extensions>
          <ns3:TrackPointExtension/>
        </extensions>
      </trkpt>
      <trkpt lat="31.99394795112311840057373046875" lon="118.74259178526699542999267578125">
        <ele>8</ele>
        <time>2023-05-30T10:13:56.000Z</time>
        <extensions>
          <ns3:TrackPointExtension>
            <ns3:hr>158</ns3:hr>
            <ns3:cad>87</ns3:cad>
          </ns3:TrackPointExtension>
        </extensions>
      </trkpt>
      <trkpt lat="31.99392314068973064422607421875" lon="118.7425841577351093292236328125">
        <ele>8</ele>
        <time>2023-05-30T10:13:57.000Z</time>
        <extensions>
          <ns3:TrackPointExtension/>
        </extensions>
      </trkpt>
      <trkpt lat="31.99389833025634288787841796875" lon="118.742568902671337127685546875">
        <ele>8</ele>
        <time>2023-05-30T10:13:58.000Z</time>
        <extensions>
          <ns3:TrackPointExtension/>
        </extensions>
      </trkpt>
      <trkpt lat="31.99387351982295513153076171875" lon="118.74256127513945102691650390625">
        <ele>8</ele>
        <time>2023-05-30T10:13:59.000Z</time>
        <extensions>
          <ns3:TrackPointExtension/>
        </extensions>
      </trkpt>
      <trkpt lat="31.993848793208599090576171875" lon="118.74254602007567882537841796875">
        <ele>8</ele>
        <time>2023-05-30T10:14:00.000Z</time>
        <extensions>
          <ns3:TrackPointExtension/>
        </extensions>
      </trkpt>
      <trkpt lat="31.993823982775211334228515625" lon="118.7425231374800205230712890625">
        <ele>7.80000019073486328125</ele>
        <time>2023-05-30T10:14:01.000Z</time>
        <extensions>
          <ns3:TrackPointExtension>
            <ns3:hr>158</ns3:hr>
            <ns3:cad>87</ns3:cad>
          </ns3:TrackPointExtension>
        </extensions>
      </trkpt>
      <trkpt lat="31.993799172341823577880859375" lon="118.742507882416248321533203125">
        <ele>7.80000019073486328125</ele>
        <time>2023-05-30T10:14:02.000Z</time>
        <extensions>
          <ns3:TrackPointExtension/>
        </extensions>
      </trkpt>
      <trkpt lat="31.99377243407070636749267578125" lon="118.7424926273524761199951171875">
        <ele>7.80000019073486328125</ele>
        <time>2023-05-30T10:14:03.000Z</time>
        <extensions>
          <ns3:TrackPointExtension/>
        </extensions>
      </trkpt>
      <trkpt lat="31.9937477074563503265380859375" lon="118.74247737228870391845703125">
        <ele>7.599999904632568359375</ele>
        <time>2023-05-30T10:14:04.000Z</time>
        <extensions>
          <ns3:TrackPointExtension/>
        </extensions>
      </trkpt>
      <trkpt lat="31.99372096918523311614990234375" lon="118.7424621172249317169189453125">
        <ele>7.599999904632568359375</ele>
        <time>2023-05-30T10:14:05.000Z</time>
        <extensions>
          <ns3:TrackPointExtension/>
        </extensions>
      </trkpt>
      <trkpt lat="31.99369423091411590576171875" lon="118.74243923462927341461181640625">
        <ele>7.400000095367431640625</ele>
        <time>2023-05-30T10:14:06.000Z</time>
        <extensions>
          <ns3:TrackPointExtension>
            <ns3:hr>157</ns3:hr>
            <ns3:cad>90</ns3:cad>
          </ns3:TrackPointExtension>
        </extensions>
      </trkpt>
      <trkpt lat="31.9936675764620304107666015625" lon="118.74242397956550121307373046875">
        <ele>7.19999980926513671875</ele>
        <time>2023-05-30T10:14:07.000Z</time>
        <extensions>
          <ns3:TrackPointExtension/>
        </extensions>
      </trkpt>
      <trkpt lat="31.99364469386637210845947265625" lon="118.74240872450172901153564453125">
        <ele>7</ele>
        <time>2023-05-30T10:14:08.000Z</time>
        <extensions>
          <ns3:TrackPointExtension/>
        </extensions>
      </trkpt>
      <trkpt lat="31.99361988343298435211181640625" lon="118.742385841906070709228515625">
        <ele>6.80000019073486328125</ele>
        <time>2023-05-30T10:14:09.000Z</time>
        <extensions>
          <ns3:TrackPointExtension/>
        </extensions>
      </trkpt>
      <trkpt lat="31.9935970008373260498046875" lon="118.7423705868422985076904296875">
        <ele>6.80000019073486328125</ele>
        <time>2023-05-30T10:14:10.000Z</time>
        <extensions>
          <ns3:TrackPointExtension/>
        </extensions>
      </trkpt>
      <trkpt lat="31.99357219040393829345703125" lon="118.74234770424664020538330078125">
        <ele>6.599999904632568359375</ele>
        <time>2023-05-30T10:14:11.000Z</time>
        <extensions>
          <ns3:TrackPointExtension>
            <ns3:hr>159</ns3:hr>
            <ns3:cad>90</ns3:cad>
          </ns3:TrackPointExtension>
        </extensions>
      </trkpt>
      <trkpt lat="31.99354930780827999114990234375" lon="118.74233244918286800384521484375">
        <ele>6.400000095367431640625</ele>
        <time>2023-05-30T10:14:12.000Z</time>
        <extensions>
          <ns3:TrackPointExtension/>
        </extensions>
      </trkpt>
      <trkpt lat="31.9935264252126216888427734375" lon="118.7423095665872097015380859375">
        <ele>6.19999980926513671875</ele>
        <time>2023-05-30T10:14:13.000Z</time>
        <extensions>
          <ns3:TrackPointExtension/>
        </extensions>
      </trkpt>
      <trkpt lat="31.993505470454692840576171875" lon="118.7422943115234375">
        <ele>6.19999980926513671875</ele>
        <time>2023-05-30T10:14:14.000Z</time>
        <extensions>
          <ns3:TrackPointExtension/>
        </extensions>
      </trkpt>
      <trkpt lat="31.99348258785903453826904296875" lon="118.7422713451087474822998046875">
        <ele>6</ele>
        <time>2023-05-30T10:14:15.000Z</time>
        <extensions>
          <ns3:TrackPointExtension/>
        </extensions>
      </trkpt>
      <trkpt lat="31.993461549282073974609375" lon="118.74225609004497528076171875">
        <ele>6</ele>
        <time>2023-05-30T10:14:16.000Z</time>
        <extensions>
          <ns3:TrackPointExtension>
            <ns3:hr>160</ns3:hr>
            <ns3:cad>89</ns3:cad>
          </ns3:TrackPointExtension>
        </extensions>
      </trkpt>
      <trkpt lat="31.99343866668641567230224609375" lon="118.74223320744931697845458984375">
        <ele>6.19999980926513671875</ele>
        <time>2023-05-30T10:14:17.000Z</time>
        <extensions>
          <ns3:TrackPointExtension/>
        </extensions>
      </trkpt>
      <trkpt lat="31.993419639766216278076171875" lon="118.74221795238554477691650390625">
        <ele>6.400000095367431640625</ele>
        <time>2023-05-30T10:14:18.000Z</time>
        <extensions>
          <ns3:TrackPointExtension/>
        </extensions>
      </trkpt>
      <trkpt lat="31.99339675717055797576904296875" lon="118.74220269732177257537841796875">
        <ele>6.599999904632568359375</ele>
        <time>2023-05-30T10:14:19.000Z</time>
        <extensions>
          <ns3:TrackPointExtension/>
        </extensions>
      </trkpt>
      <trkpt lat="31.993375718593597412109375" lon="118.7421798147261142730712890625">
        <ele>6.599999904632568359375</ele>
        <time>2023-05-30T10:14:20.000Z</time>
        <extensions>
          <ns3:TrackPointExtension/>
        </extensions>
      </trkpt>
      <trkpt lat="31.9933547638356685638427734375" lon="118.742164559662342071533203125">
        <ele>6.80000019073486328125</ele>
        <time>2023-05-30T10:14:21.000Z</time>
        <extensions>
          <ns3:TrackPointExtension>
            <ns3:hr>160</ns3:hr>
            <ns3:cad>89</ns3:cad>
          </ns3:TrackPointExtension>
        </extensions>
      </trkpt>
      <trkpt lat="31.993333809077739715576171875" lon="118.74214167706668376922607421875">
        <ele>7</ele>
        <time>2023-05-30T10:14:22.000Z</time>
        <extensions>
          <ns3:TrackPointExtension/>
        </extensions>
      </trkpt>
      <trkpt lat="31.99331469833850860595703125" lon="118.74212642200291156768798828125">
        <ele>7.19999980926513671875</ele>
        <time>2023-05-30T10:14:23.000Z</time>
        <extensions>
          <ns3:TrackPointExtension/>
        </extensions>
      </trkpt>
      <trkpt lat="31.9932937435805797576904296875" lon="118.74211116693913936614990234375">
        <ele>7.19999980926513671875</ele>
        <time>2023-05-30T10:14:24.000Z</time>
        <extensions>
          <ns3:TrackPointExtension/>
        </extensions>
      </trkpt>
      <trkpt lat="31.99327270500361919403076171875" lon="118.7420882843434810638427734375">
        <ele>7.400000095367431640625</ele>
        <time>2023-05-30T10:14:25.000Z</time>
        <extensions>
          <ns3:TrackPointExtension/>
        </extensions>
      </trkpt>
      <trkpt lat="31.99325175024569034576416015625" lon="118.7420730292797088623046875">
        <ele>7.599999904632568359375</ele>
        <time>2023-05-30T10:14:26.000Z</time>
        <extensions>
          <ns3:TrackPointExtension>
            <ns3:hr>160</ns3:hr>
            <ns3:cad>88</ns3:cad>
          </ns3:TrackPointExtension>
        </extensions>
      </trkpt>
      <trkpt lat="31.99323079548776149749755859375" lon="118.7420577742159366607666015625">
        <ele>7.80000019073486328125</ele>
        <time>2023-05-30T10:14:27.000Z</time>
        <extensions>
          <ns3:TrackPointExtension/>
        </extensions>
      </trkpt>
      <trkpt lat="31.993209756910800933837890625" lon="118.742042519152164459228515625">
        <ele>7.80000019073486328125</ele>
        <time>2023-05-30T10:14:28.000Z</time>
        <extensions>
          <ns3:TrackPointExtension/>
        </extensions>
      </trkpt>
      <trkpt lat="31.99319072999060153961181640625" lon="118.7420272640883922576904296875">
        <ele>8</ele>
        <time>2023-05-30T10:14:29.000Z</time>
        <extensions>
          <ns3:TrackPointExtension/>
        </extensions>
      </trkpt>
      <trkpt lat="31.99316977523267269134521484375" lon="118.74201200902462005615234375">
        <ele>8.19999980926513671875</ele>
        <time>2023-05-30T10:14:30.000Z</time>
        <extensions>
          <ns3:TrackPointExtension/>
        </extensions>
      </trkpt>
      <trkpt lat="31.99315066449344158172607421875" lon="118.7419967539608478546142578125">
        <ele>8.19999980926513671875</ele>
        <time>2023-05-30T10:14:31.000Z</time>
        <extensions>
          <ns3:TrackPointExtension>
            <ns3:hr>161</ns3:hr>
            <ns3:cad>88</ns3:cad>
          </ns3:TrackPointExtension>
        </extensions>
      </trkpt>
      <trkpt lat="31.99312970973551273345947265625" lon="118.741981498897075653076171875">
        <ele>8.19999980926513671875</ele>
        <time>2023-05-30T10:14:32.000Z</time>
        <extensions>
          <ns3:TrackPointExtension/>
        </extensions>
      </trkpt>
      <trkpt lat="31.9931086711585521697998046875" lon="118.7419662438333034515380859375">
        <ele>8.19999980926513671875</ele>
        <time>2023-05-30T10:14:33.000Z</time>
        <extensions>
          <ns3:TrackPointExtension/>
        </extensions>
      </trkpt>
      <trkpt lat="31.99308578856289386749267578125" lon="118.74195861630141735076904296875">
        <ele>8.3999996185302734375</ele>
        <time>2023-05-30T10:14:34.000Z</time>
        <extensions>
          <ns3:TrackPointExtension/>
        </extensions>
      </trkpt>
      <trkpt lat="31.99306483380496501922607421875" lon="118.741943277418613433837890625">
        <ele>8.3999996185302734375</ele>
        <time>2023-05-30T10:14:35.000Z</time>
        <extensions>
          <ns3:TrackPointExtension/>
        </extensions>
      </trkpt>
      <trkpt lat="31.99304387904703617095947265625" lon="118.7419280223548412322998046875">
        <ele>8.3999996185302734375</ele>
        <time>2023-05-30T10:14:36.000Z</time>
        <extensions>
          <ns3:TrackPointExtension>
            <ns3:hr>162</ns3:hr>
            <ns3:cad>87</ns3:cad>
          </ns3:TrackPointExtension>
        </extensions>
      </trkpt>
      <trkpt lat="31.99302476830780506134033203125" lon="118.74191276729106903076171875">
        <ele>8.3999996185302734375</ele>
        <time>2023-05-30T10:14:37.000Z</time>
        <extensions>
          <ns3:TrackPointExtension/>
        </extensions>
      </trkpt>
      <trkpt lat="31.99300381354987621307373046875" lon="118.7418975122272968292236328125">
        <ele>8.6000003814697265625</ele>
        <time>2023-05-30T10:14:38.000Z</time>
        <extensions>
          <ns3:TrackPointExtension/>
        </extensions>
      </trkpt>
      <trkpt lat="31.99298470281064510345458984375" lon="118.74188988469541072845458984375">
        <ele>8.6000003814697265625</ele>
        <time>2023-05-30T10:14:39.000Z</time>
        <extensions>
          <ns3:TrackPointExtension/>
        </extensions>
      </trkpt>
      <trkpt lat="31.9929618202149868011474609375" lon="118.74187462963163852691650390625">
        <ele>8.6000003814697265625</ele>
        <time>2023-05-30T10:14:40.000Z</time>
        <extensions>
          <ns3:TrackPointExtension/>
        </extensions>
      </trkpt>
      <trkpt lat="31.992940865457057952880859375" lon="118.74185937456786632537841796875">
        <ele>8.80000019073486328125</ele>
        <time>2023-05-30T10:14:41.000Z</time>
        <extensions>
          <ns3:TrackPointExtension>
            <ns3:hr>162</ns3:hr>
            <ns3:cad>87</ns3:cad>
          </ns3:TrackPointExtension>
        </extensions>
      </trkpt>
      <trkpt lat="31.9929199106991291046142578125" lon="118.741851747035980224609375">
        <ele>8.80000019073486328125</ele>
        <time>2023-05-30T10:14:42.000Z</time>
        <extensions>
          <ns3:TrackPointExtension/>
        </extensions>
      </trkpt>
      <trkpt lat="31.99289887212216854095458984375" lon="118.7418364919722080230712890625">
        <ele>8.80000019073486328125</ele>
        <time>2023-05-30T10:14:43.000Z</time>
        <extensions>
          <ns3:TrackPointExtension/>
        </extensions>
      </trkpt>
      <trkpt lat="31.99287791736423969268798828125" lon="118.741821236908435821533203125">
        <ele>8.80000019073486328125</ele>
        <time>2023-05-30T10:14:44.000Z</time>
        <extensions>
          <ns3:TrackPointExtension/>
        </extensions>
      </trkpt>
      <trkpt lat="31.99285696260631084442138671875" lon="118.74181360937654972076416015625">
        <ele>8.80000019073486328125</ele>
        <time>2023-05-30T10:14:45.000Z</time>
        <extensions>
          <ns3:TrackPointExtension/>
        </extensions>
      </trkpt>
      <trkpt lat="31.99283785186707973480224609375" lon="118.74179835431277751922607421875">
        <ele>8.80000019073486328125</ele>
        <time>2023-05-30T10:14:46.000Z</time>
        <extensions>
          <ns3:TrackPointExtension>
            <ns3:hr>160</ns3:hr>
            <ns3:cad>88</ns3:cad>
          </ns3:TrackPointExtension>
        </extensions>
      </trkpt>
      <trkpt lat="31.99281689710915088653564453125" lon="118.74178309924900531768798828125">
        <ele>8.80000019073486328125</ele>
        <time>2023-05-30T10:14:47.000Z</time>
        <extensions>
          <ns3:TrackPointExtension/>
        </extensions>
      </trkpt>
      <trkpt lat="31.99279778636991977691650390625" lon="118.7417754717171192169189453125">
        <ele>8.80000019073486328125</ele>
        <time>2023-05-30T10:14:48.000Z</time>
        <extensions>
          <ns3:TrackPointExtension/>
        </extensions>
      </trkpt>
      <trkpt lat="31.99277683161199092864990234375" lon="118.741760216653347015380859375">
        <ele>8.6000003814697265625</ele>
        <time>2023-05-30T10:14:49.000Z</time>
        <extensions>
          <ns3:TrackPointExtension/>
        </extensions>
      </trkpt>
      <trkpt lat="31.99275587685406208038330078125" lon="118.7417449615895748138427734375">
        <ele>8.6000003814697265625</ele>
        <time>2023-05-30T10:14:50.000Z</time>
        <extensions>
          <ns3:TrackPointExtension/>
        </extensions>
      </trkpt>
      <trkpt lat="31.99273676611483097076416015625" lon="118.7417297065258026123046875">
        <ele>8.6000003814697265625</ele>
        <time>2023-05-30T10:14:51.000Z</time>
        <extensions>
          <ns3:TrackPointExtension>
            <ns3:hr>159</ns3:hr>
            <ns3:cad>88</ns3:cad>
          </ns3:TrackPointExtension>
        </extensions>
      </trkpt>
      <trkpt lat="31.99271581135690212249755859375" lon="118.74172207899391651153564453125">
        <ele>8.6000003814697265625</ele>
        <time>2023-05-30T10:14:52.000Z</time>
        <extensions>
          <ns3:TrackPointExtension/>
        </extensions>
      </trkpt>
      <trkpt lat="31.99269670061767101287841796875" lon="118.74170682393014430999755859375">
        <ele>8.6000003814697265625</ele>
        <time>2023-05-30T10:14:53.000Z</time>
        <extensions>
          <ns3:TrackPointExtension/>
        </extensions>
      </trkpt>
      <trkpt lat="31.99267574585974216461181640625" lon="118.74169156886637210845947265625">
        <ele>8.80000019073486328125</ele>
        <time>2023-05-30T10:14:54.000Z</time>
        <extensions>
          <ns3:TrackPointExtension/>
        </extensions>
      </trkpt>
      <trkpt lat="31.99265663512051105499267578125" lon="118.74167631380259990692138671875">
        <ele>8.80000019073486328125</ele>
        <time>2023-05-30T10:14:55.000Z</time>
        <extensions>
          <ns3:TrackPointExtension/>
        </extensions>
      </trkpt>
      <trkpt lat="31.99263568036258220672607421875" lon="118.74166105873882770538330078125">
        <ele>8.80000019073486328125</ele>
        <time>2023-05-30T10:14:56.000Z</time>
        <extensions>
          <ns3:TrackPointExtension>
            <ns3:hr>158</ns3:hr>
            <ns3:cad>90</ns3:cad>
          </ns3:TrackPointExtension>
        </extensions>
      </trkpt>
      <trkpt lat="31.9926166534423828125" lon="118.7416534312069416046142578125">
        <ele>8.80000019073486328125</ele>
        <time>2023-05-30T10:14:57.000Z</time>
        <extensions>
          <ns3:TrackPointExtension/>
        </extensions>
      </trkpt>
      <trkpt lat="31.99259947054088115692138671875" lon="118.74164580367505550384521484375">
        <ele>9</ele>
        <time>2023-05-30T10:14:58.000Z</time>
        <extensions>
          <ns3:TrackPointExtension/>
        </extensions>
      </trkpt>
      <trkpt lat="31.99258421547710895538330078125" lon="118.741638176143169403076171875">
        <ele>9</ele>
        <time>2023-05-30T10:14:59.000Z</time>
        <extensions>
          <ns3:TrackPointExtension/>
        </extensions>
      </trkpt>
      <trkpt lat="31.992572732269763946533203125" lon="118.741638176143169403076171875">
        <ele>9.19999980926513671875</ele>
        <time>2023-05-30T10:15:00.000Z</time>
        <extensions>
          <ns3:TrackPointExtension/>
        </extensions>
      </trkpt>
      <trkpt lat="31.99256510473787784576416015625" lon="118.741638176143169403076171875">
        <ele>9.19999980926513671875</ele>
        <time>2023-05-30T10:15:01.000Z</time>
        <extensions>
          <ns3:TrackPointExtension>
            <ns3:hr>159</ns3:hr>
            <ns3:cad>88</ns3:cad>
          </ns3:TrackPointExtension>
        </extensions>
      </trkpt>
      <trkpt lat="31.99255940504372119903564453125" lon="118.74163054861128330230712890625">
        <ele>9.19999980926513671875</ele>
        <time>2023-05-30T10:15:02.000Z</time>
        <extensions>
          <ns3:TrackPointExtension/>
        </extensions>
      </trkpt>
      <trkpt lat="31.99255554936826229095458984375" lon="118.74163054861128330230712890625">
        <ele>9.19999980926513671875</ele>
        <time>2023-05-30T10:15:03.000Z</time>
        <extensions>
          <ns3:TrackPointExtension/>
        </extensions>
      </trkpt>
      <trkpt lat="31.9925574772059917449951171875" lon="118.74163054861128330230712890625">
        <ele>9.19999980926513671875</ele>
        <time>2023-05-30T10:15:04.000Z</time>
        <extensions>
          <ns3:TrackPointExtension/>
        </extensions>
      </trkpt>
      <trkpt lat="31.992561332881450653076171875" lon="118.74163054861128330230712890625">
        <ele>9.19999980926513671875</ele>
        <time>2023-05-30T10:15:05.000Z</time>
        <extensions>
          <ns3:TrackPointExtension/>
        </extensions>
      </trkpt>
      <trkpt lat="31.9925670325756072998046875" lon="118.741638176143169403076171875">
        <ele>9.19999980926513671875</ele>
        <time>2023-05-30T10:15:06.000Z</time>
        <extensions>
          <ns3:TrackPointExtension>
            <ns3:hr>159</ns3:hr>
            <ns3:cad>84</ns3:cad>
          </ns3:TrackPointExtension>
        </extensions>
      </trkpt>
      <trkpt lat="31.99257843196392059326171875" lon="118.74164580367505550384521484375">
        <ele>9.19999980926513671875</ele>
        <time>2023-05-30T10:15:07.000Z</time>
        <extensions>
          <ns3:TrackPointExtension/>
        </extensions>
      </trkpt>
      <trkpt lat="31.99259184300899505615234375" lon="118.7416534312069416046142578125">
        <ele>9</ele>
        <time>2023-05-30T10:15:08.000Z</time>
        <extensions>
          <ns3:TrackPointExtension/>
        </extensions>
      </trkpt>
      <trkpt lat="31.99260517023503780364990234375" lon="118.74166868627071380615234375">
        <ele>9</ele>
        <time>2023-05-30T10:15:09.000Z</time>
        <extensions>
          <ns3:TrackPointExtension/>
        </extensions>
      </trkpt>
      <trkpt lat="31.992622353136539459228515625" lon="118.74167631380259990692138671875">
        <ele>8.80000019073486328125</ele>
        <time>2023-05-30T10:15:10.000Z</time>
        <extensions>
          <ns3:TrackPointExtension/>
        </extensions>
      </trkpt>
      <trkpt lat="31.9926376082003116607666015625" lon="118.7416839413344860076904296875">
        <ele>8.80000019073486328125</ele>
        <time>2023-05-30T10:15:11.000Z</time>
        <extensions>
          <ns3:TrackPointExtension>
            <ns3:hr>158</ns3:hr>
            <ns3:cad>85</ns3:cad>
          </ns3:TrackPointExtension>
        </extensions>
      </trkpt>
      <trkpt lat="31.99265479110181331634521484375" lon="118.741699196398258209228515625">
        <ele>8.80000019073486328125</ele>
        <time>2023-05-30T10:15:12.000Z</time>
        <extensions>
          <ns3:TrackPointExtension/>
        </extensions>
      </trkpt>
      <trkpt lat="31.99267189018428325653076171875" lon="118.7417144514620304107666015625">
        <ele>8.80000019073486328125</ele>
        <time>2023-05-30T10:15:13.000Z</time>
        <extensions>
          <ns3:TrackPointExtension/>
        </extensions>
      </trkpt>
      <trkpt lat="31.992689073085784912109375" lon="118.74173733405768871307373046875">
        <ele>8.80000019073486328125</ele>
        <time>2023-05-30T10:15:14.000Z</time>
        <extensions>
          <ns3:TrackPointExtension/>
        </extensions>
      </trkpt>
      <trkpt lat="31.99270625598728656768798828125" lon="118.74175258912146091461181640625">
        <ele>8.80000019073486328125</ele>
        <time>2023-05-30T10:15:15.000Z</time>
        <extensions>
          <ns3:TrackPointExtension/>
        </extensions>
      </trkpt>
      <trkpt lat="31.99272536672651767730712890625" lon="118.7417754717171192169189453125">
        <ele>9</ele>
        <time>2023-05-30T10:15:16.000Z</time>
        <extensions>
          <ns3:TrackPointExtension>
            <ns3:hr>158</ns3:hr>
            <ns3:cad>86</ns3:cad>
          </ns3:TrackPointExtension>
        </extensions>
      </trkpt>
      <trkpt lat="31.992744393646717071533203125" lon="118.74179072678089141845703125">
        <ele>9</ele>
        <time>2023-05-30T10:15:17.000Z</time>
        <extensions>
          <ns3:TrackPointExtension/>
        </extensions>
      </trkpt>
      <trkpt lat="31.99276350438594818115234375" lon="118.74181360937654972076416015625">
        <ele>9.19999980926513671875</ele>
        <time>2023-05-30T10:15:18.000Z</time>
        <extensions>
          <ns3:TrackPointExtension/>
        </extensions>
      </trkpt>
      <trkpt lat="31.99278253130614757537841796875" lon="118.74182886444032192230224609375">
        <ele>9.19999980926513671875</ele>
        <time>2023-05-30T10:15:19.000Z</time>
        <extensions>
          <ns3:TrackPointExtension/>
        </extensions>
      </trkpt>
      <trkpt lat="31.99280164204537868499755859375" lon="118.74184411950409412384033203125">
        <ele>9.19999980926513671875</ele>
        <time>2023-05-30T10:15:20.000Z</time>
        <extensions>
          <ns3:TrackPointExtension/>
        </extensions>
      </trkpt>
      <trkpt lat="31.9928206689655780792236328125" lon="118.7418670020997524261474609375">
        <ele>9.19999980926513671875</ele>
        <time>2023-05-30T10:15:21.000Z</time>
        <extensions>
          <ns3:TrackPointExtension>
            <ns3:hr>156</ns3:hr>
            <ns3:cad>85</ns3:cad>
          </ns3:TrackPointExtension>
        </extensions>
      </trkpt>
      <trkpt lat="31.9928397797048091888427734375" lon="118.741882257163524627685546875">
        <ele>9.3999996185302734375</ele>
        <time>2023-05-30T10:15:22.000Z</time>
        <extensions>
          <ns3:TrackPointExtension/>
        </extensions>
      </trkpt>
      <trkpt lat="31.99285696260631084442138671875" lon="118.7418975122272968292236328125">
        <ele>9.3999996185302734375</ele>
        <time>2023-05-30T10:15:23.000Z</time>
        <extensions>
          <ns3:TrackPointExtension/>
        </extensions>
      </trkpt>
      <trkpt lat="31.99287221767008304595947265625" lon="118.74192039482295513153076171875">
        <ele>9.3999996185302734375</ele>
        <time>2023-05-30T10:15:24.000Z</time>
        <extensions>
          <ns3:TrackPointExtension/>
        </extensions>
      </trkpt>
      <trkpt lat="31.99288747273385524749755859375" lon="118.74193564988672733306884765625">
        <ele>9.6000003814697265625</ele>
        <time>2023-05-30T10:15:25.000Z</time>
        <extensions>
          <ns3:TrackPointExtension/>
        </extensions>
      </trkpt>
      <trkpt lat="31.99290272779762744903564453125" lon="118.74195098876953125">
        <ele>9.6000003814697265625</ele>
        <time>2023-05-30T10:15:26.000Z</time>
        <extensions>
          <ns3:TrackPointExtension>
            <ns3:hr>156</ns3:hr>
            <ns3:cad>85</ns3:cad>
          </ns3:TrackPointExtension>
        </extensions>
      </trkpt>
      <trkpt lat="31.992916055023670196533203125" lon="118.7419662438333034515380859375">
        <ele>9.6000003814697265625</ele>
        <time>2023-05-30T10:15:27.000Z</time>
        <extensions>
          <ns3:TrackPointExtension/>
        </extensions>
      </trkpt>
      <trkpt lat="31.99292938224971294403076171875" lon="118.741981498897075653076171875">
        <ele>9.6000003814697265625</ele>
        <time>2023-05-30T10:15:28.000Z</time>
        <extensions>
          <ns3:TrackPointExtension/>
        </extensions>
      </trkpt>
      <trkpt lat="31.99293893761932849884033203125" lon="118.74198912642896175384521484375">
        <ele>9.6000003814697265625</ele>
        <time>2023-05-30T10:15:29.000Z</time>
        <extensions>
          <ns3:TrackPointExtension/>
        </extensions>
      </trkpt>
      <trkpt lat="31.992946565151214599609375" lon="118.74200438149273395538330078125">
        <ele>9.80000019073486328125</ele>
        <time>2023-05-30T10:15:30.000Z</time>
        <extensions>
          <ns3:TrackPointExtension/>
        </extensions>
      </trkpt>
      <trkpt lat="31.992952264845371246337890625" lon="118.74201200902462005615234375">
        <ele>9.80000019073486328125</ele>
        <time>2023-05-30T10:15:31.000Z</time>
        <extensions>
          <ns3:TrackPointExtension>
            <ns3:hr>156</ns3:hr>
            <ns3:cad>83</ns3:cad>
          </ns3:TrackPointExtension>
        </extensions>
      </trkpt>
      <trkpt lat="31.9929561205208301544189453125" lon="118.74201963655650615692138671875">
        <ele>9.80000019073486328125</ele>
        <time>2023-05-30T10:15:32.000Z</time>
        <extensions>
          <ns3:TrackPointExtension/>
        </extensions>
      </trkpt>
      <trkpt lat="31.9929561205208301544189453125" lon="118.74201963655650615692138671875">
        <ele>9.80000019073486328125</ele>
        <time>2023-05-30T10:15:33.000Z</time>
        <extensions>
          <ns3:TrackPointExtension/>
        </extensions>
      </trkpt>
      <trkpt lat="31.9929599761962890625" lon="118.74201963655650615692138671875">
        <ele>9.6000003814697265625</ele>
        <time>2023-05-30T10:15:34.000Z</time>
        <extensions>
          <ns3:TrackPointExtension/>
        </extensions>
      </trkpt>
      <trkpt lat="31.99295804835855960845947265625" lon="118.74201963655650615692138671875">
        <ele>9.6000003814697265625</ele>
        <time>2023-05-30T10:15:35.000Z</time>
        <extensions>
          <ns3:TrackPointExtension/>
        </extensions>
      </trkpt>
      <trkpt lat="31.9929561205208301544189453125" lon="118.74201963655650615692138671875">
        <ele>9.80000019073486328125</ele>
        <time>2023-05-30T10:15:36.000Z</time>
        <extensions>
          <ns3:TrackPointExtension>
            <ns3:hr>153</ns3:hr>
            <ns3:cad>65</ns3:cad>
          </ns3:TrackPointExtension>
        </extensions>
      </trkpt>
      <trkpt lat="31.992952264845371246337890625" lon="118.74201200902462005615234375">
        <ele>9.80000019073486328125</ele>
        <time>2023-05-30T10:15:37.000Z</time>
        <extensions>
          <ns3:TrackPointExtension/>
        </extensions>
      </trkpt>
      <trkpt lat="31.992946565151214599609375" lon="118.74200438149273395538330078125">
        <ele>9.80000019073486328125</ele>
        <time>2023-05-30T10:15:38.000Z</time>
        <extensions>
          <ns3:TrackPointExtension/>
        </extensions>
      </trkpt>
      <trkpt lat="31.99293893761932849884033203125" lon="118.7419967539608478546142578125">
        <ele>9.80000019073486328125</ele>
        <time>2023-05-30T10:15:39.000Z</time>
        <extensions>
          <ns3:TrackPointExtension/>
        </extensions>
      </trkpt>
      <trkpt lat="31.99293323792517185211181640625" lon="118.74198912642896175384521484375">
        <ele>9.80000019073486328125</ele>
        <time>2023-05-30T10:15:40.000Z</time>
        <extensions>
          <ns3:TrackPointExtension/>
        </extensions>
      </trkpt>
      <trkpt lat="31.9929256103932857513427734375" lon="118.741981498897075653076171875">
        <ele>9.80000019073486328125</ele>
        <time>2023-05-30T10:15:41.000Z</time>
        <extensions>
          <ns3:TrackPointExtension>
            <ns3:hr>153</ns3:hr>
            <ns3:cad>56</ns3:cad>
          </ns3:TrackPointExtension>
        </extensions>
      </trkpt>
      <trkpt lat="31.9929199106991291046142578125" lon="118.74197387136518955230712890625">
        <ele>9.6000003814697265625</ele>
        <time>2023-05-30T10:15:42.000Z</time>
        <extensions>
          <ns3:TrackPointExtension/>
        </extensions>
      </trkpt>
      <trkpt lat="31.99291228316724300384521484375" lon="118.7419662438333034515380859375">
        <ele>9.6000003814697265625</ele>
        <time>2023-05-30T10:15:43.000Z</time>
        <extensions>
          <ns3:TrackPointExtension/>
        </extensions>
      </trkpt>
      <trkpt lat="31.9929064996540546417236328125" lon="118.74195861630141735076904296875">
        <ele>9.6000003814697265625</ele>
        <time>2023-05-30T10:15:44.000Z</time>
        <extensions>
          <ns3:TrackPointExtension/>
        </extensions>
      </trkpt>
      <trkpt lat="31.99289887212216854095458984375" lon="118.74195098876953125">
        <ele>9.6000003814697265625</ele>
        <time>2023-05-30T10:15:45.000Z</time>
        <extensions>
          <ns3:TrackPointExtension/>
        </extensions>
      </trkpt>
      <trkpt lat="31.992891244590282440185546875" lon="118.741943277418613433837890625">
        <ele>9.6000003814697265625</ele>
        <time>2023-05-30T10:15:46.000Z</time>
        <extensions>
          <ns3:TrackPointExtension>
            <ns3:hr>151</ns3:hr>
            <ns3:cad>53</ns3:cad>
          </ns3:TrackPointExtension>
        </extensions>
      </trkpt>
      <trkpt lat="31.99288554489612579345703125" lon="118.74193564988672733306884765625">
        <ele>9.6000003814697265625</ele>
        <time>2023-05-30T10:15:47.000Z</time>
        <extensions>
          <ns3:TrackPointExtension/>
        </extensions>
      </trkpt>
      <trkpt lat="31.99287791736423969268798828125" lon="118.7419280223548412322998046875">
        <ele>9.6000003814697265625</ele>
        <time>2023-05-30T10:15:48.000Z</time>
        <extensions>
          <ns3:TrackPointExtension/>
        </extensions>
      </trkpt>
      <trkpt lat="31.9928702898323535919189453125" lon="118.74192039482295513153076171875">
        <ele>9.6000003814697265625</ele>
        <time>2023-05-30T10:15:49.000Z</time>
        <extensions>
          <ns3:TrackPointExtension/>
        </extensions>
      </trkpt>
      <trkpt lat="31.9928645901381969451904296875" lon="118.74191276729106903076171875">
        <ele>9.3999996185302734375</ele>
        <time>2023-05-30T10:15:50.000Z</time>
        <extensions>
          <ns3:TrackPointExtension/>
        </extensions>
      </trkpt>
      <trkpt lat="31.99285696260631084442138671875" lon="118.74190513975918292999267578125">
        <ele>9.3999996185302734375</ele>
        <time>2023-05-30T10:15:51.000Z</time>
        <extensions>
          <ns3:TrackPointExtension>
            <ns3:hr>149</ns3:hr>
            <ns3:cad>52</ns3:cad>
          </ns3:TrackPointExtension>
        </extensions>
      </trkpt>
      <trkpt lat="31.99284933507442474365234375" lon="118.7418975122272968292236328125">
        <ele>9.3999996185302734375</ele>
        <time>2023-05-30T10:15:52.000Z</time>
        <extensions>
          <ns3:TrackPointExtension/>
        </extensions>
      </trkpt>
      <trkpt lat="31.99284355156123638153076171875" lon="118.74188988469541072845458984375">
        <ele>9.3999996185302734375</ele>
        <time>2023-05-30T10:15:53.000Z</time>
        <extensions>
          <ns3:TrackPointExtension/>
        </extensions>
      </trkpt>
      <trkpt lat="31.99283785186707973480224609375" lon="118.741882257163524627685546875">
        <ele>9.3999996185302734375</ele>
        <time>2023-05-30T10:15:54.000Z</time>
        <extensions>
          <ns3:TrackPointExtension/>
        </extensions>
      </trkpt>
      <trkpt lat="31.992830224335193634033203125" lon="118.7418670020997524261474609375">
        <ele>9.19999980926513671875</ele>
        <time>2023-05-30T10:15:55.000Z</time>
        <extensions>
          <ns3:TrackPointExtension/>
        </extensions>
      </trkpt>
      <trkpt lat="31.9928245246410369873046875" lon="118.74185937456786632537841796875">
        <ele>9.19999980926513671875</ele>
        <time>2023-05-30T10:15:56.000Z</time>
        <extensions>
          <ns3:TrackPointExtension>
            <ns3:hr>145</ns3:hr>
            <ns3:cad>54</ns3:cad>
          </ns3:TrackPointExtension>
        </extensions>
      </trkpt>
      <trkpt lat="31.99281689710915088653564453125" lon="118.741851747035980224609375">
        <ele>9.19999980926513671875</ele>
        <time>2023-05-30T10:15:57.000Z</time>
        <extensions>
          <ns3:TrackPointExtension/>
        </extensions>
      </trkpt>
      <trkpt lat="31.99281119741499423980712890625" lon="118.74184411950409412384033203125">
        <ele>9.19999980926513671875</ele>
        <time>2023-05-30T10:15:58.000Z</time>
        <extensions>
          <ns3:TrackPointExtension/>
        </extensions>
      </trkpt>
      <trkpt lat="31.992805413901805877685546875" lon="118.7418364919722080230712890625">
        <ele>9.19999980926513671875</ele>
        <time>2023-05-30T10:15:59.000Z</time>
        <extensions>
          <ns3:TrackPointExtension/>
        </extensions>
      </trkpt>
      <trkpt lat="31.99279971420764923095703125" lon="118.74182886444032192230224609375">
        <ele>9</ele>
        <time>2023-05-30T10:16:00.000Z</time>
        <extensions>
          <ns3:TrackPointExtension/>
        </extensions>
      </trkpt>
      <trkpt lat="31.99279208667576313018798828125" lon="118.741821236908435821533203125">
        <ele>9</ele>
        <time>2023-05-30T10:16:01.000Z</time>
        <extensions>
          <ns3:TrackPointExtension>
            <ns3:hr>139</ns3:hr>
            <ns3:cad>57</ns3:cad>
          </ns3:TrackPointExtension>
        </extensions>
      </trkpt>
      <trkpt lat="31.99278638698160648345947265625" lon="118.74181360937654972076416015625">
        <ele>9</ele>
        <time>2023-05-30T10:16:02.000Z</time>
        <extensions>
          <ns3:TrackPointExtension/>
        </extensions>
      </trkpt>
      <trkpt lat="31.992780603468418121337890625" lon="118.7418059818446636199951171875">
        <ele>9</ele>
        <time>2023-05-30T10:16:03.000Z</time>
        <extensions>
          <ns3:TrackPointExtension/>
        </extensions>
      </trkpt>
      <trkpt lat="31.992774903774261474609375" lon="118.74179835431277751922607421875">
        <ele>9</ele>
        <time>2023-05-30T10:16:04.000Z</time>
        <extensions>
          <ns3:TrackPointExtension/>
        </extensions>
      </trkpt>
      <trkpt lat="31.992769204080104827880859375" lon="118.74179072678089141845703125">
        <ele>9</ele>
        <time>2023-05-30T10:16:05.000Z</time>
        <extensions>
          <ns3:TrackPointExtension/>
        </extensions>
      </trkpt>
      <trkpt lat="31.99276350438594818115234375" lon="118.74178309924900531768798828125">
        <ele>8.80000019073486328125</ele>
        <time>2023-05-30T10:16:06.000Z</time>
        <extensions>
          <ns3:TrackPointExtension>
            <ns3:hr>137</ns3:hr>
            <ns3:cad>55</ns3:cad>
          </ns3:TrackPointExtension>
        </extensions>
      </trkpt>
      <trkpt lat="31.99275772087275981903076171875" lon="118.74178309924900531768798828125">
        <ele>9</ele>
        <time>2023-05-30T10:16:07.000Z</time>
        <extensions>
          <ns3:TrackPointExtension/>
        </extensions>
      </trkpt>
      <trkpt lat="31.99275202117860317230224609375" lon="118.7417754717171192169189453125">
        <ele>8.80000019073486328125</ele>
        <time>2023-05-30T10:16:08.000Z</time>
        <extensions>
          <ns3:TrackPointExtension/>
        </extensions>
      </trkpt>
      <trkpt lat="31.99274632148444652557373046875" lon="118.7417754717171192169189453125">
        <ele>9</ele>
        <time>2023-05-30T10:16:09.000Z</time>
        <extensions>
          <ns3:TrackPointExtension/>
        </extensions>
      </trkpt>
      <trkpt lat="31.99274246580898761749267578125" lon="118.7417754717171192169189453125">
        <ele>9</ele>
        <time>2023-05-30T10:16:10.000Z</time>
        <extensions>
          <ns3:TrackPointExtension/>
        </extensions>
      </trkpt>
      <trkpt lat="31.9927386939525604248046875" lon="118.7417754717171192169189453125">
        <ele>9</ele>
        <time>2023-05-30T10:16:11.000Z</time>
        <extensions>
          <ns3:TrackPointExtension>
            <ns3:hr>132</ns3:hr>
            <ns3:cad>53</ns3:cad>
          </ns3:TrackPointExtension>
        </extensions>
      </trkpt>
      <trkpt lat="31.9927348382771015167236328125" lon="118.7417754717171192169189453125">
        <ele>9</ele>
        <time>2023-05-30T10:16:12.000Z</time>
        <extensions>
          <ns3:TrackPointExtension/>
        </extensions>
      </trkpt>
      <trkpt lat="31.99273106642067432403564453125" lon="118.7417754717171192169189453125">
        <ele>9</ele>
        <time>2023-05-30T10:16:13.000Z</time>
        <extensions>
          <ns3:TrackPointExtension/>
        </extensions>
      </trkpt>
      <trkpt lat="31.9927291385829448699951171875" lon="118.7417754717171192169189453125">
        <ele>9</ele>
        <time>2023-05-30T10:16:14.000Z</time>
        <extensions>
          <ns3:TrackPointExtension/>
        </extensions>
      </trkpt>
      <trkpt lat="31.99272721074521541595458984375" lon="118.74178309924900531768798828125">
        <ele>9</ele>
        <time>2023-05-30T10:16:15.000Z</time>
        <extensions>
          <ns3:TrackPointExtension/>
        </extensions>
      </trkpt>
      <trkpt lat="31.99272721074521541595458984375" lon="118.74178309924900531768798828125">
        <ele>9</ele>
        <time>2023-05-30T10:16:16.000Z</time>
        <extensions>
          <ns3:TrackPointExtension>
            <ns3:hr>127</ns3:hr>
            <ns3:cad>53</ns3:cad>
          </ns3:TrackPointExtension>
        </extensions>
      </trkpt>
      <trkpt lat="31.99272536672651767730712890625" lon="118.74179072678089141845703125">
        <ele>9</ele>
        <time>2023-05-30T10:16:17.000Z</time>
        <extensions>
          <ns3:TrackPointExtension/>
        </extensions>
      </trkpt>
      <trkpt lat="31.99272536672651767730712890625" lon="118.74179072678089141845703125">
        <ele>9</ele>
        <time>2023-05-30T10:16:18.000Z</time>
        <extensions>
          <ns3:TrackPointExtension/>
        </extensions>
      </trkpt>
      <trkpt lat="31.99272721074521541595458984375" lon="118.74179072678089141845703125">
        <ele>9</ele>
        <time>2023-05-30T10:16:19.000Z</time>
        <extensions>
          <ns3:TrackPointExtension/>
        </extensions>
      </trkpt>
      <trkpt lat="31.99272721074521541595458984375" lon="118.74179072678089141845703125">
        <ele>9</ele>
        <time>2023-05-30T10:16:20.000Z</time>
        <extensions>
          <ns3:TrackPointExtension/>
        </extensions>
      </trkpt>
      <trkpt lat="31.9927291385829448699951171875" lon="118.74179072678089141845703125">
        <ele>9</ele>
        <time>2023-05-30T10:16:21.000Z</time>
        <extensions>
          <ns3:TrackPointExtension>
            <ns3:hr>127</ns3:hr>
            <ns3:cad>53</ns3:cad>
          </ns3:TrackPointExtension>
        </extensions>
      </trkpt>
      <trkpt lat="31.99273106642067432403564453125" lon="118.74179072678089141845703125">
        <ele>9</ele>
        <time>2023-05-30T10:16:22.000Z</time>
        <extensions>
          <ns3:TrackPointExtension/>
        </extensions>
      </trkpt>
      <trkpt lat="31.9927348382771015167236328125" lon="118.74179072678089141845703125">
        <ele>9</ele>
        <time>2023-05-30T10:16:23.000Z</time>
        <extensions>
          <ns3:TrackPointExtension/>
        </extensions>
      </trkpt>
      <trkpt lat="31.99273676611483097076416015625" lon="118.74179072678089141845703125">
        <ele>9</ele>
        <time>2023-05-30T10:16:24.000Z</time>
        <extensions>
          <ns3:TrackPointExtension/>
        </extensions>
      </trkpt>
      <trkpt lat="31.9927386939525604248046875" lon="118.74178309924900531768798828125">
        <ele>9</ele>
        <time>2023-05-30T10:16:25.000Z</time>
        <extensions>
          <ns3:TrackPointExtension/>
        </extensions>
      </trkpt>
      <trkpt lat="31.9927386939525604248046875" lon="118.74178309924900531768798828125">
        <ele>9</ele>
        <time>2023-05-30T10:16:26.000Z</time>
        <extensions>
          <ns3:TrackPointExtension>
            <ns3:hr>122</ns3:hr>
            <ns3:cad>49</ns3:cad>
          </ns3:TrackPointExtension>
        </extensions>
      </trkpt>
      <trkpt lat="31.9927386939525604248046875" lon="118.74178309924900531768798828125">
        <ele>9</ele>
        <time>2023-05-30T10:16:27.000Z</time>
        <extensions>
          <ns3:TrackPointExtension/>
        </extensions>
      </trkpt>
      <trkpt lat="31.9927386939525604248046875" lon="118.7417754717171192169189453125">
        <ele>9</ele>
        <time>2023-05-30T10:16:28.000Z</time>
        <extensions>
          <ns3:TrackPointExtension/>
        </extensions>
      </trkpt>
      <trkpt lat="31.99273676611483097076416015625" lon="118.7417754717171192169189453125">
        <ele>9</ele>
        <time>2023-05-30T10:16:29.000Z</time>
        <extensions>
          <ns3:TrackPointExtension/>
        </extensions>
      </trkpt>
      <trkpt lat="31.9927348382771015167236328125" lon="118.74176784418523311614990234375">
        <ele>8.80000019073486328125</ele>
        <time>2023-05-30T10:16:30.000Z</time>
        <extensions>
          <ns3:TrackPointExtension/>
        </extensions>
      </trkpt>
      <trkpt lat="31.9927348382771015167236328125" lon="118.74176784418523311614990234375">
        <ele>8.80000019073486328125</ele>
        <time>2023-05-30T10:16:31.000Z</time>
        <extensions>
          <ns3:TrackPointExtension>
            <ns3:hr>119</ns3:hr>
            <ns3:cad>67</ns3:cad>
          </ns3:TrackPointExtension>
        </extensions>
      </trkpt>
      <trkpt lat="31.99273676611483097076416015625" lon="118.74176784418523311614990234375">
        <ele>8.80000019073486328125</ele>
        <time>2023-05-30T10:16:32.000Z</time>
        <extensions>
          <ns3:TrackPointExtension/>
        </extensions>
      </trkpt>
      <trkpt lat="31.9927386939525604248046875" lon="118.7417754717171192169189453125">
        <ele>9</ele>
        <time>2023-05-30T10:16:33.000Z</time>
        <extensions>
          <ns3:TrackPointExtension/>
        </extensions>
      </trkpt>
      <trkpt lat="31.99274246580898761749267578125" lon="118.7417754717171192169189453125">
        <ele>9</ele>
        <time>2023-05-30T10:16:34.000Z</time>
        <extensions>
          <ns3:TrackPointExtension/>
        </extensions>
      </trkpt>
      <trkpt lat="31.99275009334087371826171875" lon="118.74178309924900531768798828125">
        <ele>9</ele>
        <time>2023-05-30T10:16:35.000Z</time>
        <extensions>
          <ns3:TrackPointExtension/>
        </extensions>
      </trkpt>
      <trkpt lat="31.9927596487104892730712890625" lon="118.74179072678089141845703125">
        <ele>9</ele>
        <time>2023-05-30T10:16:36.000Z</time>
        <extensions>
          <ns3:TrackPointExtension>
            <ns3:hr>121</ns3:hr>
            <ns3:cad>82</ns3:cad>
          </ns3:TrackPointExtension>
        </extensions>
      </trkpt>
      <trkpt lat="31.99277113191783428192138671875" lon="118.7418059818446636199951171875">
        <ele>9</ele>
        <time>2023-05-30T10:16:37.000Z</time>
        <extensions>
          <ns3:TrackPointExtension/>
        </extensions>
      </trkpt>
      <trkpt lat="31.9927844591438770294189453125" lon="118.74181360937654972076416015625">
        <ele>9</ele>
        <time>2023-05-30T10:16:38.000Z</time>
        <extensions>
          <ns3:TrackPointExtension/>
        </extensions>
      </trkpt>
      <trkpt lat="31.99280164204537868499755859375" lon="118.74182886444032192230224609375">
        <ele>9</ele>
        <time>2023-05-30T10:16:39.000Z</time>
        <extensions>
          <ns3:TrackPointExtension/>
        </extensions>
      </trkpt>
      <trkpt lat="31.9928206689655780792236328125" lon="118.74184411950409412384033203125">
        <ele>9.19999980926513671875</ele>
        <time>2023-05-30T10:16:40.000Z</time>
        <extensions>
          <ns3:TrackPointExtension/>
        </extensions>
      </trkpt>
      <trkpt lat="31.9928397797048091888427734375" lon="118.7418670020997524261474609375">
        <ele>9.19999980926513671875</ele>
        <time>2023-05-30T10:16:41.000Z</time>
        <extensions>
          <ns3:TrackPointExtension>
            <ns3:hr>125</ns3:hr>
            <ns3:cad>87</ns3:cad>
          </ns3:TrackPointExtension>
        </extensions>
      </trkpt>
      <trkpt lat="31.99285880662500858306884765625" lon="118.741882257163524627685546875">
        <ele>9.19999980926513671875</ele>
        <time>2023-05-30T10:16:42.000Z</time>
        <extensions>
          <ns3:TrackPointExtension/>
        </extensions>
      </trkpt>
      <trkpt lat="31.99287791736423969268798828125" lon="118.7418975122272968292236328125">
        <ele>9.3999996185302734375</ele>
        <time>2023-05-30T10:16:43.000Z</time>
        <extensions>
          <ns3:TrackPointExtension/>
        </extensions>
      </trkpt>
      <trkpt lat="31.9928951002657413482666015625" lon="118.74191276729106903076171875">
        <ele>9.3999996185302734375</ele>
        <time>2023-05-30T10:16:44.000Z</time>
        <extensions>
          <ns3:TrackPointExtension/>
        </extensions>
      </trkpt>
      <trkpt lat="31.99291228316724300384521484375" lon="118.74192039482295513153076171875">
        <ele>9.3999996185302734375</ele>
        <time>2023-05-30T10:16:45.000Z</time>
        <extensions>
          <ns3:TrackPointExtension/>
        </extensions>
      </trkpt>
      <trkpt lat="31.99292938224971294403076171875" lon="118.74193564988672733306884765625">
        <ele>9.3999996185302734375</ele>
        <time>2023-05-30T10:16:46.000Z</time>
        <extensions>
          <ns3:TrackPointExtension>
            <ns3:hr>127</ns3:hr>
            <ns3:cad>69</ns3:cad>
          </ns3:TrackPointExtension>
        </extensions>
      </trkpt>
      <trkpt lat="31.99294463731348514556884765625" lon="118.741943277418613433837890625">
        <ele>9.19999980926513671875</ele>
        <time>2023-05-30T10:16:47.000Z</time>
        <extensions>
          <ns3:TrackPointExtension/>
        </extensions>
      </trkpt>
      <trkpt lat="31.9929599761962890625" lon="118.74195098876953125">
        <ele>9.19999980926513671875</ele>
        <time>2023-05-30T10:16:48.000Z</time>
        <extensions>
          <ns3:TrackPointExtension/>
        </extensions>
      </trkpt>
      <trkpt lat="31.99297330342233180999755859375" lon="118.7419662438333034515380859375">
        <ele>9.19999980926513671875</ele>
        <time>2023-05-30T10:16:49.000Z</time>
        <extensions>
          <ns3:TrackPointExtension/>
        </extensions>
      </trkpt>
      <trkpt lat="31.9929866306483745574951171875" lon="118.7419662438333034515380859375">
        <ele>9.19999980926513671875</ele>
        <time>2023-05-30T10:16:50.000Z</time>
        <extensions>
          <ns3:TrackPointExtension/>
        </extensions>
      </trkpt>
      <trkpt lat="31.99299995787441730499267578125" lon="118.74197387136518955230712890625">
        <ele>9.19999980926513671875</ele>
        <time>2023-05-30T10:16:51.000Z</time>
        <extensions>
          <ns3:TrackPointExtension>
            <ns3:hr>127</ns3:hr>
            <ns3:cad>71</ns3:cad>
          </ns3:TrackPointExtension>
        </extensions>
      </trkpt>
      <trkpt lat="31.99301336891949176788330078125" lon="118.741981498897075653076171875">
        <ele>9</ele>
        <time>2023-05-30T10:16:52.000Z</time>
        <extensions>
          <ns3:TrackPointExtension/>
        </extensions>
      </trkpt>
      <trkpt lat="31.99302476830780506134033203125" lon="118.74198912642896175384521484375">
        <ele>9</ele>
        <time>2023-05-30T10:16:53.000Z</time>
        <extensions>
          <ns3:TrackPointExtension/>
        </extensions>
      </trkpt>
      <trkpt lat="31.9930362515151500701904296875" lon="118.74198912642896175384521484375">
        <ele>9</ele>
        <time>2023-05-30T10:16:54.000Z</time>
        <extensions>
          <ns3:TrackPointExtension/>
        </extensions>
      </trkpt>
      <trkpt lat="31.99304957874119281768798828125" lon="118.7419967539608478546142578125">
        <ele>9</ele>
        <time>2023-05-30T10:16:55.000Z</time>
        <extensions>
          <ns3:TrackPointExtension/>
        </extensions>
      </trkpt>
      <trkpt lat="31.9930610619485378265380859375" lon="118.7419967539608478546142578125">
        <ele>8.80000019073486328125</ele>
        <time>2023-05-30T10:16:56.000Z</time>
        <extensions>
          <ns3:TrackPointExtension>
            <ns3:hr>128</ns3:hr>
            <ns3:cad>54</ns3:cad>
          </ns3:TrackPointExtension>
        </extensions>
      </trkpt>
      <trkpt lat="31.99307053349912166595458984375" lon="118.7419967539608478546142578125">
        <ele>8.80000019073486328125</ele>
        <time>2023-05-30T10:16:57.000Z</time>
        <extensions>
          <ns3:TrackPointExtension/>
        </extensions>
      </trkpt>
      <trkpt lat="31.9930781610310077667236328125" lon="118.74200438149273395538330078125">
        <ele>8.80000019073486328125</ele>
        <time>2023-05-30T10:16:58.000Z</time>
        <extensions>
          <ns3:TrackPointExtension/>
        </extensions>
      </trkpt>
      <trkpt lat="31.99308578856289386749267578125" lon="118.74200438149273395538330078125">
        <ele>8.80000019073486328125</ele>
        <time>2023-05-30T10:16:59.000Z</time>
        <extensions>
          <ns3:TrackPointExtension/>
        </extensions>
      </trkpt>
    </trkseg>
  </trk>
</gpx>
