<gpx xmlns:ns3="http://www.garmin.com/xmlschemas/TrackPointExtension/v1" xmlns="http://www.topografix.com/GPX/1/1" xmlns:xsi="http://www.w3.org/2001/XMLSchema-instance" xmlns:ns2="http://www.garmin.com/xmlschemas/GpxExtensions/v3" creator="Garmin Connect" version="1.1" xsi:schemaLocation="http://www.topografix.com/GPX/1/1 http://www.topografix.com/GPX/11.xsd">
  <extensions>
<distance>2300.0</distance>
<average_hr>158.0</average_hr>
<average_speed>2.6497695852534564</average_speed>
<start_time>2021-03-05T09:56:07+00:00</start_time>
<end_time>2021-03-05T10:10:35+00:00</end_time>
<moving_time>867.0</moving_time>
<elapsed_time>872.0</elapsed_time>
</extensions>
<metadata>
    <link href="connect.garmin.com">
      <text>Garmin Connect</text>
    </link>
    <time>2021-03-05T09:56:07.000Z</time>
  </metadata>
  <trk>
    <name>室内跑步</name>
    <type>indoor_running</type>
    <trkseg/>
  </trk>
</gpx>
