<gpx xmlns:ns3="http://www.garmin.com/xmlschemas/TrackPointExtension/v1" xmlns="http://www.topografix.com/GPX/1/1" xmlns:xsi="http://www.w3.org/2001/XMLSchema-instance" xmlns:ns2="http://www.garmin.com/xmlschemas/GpxExtensions/v3" creator="Garmin Connect" version="1.1" xsi:schemaLocation="http://www.topografix.com/GPX/1/1 http://www.topografix.com/GPX/11.xsd">
  <extensions>
<distance>5340.0</distance>
<average_hr>150.0</average_hr>
<average_speed>2.2259274697790747</average_speed>
<start_time>2022-02-24T03:38:54+00:00</start_time>
<end_time>2022-02-24T04:18:53+00:00</end_time>
<moving_time>2221.0</moving_time>
<elapsed_time>2403.0</elapsed_time>
</extensions>
<metadata>
    <link href="connect.garmin.com">
      <text>Garmin Connect</text>
    </link>
    <time>2022-02-24T03:38:54.000Z</time>
  </metadata>
  <trk>
    <name>室内跑步</name>
    <type>indoor_running</type>
    <trkseg/>
  </trk>
</gpx>
