<gpx xmlns:ns3="http://www.garmin.com/xmlschemas/TrackPointExtension/v1" xmlns="http://www.topografix.com/GPX/1/1" xmlns:xsi="http://www.w3.org/2001/XMLSchema-instance" xmlns:ns2="http://www.garmin.com/xmlschemas/GpxExtensions/v3" creator="Garmin Connect" version="1.1" xsi:schemaLocation="http://www.topografix.com/GPX/1/1 http://www.topografix.com/GPX/11.xsd">
  <extensions>
<distance>700.0</distance>
<average_hr>144.0</average_hr>
<average_speed>2.2950819672131146</average_speed>
<start_time>2023-11-06T00:41:51+00:00</start_time>
<end_time>2023-11-06T00:46:56+00:00</end_time>
<moving_time>299.0</moving_time>
<elapsed_time>308.0</elapsed_time>
</extensions>
<metadata>
    <link href="connect.garmin.com">
      <text>Garmin Connect</text>
    </link>
    <time>2023-11-06T00:41:51.000Z</time>
  </metadata>
  <trk>
    <name>南京市 跑步</name>
    <type>running</type>
    <trkseg>
      <trkpt lat="31.96644206531345844268798828125" lon="118.8238296099007129669189453125">
        <ele>8.19999980926513671875</ele>
        <time>2023-11-06T00:41:56.000Z</time>
        <extensions>
          <ns3:TrackPointExtension>
            <ns3:hr>112</ns3:hr>
          </ns3:TrackPointExtension>
        </extensions>
      </trkpt>
      <trkpt lat="31.966443993151187896728515625" lon="118.823814354836940765380859375">
        <ele>8</ele>
        <time>2023-11-06T00:41:57.000Z</time>
        <extensions>
          <ns3:TrackPointExtension/>
        </extensions>
      </trkpt>
      <trkpt lat="31.96644969284534454345703125" lon="118.82379147224128246307373046875">
        <ele>7.80000019073486328125</ele>
        <time>2023-11-06T00:41:58.000Z</time>
        <extensions>
          <ns3:TrackPointExtension/>
        </extensions>
      </trkpt>
      <trkpt lat="31.966455392539501190185546875" lon="118.8237685896456241607666015625">
        <ele>7.80000019073486328125</ele>
        <time>2023-11-06T00:41:59.000Z</time>
        <extensions>
          <ns3:TrackPointExtension/>
        </extensions>
      </trkpt>
      <trkpt lat="31.96646117605268955230712890625" lon="118.82374570704996585845947265625">
        <ele>7.599999904632568359375</ele>
        <time>2023-11-06T00:42:00.000Z</time>
        <extensions>
          <ns3:TrackPointExtension/>
        </extensions>
      </trkpt>
      <trkpt lat="31.9664649479091167449951171875" lon="118.82371519692242145538330078125">
        <ele>7.19999980926513671875</ele>
        <time>2023-11-06T00:42:01.000Z</time>
        <extensions>
          <ns3:TrackPointExtension>
            <ns3:hr>119</ns3:hr>
            <ns3:cad>81</ns3:cad>
          </ns3:TrackPointExtension>
        </extensions>
      </trkpt>
      <trkpt lat="31.9664706476032733917236328125" lon="118.82368468679487705230712890625">
        <ele>7.19999980926513671875</ele>
        <time>2023-11-06T00:42:02.000Z</time>
        <extensions>
          <ns3:TrackPointExtension/>
        </extensions>
      </trkpt>
      <trkpt lat="31.96647643111646175384521484375" lon="118.82366180419921875">
        <ele>7</ele>
        <time>2023-11-06T00:42:03.000Z</time>
        <extensions>
          <ns3:TrackPointExtension/>
        </extensions>
      </trkpt>
      <trkpt lat="31.9664840586483478546142578125" lon="118.8236388377845287322998046875">
        <ele>7</ele>
        <time>2023-11-06T00:42:04.000Z</time>
        <extensions>
          <ns3:TrackPointExtension/>
        </extensions>
      </trkpt>
      <trkpt lat="31.96649168618023395538330078125" lon="118.8236083276569843292236328125">
        <ele>7.19999980926513671875</ele>
        <time>2023-11-06T00:42:05.000Z</time>
        <extensions>
          <ns3:TrackPointExtension/>
        </extensions>
      </trkpt>
      <trkpt lat="31.96649738587439060211181640625" lon="118.8235778175294399261474609375">
        <ele>7.400000095367431640625</ele>
        <time>2023-11-06T00:42:06.000Z</time>
        <extensions>
          <ns3:TrackPointExtension>
            <ns3:hr>123</ns3:hr>
            <ns3:cad>81</ns3:cad>
          </ns3:TrackPointExtension>
        </extensions>
      </trkpt>
      <trkpt lat="31.96650308556854724884033203125" lon="118.82355493493378162384033203125">
        <ele>7.400000095367431640625</ele>
        <time>2023-11-06T00:42:07.000Z</time>
        <extensions>
          <ns3:TrackPointExtension/>
        </extensions>
      </trkpt>
      <trkpt lat="31.96650878526270389556884765625" lon="118.82352442480623722076416015625">
        <ele>7.599999904632568359375</ele>
        <time>2023-11-06T00:42:08.000Z</time>
        <extensions>
          <ns3:TrackPointExtension/>
        </extensions>
      </trkpt>
      <trkpt lat="31.966516412794589996337890625" lon="118.82350154221057891845703125">
        <ele>7.80000019073486328125</ele>
        <time>2023-11-06T00:42:09.000Z</time>
        <extensions>
          <ns3:TrackPointExtension/>
        </extensions>
      </trkpt>
      <trkpt lat="31.96652219630777835845947265625" lon="118.823471032083034515380859375">
        <ele>7.80000019073486328125</ele>
        <time>2023-11-06T00:42:10.000Z</time>
        <extensions>
          <ns3:TrackPointExtension/>
        </extensions>
      </trkpt>
      <trkpt lat="31.9665259681642055511474609375" lon="118.8234405219554901123046875">
        <ele>8</ele>
        <time>2023-11-06T00:42:11.000Z</time>
        <extensions>
          <ns3:TrackPointExtension>
            <ns3:hr>130</ns3:hr>
            <ns3:cad>80</ns3:cad>
          </ns3:TrackPointExtension>
        </extensions>
      </trkpt>
      <trkpt lat="31.96652789600193500518798828125" lon="118.823410011827945709228515625">
        <ele>8</ele>
        <time>2023-11-06T00:42:12.000Z</time>
        <extensions>
          <ns3:TrackPointExtension/>
        </extensions>
      </trkpt>
      <trkpt lat="31.966529823839664459228515625" lon="118.82338712923228740692138671875">
        <ele>8.19999980926513671875</ele>
        <time>2023-11-06T00:42:13.000Z</time>
        <extensions>
          <ns3:TrackPointExtension/>
        </extensions>
      </trkpt>
      <trkpt lat="31.96653175167739391326904296875" lon="118.82335661910474300384521484375">
        <ele>8.19999980926513671875</ele>
        <time>2023-11-06T00:42:14.000Z</time>
        <extensions>
          <ns3:TrackPointExtension/>
        </extensions>
      </trkpt>
      <trkpt lat="31.96653175167739391326904296875" lon="118.82332610897719860076904296875">
        <ele>8.3999996185302734375</ele>
        <time>2023-11-06T00:42:15.000Z</time>
        <extensions>
          <ns3:TrackPointExtension/>
        </extensions>
      </trkpt>
      <trkpt lat="31.96653175167739391326904296875" lon="118.8232955150306224822998046875">
        <ele>8.3999996185302734375</ele>
        <time>2023-11-06T00:42:16.000Z</time>
        <extensions>
          <ns3:TrackPointExtension>
            <ns3:hr>136</ns3:hr>
            <ns3:cad>81</ns3:cad>
          </ns3:TrackPointExtension>
        </extensions>
      </trkpt>
      <trkpt lat="31.96653175167739391326904296875" lon="118.8232650049030780792236328125">
        <ele>8.6000003814697265625</ele>
        <time>2023-11-06T00:42:17.000Z</time>
        <extensions>
          <ns3:TrackPointExtension/>
        </extensions>
      </trkpt>
      <trkpt lat="31.96653175167739391326904296875" lon="118.8232344947755336761474609375">
        <ele>8.6000003814697265625</ele>
        <time>2023-11-06T00:42:18.000Z</time>
        <extensions>
          <ns3:TrackPointExtension/>
        </extensions>
      </trkpt>
      <trkpt lat="31.96653175167739391326904296875" lon="118.8232039846479892730712890625">
        <ele>8.80000019073486328125</ele>
        <time>2023-11-06T00:42:19.000Z</time>
        <extensions>
          <ns3:TrackPointExtension/>
        </extensions>
      </trkpt>
      <trkpt lat="31.96653175167739391326904296875" lon="118.8231734745204448699951171875">
        <ele>8.80000019073486328125</ele>
        <time>2023-11-06T00:42:20.000Z</time>
        <extensions>
          <ns3:TrackPointExtension/>
        </extensions>
      </trkpt>
      <trkpt lat="31.96653175167739391326904296875" lon="118.8231429643929004669189453125">
        <ele>9</ele>
        <time>2023-11-06T00:42:21.000Z</time>
        <extensions>
          <ns3:TrackPointExtension>
            <ns3:hr>142</ns3:hr>
            <ns3:cad>80</ns3:cad>
          </ns3:TrackPointExtension>
        </extensions>
      </trkpt>
      <trkpt lat="31.96653175167739391326904296875" lon="118.8231124542653560638427734375">
        <ele>9.19999980926513671875</ele>
        <time>2023-11-06T00:42:22.000Z</time>
        <extensions>
          <ns3:TrackPointExtension/>
        </extensions>
      </trkpt>
      <trkpt lat="31.96653175167739391326904296875" lon="118.8230819441378116607666015625">
        <ele>9.19999980926513671875</ele>
        <time>2023-11-06T00:42:23.000Z</time>
        <extensions>
          <ns3:TrackPointExtension/>
        </extensions>
      </trkpt>
      <trkpt lat="31.96653359569609165191650390625" lon="118.8230514340102672576904296875">
        <ele>9.3999996185302734375</ele>
        <time>2023-11-06T00:42:24.000Z</time>
        <extensions>
          <ns3:TrackPointExtension/>
        </extensions>
      </trkpt>
      <trkpt lat="31.96653552353382110595703125" lon="118.8230209238827228546142578125">
        <ele>9.6000003814697265625</ele>
        <time>2023-11-06T00:42:25.000Z</time>
        <extensions>
          <ns3:TrackPointExtension/>
        </extensions>
      </trkpt>
      <trkpt lat="31.96653552353382110595703125" lon="118.8229904137551784515380859375">
        <ele>9.6000003814697265625</ele>
        <time>2023-11-06T00:42:26.000Z</time>
        <extensions>
          <ns3:TrackPointExtension>
            <ns3:hr>146</ns3:hr>
            <ns3:cad>80</ns3:cad>
          </ns3:TrackPointExtension>
        </extensions>
      </trkpt>
      <trkpt lat="31.96653745137155055999755859375" lon="118.82295981980860233306884765625">
        <ele>9.80000019073486328125</ele>
        <time>2023-11-06T00:42:27.000Z</time>
        <extensions>
          <ns3:TrackPointExtension/>
        </extensions>
      </trkpt>
      <trkpt lat="31.9665393792092800140380859375" lon="118.82292930968105792999267578125">
        <ele>9.80000019073486328125</ele>
        <time>2023-11-06T00:42:28.000Z</time>
        <extensions>
          <ns3:TrackPointExtension/>
        </extensions>
      </trkpt>
      <trkpt lat="31.9665393792092800140380859375" lon="118.82289879955351352691650390625">
        <ele>10</ele>
        <time>2023-11-06T00:42:29.000Z</time>
        <extensions>
          <ns3:TrackPointExtension/>
        </extensions>
      </trkpt>
      <trkpt lat="31.966541223227977752685546875" lon="118.822875916957855224609375">
        <ele>10</ele>
        <time>2023-11-06T00:42:30.000Z</time>
        <extensions>
          <ns3:TrackPointExtension/>
        </extensions>
      </trkpt>
      <trkpt lat="31.96654315106570720672607421875" lon="118.822845406830310821533203125">
        <ele>9.80000019073486328125</ele>
        <time>2023-11-06T00:42:31.000Z</time>
        <extensions>
          <ns3:TrackPointExtension>
            <ns3:hr>149</ns3:hr>
            <ns3:cad>80</ns3:cad>
          </ns3:TrackPointExtension>
        </extensions>
      </trkpt>
      <trkpt lat="31.9665450789034366607666015625" lon="118.82281489670276641845703125">
        <ele>9.6000003814697265625</ele>
        <time>2023-11-06T00:42:32.000Z</time>
        <extensions>
          <ns3:TrackPointExtension/>
        </extensions>
      </trkpt>
      <trkpt lat="31.96654700674116611480712890625" lon="118.82279201410710811614990234375">
        <ele>9.3999996185302734375</ele>
        <time>2023-11-06T00:42:33.000Z</time>
        <extensions>
          <ns3:TrackPointExtension/>
        </extensions>
      </trkpt>
      <trkpt lat="31.96654885075986385345458984375" lon="118.82276150397956371307373046875">
        <ele>9.19999980926513671875</ele>
        <time>2023-11-06T00:42:34.000Z</time>
        <extensions>
          <ns3:TrackPointExtension/>
        </extensions>
      </trkpt>
      <trkpt lat="31.96654885075986385345458984375" lon="118.82273099385201930999755859375">
        <ele>9</ele>
        <time>2023-11-06T00:42:35.000Z</time>
        <extensions>
          <ns3:TrackPointExtension/>
        </extensions>
      </trkpt>
      <trkpt lat="31.9665507785975933074951171875" lon="118.8227081112563610076904296875">
        <ele>8.80000019073486328125</ele>
        <time>2023-11-06T00:42:36.000Z</time>
        <extensions>
          <ns3:TrackPointExtension>
            <ns3:hr>155</ns3:hr>
            <ns3:cad>80</ns3:cad>
          </ns3:TrackPointExtension>
        </extensions>
      </trkpt>
      <trkpt lat="31.96655270643532276153564453125" lon="118.8226776011288166046142578125">
        <ele>8.6000003814697265625</ele>
        <time>2023-11-06T00:42:37.000Z</time>
        <extensions>
          <ns3:TrackPointExtension/>
        </extensions>
      </trkpt>
      <trkpt lat="31.96655270643532276153564453125" lon="118.8226470910012722015380859375">
        <ele>8.19999980926513671875</ele>
        <time>2023-11-06T00:42:38.000Z</time>
        <extensions>
          <ns3:TrackPointExtension/>
        </extensions>
      </trkpt>
      <trkpt lat="31.96655270643532276153564453125" lon="118.82261649705469608306884765625">
        <ele>8</ele>
        <time>2023-11-06T00:42:39.000Z</time>
        <extensions>
          <ns3:TrackPointExtension/>
        </extensions>
      </trkpt>
      <trkpt lat="31.96655270643532276153564453125" lon="118.82258598692715167999267578125">
        <ele>7.80000019073486328125</ele>
        <time>2023-11-06T00:42:40.000Z</time>
        <extensions>
          <ns3:TrackPointExtension/>
        </extensions>
      </trkpt>
      <trkpt lat="31.96655270643532276153564453125" lon="118.822563104331493377685546875">
        <ele>7.599999904632568359375</ele>
        <time>2023-11-06T00:42:41.000Z</time>
        <extensions>
          <ns3:TrackPointExtension>
            <ns3:hr>154</ns3:hr>
            <ns3:cad>84</ns3:cad>
          </ns3:TrackPointExtension>
        </extensions>
      </trkpt>
      <trkpt lat="31.966554634273052215576171875" lon="118.822532594203948974609375">
        <ele>7.400000095367431640625</ele>
        <time>2023-11-06T00:42:42.000Z</time>
        <extensions>
          <ns3:TrackPointExtension/>
        </extensions>
      </trkpt>
      <trkpt lat="31.966554634273052215576171875" lon="118.822502084076404571533203125">
        <ele>7.19999980926513671875</ele>
        <time>2023-11-06T00:42:43.000Z</time>
        <extensions>
          <ns3:TrackPointExtension/>
        </extensions>
      </trkpt>
      <trkpt lat="31.96655840612947940826416015625" lon="118.82247157394886016845703125">
        <ele>6.80000019073486328125</ele>
        <time>2023-11-06T00:42:44.000Z</time>
        <extensions>
          <ns3:TrackPointExtension/>
        </extensions>
      </trkpt>
      <trkpt lat="31.9665603339672088623046875" lon="118.822441063821315765380859375">
        <ele>6.599999904632568359375</ele>
        <time>2023-11-06T00:42:45.000Z</time>
        <extensions>
          <ns3:TrackPointExtension/>
        </extensions>
      </trkpt>
      <trkpt lat="31.96656226180493831634521484375" lon="118.8224105536937713623046875">
        <ele>6.400000095367431640625</ele>
        <time>2023-11-06T00:42:46.000Z</time>
        <extensions>
          <ns3:TrackPointExtension>
            <ns3:hr>155</ns3:hr>
            <ns3:cad>88</ns3:cad>
          </ns3:TrackPointExtension>
        </extensions>
      </trkpt>
      <trkpt lat="31.966566033661365509033203125" lon="118.82238767109811305999755859375">
        <ele>6.19999980926513671875</ele>
        <time>2023-11-06T00:42:47.000Z</time>
        <extensions>
          <ns3:TrackPointExtension/>
        </extensions>
      </trkpt>
      <trkpt lat="31.96657173335552215576171875" lon="118.82235716097056865692138671875">
        <ele>6</ele>
        <time>2023-11-06T00:42:48.000Z</time>
        <extensions>
          <ns3:TrackPointExtension/>
        </extensions>
      </trkpt>
      <trkpt lat="31.9665755890309810638427734375" lon="118.82232665084302425384521484375">
        <ele>5.80000019073486328125</ele>
        <time>2023-11-06T00:42:49.000Z</time>
        <extensions>
          <ns3:TrackPointExtension/>
        </extensions>
      </trkpt>
      <trkpt lat="31.9665812887251377105712890625" lon="118.82229614071547985076904296875">
        <ele>5.599999904632568359375</ele>
        <time>2023-11-06T00:42:50.000Z</time>
        <extensions>
          <ns3:TrackPointExtension/>
        </extensions>
      </trkpt>
      <trkpt lat="31.96658891625702381134033203125" lon="118.82227317430078983306884765625">
        <ele>5.400000095367431640625</ele>
        <time>2023-11-06T00:42:51.000Z</time>
        <extensions>
          <ns3:TrackPointExtension>
            <ns3:hr>156</ns3:hr>
            <ns3:cad>87</ns3:cad>
          </ns3:TrackPointExtension>
        </extensions>
      </trkpt>
      <trkpt lat="31.96659461595118045806884765625" lon="118.82224266417324542999267578125">
        <ele>5.19999980926513671875</ele>
        <time>2023-11-06T00:42:52.000Z</time>
        <extensions>
          <ns3:TrackPointExtension/>
        </extensions>
      </trkpt>
      <trkpt lat="31.9666003994643688201904296875" lon="118.82221215404570102691650390625">
        <ele>5</ele>
        <time>2023-11-06T00:42:53.000Z</time>
        <extensions>
          <ns3:TrackPointExtension/>
        </extensions>
      </trkpt>
      <trkpt lat="31.96660802699625492095947265625" lon="118.82218164391815662384033203125">
        <ele>4.80000019073486328125</ele>
        <time>2023-11-06T00:42:54.000Z</time>
        <extensions>
          <ns3:TrackPointExtension/>
        </extensions>
      </trkpt>
      <trkpt lat="31.96661372669041156768798828125" lon="118.82215113379061222076416015625">
        <ele>4.599999904632568359375</ele>
        <time>2023-11-06T00:42:55.000Z</time>
        <extensions>
          <ns3:TrackPointExtension/>
        </extensions>
      </trkpt>
      <trkpt lat="31.96661942638456821441650390625" lon="118.82212825119495391845703125">
        <ele>4.400000095367431640625</ele>
        <time>2023-11-06T00:42:56.000Z</time>
        <extensions>
          <ns3:TrackPointExtension>
            <ns3:hr>158</ns3:hr>
            <ns3:cad>87</ns3:cad>
          </ns3:TrackPointExtension>
        </extensions>
      </trkpt>
      <trkpt lat="31.9666252098977565765380859375" lon="118.822097741067409515380859375">
        <ele>4.400000095367431640625</ele>
        <time>2023-11-06T00:42:57.000Z</time>
        <extensions>
          <ns3:TrackPointExtension/>
        </extensions>
      </trkpt>
      <trkpt lat="31.9666309095919132232666015625" lon="118.8220672309398651123046875">
        <ele>4.400000095367431640625</ele>
        <time>2023-11-06T00:42:58.000Z</time>
        <extensions>
          <ns3:TrackPointExtension/>
        </extensions>
      </trkpt>
      <trkpt lat="31.9666366092860698699951171875" lon="118.822036720812320709228515625">
        <ele>4.400000095367431640625</ele>
        <time>2023-11-06T00:42:59.000Z</time>
        <extensions>
          <ns3:TrackPointExtension/>
        </extensions>
      </trkpt>
      <trkpt lat="31.966640464961528778076171875" lon="118.82201383821666240692138671875">
        <ele>4.400000095367431640625</ele>
        <time>2023-11-06T00:43:00.000Z</time>
        <extensions>
          <ns3:TrackPointExtension/>
        </extensions>
      </trkpt>
      <trkpt lat="31.9666461646556854248046875" lon="118.82198332808911800384521484375">
        <ele>4.19999980926513671875</ele>
        <time>2023-11-06T00:43:01.000Z</time>
        <extensions>
          <ns3:TrackPointExtension>
            <ns3:hr>158</ns3:hr>
            <ns3:cad>86</ns3:cad>
          </ns3:TrackPointExtension>
        </extensions>
      </trkpt>
      <trkpt lat="31.966651864349842071533203125" lon="118.8219604454934597015380859375">
        <ele>4.19999980926513671875</ele>
        <time>2023-11-06T00:43:02.000Z</time>
        <extensions>
          <ns3:TrackPointExtension/>
        </extensions>
      </trkpt>
      <trkpt lat="31.9666557200253009796142578125" lon="118.82192985154688358306884765625">
        <ele>4.19999980926513671875</ele>
        <time>2023-11-06T00:43:03.000Z</time>
        <extensions>
          <ns3:TrackPointExtension/>
        </extensions>
      </trkpt>
      <trkpt lat="31.9666614197194576263427734375" lon="118.82189934141933917999267578125">
        <ele>4</ele>
        <time>2023-11-06T00:43:04.000Z</time>
        <extensions>
          <ns3:TrackPointExtension/>
        </extensions>
      </trkpt>
      <trkpt lat="31.96666519157588481903076171875" lon="118.821876458823680877685546875">
        <ele>4</ele>
        <time>2023-11-06T00:43:05.000Z</time>
        <extensions>
          <ns3:TrackPointExtension/>
        </extensions>
      </trkpt>
      <trkpt lat="31.96666904725134372711181640625" lon="118.821845948696136474609375">
        <ele>4</ele>
        <time>2023-11-06T00:43:06.000Z</time>
        <extensions>
          <ns3:TrackPointExtension>
            <ns3:hr>158</ns3:hr>
            <ns3:cad>86</ns3:cad>
          </ns3:TrackPointExtension>
        </extensions>
      </trkpt>
      <trkpt lat="31.9666728191077709197998046875" lon="118.821815438568592071533203125">
        <ele>4.19999980926513671875</ele>
        <time>2023-11-06T00:43:07.000Z</time>
        <extensions>
          <ns3:TrackPointExtension/>
        </extensions>
      </trkpt>
      <trkpt lat="31.966676674783229827880859375" lon="118.82179255597293376922607421875">
        <ele>4.19999980926513671875</ele>
        <time>2023-11-06T00:43:08.000Z</time>
        <extensions>
          <ns3:TrackPointExtension/>
        </extensions>
      </trkpt>
      <trkpt lat="31.96668044663965702056884765625" lon="118.82176204584538936614990234375">
        <ele>4.19999980926513671875</ele>
        <time>2023-11-06T00:43:09.000Z</time>
        <extensions>
          <ns3:TrackPointExtension/>
        </extensions>
      </trkpt>
      <trkpt lat="31.96668430231511592864990234375" lon="118.8217391632497310638427734375">
        <ele>4.19999980926513671875</ele>
        <time>2023-11-06T00:43:10.000Z</time>
        <extensions>
          <ns3:TrackPointExtension/>
        </extensions>
      </trkpt>
      <trkpt lat="31.966688074171543121337890625" lon="118.8217086531221866607666015625">
        <ele>4.400000095367431640625</ele>
        <time>2023-11-06T00:43:11.000Z</time>
        <extensions>
          <ns3:TrackPointExtension>
            <ns3:hr>158</ns3:hr>
            <ns3:cad>85</ns3:cad>
          </ns3:TrackPointExtension>
        </extensions>
      </trkpt>
      <trkpt lat="31.96669385768473148345947265625" lon="118.82168577052652835845947265625">
        <ele>4.599999904632568359375</ele>
        <time>2023-11-06T00:43:12.000Z</time>
        <extensions>
          <ns3:TrackPointExtension/>
        </extensions>
      </trkpt>
      <trkpt lat="31.9666976295411586761474609375" lon="118.82165526039898395538330078125">
        <ele>4.599999904632568359375</ele>
        <time>2023-11-06T00:43:13.000Z</time>
        <extensions>
          <ns3:TrackPointExtension/>
        </extensions>
      </trkpt>
      <trkpt lat="31.966701485216617584228515625" lon="118.821632377803325653076171875">
        <ele>4.599999904632568359375</ele>
        <time>2023-11-06T00:43:14.000Z</time>
        <extensions>
          <ns3:TrackPointExtension/>
        </extensions>
      </trkpt>
      <trkpt lat="31.96670525707304477691650390625" lon="118.82160186767578125">
        <ele>4.599999904632568359375</ele>
        <time>2023-11-06T00:43:15.000Z</time>
        <extensions>
          <ns3:TrackPointExtension/>
        </extensions>
      </trkpt>
      <trkpt lat="31.9667110405862331390380859375" lon="118.82157127372920513153076171875">
        <ele>4.599999904632568359375</ele>
        <time>2023-11-06T00:43:16.000Z</time>
        <extensions>
          <ns3:TrackPointExtension>
            <ns3:hr>158</ns3:hr>
            <ns3:cad>86</ns3:cad>
          </ns3:TrackPointExtension>
        </extensions>
      </trkpt>
      <trkpt lat="31.96671481244266033172607421875" lon="118.8215483911335468292236328125">
        <ele>4.80000019073486328125</ele>
        <time>2023-11-06T00:43:17.000Z</time>
        <extensions>
          <ns3:TrackPointExtension/>
        </extensions>
      </trkpt>
      <trkpt lat="31.96671866811811923980712890625" lon="118.8215178810060024261474609375">
        <ele>4.80000019073486328125</ele>
        <time>2023-11-06T00:43:18.000Z</time>
        <extensions>
          <ns3:TrackPointExtension/>
        </extensions>
      </trkpt>
      <trkpt lat="31.96672436781227588653564453125" lon="118.8214873708784580230712890625">
        <ele>4.80000019073486328125</ele>
        <time>2023-11-06T00:43:19.000Z</time>
        <extensions>
          <ns3:TrackPointExtension/>
        </extensions>
      </trkpt>
      <trkpt lat="31.9667281396687030792236328125" lon="118.82146448828279972076416015625">
        <ele>4.80000019073486328125</ele>
        <time>2023-11-06T00:43:20.000Z</time>
        <extensions>
          <ns3:TrackPointExtension/>
        </extensions>
      </trkpt>
      <trkpt lat="31.9667319953441619873046875" lon="118.82143397815525531768798828125">
        <ele>5</ele>
        <time>2023-11-06T00:43:21.000Z</time>
        <extensions>
          <ns3:TrackPointExtension>
            <ns3:hr>159</ns3:hr>
            <ns3:cad>88</ns3:cad>
          </ns3:TrackPointExtension>
        </extensions>
      </trkpt>
      <trkpt lat="31.966737695038318634033203125" lon="118.82140346802771091461181640625">
        <ele>5.19999980926513671875</ele>
        <time>2023-11-06T00:43:22.000Z</time>
        <extensions>
          <ns3:TrackPointExtension/>
        </extensions>
      </trkpt>
      <trkpt lat="31.96673962287604808807373046875" lon="118.82137295790016651153564453125">
        <ele>5.400000095367431640625</ele>
        <time>2023-11-06T00:43:23.000Z</time>
        <extensions>
          <ns3:TrackPointExtension/>
        </extensions>
      </trkpt>
      <trkpt lat="31.96674339473247528076171875" lon="118.82134244777262210845947265625">
        <ele>5.400000095367431640625</ele>
        <time>2023-11-06T00:43:24.000Z</time>
        <extensions>
          <ns3:TrackPointExtension/>
        </extensions>
      </trkpt>
      <trkpt lat="31.96674532257020473480224609375" lon="118.82131193764507770538330078125">
        <ele>5.599999904632568359375</ele>
        <time>2023-11-06T00:43:25.000Z</time>
        <extensions>
          <ns3:TrackPointExtension/>
        </extensions>
      </trkpt>
      <trkpt lat="31.96674917824566364288330078125" lon="118.82128142751753330230712890625">
        <ele>5.80000019073486328125</ele>
        <time>2023-11-06T00:43:26.000Z</time>
        <extensions>
          <ns3:TrackPointExtension>
            <ns3:hr>159</ns3:hr>
            <ns3:cad>88</ns3:cad>
          </ns3:TrackPointExtension>
        </extensions>
      </trkpt>
      <trkpt lat="31.96675102226436138153076171875" lon="118.821250833570957183837890625">
        <ele>5.80000019073486328125</ele>
        <time>2023-11-06T00:43:27.000Z</time>
        <extensions>
          <ns3:TrackPointExtension/>
        </extensions>
      </trkpt>
      <trkpt lat="31.9667529501020908355712890625" lon="118.82122795097529888153076171875">
        <ele>6</ele>
        <time>2023-11-06T00:43:28.000Z</time>
        <extensions>
          <ns3:TrackPointExtension/>
        </extensions>
      </trkpt>
      <trkpt lat="31.9667529501020908355712890625" lon="118.82119744084775447845458984375">
        <ele>6</ele>
        <time>2023-11-06T00:43:29.000Z</time>
        <extensions>
          <ns3:TrackPointExtension/>
        </extensions>
      </trkpt>
      <trkpt lat="31.9667529501020908355712890625" lon="118.82116693072021007537841796875">
        <ele>6.19999980926513671875</ele>
        <time>2023-11-06T00:43:30.000Z</time>
        <extensions>
          <ns3:TrackPointExtension/>
        </extensions>
      </trkpt>
      <trkpt lat="31.96675487793982028961181640625" lon="118.82113642059266567230224609375">
        <ele>6.400000095367431640625</ele>
        <time>2023-11-06T00:43:31.000Z</time>
        <extensions>
          <ns3:TrackPointExtension>
            <ns3:hr>160</ns3:hr>
            <ns3:cad>87</ns3:cad>
          </ns3:TrackPointExtension>
        </extensions>
      </trkpt>
      <trkpt lat="31.96675487793982028961181640625" lon="118.82110591046512126922607421875">
        <ele>6.599999904632568359375</ele>
        <time>2023-11-06T00:43:32.000Z</time>
        <extensions>
          <ns3:TrackPointExtension/>
        </extensions>
      </trkpt>
      <trkpt lat="31.96675487793982028961181640625" lon="118.82107540033757686614990234375">
        <ele>6.80000019073486328125</ele>
        <time>2023-11-06T00:43:33.000Z</time>
        <extensions>
          <ns3:TrackPointExtension/>
        </extensions>
      </trkpt>
      <trkpt lat="31.96675487793982028961181640625" lon="118.82104489021003246307373046875">
        <ele>7</ele>
        <time>2023-11-06T00:43:34.000Z</time>
        <extensions>
          <ns3:TrackPointExtension/>
        </extensions>
      </trkpt>
      <trkpt lat="31.96675680577754974365234375" lon="118.82101438008248805999755859375">
        <ele>7.19999980926513671875</ele>
        <time>2023-11-06T00:43:35.000Z</time>
        <extensions>
          <ns3:TrackPointExtension/>
        </extensions>
      </trkpt>
      <trkpt lat="31.96675680577754974365234375" lon="118.82098386995494365692138671875">
        <ele>7.400000095367431640625</ele>
        <time>2023-11-06T00:43:36.000Z</time>
        <extensions>
          <ns3:TrackPointExtension>
            <ns3:hr>160</ns3:hr>
            <ns3:cad>84</ns3:cad>
          </ns3:TrackPointExtension>
        </extensions>
      </trkpt>
      <trkpt lat="31.9667586497962474822998046875" lon="118.82095335982739925384521484375">
        <ele>7.599999904632568359375</ele>
        <time>2023-11-06T00:43:37.000Z</time>
        <extensions>
          <ns3:TrackPointExtension/>
        </extensions>
      </trkpt>
      <trkpt lat="31.96676057763397693634033203125" lon="118.82092284969985485076904296875">
        <ele>7.80000019073486328125</ele>
        <time>2023-11-06T00:43:38.000Z</time>
        <extensions>
          <ns3:TrackPointExtension/>
        </extensions>
      </trkpt>
      <trkpt lat="31.96676443330943584442138671875" lon="118.8208922557532787322998046875">
        <ele>7.80000019073486328125</ele>
        <time>2023-11-06T00:43:39.000Z</time>
        <extensions>
          <ns3:TrackPointExtension/>
        </extensions>
      </trkpt>
      <trkpt lat="31.966768205165863037109375" lon="118.8208617456257343292236328125">
        <ele>7.80000019073486328125</ele>
        <time>2023-11-06T00:43:40.000Z</time>
        <extensions>
          <ns3:TrackPointExtension/>
        </extensions>
      </trkpt>
      <trkpt lat="31.966773904860019683837890625" lon="118.8208312354981899261474609375">
        <ele>7.80000019073486328125</ele>
        <time>2023-11-06T00:43:41.000Z</time>
        <extensions>
          <ns3:TrackPointExtension>
            <ns3:hr>159</ns3:hr>
            <ns3:cad>84</ns3:cad>
          </ns3:TrackPointExtension>
        </extensions>
      </trkpt>
      <trkpt lat="31.96677968837320804595947265625" lon="118.8208007253706455230712890625">
        <ele>7.80000019073486328125</ele>
        <time>2023-11-06T00:43:42.000Z</time>
        <extensions>
          <ns3:TrackPointExtension/>
        </extensions>
      </trkpt>
      <trkpt lat="31.96678538806736469268798828125" lon="118.8207702152431011199951171875">
        <ele>8</ele>
        <time>2023-11-06T00:43:43.000Z</time>
        <extensions>
          <ns3:TrackPointExtension/>
        </extensions>
      </trkpt>
      <trkpt lat="31.96678924374282360076904296875" lon="118.82074733264744281768798828125">
        <ele>8</ele>
        <time>2023-11-06T00:43:44.000Z</time>
        <extensions>
          <ns3:TrackPointExtension/>
        </extensions>
      </trkpt>
      <trkpt lat="31.96679301559925079345703125" lon="118.82071682251989841461181640625">
        <ele>8</ele>
        <time>2023-11-06T00:43:45.000Z</time>
        <extensions>
          <ns3:TrackPointExtension/>
        </extensions>
      </trkpt>
      <trkpt lat="31.9667968712747097015380859375" lon="118.82068631239235401153564453125">
        <ele>8</ele>
        <time>2023-11-06T00:43:46.000Z</time>
        <extensions>
          <ns3:TrackPointExtension>
            <ns3:hr>159</ns3:hr>
            <ns3:cad>85</ns3:cad>
          </ns3:TrackPointExtension>
        </extensions>
      </trkpt>
      <trkpt lat="31.96680064313113689422607421875" lon="118.82065580226480960845947265625">
        <ele>8</ele>
        <time>2023-11-06T00:43:47.000Z</time>
        <extensions>
          <ns3:TrackPointExtension/>
        </extensions>
      </trkpt>
      <trkpt lat="31.9668025709688663482666015625" lon="118.82063291966915130615234375">
        <ele>8</ele>
        <time>2023-11-06T00:43:48.000Z</time>
        <extensions>
          <ns3:TrackPointExtension/>
        </extensions>
      </trkpt>
      <trkpt lat="31.96680634282529354095458984375" lon="118.820602409541606903076171875">
        <ele>8</ele>
        <time>2023-11-06T00:43:49.000Z</time>
        <extensions>
          <ns3:TrackPointExtension/>
        </extensions>
      </trkpt>
      <trkpt lat="31.9668082706630229949951171875" lon="118.8205718994140625">
        <ele>7.80000019073486328125</ele>
        <time>2023-11-06T00:43:50.000Z</time>
        <extensions>
          <ns3:TrackPointExtension/>
        </extensions>
      </trkpt>
      <trkpt lat="31.96681019850075244903564453125" lon="118.82054130546748638153076171875">
        <ele>7.80000019073486328125</ele>
        <time>2023-11-06T00:43:51.000Z</time>
        <extensions>
          <ns3:TrackPointExtension>
            <ns3:hr>158</ns3:hr>
            <ns3:cad>84</ns3:cad>
          </ns3:TrackPointExtension>
        </extensions>
      </trkpt>
      <trkpt lat="31.966812126338481903076171875" lon="118.8205184228718280792236328125">
        <ele>7.599999904632568359375</ele>
        <time>2023-11-06T00:43:52.000Z</time>
        <extensions>
          <ns3:TrackPointExtension/>
        </extensions>
      </trkpt>
      <trkpt lat="31.966812126338481903076171875" lon="118.8204879127442836761474609375">
        <ele>7.599999904632568359375</ele>
        <time>2023-11-06T00:43:53.000Z</time>
        <extensions>
          <ns3:TrackPointExtension/>
        </extensions>
      </trkpt>
      <trkpt lat="31.966812126338481903076171875" lon="118.8204574026167392730712890625">
        <ele>7.400000095367431640625</ele>
        <time>2023-11-06T00:43:54.000Z</time>
        <extensions>
          <ns3:TrackPointExtension/>
        </extensions>
      </trkpt>
      <trkpt lat="31.966812126338481903076171875" lon="118.8204268924891948699951171875">
        <ele>7.400000095367431640625</ele>
        <time>2023-11-06T00:43:55.000Z</time>
        <extensions>
          <ns3:TrackPointExtension/>
        </extensions>
      </trkpt>
      <trkpt lat="31.966812126338481903076171875" lon="118.82040400989353656768798828125">
        <ele>7.19999980926513671875</ele>
        <time>2023-11-06T00:43:56.000Z</time>
        <extensions>
          <ns3:TrackPointExtension>
            <ns3:hr>158</ns3:hr>
            <ns3:cad>86</ns3:cad>
          </ns3:TrackPointExtension>
        </extensions>
      </trkpt>
      <trkpt lat="31.9668139703571796417236328125" lon="118.82037349976599216461181640625">
        <ele>7.19999980926513671875</ele>
        <time>2023-11-06T00:43:57.000Z</time>
        <extensions>
          <ns3:TrackPointExtension/>
        </extensions>
      </trkpt>
      <trkpt lat="31.9668139703571796417236328125" lon="118.82034298963844776153564453125">
        <ele>7.19999980926513671875</ele>
        <time>2023-11-06T00:43:58.000Z</time>
        <extensions>
          <ns3:TrackPointExtension/>
        </extensions>
      </trkpt>
      <trkpt lat="31.96681589819490909576416015625" lon="118.820320107042789459228515625">
        <ele>7.19999980926513671875</ele>
        <time>2023-11-06T00:43:59.000Z</time>
        <extensions>
          <ns3:TrackPointExtension/>
        </extensions>
      </trkpt>
      <trkpt lat="31.9668178260326385498046875" lon="118.82029722444713115692138671875">
        <ele>7.19999980926513671875</ele>
        <time>2023-11-06T00:44:00.000Z</time>
        <extensions>
          <ns3:TrackPointExtension/>
        </extensions>
      </trkpt>
      <trkpt lat="31.96682159788906574249267578125" lon="118.82026671431958675384521484375">
        <ele>7.19999980926513671875</ele>
        <time>2023-11-06T00:44:01.000Z</time>
        <extensions>
          <ns3:TrackPointExtension>
            <ns3:hr>159</ns3:hr>
            <ns3:cad>86</ns3:cad>
          </ns3:TrackPointExtension>
        </extensions>
      </trkpt>
      <trkpt lat="31.966823525726795196533203125" lon="118.8202438317239284515380859375">
        <ele>7.19999980926513671875</ele>
        <time>2023-11-06T00:44:02.000Z</time>
        <extensions>
          <ns3:TrackPointExtension/>
        </extensions>
      </trkpt>
      <trkpt lat="31.9668273814022541046142578125" lon="118.82021323777735233306884765625">
        <ele>7.19999980926513671875</ele>
        <time>2023-11-06T00:44:03.000Z</time>
        <extensions>
          <ns3:TrackPointExtension/>
        </extensions>
      </trkpt>
      <trkpt lat="31.96682922542095184326171875" lon="118.82019035518169403076171875">
        <ele>7.19999980926513671875</ele>
        <time>2023-11-06T00:44:04.000Z</time>
        <extensions>
          <ns3:TrackPointExtension/>
        </extensions>
      </trkpt>
      <trkpt lat="31.9668330810964107513427734375" lon="118.82016747258603572845458984375">
        <ele>7.19999980926513671875</ele>
        <time>2023-11-06T00:44:05.000Z</time>
        <extensions>
          <ns3:TrackPointExtension/>
        </extensions>
      </trkpt>
      <trkpt lat="31.96683685295283794403076171875" lon="118.82013696245849132537841796875">
        <ele>7.19999980926513671875</ele>
        <time>2023-11-06T00:44:06.000Z</time>
        <extensions>
          <ns3:TrackPointExtension>
            <ns3:hr>159</ns3:hr>
            <ns3:cad>88</ns3:cad>
          </ns3:TrackPointExtension>
        </extensions>
      </trkpt>
      <trkpt lat="31.96684263646602630615234375" lon="118.8201140798628330230712890625">
        <ele>7.19999980926513671875</ele>
        <time>2023-11-06T00:44:07.000Z</time>
        <extensions>
          <ns3:TrackPointExtension/>
        </extensions>
      </trkpt>
      <trkpt lat="31.96685026399791240692138671875" lon="118.82009119726717472076416015625">
        <ele>7.19999980926513671875</ele>
        <time>2023-11-06T00:44:08.000Z</time>
        <extensions>
          <ns3:TrackPointExtension/>
        </extensions>
      </trkpt>
      <trkpt lat="31.96685596369206905364990234375" lon="118.82006068713963031768798828125">
        <ele>7.19999980926513671875</ele>
        <time>2023-11-06T00:44:09.000Z</time>
        <extensions>
          <ns3:TrackPointExtension/>
        </extensions>
      </trkpt>
      <trkpt lat="31.96686166338622570037841796875" lon="118.820037804543972015380859375">
        <ele>7.19999980926513671875</ele>
        <time>2023-11-06T00:44:10.000Z</time>
        <extensions>
          <ns3:TrackPointExtension/>
        </extensions>
      </trkpt>
      <trkpt lat="31.9668674468994140625" lon="118.8200072944164276123046875">
        <ele>7.19999980926513671875</ele>
        <time>2023-11-06T00:44:11.000Z</time>
        <extensions>
          <ns3:TrackPointExtension>
            <ns3:hr>159</ns3:hr>
            <ns3:cad>86</ns3:cad>
          </ns3:TrackPointExtension>
        </extensions>
      </trkpt>
      <trkpt lat="31.96687121875584125518798828125" lon="118.81998441182076930999755859375">
        <ele>7.19999980926513671875</ele>
        <time>2023-11-06T00:44:12.000Z</time>
        <extensions>
          <ns3:TrackPointExtension/>
        </extensions>
      </trkpt>
      <trkpt lat="31.96687691844999790191650390625" lon="118.81995390169322490692138671875">
        <ele>7.19999980926513671875</ele>
        <time>2023-11-06T00:44:13.000Z</time>
        <extensions>
          <ns3:TrackPointExtension/>
        </extensions>
      </trkpt>
      <trkpt lat="31.9668827019631862640380859375" lon="118.81992339156568050384521484375">
        <ele>7.400000095367431640625</ele>
        <time>2023-11-06T00:44:14.000Z</time>
        <extensions>
          <ns3:TrackPointExtension/>
        </extensions>
      </trkpt>
      <trkpt lat="31.96688647381961345672607421875" lon="118.8199005089700222015380859375">
        <ele>7.400000095367431640625</ele>
        <time>2023-11-06T00:44:15.000Z</time>
        <extensions>
          <ns3:TrackPointExtension/>
        </extensions>
      </trkpt>
      <trkpt lat="31.96689217351377010345458984375" lon="118.81986991502344608306884765625">
        <ele>7.19999980926513671875</ele>
        <time>2023-11-06T00:44:16.000Z</time>
        <extensions>
          <ns3:TrackPointExtension>
            <ns3:hr>160</ns3:hr>
            <ns3:cad>87</ns3:cad>
          </ns3:TrackPointExtension>
        </extensions>
      </trkpt>
      <trkpt lat="31.96689602918922901153564453125" lon="118.81983940489590167999267578125">
        <ele>7.19999980926513671875</ele>
        <time>2023-11-06T00:44:17.000Z</time>
        <extensions>
          <ns3:TrackPointExtension/>
        </extensions>
      </trkpt>
      <trkpt lat="31.96690172888338565826416015625" lon="118.81980889476835727691650390625">
        <ele>7</ele>
        <time>2023-11-06T00:44:18.000Z</time>
        <extensions>
          <ns3:TrackPointExtension/>
        </extensions>
      </trkpt>
      <trkpt lat="31.9669036567211151123046875" lon="118.81977838464081287384033203125">
        <ele>7</ele>
        <time>2023-11-06T00:44:19.000Z</time>
        <extensions>
          <ns3:TrackPointExtension/>
        </extensions>
      </trkpt>
      <trkpt lat="31.96690558455884456634521484375" lon="118.81974787451326847076416015625">
        <ele>7</ele>
        <time>2023-11-06T00:44:20.000Z</time>
        <extensions>
          <ns3:TrackPointExtension/>
        </extensions>
      </trkpt>
      <trkpt lat="31.96690742857754230499267578125" lon="118.81971736438572406768798828125">
        <ele>7</ele>
        <time>2023-11-06T00:44:21.000Z</time>
        <extensions>
          <ns3:TrackPointExtension>
            <ns3:hr>159</ns3:hr>
            <ns3:cad>87</ns3:cad>
          </ns3:TrackPointExtension>
        </extensions>
      </trkpt>
      <trkpt lat="31.96690742857754230499267578125" lon="118.81968685425817966461181640625">
        <ele>7</ele>
        <time>2023-11-06T00:44:22.000Z</time>
        <extensions>
          <ns3:TrackPointExtension/>
        </extensions>
      </trkpt>
      <trkpt lat="31.966909356415271759033203125" lon="118.81965634413063526153564453125">
        <ele>7</ele>
        <time>2023-11-06T00:44:23.000Z</time>
        <extensions>
          <ns3:TrackPointExtension/>
        </extensions>
      </trkpt>
      <trkpt lat="31.96691128425300121307373046875" lon="118.81962583400309085845947265625">
        <ele>7</ele>
        <time>2023-11-06T00:44:24.000Z</time>
        <extensions>
          <ns3:TrackPointExtension/>
        </extensions>
      </trkpt>
      <trkpt lat="31.96691128425300121307373046875" lon="118.81959532387554645538330078125">
        <ele>7</ele>
        <time>2023-11-06T00:44:25.000Z</time>
        <extensions>
          <ns3:TrackPointExtension/>
        </extensions>
      </trkpt>
      <trkpt lat="31.96691505610942840576171875" lon="118.81956481374800205230712890625">
        <ele>7</ele>
        <time>2023-11-06T00:44:26.000Z</time>
        <extensions>
          <ns3:TrackPointExtension>
            <ns3:hr>159</ns3:hr>
            <ns3:cad>86</ns3:cad>
          </ns3:TrackPointExtension>
        </extensions>
      </trkpt>
      <trkpt lat="31.96691698394715785980224609375" lon="118.819534219801425933837890625">
        <ele>7</ele>
        <time>2023-11-06T00:44:27.000Z</time>
        <extensions>
          <ns3:TrackPointExtension/>
        </extensions>
      </trkpt>
      <trkpt lat="31.96692268364131450653076171875" lon="118.81951133720576763153076171875">
        <ele>7</ele>
        <time>2023-11-06T00:44:28.000Z</time>
        <extensions>
          <ns3:TrackPointExtension/>
        </extensions>
      </trkpt>
      <trkpt lat="31.96692653931677341461181640625" lon="118.81948082707822322845458984375">
        <ele>7</ele>
        <time>2023-11-06T00:44:29.000Z</time>
        <extensions>
          <ns3:TrackPointExtension/>
        </extensions>
      </trkpt>
      <trkpt lat="31.9669303111732006072998046875" lon="118.81945031695067882537841796875">
        <ele>7</ele>
        <time>2023-11-06T00:44:30.000Z</time>
        <extensions>
          <ns3:TrackPointExtension/>
        </extensions>
      </trkpt>
      <trkpt lat="31.966934166848659515380859375" lon="118.81941980682313442230224609375">
        <ele>7</ele>
        <time>2023-11-06T00:44:31.000Z</time>
        <extensions>
          <ns3:TrackPointExtension>
            <ns3:hr>159</ns3:hr>
            <ns3:cad>86</ns3:cad>
          </ns3:TrackPointExtension>
        </extensions>
      </trkpt>
      <trkpt lat="31.966939866542816162109375" lon="118.81938929669559001922607421875">
        <ele>7</ele>
        <time>2023-11-06T00:44:32.000Z</time>
        <extensions>
          <ns3:TrackPointExtension/>
        </extensions>
      </trkpt>
      <trkpt lat="31.9669437222182750701904296875" lon="118.81935878656804561614990234375">
        <ele>7</ele>
        <time>2023-11-06T00:44:33.000Z</time>
        <extensions>
          <ns3:TrackPointExtension/>
        </extensions>
      </trkpt>
      <trkpt lat="31.9669494219124317169189453125" lon="118.81932827644050121307373046875">
        <ele>7</ele>
        <time>2023-11-06T00:44:34.000Z</time>
        <extensions>
          <ns3:TrackPointExtension/>
        </extensions>
      </trkpt>
      <trkpt lat="31.966953277587890625" lon="118.81929776631295680999755859375">
        <ele>7</ele>
        <time>2023-11-06T00:44:35.000Z</time>
        <extensions>
          <ns3:TrackPointExtension/>
        </extensions>
      </trkpt>
      <trkpt lat="31.96695704944431781768798828125" lon="118.81926725618541240692138671875">
        <ele>7</ele>
        <time>2023-11-06T00:44:36.000Z</time>
        <extensions>
          <ns3:TrackPointExtension>
            <ns3:hr>160</ns3:hr>
            <ns3:cad>85</ns3:cad>
          </ns3:TrackPointExtension>
        </extensions>
      </trkpt>
      <trkpt lat="31.96696090511977672576904296875" lon="118.81923674605786800384521484375">
        <ele>7</ele>
        <time>2023-11-06T00:44:37.000Z</time>
        <extensions>
          <ns3:TrackPointExtension/>
        </extensions>
      </trkpt>
      <trkpt lat="31.96696274913847446441650390625" lon="118.81920623593032360076904296875">
        <ele>6.80000019073486328125</ele>
        <time>2023-11-06T00:44:38.000Z</time>
        <extensions>
          <ns3:TrackPointExtension/>
        </extensions>
      </trkpt>
      <trkpt lat="31.96696467697620391845703125" lon="118.8191756419837474822998046875">
        <ele>6.80000019073486328125</ele>
        <time>2023-11-06T00:44:39.000Z</time>
        <extensions>
          <ns3:TrackPointExtension/>
        </extensions>
      </trkpt>
      <trkpt lat="31.96696467697620391845703125" lon="118.8191451318562030792236328125">
        <ele>6.599999904632568359375</ele>
        <time>2023-11-06T00:44:40.000Z</time>
        <extensions>
          <ns3:TrackPointExtension/>
        </extensions>
      </trkpt>
      <trkpt lat="31.96696467697620391845703125" lon="118.8191146217286586761474609375">
        <ele>6.80000019073486328125</ele>
        <time>2023-11-06T00:44:41.000Z</time>
        <extensions>
          <ns3:TrackPointExtension>
            <ns3:hr>160</ns3:hr>
            <ns3:cad>86</ns3:cad>
          </ns3:TrackPointExtension>
        </extensions>
      </trkpt>
      <trkpt lat="31.96696660481393337249755859375" lon="118.8190841116011142730712890625">
        <ele>6.80000019073486328125</ele>
        <time>2023-11-06T00:44:42.000Z</time>
        <extensions>
          <ns3:TrackPointExtension/>
        </extensions>
      </trkpt>
      <trkpt lat="31.9669685326516628265380859375" lon="118.8190536014735698699951171875">
        <ele>7</ele>
        <time>2023-11-06T00:44:43.000Z</time>
        <extensions>
          <ns3:TrackPointExtension/>
        </extensions>
      </trkpt>
      <trkpt lat="31.966970376670360565185546875" lon="118.8190230913460254669189453125">
        <ele>7</ele>
        <time>2023-11-06T00:44:44.000Z</time>
        <extensions>
          <ns3:TrackPointExtension/>
        </extensions>
      </trkpt>
      <trkpt lat="31.96697230450809001922607421875" lon="118.81900020875036716461181640625">
        <ele>7.19999980926513671875</ele>
        <time>2023-11-06T00:44:45.000Z</time>
        <extensions>
          <ns3:TrackPointExtension/>
        </extensions>
      </trkpt>
      <trkpt lat="31.9669742323458194732666015625" lon="118.81896969862282276153564453125">
        <ele>7.19999980926513671875</ele>
        <time>2023-11-06T00:44:46.000Z</time>
        <extensions>
          <ns3:TrackPointExtension>
            <ns3:hr>158</ns3:hr>
            <ns3:cad>85</ns3:cad>
          </ns3:TrackPointExtension>
        </extensions>
      </trkpt>
      <trkpt lat="31.96697800420224666595458984375" lon="118.81893918849527835845947265625">
        <ele>7.400000095367431640625</ele>
        <time>2023-11-06T00:44:47.000Z</time>
        <extensions>
          <ns3:TrackPointExtension/>
        </extensions>
      </trkpt>
      <trkpt lat="31.9669799320399761199951171875" lon="118.81890867836773395538330078125">
        <ele>7.400000095367431640625</ele>
        <time>2023-11-06T00:44:48.000Z</time>
        <extensions>
          <ns3:TrackPointExtension/>
        </extensions>
      </trkpt>
      <trkpt lat="31.966983787715435028076171875" lon="118.818885795772075653076171875">
        <ele>7.400000095367431640625</ele>
        <time>2023-11-06T00:44:49.000Z</time>
        <extensions>
          <ns3:TrackPointExtension/>
        </extensions>
      </trkpt>
      <trkpt lat="31.96698755957186222076416015625" lon="118.81885528564453125">
        <ele>7.599999904632568359375</ele>
        <time>2023-11-06T00:44:50.000Z</time>
        <extensions>
          <ns3:TrackPointExtension/>
        </extensions>
      </trkpt>
      <trkpt lat="31.96699141524732112884521484375" lon="118.81882469169795513153076171875">
        <ele>7.599999904632568359375</ele>
        <time>2023-11-06T00:44:51.000Z</time>
        <extensions>
          <ns3:TrackPointExtension>
            <ns3:hr>157</ns3:hr>
            <ns3:cad>85</ns3:cad>
          </ns3:TrackPointExtension>
        </extensions>
      </trkpt>
      <trkpt lat="31.96699325926601886749267578125" lon="118.8188018091022968292236328125">
        <ele>7.80000019073486328125</ele>
        <time>2023-11-06T00:44:52.000Z</time>
        <extensions>
          <ns3:TrackPointExtension/>
        </extensions>
      </trkpt>
      <trkpt lat="31.96699711494147777557373046875" lon="118.8187712989747524261474609375">
        <ele>8</ele>
        <time>2023-11-06T00:44:53.000Z</time>
        <extensions>
          <ns3:TrackPointExtension/>
        </extensions>
      </trkpt>
      <trkpt lat="31.96700088679790496826171875" lon="118.81874841637909412384033203125">
        <ele>8</ele>
        <time>2023-11-06T00:44:54.000Z</time>
        <extensions>
          <ns3:TrackPointExtension/>
        </extensions>
      </trkpt>
      <trkpt lat="31.9670047424733638763427734375" lon="118.818725533783435821533203125">
        <ele>8.19999980926513671875</ele>
        <time>2023-11-06T00:44:55.000Z</time>
        <extensions>
          <ns3:TrackPointExtension/>
        </extensions>
      </trkpt>
      <trkpt lat="31.96700851432979106903076171875" lon="118.81869502365589141845703125">
        <ele>8.19999980926513671875</ele>
        <time>2023-11-06T00:44:56.000Z</time>
        <extensions>
          <ns3:TrackPointExtension>
            <ns3:hr>156</ns3:hr>
            <ns3:cad>84</ns3:cad>
          </ns3:TrackPointExtension>
        </extensions>
      </trkpt>
      <trkpt lat="31.9670104421675205230712890625" lon="118.81867214106023311614990234375">
        <ele>8.3999996185302734375</ele>
        <time>2023-11-06T00:44:57.000Z</time>
        <extensions>
          <ns3:TrackPointExtension/>
        </extensions>
      </trkpt>
      <trkpt lat="31.96701237000524997711181640625" lon="118.8186492584645748138427734375">
        <ele>8.3999996185302734375</ele>
        <time>2023-11-06T00:44:58.000Z</time>
        <extensions>
          <ns3:TrackPointExtension/>
        </extensions>
      </trkpt>
      <trkpt lat="31.96701429784297943115234375" lon="118.8186187483370304107666015625">
        <ele>8.3999996185302734375</ele>
        <time>2023-11-06T00:44:59.000Z</time>
        <extensions>
          <ns3:TrackPointExtension/>
        </extensions>
      </trkpt>
      <trkpt lat="31.96701429784297943115234375" lon="118.81859586574137210845947265625">
        <ele>8.3999996185302734375</ele>
        <time>2023-11-06T00:45:00.000Z</time>
        <extensions>
          <ns3:TrackPointExtension/>
        </extensions>
      </trkpt>
      <trkpt lat="31.96701237000524997711181640625" lon="118.81857298314571380615234375">
        <ele>8.3999996185302734375</ele>
        <time>2023-11-06T00:45:01.000Z</time>
        <extensions>
          <ns3:TrackPointExtension>
            <ns3:hr>157</ns3:hr>
            <ns3:cad>83</ns3:cad>
          </ns3:TrackPointExtension>
        </extensions>
      </trkpt>
      <trkpt lat="31.96701237000524997711181640625" lon="118.81855010055005550384521484375">
        <ele>8.3999996185302734375</ele>
        <time>2023-11-06T00:45:02.000Z</time>
        <extensions>
          <ns3:TrackPointExtension/>
        </extensions>
      </trkpt>
      <trkpt lat="31.9670104421675205230712890625" lon="118.8185272179543972015380859375">
        <ele>8.3999996185302734375</ele>
        <time>2023-11-06T00:45:03.000Z</time>
        <extensions>
          <ns3:TrackPointExtension/>
        </extensions>
      </trkpt>
      <trkpt lat="31.9670104421675205230712890625" lon="118.818504251539707183837890625">
        <ele>8.3999996185302734375</ele>
        <time>2023-11-06T00:45:04.000Z</time>
        <extensions>
          <ns3:TrackPointExtension/>
        </extensions>
      </trkpt>
      <trkpt lat="31.9670104421675205230712890625" lon="118.8184889964759349822998046875">
        <ele>8.3999996185302734375</ele>
        <time>2023-11-06T00:45:05.000Z</time>
        <extensions>
          <ns3:TrackPointExtension/>
        </extensions>
      </trkpt>
      <trkpt lat="31.9670104421675205230712890625" lon="118.81846611388027667999267578125">
        <ele>8.3999996185302734375</ele>
        <time>2023-11-06T00:45:06.000Z</time>
        <extensions>
          <ns3:TrackPointExtension>
            <ns3:hr>158</ns3:hr>
            <ns3:cad>71</ns3:cad>
          </ns3:TrackPointExtension>
        </extensions>
      </trkpt>
      <trkpt lat="31.96701237000524997711181640625" lon="118.81845085881650447845458984375">
        <ele>8.3999996185302734375</ele>
        <time>2023-11-06T00:45:07.000Z</time>
        <extensions>
          <ns3:TrackPointExtension/>
        </extensions>
      </trkpt>
      <trkpt lat="31.96701429784297943115234375" lon="118.8184279762208461761474609375">
        <ele>8.3999996185302734375</ele>
        <time>2023-11-06T00:45:08.000Z</time>
        <extensions>
          <ns3:TrackPointExtension/>
        </extensions>
      </trkpt>
      <trkpt lat="31.96701806969940662384033203125" lon="118.818412721157073974609375">
        <ele>8.3999996185302734375</ele>
        <time>2023-11-06T00:45:09.000Z</time>
        <extensions>
          <ns3:TrackPointExtension/>
        </extensions>
      </trkpt>
      <trkpt lat="31.967019997537136077880859375" lon="118.8183974660933017730712890625">
        <ele>8.6000003814697265625</ele>
        <time>2023-11-06T00:45:10.000Z</time>
        <extensions>
          <ns3:TrackPointExtension/>
        </extensions>
      </trkpt>
      <trkpt lat="31.967025697231292724609375" lon="118.818382211029529571533203125">
        <ele>8.6000003814697265625</ele>
        <time>2023-11-06T00:45:11.000Z</time>
        <extensions>
          <ns3:TrackPointExtension>
            <ns3:hr>158</ns3:hr>
            <ns3:cad>61</ns3:cad>
          </ns3:TrackPointExtension>
        </extensions>
      </trkpt>
      <trkpt lat="31.9670295529067516326904296875" lon="118.8183669559657573699951171875">
        <ele>8.6000003814697265625</ele>
        <time>2023-11-06T00:45:12.000Z</time>
        <extensions>
          <ns3:TrackPointExtension/>
        </extensions>
      </trkpt>
      <trkpt lat="31.9670352526009082794189453125" lon="118.81835170090198516845703125">
        <ele>8.80000019073486328125</ele>
        <time>2023-11-06T00:45:13.000Z</time>
        <extensions>
          <ns3:TrackPointExtension/>
        </extensions>
      </trkpt>
      <trkpt lat="31.9670409522950649261474609375" lon="118.8183364458382129669189453125">
        <ele>8.80000019073486328125</ele>
        <time>2023-11-06T00:45:14.000Z</time>
        <extensions>
          <ns3:TrackPointExtension/>
        </extensions>
      </trkpt>
      <trkpt lat="31.96704673580825328826904296875" lon="118.818321190774440765380859375">
        <ele>8.80000019073486328125</ele>
        <time>2023-11-06T00:45:15.000Z</time>
        <extensions>
          <ns3:TrackPointExtension/>
        </extensions>
      </trkpt>
      <trkpt lat="31.96705243550240993499755859375" lon="118.8183059357106685638427734375">
        <ele>8.80000019073486328125</ele>
        <time>2023-11-06T00:45:16.000Z</time>
        <extensions>
          <ns3:TrackPointExtension>
            <ns3:hr>157</ns3:hr>
            <ns3:cad>57</ns3:cad>
          </ns3:TrackPointExtension>
        </extensions>
      </trkpt>
      <trkpt lat="31.967056207358837127685546875" lon="118.8182906806468963623046875">
        <ele>8.80000019073486328125</ele>
        <time>2023-11-06T00:45:17.000Z</time>
        <extensions>
          <ns3:TrackPointExtension/>
        </extensions>
      </trkpt>
      <trkpt lat="31.96706199087202548980712890625" lon="118.8182754255831241607666015625">
        <ele>9</ele>
        <time>2023-11-06T00:45:18.000Z</time>
        <extensions>
          <ns3:TrackPointExtension/>
        </extensions>
      </trkpt>
      <trkpt lat="31.96706769056618213653564453125" lon="118.818260170519351959228515625">
        <ele>9</ele>
        <time>2023-11-06T00:45:19.000Z</time>
        <extensions>
          <ns3:TrackPointExtension/>
        </extensions>
      </trkpt>
      <trkpt lat="31.9670714624226093292236328125" lon="118.8182449154555797576904296875">
        <ele>9</ele>
        <time>2023-11-06T00:45:20.000Z</time>
        <extensions>
          <ns3:TrackPointExtension/>
        </extensions>
      </trkpt>
      <trkpt lat="31.96707724593579769134521484375" lon="118.81822966039180755615234375">
        <ele>9</ele>
        <time>2023-11-06T00:45:21.000Z</time>
        <extensions>
          <ns3:TrackPointExtension>
            <ns3:hr>152</ns3:hr>
            <ns3:cad>57</ns3:cad>
          </ns3:TrackPointExtension>
        </extensions>
      </trkpt>
      <trkpt lat="31.967081017792224884033203125" lon="118.8182144053280353546142578125">
        <ele>9</ele>
        <time>2023-11-06T00:45:22.000Z</time>
        <extensions>
          <ns3:TrackPointExtension/>
        </extensions>
      </trkpt>
      <trkpt lat="31.9670848734676837921142578125" lon="118.818199150264263153076171875">
        <ele>9</ele>
        <time>2023-11-06T00:45:23.000Z</time>
        <extensions>
          <ns3:TrackPointExtension/>
        </extensions>
      </trkpt>
      <trkpt lat="31.9670905731618404388427734375" lon="118.8181838952004909515380859375">
        <ele>9</ele>
        <time>2023-11-06T00:45:24.000Z</time>
        <extensions>
          <ns3:TrackPointExtension/>
        </extensions>
      </trkpt>
      <trkpt lat="31.96709434501826763153076171875" lon="118.81816864013671875">
        <ele>9</ele>
        <time>2023-11-06T00:45:25.000Z</time>
        <extensions>
          <ns3:TrackPointExtension/>
        </extensions>
      </trkpt>
      <trkpt lat="31.96709820069372653961181640625" lon="118.81815330125391483306884765625">
        <ele>9</ele>
        <time>2023-11-06T00:45:26.000Z</time>
        <extensions>
          <ns3:TrackPointExtension>
            <ns3:hr>147</ns3:hr>
            <ns3:cad>56</ns3:cad>
          </ns3:TrackPointExtension>
        </extensions>
      </trkpt>
      <trkpt lat="31.96710012853145599365234375" lon="118.81813804619014263153076171875">
        <ele>9</ele>
        <time>2023-11-06T00:45:27.000Z</time>
        <extensions>
          <ns3:TrackPointExtension/>
        </extensions>
      </trkpt>
      <trkpt lat="31.96710390038788318634033203125" lon="118.81812279112637042999267578125">
        <ele>9</ele>
        <time>2023-11-06T00:45:28.000Z</time>
        <extensions>
          <ns3:TrackPointExtension/>
        </extensions>
      </trkpt>
      <trkpt lat="31.967105828225612640380859375" lon="118.81810753606259822845458984375">
        <ele>9.19999980926513671875</ele>
        <time>2023-11-06T00:45:29.000Z</time>
        <extensions>
          <ns3:TrackPointExtension/>
        </extensions>
      </trkpt>
      <trkpt lat="31.96710960008203983306884765625" lon="118.81809228099882602691650390625">
        <ele>9.19999980926513671875</ele>
        <time>2023-11-06T00:45:30.000Z</time>
        <extensions>
          <ns3:TrackPointExtension/>
        </extensions>
      </trkpt>
      <trkpt lat="31.967111527919769287109375" lon="118.818069398403167724609375">
        <ele>9.19999980926513671875</ele>
        <time>2023-11-06T00:45:31.000Z</time>
        <extensions>
          <ns3:TrackPointExtension>
            <ns3:hr>141</ns3:hr>
            <ns3:cad>57</ns3:cad>
          </ns3:TrackPointExtension>
        </extensions>
      </trkpt>
      <trkpt lat="31.96711345575749874114990234375" lon="118.8180541433393955230712890625">
        <ele>9.3999996185302734375</ele>
        <time>2023-11-06T00:45:32.000Z</time>
        <extensions>
          <ns3:TrackPointExtension/>
        </extensions>
      </trkpt>
      <trkpt lat="31.9671153835952281951904296875" lon="118.818038888275623321533203125">
        <ele>9.3999996185302734375</ele>
        <time>2023-11-06T00:45:33.000Z</time>
        <extensions>
          <ns3:TrackPointExtension/>
        </extensions>
      </trkpt>
      <trkpt lat="31.967117227613925933837890625" lon="118.81801600567996501922607421875">
        <ele>9.3999996185302734375</ele>
        <time>2023-11-06T00:45:34.000Z</time>
        <extensions>
          <ns3:TrackPointExtension/>
        </extensions>
      </trkpt>
      <trkpt lat="31.96711915545165538787841796875" lon="118.81800075061619281768798828125">
        <ele>9.6000003814697265625</ele>
        <time>2023-11-06T00:45:35.000Z</time>
        <extensions>
          <ns3:TrackPointExtension/>
        </extensions>
      </trkpt>
      <trkpt lat="31.9671210832893848419189453125" lon="118.81798549555242061614990234375">
        <ele>9.6000003814697265625</ele>
        <time>2023-11-06T00:45:36.000Z</time>
        <extensions>
          <ns3:TrackPointExtension>
            <ns3:hr>136</ns3:hr>
            <ns3:cad>59</ns3:cad>
          </ns3:TrackPointExtension>
        </extensions>
      </trkpt>
      <trkpt lat="31.9671210832893848419189453125" lon="118.8179626129567623138427734375">
        <ele>9.6000003814697265625</ele>
        <time>2023-11-06T00:45:37.000Z</time>
        <extensions>
          <ns3:TrackPointExtension/>
        </extensions>
      </trkpt>
      <trkpt lat="31.96712301112711429595947265625" lon="118.8179473578929901123046875">
        <ele>9.80000019073486328125</ele>
        <time>2023-11-06T00:45:38.000Z</time>
        <extensions>
          <ns3:TrackPointExtension/>
        </extensions>
      </trkpt>
      <trkpt lat="31.96712493896484375" lon="118.8179321028292179107666015625">
        <ele>9.80000019073486328125</ele>
        <time>2023-11-06T00:45:39.000Z</time>
        <extensions>
          <ns3:TrackPointExtension/>
        </extensions>
      </trkpt>
      <trkpt lat="31.9671267829835414886474609375" lon="118.81790922023355960845947265625">
        <ele>9.80000019073486328125</ele>
        <time>2023-11-06T00:45:40.000Z</time>
        <extensions>
          <ns3:TrackPointExtension/>
        </extensions>
      </trkpt>
      <trkpt lat="31.967130638659000396728515625" lon="118.81789396516978740692138671875">
        <ele>9.80000019073486328125</ele>
        <time>2023-11-06T00:45:41.000Z</time>
        <extensions>
          <ns3:TrackPointExtension>
            <ns3:hr>136</ns3:hr>
            <ns3:cad>59</ns3:cad>
          </ns3:TrackPointExtension>
        </extensions>
      </trkpt>
      <trkpt lat="31.96713256649672985076904296875" lon="118.81787871010601520538330078125">
        <ele>9.80000019073486328125</ele>
        <time>2023-11-06T00:45:42.000Z</time>
        <extensions>
          <ns3:TrackPointExtension/>
        </extensions>
      </trkpt>
      <trkpt lat="31.96713441051542758941650390625" lon="118.81786345504224300384521484375">
        <ele>9.80000019073486328125</ele>
        <time>2023-11-06T00:45:43.000Z</time>
        <extensions>
          <ns3:TrackPointExtension/>
        </extensions>
      </trkpt>
      <trkpt lat="31.96713633835315704345703125" lon="118.81784819997847080230712890625">
        <ele>9.80000019073486328125</ele>
        <time>2023-11-06T00:45:44.000Z</time>
        <extensions>
          <ns3:TrackPointExtension/>
        </extensions>
      </trkpt>
      <trkpt lat="31.96713826619088649749755859375" lon="118.8178253173828125">
        <ele>9.80000019073486328125</ele>
        <time>2023-11-06T00:45:45.000Z</time>
        <extensions>
          <ns3:TrackPointExtension/>
        </extensions>
      </trkpt>
      <trkpt lat="31.967142038047313690185546875" lon="118.81780997850000858306884765625">
        <ele>9.80000019073486328125</ele>
        <time>2023-11-06T00:45:46.000Z</time>
        <extensions>
          <ns3:TrackPointExtension>
            <ns3:hr>134</ns3:hr>
            <ns3:cad>59</ns3:cad>
          </ns3:TrackPointExtension>
        </extensions>
      </trkpt>
      <trkpt lat="31.96714396588504314422607421875" lon="118.81779472343623638153076171875">
        <ele>9.80000019073486328125</ele>
        <time>2023-11-06T00:45:47.000Z</time>
        <extensions>
          <ns3:TrackPointExtension/>
        </extensions>
      </trkpt>
      <trkpt lat="31.9671458937227725982666015625" lon="118.81777946837246417999267578125">
        <ele>9.80000019073486328125</ele>
        <time>2023-11-06T00:45:48.000Z</time>
        <extensions>
          <ns3:TrackPointExtension/>
        </extensions>
      </trkpt>
      <trkpt lat="31.96714782156050205230712890625" lon="118.81776421330869197845458984375">
        <ele>9.80000019073486328125</ele>
        <time>2023-11-06T00:45:49.000Z</time>
        <extensions>
          <ns3:TrackPointExtension/>
        </extensions>
      </trkpt>
      <trkpt lat="31.96714966557919979095458984375" lon="118.81774895824491977691650390625">
        <ele>9.80000019073486328125</ele>
        <time>2023-11-06T00:45:50.000Z</time>
        <extensions>
          <ns3:TrackPointExtension/>
        </extensions>
      </trkpt>
      <trkpt lat="31.96714966557919979095458984375" lon="118.81773370318114757537841796875">
        <ele>9.80000019073486328125</ele>
        <time>2023-11-06T00:45:51.000Z</time>
        <extensions>
          <ns3:TrackPointExtension>
            <ns3:hr>131</ns3:hr>
            <ns3:cad>59</ns3:cad>
          </ns3:TrackPointExtension>
        </extensions>
      </trkpt>
      <trkpt lat="31.9671515934169292449951171875" lon="118.8177108205854892730712890625">
        <ele>9.80000019073486328125</ele>
        <time>2023-11-06T00:45:52.000Z</time>
        <extensions>
          <ns3:TrackPointExtension/>
        </extensions>
      </trkpt>
      <trkpt lat="31.96715352125465869903564453125" lon="118.817695565521717071533203125">
        <ele>9.80000019073486328125</ele>
        <time>2023-11-06T00:45:53.000Z</time>
        <extensions>
          <ns3:TrackPointExtension/>
        </extensions>
      </trkpt>
      <trkpt lat="31.967155449092388153076171875" lon="118.8176803104579448699951171875">
        <ele>9.80000019073486328125</ele>
        <time>2023-11-06T00:45:54.000Z</time>
        <extensions>
          <ns3:TrackPointExtension/>
        </extensions>
      </trkpt>
      <trkpt lat="31.9671572931110858917236328125" lon="118.81766505539417266845703125">
        <ele>9.80000019073486328125</ele>
        <time>2023-11-06T00:45:55.000Z</time>
        <extensions>
          <ns3:TrackPointExtension/>
        </extensions>
      </trkpt>
      <trkpt lat="31.9671572931110858917236328125" lon="118.81764217279851436614990234375">
        <ele>9.80000019073486328125</ele>
        <time>2023-11-06T00:45:56.000Z</time>
        <extensions>
          <ns3:TrackPointExtension>
            <ns3:hr>129</ns3:hr>
            <ns3:cad>59</ns3:cad>
          </ns3:TrackPointExtension>
        </extensions>
      </trkpt>
      <trkpt lat="31.96715922094881534576416015625" lon="118.81762691773474216461181640625">
        <ele>9.6000003814697265625</ele>
        <time>2023-11-06T00:45:57.000Z</time>
        <extensions>
          <ns3:TrackPointExtension/>
        </extensions>
      </trkpt>
      <trkpt lat="31.96715922094881534576416015625" lon="118.81761166267096996307373046875">
        <ele>9.6000003814697265625</ele>
        <time>2023-11-06T00:45:58.000Z</time>
        <extensions>
          <ns3:TrackPointExtension/>
        </extensions>
      </trkpt>
      <trkpt lat="31.96715922094881534576416015625" lon="118.81759640760719776153564453125">
        <ele>9.6000003814697265625</ele>
        <time>2023-11-06T00:45:59.000Z</time>
        <extensions>
          <ns3:TrackPointExtension/>
        </extensions>
      </trkpt>
      <trkpt lat="31.96715922094881534576416015625" lon="118.81758115254342555999755859375">
        <ele>9.6000003814697265625</ele>
        <time>2023-11-06T00:46:00.000Z</time>
        <extensions>
          <ns3:TrackPointExtension/>
        </extensions>
      </trkpt>
      <trkpt lat="31.96715922094881534576416015625" lon="118.8175582699477672576904296875">
        <ele>9.6000003814697265625</ele>
        <time>2023-11-06T00:46:01.000Z</time>
        <extensions>
          <ns3:TrackPointExtension>
            <ns3:hr>126</ns3:hr>
            <ns3:cad>58</ns3:cad>
          </ns3:TrackPointExtension>
        </extensions>
      </trkpt>
      <trkpt lat="31.96715922094881534576416015625" lon="118.81754301488399505615234375">
        <ele>9.6000003814697265625</ele>
        <time>2023-11-06T00:46:02.000Z</time>
        <extensions>
          <ns3:TrackPointExtension/>
        </extensions>
      </trkpt>
      <trkpt lat="31.9671611487865447998046875" lon="118.8175277598202228546142578125">
        <ele>9.6000003814697265625</ele>
        <time>2023-11-06T00:46:03.000Z</time>
        <extensions>
          <ns3:TrackPointExtension/>
        </extensions>
      </trkpt>
      <trkpt lat="31.9671611487865447998046875" lon="118.81750487722456455230712890625">
        <ele>9.6000003814697265625</ele>
        <time>2023-11-06T00:46:04.000Z</time>
        <extensions>
          <ns3:TrackPointExtension/>
        </extensions>
      </trkpt>
      <trkpt lat="31.9671611487865447998046875" lon="118.81748962216079235076904296875">
        <ele>9.6000003814697265625</ele>
        <time>2023-11-06T00:46:05.000Z</time>
        <extensions>
          <ns3:TrackPointExtension/>
        </extensions>
      </trkpt>
      <trkpt lat="31.9671611487865447998046875" lon="118.817474283277988433837890625">
        <ele>9.6000003814697265625</ele>
        <time>2023-11-06T00:46:06.000Z</time>
        <extensions>
          <ns3:TrackPointExtension>
            <ns3:hr>125</ns3:hr>
            <ns3:cad>58</ns3:cad>
          </ns3:TrackPointExtension>
        </extensions>
      </trkpt>
      <trkpt lat="31.9671611487865447998046875" lon="118.8174590282142162322998046875">
        <ele>9.6000003814697265625</ele>
        <time>2023-11-06T00:46:07.000Z</time>
        <extensions>
          <ns3:TrackPointExtension/>
        </extensions>
      </trkpt>
      <trkpt lat="31.96716307662427425384521484375" lon="118.81743614561855792999267578125">
        <ele>9.6000003814697265625</ele>
        <time>2023-11-06T00:46:08.000Z</time>
        <extensions>
          <ns3:TrackPointExtension/>
        </extensions>
      </trkpt>
      <trkpt lat="31.96716492064297199249267578125" lon="118.81742089055478572845458984375">
        <ele>9.6000003814697265625</ele>
        <time>2023-11-06T00:46:09.000Z</time>
        <extensions>
          <ns3:TrackPointExtension/>
        </extensions>
      </trkpt>
      <trkpt lat="31.967166848480701446533203125" lon="118.8173980079591274261474609375">
        <ele>9.6000003814697265625</ele>
        <time>2023-11-06T00:46:10.000Z</time>
        <extensions>
          <ns3:TrackPointExtension/>
        </extensions>
      </trkpt>
      <trkpt lat="31.9671707041561603546142578125" lon="118.817382752895355224609375">
        <ele>9.6000003814697265625</ele>
        <time>2023-11-06T00:46:11.000Z</time>
        <extensions>
          <ns3:TrackPointExtension>
            <ns3:hr>122</ns3:hr>
            <ns3:cad>59</ns3:cad>
          </ns3:TrackPointExtension>
        </extensions>
      </trkpt>
      <trkpt lat="31.96717447601258754730224609375" lon="118.81735987029969692230224609375">
        <ele>9.6000003814697265625</ele>
        <time>2023-11-06T00:46:12.000Z</time>
        <extensions>
          <ns3:TrackPointExtension/>
        </extensions>
      </trkpt>
      <trkpt lat="31.96718017570674419403076171875" lon="118.81734461523592472076416015625">
        <ele>9.6000003814697265625</ele>
        <time>2023-11-06T00:46:13.000Z</time>
        <extensions>
          <ns3:TrackPointExtension/>
        </extensions>
      </trkpt>
      <trkpt lat="31.96718403138220310211181640625" lon="118.81732936017215251922607421875">
        <ele>9.6000003814697265625</ele>
        <time>2023-11-06T00:46:14.000Z</time>
        <extensions>
          <ns3:TrackPointExtension/>
        </extensions>
      </trkpt>
      <trkpt lat="31.96718595921993255615234375" lon="118.81731410510838031768798828125">
        <ele>9.6000003814697265625</ele>
        <time>2023-11-06T00:46:15.000Z</time>
        <extensions>
          <ns3:TrackPointExtension/>
        </extensions>
      </trkpt>
      <trkpt lat="31.96718595921993255615234375" lon="118.81729885004460811614990234375">
        <ele>9.6000003814697265625</ele>
        <time>2023-11-06T00:46:16.000Z</time>
        <extensions>
          <ns3:TrackPointExtension>
            <ns3:hr>122</ns3:hr>
            <ns3:cad>60</ns3:cad>
          </ns3:TrackPointExtension>
        </extensions>
      </trkpt>
      <trkpt lat="31.96718595921993255615234375" lon="118.81728359498083591461181640625">
        <ele>9.6000003814697265625</ele>
        <time>2023-11-06T00:46:17.000Z</time>
        <extensions>
          <ns3:TrackPointExtension/>
        </extensions>
      </trkpt>
      <trkpt lat="31.96718403138220310211181640625" lon="118.8172759674489498138427734375">
        <ele>9.3999996185302734375</ele>
        <time>2023-11-06T00:46:18.000Z</time>
        <extensions>
          <ns3:TrackPointExtension/>
        </extensions>
      </trkpt>
      <trkpt lat="31.96718017570674419403076171875" lon="118.81726833991706371307373046875">
        <ele>9.3999996185302734375</ele>
        <time>2023-11-06T00:46:19.000Z</time>
        <extensions>
          <ns3:TrackPointExtension/>
        </extensions>
      </trkpt>
      <trkpt lat="31.96717833168804645538330078125" lon="118.81725308485329151153564453125">
        <ele>9.3999996185302734375</ele>
        <time>2023-11-06T00:46:20.000Z</time>
        <extensions>
          <ns3:TrackPointExtension/>
        </extensions>
      </trkpt>
      <trkpt lat="31.96717447601258754730224609375" lon="118.8172454573214054107666015625">
        <ele>9.3999996185302734375</ele>
        <time>2023-11-06T00:46:21.000Z</time>
        <extensions>
          <ns3:TrackPointExtension>
            <ns3:hr>122</ns3:hr>
            <ns3:cad>59</ns3:cad>
          </ns3:TrackPointExtension>
        </extensions>
      </trkpt>
      <trkpt lat="31.96717254817485809326171875" lon="118.817230202257633209228515625">
        <ele>9.3999996185302734375</ele>
        <time>2023-11-06T00:46:22.000Z</time>
        <extensions>
          <ns3:TrackPointExtension/>
        </extensions>
      </trkpt>
      <trkpt lat="31.96716877631843090057373046875" lon="118.81722257472574710845947265625">
        <ele>9.3999996185302734375</ele>
        <time>2023-11-06T00:46:23.000Z</time>
        <extensions>
          <ns3:TrackPointExtension/>
        </extensions>
      </trkpt>
      <trkpt lat="31.96716492064297199249267578125" lon="118.81720731966197490692138671875">
        <ele>9.3999996185302734375</ele>
        <time>2023-11-06T00:46:24.000Z</time>
        <extensions>
          <ns3:TrackPointExtension/>
        </extensions>
      </trkpt>
      <trkpt lat="31.96716307662427425384521484375" lon="118.81719969213008880615234375">
        <ele>9.19999980926513671875</ele>
        <time>2023-11-06T00:46:25.000Z</time>
        <extensions>
          <ns3:TrackPointExtension/>
        </extensions>
      </trkpt>
      <trkpt lat="31.96716307662427425384521484375" lon="118.8171844370663166046142578125">
        <ele>9.19999980926513671875</ele>
        <time>2023-11-06T00:46:26.000Z</time>
        <extensions>
          <ns3:TrackPointExtension>
            <ns3:hr>122</ns3:hr>
            <ns3:cad>60</ns3:cad>
          </ns3:TrackPointExtension>
        </extensions>
      </trkpt>
      <trkpt lat="31.967166848480701446533203125" lon="118.817169182002544403076171875">
        <ele>9.19999980926513671875</ele>
        <time>2023-11-06T00:46:27.000Z</time>
        <extensions>
          <ns3:TrackPointExtension/>
        </extensions>
      </trkpt>
      <trkpt lat="31.96716877631843090057373046875" lon="118.81714629940688610076904296875">
        <ele>9</ele>
        <time>2023-11-06T00:46:28.000Z</time>
        <extensions>
          <ns3:TrackPointExtension/>
        </extensions>
      </trkpt>
      <trkpt lat="31.96717447601258754730224609375" lon="118.817130960524082183837890625">
        <ele>9</ele>
        <time>2023-11-06T00:46:29.000Z</time>
        <extensions>
          <ns3:TrackPointExtension/>
        </extensions>
      </trkpt>
      <trkpt lat="31.96718017570674419403076171875" lon="118.81710807792842388153076171875">
        <ele>9</ele>
        <time>2023-11-06T00:46:30.000Z</time>
        <extensions>
          <ns3:TrackPointExtension/>
        </extensions>
      </trkpt>
      <trkpt lat="31.96718403138220310211181640625" lon="118.8170851953327655792236328125">
        <ele>9</ele>
        <time>2023-11-06T00:46:31.000Z</time>
        <extensions>
          <ns3:TrackPointExtension>
            <ns3:hr>122</ns3:hr>
            <ns3:cad>59</ns3:cad>
          </ns3:TrackPointExtension>
        </extensions>
      </trkpt>
      <trkpt lat="31.96718973107635974884033203125" lon="118.817069940268993377685546875">
        <ele>9</ele>
        <time>2023-11-06T00:46:32.000Z</time>
        <extensions>
          <ns3:TrackPointExtension/>
        </extensions>
      </trkpt>
      <trkpt lat="31.96719358675181865692138671875" lon="118.8170546852052211761474609375">
        <ele>9</ele>
        <time>2023-11-06T00:46:33.000Z</time>
        <extensions>
          <ns3:TrackPointExtension/>
        </extensions>
      </trkpt>
      <trkpt lat="31.967197358608245849609375" lon="118.81703180260956287384033203125">
        <ele>9</ele>
        <time>2023-11-06T00:46:34.000Z</time>
        <extensions>
          <ns3:TrackPointExtension/>
        </extensions>
      </trkpt>
      <trkpt lat="31.9672012142837047576904296875" lon="118.81701654754579067230224609375">
        <ele>9</ele>
        <time>2023-11-06T00:46:35.000Z</time>
        <extensions>
          <ns3:TrackPointExtension/>
        </extensions>
      </trkpt>
      <trkpt lat="31.96720498614013195037841796875" lon="118.81700129248201847076416015625">
        <ele>8.80000019073486328125</ele>
        <time>2023-11-06T00:46:36.000Z</time>
        <extensions>
          <ns3:TrackPointExtension>
            <ns3:hr>120</ns3:hr>
            <ns3:cad>59</ns3:cad>
          </ns3:TrackPointExtension>
        </extensions>
      </trkpt>
      <trkpt lat="31.9672069139778614044189453125" lon="118.81697840988636016845703125">
        <ele>8.80000019073486328125</ele>
        <time>2023-11-06T00:46:37.000Z</time>
        <extensions>
          <ns3:TrackPointExtension/>
        </extensions>
      </trkpt>
      <trkpt lat="31.96720884181559085845947265625" lon="118.8169631548225879669189453125">
        <ele>8.80000019073486328125</ele>
        <time>2023-11-06T00:46:38.000Z</time>
        <extensions>
          <ns3:TrackPointExtension/>
        </extensions>
      </trkpt>
      <trkpt lat="31.9672107696533203125" lon="118.816947899758815765380859375">
        <ele>8.6000003814697265625</ele>
        <time>2023-11-06T00:46:39.000Z</time>
        <extensions>
          <ns3:TrackPointExtension/>
        </extensions>
      </trkpt>
      <trkpt lat="31.9672126136720180511474609375" lon="118.8169326446950435638427734375">
        <ele>8.6000003814697265625</ele>
        <time>2023-11-06T00:46:40.000Z</time>
        <extensions>
          <ns3:TrackPointExtension/>
        </extensions>
      </trkpt>
      <trkpt lat="31.96721454150974750518798828125" lon="118.81690976209938526153564453125">
        <ele>8.6000003814697265625</ele>
        <time>2023-11-06T00:46:41.000Z</time>
        <extensions>
          <ns3:TrackPointExtension>
            <ns3:hr>119</ns3:hr>
            <ns3:cad>59</ns3:cad>
          </ns3:TrackPointExtension>
        </extensions>
      </trkpt>
      <trkpt lat="31.967216469347476959228515625" lon="118.81689450703561305999755859375">
        <ele>8.3999996185302734375</ele>
        <time>2023-11-06T00:46:42.000Z</time>
        <extensions>
          <ns3:TrackPointExtension/>
        </extensions>
      </trkpt>
      <trkpt lat="31.96721839718520641326904296875" lon="118.81687925197184085845947265625">
        <ele>8.3999996185302734375</ele>
        <time>2023-11-06T00:46:43.000Z</time>
        <extensions>
          <ns3:TrackPointExtension/>
        </extensions>
      </trkpt>
      <trkpt lat="31.96722024120390415191650390625" lon="118.81686399690806865692138671875">
        <ele>8.19999980926513671875</ele>
        <time>2023-11-06T00:46:44.000Z</time>
        <extensions>
          <ns3:TrackPointExtension/>
        </extensions>
      </trkpt>
      <trkpt lat="31.96722024120390415191650390625" lon="118.81684874184429645538330078125">
        <ele>8.19999980926513671875</ele>
        <time>2023-11-06T00:46:45.000Z</time>
        <extensions>
          <ns3:TrackPointExtension/>
        </extensions>
      </trkpt>
      <trkpt lat="31.96722024120390415191650390625" lon="118.81683348678052425384521484375">
        <ele>8</ele>
        <time>2023-11-06T00:46:46.000Z</time>
        <extensions>
          <ns3:TrackPointExtension>
            <ns3:hr>119</ns3:hr>
            <ns3:cad>60</ns3:cad>
          </ns3:TrackPointExtension>
        </extensions>
      </trkpt>
      <trkpt lat="31.96722216904163360595703125" lon="118.81681823171675205230712890625">
        <ele>8</ele>
        <time>2023-11-06T00:46:47.000Z</time>
        <extensions>
          <ns3:TrackPointExtension/>
        </extensions>
      </trkpt>
      <trkpt lat="31.96722216904163360595703125" lon="118.81680297665297985076904296875">
        <ele>7.80000019073486328125</ele>
        <time>2023-11-06T00:46:48.000Z</time>
        <extensions>
          <ns3:TrackPointExtension/>
        </extensions>
      </trkpt>
      <trkpt lat="31.96722216904163360595703125" lon="118.816787637770175933837890625">
        <ele>7.80000019073486328125</ele>
        <time>2023-11-06T00:46:49.000Z</time>
        <extensions>
          <ns3:TrackPointExtension/>
        </extensions>
      </trkpt>
      <trkpt lat="31.96722216904163360595703125" lon="118.8167723827064037322998046875">
        <ele>7.599999904632568359375</ele>
        <time>2023-11-06T00:46:50.000Z</time>
        <extensions>
          <ns3:TrackPointExtension/>
        </extensions>
      </trkpt>
      <trkpt lat="31.96722409687936305999755859375" lon="118.81675712764263153076171875">
        <ele>7.400000095367431640625</ele>
        <time>2023-11-06T00:46:51.000Z</time>
        <extensions>
          <ns3:TrackPointExtension>
            <ns3:hr>121</ns3:hr>
            <ns3:cad>60</ns3:cad>
          </ns3:TrackPointExtension>
        </extensions>
      </trkpt>
      <trkpt lat="31.96722216904163360595703125" lon="118.8167418725788593292236328125">
        <ele>7.400000095367431640625</ele>
        <time>2023-11-06T00:46:52.000Z</time>
        <extensions>
          <ns3:TrackPointExtension/>
        </extensions>
      </trkpt>
      <trkpt lat="31.96722216904163360595703125" lon="118.816726617515087127685546875">
        <ele>7.400000095367431640625</ele>
        <time>2023-11-06T00:46:53.000Z</time>
        <extensions>
          <ns3:TrackPointExtension/>
        </extensions>
      </trkpt>
      <trkpt lat="31.96722024120390415191650390625" lon="118.8167113624513149261474609375">
        <ele>7.400000095367431640625</ele>
        <time>2023-11-06T00:46:54.000Z</time>
        <extensions>
          <ns3:TrackPointExtension/>
        </extensions>
      </trkpt>
      <trkpt lat="31.96722216904163360595703125" lon="118.816696107387542724609375">
        <ele>7.19999980926513671875</ele>
        <time>2023-11-06T00:46:55.000Z</time>
        <extensions>
          <ns3:TrackPointExtension/>
        </extensions>
      </trkpt>
      <trkpt lat="31.96722409687936305999755859375" lon="118.8166808523237705230712890625">
        <ele>7.19999980926513671875</ele>
        <time>2023-11-06T00:46:56.000Z</time>
        <extensions>
          <ns3:TrackPointExtension>
            <ns3:hr>121</ns3:hr>
            <ns3:cad>60</ns3:cad>
          </ns3:TrackPointExtension>
        </extensions>
      </trkpt>
    </trkseg>
  </trk>
</gpx>
