<gpx xmlns:ns3="http://www.garmin.com/xmlschemas/TrackPointExtension/v1" xmlns="http://www.topografix.com/GPX/1/1" xmlns:xsi="http://www.w3.org/2001/XMLSchema-instance" xmlns:ns2="http://www.garmin.com/xmlschemas/GpxExtensions/v3" creator="Garmin Connect" version="1.1" xsi:schemaLocation="http://www.topografix.com/GPX/1/1 http://www.topografix.com/GPX/11.xsd">
  <extensions>
<distance>770.0</distance>
<average_hr>128.0</average_hr>
<average_speed>3.0078125</average_speed>
<start_time>2024-02-20T09:14:30+00:00</start_time>
<end_time>2024-02-20T09:18:46+00:00</end_time>
<moving_time>245.0</moving_time>
<elapsed_time>262.0</elapsed_time>
</extensions>
<metadata>
    <link href="connect.garmin.com">
      <text>Garmin Connect</text>
    </link>
    <time>2024-02-20T09:14:30.000Z</time>
  </metadata>
  <trk>
    <name>南京市 跑步</name>
    <type>running</type>
    <trkseg>
      <trkpt lat="32.0012206770479679107666015625" lon="118.74365226365625858306884765625">
        <ele>4.19999980926513671875</ele>
        <time>2024-02-20T09:14:36.000Z</time>
        <extensions>
          <ns3:TrackPointExtension/>
        </extensions>
      </trkpt>
      <trkpt lat="32.00123970396816730499267578125" lon="118.7436446361243724822998046875">
        <ele>4</ele>
        <time>2024-02-20T09:14:37.000Z</time>
        <extensions>
          <ns3:TrackPointExtension/>
        </extensions>
      </trkpt>
      <trkpt lat="32.00124355964362621307373046875" lon="118.74363700859248638153076171875">
        <ele>4</ele>
        <time>2024-02-20T09:14:38.000Z</time>
        <extensions>
          <ns3:TrackPointExtension/>
        </extensions>
      </trkpt>
      <trkpt lat="32.00124733150005340576171875" lon="118.7436141259968280792236328125">
        <ele>4</ele>
        <time>2024-02-20T09:14:39.000Z</time>
        <extensions>
          <ns3:TrackPointExtension/>
        </extensions>
      </trkpt>
      <trkpt lat="32.0012511871755123138427734375" lon="118.74359124340116977691650390625">
        <ele>4</ele>
        <time>2024-02-20T09:14:40.000Z</time>
        <extensions>
          <ns3:TrackPointExtension>
            <ns3:hr>104</ns3:hr>
            <ns3:cad>77</ns3:cad>
          </ns3:TrackPointExtension>
        </extensions>
      </trkpt>
      <trkpt lat="32.001266442239284515380859375" lon="118.743568360805511474609375">
        <ele>3.7999999523162841796875</ele>
        <time>2024-02-20T09:14:41.000Z</time>
        <extensions>
          <ns3:TrackPointExtension/>
        </extensions>
      </trkpt>
      <trkpt lat="32.00129318051040172576904296875" lon="118.74356073327362537384033203125">
        <ele>3.599999904632568359375</ele>
        <time>2024-02-20T09:14:42.000Z</time>
        <extensions>
          <ns3:TrackPointExtension/>
        </extensions>
      </trkpt>
      <trkpt lat="32.001327462494373321533203125" lon="118.74356073327362537384033203125">
        <ele>3.400000095367431640625</ele>
        <time>2024-02-20T09:14:43.000Z</time>
        <extensions>
          <ns3:TrackPointExtension/>
        </extensions>
      </trkpt>
      <trkpt lat="32.0013732276856899261474609375" lon="118.74356073327362537384033203125">
        <ele>3.2000000476837158203125</ele>
        <time>2024-02-20T09:14:44.000Z</time>
        <extensions>
          <ns3:TrackPointExtension/>
        </extensions>
      </trkpt>
      <trkpt lat="32.00141899287700653076171875" lon="118.74356073327362537384033203125">
        <ele>2.7999999523162841796875</ele>
        <time>2024-02-20T09:14:45.000Z</time>
        <extensions>
          <ns3:TrackPointExtension>
            <ns3:hr>110</ns3:hr>
            <ns3:cad>79</ns3:cad>
          </ns3:TrackPointExtension>
        </extensions>
      </trkpt>
      <trkpt lat="32.00145721435546875" lon="118.7435531057417392730712890625">
        <ele>3</ele>
        <time>2024-02-20T09:14:46.000Z</time>
        <extensions>
          <ns3:TrackPointExtension/>
        </extensions>
      </trkpt>
      <trkpt lat="32.0014838688075542449951171875" lon="118.743537850677967071533203125">
        <ele>3</ele>
        <time>2024-02-20T09:14:47.000Z</time>
        <extensions>
          <ns3:TrackPointExtension/>
        </extensions>
      </trkpt>
      <trkpt lat="32.00149149633944034576416015625" lon="118.74351496808230876922607421875">
        <ele>3.2000000476837158203125</ele>
        <time>2024-02-20T09:14:48.000Z</time>
        <extensions>
          <ns3:TrackPointExtension/>
        </extensions>
      </trkpt>
      <trkpt lat="32.0014838688075542449951171875" lon="118.7434920854866504669189453125">
        <ele>3.400000095367431640625</ele>
        <time>2024-02-20T09:14:49.000Z</time>
        <extensions>
          <ns3:TrackPointExtension/>
        </extensions>
      </trkpt>
      <trkpt lat="32.00146484188735485076904296875" lon="118.7434615753591060638427734375">
        <ele>3.599999904632568359375</ele>
        <time>2024-02-20T09:14:50.000Z</time>
        <extensions>
          <ns3:TrackPointExtension>
            <ns3:hr>110</ns3:hr>
            <ns3:cad>80</ns3:cad>
          </ns3:TrackPointExtension>
        </extensions>
      </trkpt>
      <trkpt lat="32.00144187547266483306884765625" lon="118.7434310652315616607666015625">
        <ele>3.7999999523162841796875</ele>
        <time>2024-02-20T09:14:51.000Z</time>
        <extensions>
          <ns3:TrackPointExtension/>
        </extensions>
      </trkpt>
      <trkpt lat="32.00141522102057933807373046875" lon="118.74340818263590335845947265625">
        <ele>4</ele>
        <time>2024-02-20T09:14:52.000Z</time>
        <extensions>
          <ns3:TrackPointExtension/>
        </extensions>
      </trkpt>
      <trkpt lat="32.0013923384249210357666015625" lon="118.74338530004024505615234375">
        <ele>4</ele>
        <time>2024-02-20T09:14:53.000Z</time>
        <extensions>
          <ns3:TrackPointExtension/>
        </extensions>
      </trkpt>
      <trkpt lat="32.00136560015380382537841796875" lon="118.7433700449764728546142578125">
        <ele>4</ele>
        <time>2024-02-20T09:14:54.000Z</time>
        <extensions>
          <ns3:TrackPointExtension/>
        </extensions>
      </trkpt>
      <trkpt lat="32.0013427175581455230712890625" lon="118.74336241744458675384521484375">
        <ele>4</ele>
        <time>2024-02-20T09:14:55.000Z</time>
        <extensions>
          <ns3:TrackPointExtension>
            <ns3:hr>112</ns3:hr>
            <ns3:cad>82</ns3:cad>
          </ns3:TrackPointExtension>
        </extensions>
      </trkpt>
      <trkpt lat="32.0013122074306011199951171875" lon="118.74334716238081455230712890625">
        <ele>4</ele>
        <time>2024-02-20T09:14:56.000Z</time>
        <extensions>
          <ns3:TrackPointExtension/>
        </extensions>
      </trkpt>
      <trkpt lat="32.0012816973030567169189453125" lon="118.7433395348489284515380859375">
        <ele>4</ele>
        <time>2024-02-20T09:14:57.000Z</time>
        <extensions>
          <ns3:TrackPointExtension/>
        </extensions>
      </trkpt>
      <trkpt lat="32.00124733150005340576171875" lon="118.74332427978515625">
        <ele>4</ele>
        <time>2024-02-20T09:14:58.000Z</time>
        <extensions>
          <ns3:TrackPointExtension/>
        </extensions>
      </trkpt>
      <trkpt lat="32.00121304951608180999755859375" lon="118.74330894090235233306884765625">
        <ele>4</ele>
        <time>2024-02-20T09:14:59.000Z</time>
        <extensions>
          <ns3:TrackPointExtension/>
        </extensions>
      </trkpt>
      <trkpt lat="32.0011710561811923980712890625" lon="118.74329368583858013153076171875">
        <ele>4</ele>
        <time>2024-02-20T09:15:00.000Z</time>
        <extensions>
          <ns3:TrackPointExtension>
            <ns3:hr>113</ns3:hr>
            <ns3:cad>82</ns3:cad>
          </ns3:TrackPointExtension>
        </extensions>
      </trkpt>
      <trkpt lat="32.00113291852176189422607421875" lon="118.74327843077480792999267578125">
        <ele>4</ele>
        <time>2024-02-20T09:15:01.000Z</time>
        <extensions>
          <ns3:TrackPointExtension/>
        </extensions>
      </trkpt>
      <trkpt lat="32.001094780862331390380859375" lon="118.7432708032429218292236328125">
        <ele>4.19999980926513671875</ele>
        <time>2024-02-20T09:15:02.000Z</time>
        <extensions>
          <ns3:TrackPointExtension/>
        </extensions>
      </trkpt>
      <trkpt lat="32.0010604150593280792236328125" lon="118.7432708032429218292236328125">
        <ele>4.400000095367431640625</ele>
        <time>2024-02-20T09:15:03.000Z</time>
        <extensions>
          <ns3:TrackPointExtension/>
        </extensions>
      </trkpt>
      <trkpt lat="32.00102613307535648345947265625" lon="118.7432708032429218292236328125">
        <ele>4.599999904632568359375</ele>
        <time>2024-02-20T09:15:04.000Z</time>
        <extensions>
          <ns3:TrackPointExtension/>
        </extensions>
      </trkpt>
      <trkpt lat="32.00099176727235317230224609375" lon="118.7432708032429218292236328125">
        <ele>5</ele>
        <time>2024-02-20T09:15:05.000Z</time>
        <extensions>
          <ns3:TrackPointExtension>
            <ns3:hr>114</ns3:hr>
            <ns3:cad>81</ns3:cad>
          </ns3:TrackPointExtension>
        </extensions>
      </trkpt>
      <trkpt lat="32.00096511282026767730712890625" lon="118.74327843077480792999267578125">
        <ele>5.19999980926513671875</ele>
        <time>2024-02-20T09:15:06.000Z</time>
        <extensions>
          <ns3:TrackPointExtension/>
        </extensions>
      </trkpt>
      <trkpt lat="32.0009383745491504669189453125" lon="118.74328605830669403076171875">
        <ele>5.400000095367431640625</ele>
        <time>2024-02-20T09:15:07.000Z</time>
        <extensions>
          <ns3:TrackPointExtension/>
        </extensions>
      </trkpt>
      <trkpt lat="32.00091163627803325653076171875" lon="118.74329368583858013153076171875">
        <ele>5.599999904632568359375</ele>
        <time>2024-02-20T09:15:08.000Z</time>
        <extensions>
          <ns3:TrackPointExtension/>
        </extensions>
      </trkpt>
      <trkpt lat="32.0008926093578338623046875" lon="118.7433013133704662322998046875">
        <ele>5.80000019073486328125</ele>
        <time>2024-02-20T09:15:09.000Z</time>
        <extensions>
          <ns3:TrackPointExtension/>
        </extensions>
      </trkpt>
      <trkpt lat="32.00086972676217555999755859375" lon="118.74330894090235233306884765625">
        <ele>6</ele>
        <time>2024-02-20T09:15:10.000Z</time>
        <extensions>
          <ns3:TrackPointExtension>
            <ns3:hr>115</ns3:hr>
            <ns3:cad>81</ns3:cad>
          </ns3:TrackPointExtension>
        </extensions>
      </trkpt>
      <trkpt lat="32.0008468441665172576904296875" lon="118.74332427978515625">
        <ele>6.400000095367431640625</ele>
        <time>2024-02-20T09:15:11.000Z</time>
        <extensions>
          <ns3:TrackPointExtension/>
        </extensions>
      </trkpt>
      <trkpt lat="32.00082010589540004730224609375" lon="118.74333190731704235076904296875">
        <ele>6.599999904632568359375</ele>
        <time>2024-02-20T09:15:12.000Z</time>
        <extensions>
          <ns3:TrackPointExtension/>
        </extensions>
      </trkpt>
      <trkpt lat="32.0007972232997417449951171875" lon="118.74334716238081455230712890625">
        <ele>6.80000019073486328125</ele>
        <time>2024-02-20T09:15:13.000Z</time>
        <extensions>
          <ns3:TrackPointExtension/>
        </extensions>
      </trkpt>
      <trkpt lat="32.00077056884765625" lon="118.743354789912700653076171875">
        <ele>7.19999980926513671875</ele>
        <time>2024-02-20T09:15:14.000Z</time>
        <extensions>
          <ns3:TrackPointExtension/>
        </extensions>
      </trkpt>
      <trkpt lat="32.00074383057653903961181640625" lon="118.74336241744458675384521484375">
        <ele>7.400000095367431640625</ele>
        <time>2024-02-20T09:15:15.000Z</time>
        <extensions>
          <ns3:TrackPointExtension>
            <ns3:hr>118</ns3:hr>
            <ns3:cad>80</ns3:cad>
          </ns3:TrackPointExtension>
        </extensions>
      </trkpt>
      <trkpt lat="32.0007170923054218292236328125" lon="118.7433700449764728546142578125">
        <ele>7.599999904632568359375</ele>
        <time>2024-02-20T09:15:16.000Z</time>
        <extensions>
          <ns3:TrackPointExtension/>
        </extensions>
      </trkpt>
      <trkpt lat="32.00068281032145023345947265625" lon="118.74337767250835895538330078125">
        <ele>7.80000019073486328125</ele>
        <time>2024-02-20T09:15:17.000Z</time>
        <extensions>
          <ns3:TrackPointExtension/>
        </extensions>
      </trkpt>
      <trkpt lat="32.00065230019390583038330078125" lon="118.74338530004024505615234375">
        <ele>8</ele>
        <time>2024-02-20T09:15:18.000Z</time>
        <extensions>
          <ns3:TrackPointExtension/>
        </extensions>
      </trkpt>
      <trkpt lat="32.0006255619227886199951171875" lon="118.74339292757213115692138671875">
        <ele>8</ele>
        <time>2024-02-20T09:15:19.000Z</time>
        <extensions>
          <ns3:TrackPointExtension/>
        </extensions>
      </trkpt>
      <trkpt lat="32.00060267932713031768798828125" lon="118.7434005551040172576904296875">
        <ele>8</ele>
        <time>2024-02-20T09:15:20.000Z</time>
        <extensions>
          <ns3:TrackPointExtension>
            <ns3:hr>118</ns3:hr>
            <ns3:cad>77</ns3:cad>
          </ns3:TrackPointExtension>
        </extensions>
      </trkpt>
      <trkpt lat="32.00058356858789920806884765625" lon="118.7434005551040172576904296875">
        <ele>8</ele>
        <time>2024-02-20T09:15:21.000Z</time>
        <extensions>
          <ns3:TrackPointExtension/>
        </extensions>
      </trkpt>
      <trkpt lat="32.00056831352412700653076171875" lon="118.7434005551040172576904296875">
        <ele>8</ele>
        <time>2024-02-20T09:15:22.000Z</time>
        <extensions>
          <ns3:TrackPointExtension/>
        </extensions>
      </trkpt>
      <trkpt lat="32.0005492866039276123046875" lon="118.7434005551040172576904296875">
        <ele>8</ele>
        <time>2024-02-20T09:15:23.000Z</time>
        <extensions>
          <ns3:TrackPointExtension/>
        </extensions>
      </trkpt>
      <trkpt lat="32.000530175864696502685546875" lon="118.74339292757213115692138671875">
        <ele>8</ele>
        <time>2024-02-20T09:15:24.000Z</time>
        <extensions>
          <ns3:TrackPointExtension/>
        </extensions>
      </trkpt>
      <trkpt lat="32.00050729326903820037841796875" lon="118.74338530004024505615234375">
        <ele>8</ele>
        <time>2024-02-20T09:15:25.000Z</time>
        <extensions>
          <ns3:TrackPointExtension>
            <ns3:hr>118</ns3:hr>
            <ns3:cad>72</ns3:cad>
          </ns3:TrackPointExtension>
        </extensions>
      </trkpt>
      <trkpt lat="32.0004844106733798980712890625" lon="118.7433700449764728546142578125">
        <ele>7.80000019073486328125</ele>
        <time>2024-02-20T09:15:27.000Z</time>
        <extensions>
          <ns3:TrackPointExtension/>
        </extensions>
      </trkpt>
      <trkpt lat="32.000457756221294403076171875" lon="118.743354789912700653076171875">
        <ele>7.80000019073486328125</ele>
        <time>2024-02-20T09:15:28.000Z</time>
        <extensions>
          <ns3:TrackPointExtension/>
        </extensions>
      </trkpt>
      <trkpt lat="32.00043864548206329345703125" lon="118.74334716238081455230712890625">
        <ele>7.80000019073486328125</ele>
        <time>2024-02-20T09:15:29.000Z</time>
        <extensions>
          <ns3:TrackPointExtension/>
        </extensions>
      </trkpt>
      <trkpt lat="32.00041576288640499114990234375" lon="118.74333190731704235076904296875">
        <ele>7.80000019073486328125</ele>
        <time>2024-02-20T09:15:30.000Z</time>
        <extensions>
          <ns3:TrackPointExtension>
            <ns3:hr>121</ns3:hr>
            <ns3:cad>80</ns3:cad>
          </ns3:TrackPointExtension>
        </extensions>
      </trkpt>
      <trkpt lat="32.00039665214717388153076171875" lon="118.743316568434238433837890625">
        <ele>7.599999904632568359375</ele>
        <time>2024-02-20T09:15:31.000Z</time>
        <extensions>
          <ns3:TrackPointExtension/>
        </extensions>
      </trkpt>
      <trkpt lat="32.0003737695515155792236328125" lon="118.7433013133704662322998046875">
        <ele>7.599999904632568359375</ele>
        <time>2024-02-20T09:15:32.000Z</time>
        <extensions>
          <ns3:TrackPointExtension/>
        </extensions>
      </trkpt>
      <trkpt lat="32.00035474263131618499755859375" lon="118.74327843077480792999267578125">
        <ele>7.599999904632568359375</ele>
        <time>2024-02-20T09:15:33.000Z</time>
        <extensions>
          <ns3:TrackPointExtension/>
        </extensions>
      </trkpt>
      <trkpt lat="32.00033948756754398345947265625" lon="118.74326317571103572845458984375">
        <ele>7.599999904632568359375</ele>
        <time>2024-02-20T09:15:34.000Z</time>
        <extensions>
          <ns3:TrackPointExtension/>
        </extensions>
      </trkpt>
      <trkpt lat="32.000328004360198974609375" lon="118.7432402931153774261474609375">
        <ele>7.400000095367431640625</ele>
        <time>2024-02-20T09:15:35.000Z</time>
        <extensions>
          <ns3:TrackPointExtension>
            <ns3:hr>124</ns3:hr>
            <ns3:cad>84</ns3:cad>
          </ns3:TrackPointExtension>
        </extensions>
      </trkpt>
      <trkpt lat="32.0003127492964267730712890625" lon="118.74323266558349132537841796875">
        <ele>7.400000095367431640625</ele>
        <time>2024-02-20T09:15:36.000Z</time>
        <extensions>
          <ns3:TrackPointExtension/>
        </extensions>
      </trkpt>
      <trkpt lat="32.0003013499081134796142578125" lon="118.743225038051605224609375">
        <ele>7.400000095367431640625</ele>
        <time>2024-02-20T09:15:37.000Z</time>
        <extensions>
          <ns3:TrackPointExtension/>
        </extensions>
      </trkpt>
      <trkpt lat="32.00027846731245517730712890625" lon="118.743225038051605224609375">
        <ele>7.400000095367431640625</ele>
        <time>2024-02-20T09:15:38.000Z</time>
        <extensions>
          <ns3:TrackPointExtension/>
        </extensions>
      </trkpt>
      <trkpt lat="32.00025935657322406768798828125" lon="118.743225038051605224609375">
        <ele>7.400000095367431640625</ele>
        <time>2024-02-20T09:15:39.000Z</time>
        <extensions>
          <ns3:TrackPointExtension/>
        </extensions>
      </trkpt>
      <trkpt lat="32.00022884644567966461181640625" lon="118.74323266558349132537841796875">
        <ele>7.19999980926513671875</ele>
        <time>2024-02-20T09:15:40.000Z</time>
        <extensions>
          <ns3:TrackPointExtension>
            <ns3:hr>126</ns3:hr>
            <ns3:cad>85</ns3:cad>
          </ns3:TrackPointExtension>
        </extensions>
      </trkpt>
      <trkpt lat="32.0002059638500213623046875" lon="118.74323266558349132537841796875">
        <ele>7</ele>
        <time>2024-02-20T09:15:41.000Z</time>
        <extensions>
          <ns3:TrackPointExtension/>
        </extensions>
      </trkpt>
      <trkpt lat="32.00017922557890415191650390625" lon="118.74321741051971912384033203125">
        <ele>7</ele>
        <time>2024-02-20T09:15:42.000Z</time>
        <extensions>
          <ns3:TrackPointExtension/>
        </extensions>
      </trkpt>
      <trkpt lat="32.00015257112681865692138671875" lon="118.74318690039217472076416015625">
        <ele>6.80000019073486328125</ele>
        <time>2024-02-20T09:15:43.000Z</time>
        <extensions>
          <ns3:TrackPointExtension/>
        </extensions>
      </trkpt>
      <trkpt lat="32.0001296885311603546142578125" lon="118.74315639026463031768798828125">
        <ele>7</ele>
        <time>2024-02-20T09:15:44.000Z</time>
        <extensions>
          <ns3:TrackPointExtension/>
        </extensions>
      </trkpt>
      <trkpt lat="32.00010295026004314422607421875" lon="118.7431182526051998138427734375">
        <ele>7</ele>
        <time>2024-02-20T09:15:45.000Z</time>
        <extensions>
          <ns3:TrackPointExtension>
            <ns3:hr>128</ns3:hr>
            <ns3:cad>84</ns3:cad>
          </ns3:TrackPointExtension>
        </extensions>
      </trkpt>
      <trkpt lat="32.00008392333984375" lon="118.74308011494576930999755859375">
        <ele>7</ele>
        <time>2024-02-20T09:15:46.000Z</time>
        <extensions>
          <ns3:TrackPointExtension/>
        </extensions>
      </trkpt>
      <trkpt lat="32.000064812600612640380859375" lon="118.74304960481822490692138671875">
        <ele>7</ele>
        <time>2024-02-20T09:15:47.000Z</time>
        <extensions>
          <ns3:TrackPointExtension/>
        </extensions>
      </trkpt>
      <trkpt lat="32.0000495575368404388427734375" lon="118.74301909469068050384521484375">
        <ele>7</ele>
        <time>2024-02-20T09:15:48.000Z</time>
        <extensions>
          <ns3:TrackPointExtension/>
        </extensions>
      </trkpt>
      <trkpt lat="32.0000304467976093292236328125" lon="118.74298858456313610076904296875">
        <ele>7</ele>
        <time>2024-02-20T09:15:49.000Z</time>
        <extensions>
          <ns3:TrackPointExtension/>
        </extensions>
      </trkpt>
      <trkpt lat="32.00001141987740993499755859375" lon="118.74296561814844608306884765625">
        <ele>7</ele>
        <time>2024-02-20T09:15:50.000Z</time>
        <extensions>
          <ns3:TrackPointExtension>
            <ns3:hr>129</ns3:hr>
            <ns3:cad>83</ns3:cad>
          </ns3:TrackPointExtension>
        </extensions>
      </trkpt>
      <trkpt lat="31.9999885372817516326904296875" lon="118.74294273555278778076171875">
        <ele>7</ele>
        <time>2024-02-20T09:15:51.000Z</time>
        <extensions>
          <ns3:TrackPointExtension/>
        </extensions>
      </trkpt>
      <trkpt lat="31.9999637268483638763427734375" lon="118.7429274804890155792236328125">
        <ele>7</ele>
        <time>2024-02-20T09:15:52.000Z</time>
        <extensions>
          <ns3:TrackPointExtension/>
        </extensions>
      </trkpt>
      <trkpt lat="31.9999389164149761199951171875" lon="118.74291985295712947845458984375">
        <ele>7</ele>
        <time>2024-02-20T09:15:53.000Z</time>
        <extensions>
          <ns3:TrackPointExtension/>
        </extensions>
      </trkpt>
      <trkpt lat="31.99991603381931781768798828125" lon="118.74291985295712947845458984375">
        <ele>7</ele>
        <time>2024-02-20T09:15:54.000Z</time>
        <extensions>
          <ns3:TrackPointExtension/>
        </extensions>
      </trkpt>
      <trkpt lat="31.99989122338593006134033203125" lon="118.74291985295712947845458984375">
        <ele>7</ele>
        <time>2024-02-20T09:15:55.000Z</time>
        <extensions>
          <ns3:TrackPointExtension>
            <ns3:hr>131</ns3:hr>
            <ns3:cad>82</ns3:cad>
          </ns3:TrackPointExtension>
        </extensions>
      </trkpt>
      <trkpt lat="31.99986456893384456634521484375" lon="118.7429274804890155792236328125">
        <ele>7</ele>
        <time>2024-02-20T09:15:56.000Z</time>
        <extensions>
          <ns3:TrackPointExtension/>
        </extensions>
      </trkpt>
      <trkpt lat="31.99983783066272735595703125" lon="118.7429274804890155792236328125">
        <ele>7</ele>
        <time>2024-02-20T09:15:57.000Z</time>
        <extensions>
          <ns3:TrackPointExtension/>
        </extensions>
      </trkpt>
      <trkpt lat="31.999813020229339599609375" lon="118.74291985295712947845458984375">
        <ele>7</ele>
        <time>2024-02-20T09:15:58.000Z</time>
        <extensions>
          <ns3:TrackPointExtension/>
        </extensions>
      </trkpt>
      <trkpt lat="31.9997863657772541046142578125" lon="118.74290459789335727691650390625">
        <ele>7</ele>
        <time>2024-02-20T09:15:59.000Z</time>
        <extensions>
          <ns3:TrackPointExtension/>
        </extensions>
      </trkpt>
      <trkpt lat="31.9997615553438663482666015625" lon="118.74288934282958507537841796875">
        <ele>7</ele>
        <time>2024-02-20T09:16:00.000Z</time>
        <extensions>
          <ns3:TrackPointExtension>
            <ns3:hr>132</ns3:hr>
            <ns3:cad>83</ns3:cad>
          </ns3:TrackPointExtension>
        </extensions>
      </trkpt>
      <trkpt lat="31.99973867274820804595947265625" lon="118.7428664602339267730712890625">
        <ele>7</ele>
        <time>2024-02-20T09:16:01.000Z</time>
        <extensions>
          <ns3:TrackPointExtension/>
        </extensions>
      </trkpt>
      <trkpt lat="31.99971956200897693634033203125" lon="118.742851205170154571533203125">
        <ele>7</ele>
        <time>2024-02-20T09:16:02.000Z</time>
        <extensions>
          <ns3:TrackPointExtension/>
        </extensions>
      </trkpt>
      <trkpt lat="31.9997005350887775421142578125" lon="118.7428359501063823699951171875">
        <ele>7</ele>
        <time>2024-02-20T09:16:03.000Z</time>
        <extensions>
          <ns3:TrackPointExtension/>
        </extensions>
      </trkpt>
      <trkpt lat="31.99968335218727588653564453125" lon="118.74282069504261016845703125">
        <ele>7</ele>
        <time>2024-02-20T09:16:04.000Z</time>
        <extensions>
          <ns3:TrackPointExtension/>
        </extensions>
      </trkpt>
      <trkpt lat="31.99966809712350368499755859375" lon="118.7428054399788379669189453125">
        <ele>7</ele>
        <time>2024-02-20T09:16:05.000Z</time>
        <extensions>
          <ns3:TrackPointExtension>
            <ns3:hr>133</ns3:hr>
            <ns3:cad>83</ns3:cad>
          </ns3:TrackPointExtension>
        </extensions>
      </trkpt>
      <trkpt lat="31.99965284205973148345947265625" lon="118.74279781244695186614990234375">
        <ele>7</ele>
        <time>2024-02-20T09:16:06.000Z</time>
        <extensions>
          <ns3:TrackPointExtension/>
        </extensions>
      </trkpt>
      <trkpt lat="31.99963758699595928192138671875" lon="118.74279781244695186614990234375">
        <ele>7</ele>
        <time>2024-02-20T09:16:07.000Z</time>
        <extensions>
          <ns3:TrackPointExtension/>
        </extensions>
      </trkpt>
      <trkpt lat="31.99962233193218708038330078125" lon="118.74279781244695186614990234375">
        <ele>7</ele>
        <time>2024-02-20T09:16:08.000Z</time>
        <extensions>
          <ns3:TrackPointExtension/>
        </extensions>
      </trkpt>
      <trkpt lat="31.9996051490306854248046875" lon="118.7428054399788379669189453125">
        <ele>7</ele>
        <time>2024-02-20T09:16:09.000Z</time>
        <extensions>
          <ns3:TrackPointExtension/>
        </extensions>
      </trkpt>
      <trkpt lat="31.99958796612918376922607421875" lon="118.74281306751072406768798828125">
        <ele>7</ele>
        <time>2024-02-20T09:16:10.000Z</time>
        <extensions>
          <ns3:TrackPointExtension>
            <ns3:hr>134</ns3:hr>
            <ns3:cad>81</ns3:cad>
          </ns3:TrackPointExtension>
        </extensions>
      </trkpt>
      <trkpt lat="31.9995707832276821136474609375" lon="118.7428359501063823699951171875">
        <ele>7</ele>
        <time>2024-02-20T09:16:11.000Z</time>
        <extensions>
          <ns3:TrackPointExtension/>
        </extensions>
      </trkpt>
      <trkpt lat="31.99955360032618045806884765625" lon="118.74285883270204067230224609375">
        <ele>7.19999980926513671875</ele>
        <time>2024-02-20T09:16:12.000Z</time>
        <extensions>
          <ns3:TrackPointExtension/>
        </extensions>
      </trkpt>
      <trkpt lat="31.9995345734059810638427734375" lon="118.742881715297698974609375">
        <ele>7.400000095367431640625</ele>
        <time>2024-02-20T09:16:13.000Z</time>
        <extensions>
          <ns3:TrackPointExtension/>
        </extensions>
      </trkpt>
      <trkpt lat="31.99951739050447940826416015625" lon="118.74290459789335727691650390625">
        <ele>7.400000095367431640625</ele>
        <time>2024-02-20T09:16:14.000Z</time>
        <extensions>
          <ns3:TrackPointExtension/>
        </extensions>
      </trkpt>
      <trkpt lat="31.999500207602977752685546875" lon="118.74291985295712947845458984375">
        <ele>7.599999904632568359375</ele>
        <time>2024-02-20T09:16:15.000Z</time>
        <extensions>
          <ns3:TrackPointExtension>
            <ns3:hr>135</ns3:hr>
            <ns3:cad>82</ns3:cad>
          </ns3:TrackPointExtension>
        </extensions>
      </trkpt>
      <trkpt lat="31.99948118068277835845947265625" lon="118.74294273555278778076171875">
        <ele>7.80000019073486328125</ele>
        <time>2024-02-20T09:16:16.000Z</time>
        <extensions>
          <ns3:TrackPointExtension/>
        </extensions>
      </trkpt>
      <trkpt lat="31.99946592561900615692138671875" lon="118.7429579906165599822998046875">
        <ele>7.80000019073486328125</ele>
        <time>2024-02-20T09:16:17.000Z</time>
        <extensions>
          <ns3:TrackPointExtension/>
        </extensions>
      </trkpt>
      <trkpt lat="31.9994487427175045013427734375" lon="118.74298095703125">
        <ele>8</ele>
        <time>2024-02-20T09:16:18.000Z</time>
        <extensions>
          <ns3:TrackPointExtension/>
        </extensions>
      </trkpt>
      <trkpt lat="31.9994334876537322998046875" lon="118.7429962120950222015380859375">
        <ele>8</ele>
        <time>2024-02-20T09:16:19.000Z</time>
        <extensions>
          <ns3:TrackPointExtension/>
        </extensions>
      </trkpt>
      <trkpt lat="31.99942016042768955230712890625" lon="118.74301909469068050384521484375">
        <ele>8</ele>
        <time>2024-02-20T09:16:20.000Z</time>
        <extensions>
          <ns3:TrackPointExtension>
            <ns3:hr>136</ns3:hr>
            <ns3:cad>83</ns3:cad>
          </ns3:TrackPointExtension>
        </extensions>
      </trkpt>
      <trkpt lat="31.99940490536391735076904296875" lon="118.74303434975445270538330078125">
        <ele>8</ele>
        <time>2024-02-20T09:16:21.000Z</time>
        <extensions>
          <ns3:TrackPointExtension/>
        </extensions>
      </trkpt>
      <trkpt lat="31.9993877224624156951904296875" lon="118.74304960481822490692138671875">
        <ele>8</ele>
        <time>2024-02-20T09:16:22.000Z</time>
        <extensions>
          <ns3:TrackPointExtension/>
        </extensions>
      </trkpt>
      <trkpt lat="31.9993686117231845855712890625" lon="118.74306485988199710845947265625">
        <ele>8</ele>
        <time>2024-02-20T09:16:23.000Z</time>
        <extensions>
          <ns3:TrackPointExtension/>
        </extensions>
      </trkpt>
      <trkpt lat="31.99934958480298519134521484375" lon="118.74308011494576930999755859375">
        <ele>8</ele>
        <time>2024-02-20T09:16:24.000Z</time>
        <extensions>
          <ns3:TrackPointExtension/>
        </extensions>
      </trkpt>
      <trkpt lat="31.99933432973921298980712890625" lon="118.74309537000954151153564453125">
        <ele>8</ele>
        <time>2024-02-20T09:16:25.000Z</time>
        <extensions>
          <ns3:TrackPointExtension>
            <ns3:hr>136</ns3:hr>
            <ns3:cad>84</ns3:cad>
          </ns3:TrackPointExtension>
        </extensions>
      </trkpt>
      <trkpt lat="31.99931907467544078826904296875" lon="118.74311062507331371307373046875">
        <ele>8</ele>
        <time>2024-02-20T09:16:26.000Z</time>
        <extensions>
          <ns3:TrackPointExtension/>
        </extensions>
      </trkpt>
      <trkpt lat="31.99930566363036632537841796875" lon="118.743133507668972015380859375">
        <ele>8</ele>
        <time>2024-02-20T09:16:27.000Z</time>
        <extensions>
          <ns3:TrackPointExtension/>
        </extensions>
      </trkpt>
      <trkpt lat="31.999292336404323577880859375" lon="118.7431487627327442169189453125">
        <ele>8</ele>
        <time>2024-02-20T09:16:28.000Z</time>
        <extensions>
          <ns3:TrackPointExtension/>
        </extensions>
      </trkpt>
      <trkpt lat="31.9992770813405513763427734375" lon="118.74317164532840251922607421875">
        <ele>7.80000019073486328125</ele>
        <time>2024-02-20T09:16:29.000Z</time>
        <extensions>
          <ns3:TrackPointExtension/>
        </extensions>
      </trkpt>
      <trkpt lat="31.9992618262767791748046875" lon="118.74318690039217472076416015625">
        <ele>7.80000019073486328125</ele>
        <time>2024-02-20T09:16:30.000Z</time>
        <extensions>
          <ns3:TrackPointExtension>
            <ns3:hr>137</ns3:hr>
            <ns3:cad>83</ns3:cad>
          </ns3:TrackPointExtension>
        </extensions>
      </trkpt>
      <trkpt lat="31.99924849905073642730712890625" lon="118.74320215545594692230224609375">
        <ele>7.80000019073486328125</ele>
        <time>2024-02-20T09:16:31.000Z</time>
        <extensions>
          <ns3:TrackPointExtension/>
        </extensions>
      </trkpt>
      <trkpt lat="31.99923701584339141845703125" lon="118.743225038051605224609375">
        <ele>7.599999904632568359375</ele>
        <time>2024-02-20T09:16:32.000Z</time>
        <extensions>
          <ns3:TrackPointExtension/>
        </extensions>
      </trkpt>
      <trkpt lat="31.999225616455078125" lon="118.74324792064726352691650390625">
        <ele>7.599999904632568359375</ele>
        <time>2024-02-20T09:16:33.000Z</time>
        <extensions>
          <ns3:TrackPointExtension/>
        </extensions>
      </trkpt>
      <trkpt lat="31.999212205410003662109375" lon="118.7432708032429218292236328125">
        <ele>7.400000095367431640625</ele>
        <time>2024-02-20T09:16:34.000Z</time>
        <extensions>
          <ns3:TrackPointExtension/>
        </extensions>
      </trkpt>
      <trkpt lat="31.99920080602169036865234375" lon="118.74329368583858013153076171875">
        <ele>7.400000095367431640625</ele>
        <time>2024-02-20T09:16:35.000Z</time>
        <extensions>
          <ns3:TrackPointExtension>
            <ns3:hr>138</ns3:hr>
            <ns3:cad>83</ns3:cad>
          </ns3:TrackPointExtension>
        </extensions>
      </trkpt>
      <trkpt lat="31.99918932281434535980224609375" lon="118.743316568434238433837890625">
        <ele>7.400000095367431640625</ele>
        <time>2024-02-20T09:16:36.000Z</time>
        <extensions>
          <ns3:TrackPointExtension/>
        </extensions>
      </trkpt>
      <trkpt lat="31.99917792342603206634521484375" lon="118.74333190731704235076904296875">
        <ele>7.400000095367431640625</ele>
        <time>2024-02-20T09:16:37.000Z</time>
        <extensions>
          <ns3:TrackPointExtension/>
        </extensions>
      </trkpt>
      <trkpt lat="31.99916451238095760345458984375" lon="118.7433395348489284515380859375">
        <ele>7.599999904632568359375</ele>
        <time>2024-02-20T09:16:38.000Z</time>
        <extensions>
          <ns3:TrackPointExtension/>
        </extensions>
      </trkpt>
      <trkpt lat="31.99914741329848766326904296875" lon="118.74334716238081455230712890625">
        <ele>7.599999904632568359375</ele>
        <time>2024-02-20T09:16:39.000Z</time>
        <extensions>
          <ns3:TrackPointExtension/>
        </extensions>
      </trkpt>
      <trkpt lat="31.999126374721527099609375" lon="118.743354789912700653076171875">
        <ele>7.599999904632568359375</ele>
        <time>2024-02-20T09:16:40.000Z</time>
        <extensions>
          <ns3:TrackPointExtension>
            <ns3:hr>138</ns3:hr>
            <ns3:cad>83</ns3:cad>
          </ns3:TrackPointExtension>
        </extensions>
      </trkpt>
      <trkpt lat="31.9990997202694416046142578125" lon="118.743354789912700653076171875">
        <ele>7.80000019073486328125</ele>
        <time>2024-02-20T09:16:41.000Z</time>
        <extensions>
          <ns3:TrackPointExtension/>
        </extensions>
      </trkpt>
      <trkpt lat="31.99907298199832439422607421875" lon="118.743354789912700653076171875">
        <ele>7.80000019073486328125</ele>
        <time>2024-02-20T09:16:42.000Z</time>
        <extensions>
          <ns3:TrackPointExtension/>
        </extensions>
      </trkpt>
      <trkpt lat="31.9990443997085094451904296875" lon="118.743354789912700653076171875">
        <ele>8</ele>
        <time>2024-02-20T09:16:43.000Z</time>
        <extensions>
          <ns3:TrackPointExtension/>
        </extensions>
      </trkpt>
      <trkpt lat="31.99902151711285114288330078125" lon="118.74334716238081455230712890625">
        <ele>8</ele>
        <time>2024-02-20T09:16:44.000Z</time>
        <extensions>
          <ns3:TrackPointExtension/>
        </extensions>
      </trkpt>
      <trkpt lat="31.9990004785358905792236328125" lon="118.7433395348489284515380859375">
        <ele>8</ele>
        <time>2024-02-20T09:16:45.000Z</time>
        <extensions>
          <ns3:TrackPointExtension>
            <ns3:hr>138</ns3:hr>
            <ns3:cad>84</ns3:cad>
          </ns3:TrackPointExtension>
        </extensions>
      </trkpt>
      <trkpt lat="31.99897952377796173095703125" lon="118.74333190731704235076904296875">
        <ele>8</ele>
        <time>2024-02-20T09:16:46.000Z</time>
        <extensions>
          <ns3:TrackPointExtension/>
        </extensions>
      </trkpt>
      <trkpt lat="31.99896234087646007537841796875" lon="118.743316568434238433837890625">
        <ele>8</ele>
        <time>2024-02-20T09:16:47.000Z</time>
        <extensions>
          <ns3:TrackPointExtension/>
        </extensions>
      </trkpt>
      <trkpt lat="31.9989451579749584197998046875" lon="118.74330894090235233306884765625">
        <ele>8</ele>
        <time>2024-02-20T09:16:48.000Z</time>
        <extensions>
          <ns3:TrackPointExtension/>
        </extensions>
      </trkpt>
      <trkpt lat="31.99893183074891567230224609375" lon="118.7433013133704662322998046875">
        <ele>8</ele>
        <time>2024-02-20T09:16:49.000Z</time>
        <extensions>
          <ns3:TrackPointExtension/>
        </extensions>
      </trkpt>
      <trkpt lat="31.99892043136060237884521484375" lon="118.74329368583858013153076171875">
        <ele>8</ele>
        <time>2024-02-20T09:16:50.000Z</time>
        <extensions>
          <ns3:TrackPointExtension>
            <ns3:hr>139</ns3:hr>
            <ns3:cad>83</ns3:cad>
          </ns3:TrackPointExtension>
        </extensions>
      </trkpt>
      <trkpt lat="31.99890702031552791595458984375" lon="118.74328605830669403076171875">
        <ele>8</ele>
        <time>2024-02-20T09:16:51.000Z</time>
        <extensions>
          <ns3:TrackPointExtension/>
        </extensions>
      </trkpt>
      <trkpt lat="31.99889176525175571441650390625" lon="118.7432708032429218292236328125">
        <ele>8</ele>
        <time>2024-02-20T09:16:52.000Z</time>
        <extensions>
          <ns3:TrackPointExtension/>
        </extensions>
      </trkpt>
      <trkpt lat="31.99886511079967021942138671875" lon="118.743255548179149627685546875">
        <ele>8</ele>
        <time>2024-02-20T09:16:53.000Z</time>
        <extensions>
          <ns3:TrackPointExtension/>
        </extensions>
      </trkpt>
      <trkpt lat="31.99882504530251026153564453125" lon="118.74323266558349132537841796875">
        <ele>7.80000019073486328125</ele>
        <time>2024-02-20T09:16:54.000Z</time>
        <extensions>
          <ns3:TrackPointExtension/>
        </extensions>
      </trkpt>
      <trkpt lat="31.998777352273464202880859375" lon="118.743225038051605224609375">
        <ele>7.80000019073486328125</ele>
        <time>2024-02-20T09:16:55.000Z</time>
        <extensions>
          <ns3:TrackPointExtension>
            <ns3:hr>139</ns3:hr>
            <ns3:cad>82</ns3:cad>
          </ns3:TrackPointExtension>
        </extensions>
      </trkpt>
      <trkpt lat="31.998727731406688690185546875" lon="118.743225038051605224609375">
        <ele>7.80000019073486328125</ele>
        <time>2024-02-20T09:16:56.000Z</time>
        <extensions>
          <ns3:TrackPointExtension/>
        </extensions>
      </trkpt>
      <trkpt lat="31.99868582189083099365234375" lon="118.743225038051605224609375">
        <ele>7.80000019073486328125</ele>
        <time>2024-02-20T09:16:57.000Z</time>
        <extensions>
          <ns3:TrackPointExtension/>
        </extensions>
      </trkpt>
      <trkpt lat="31.998655311763286590576171875" lon="118.743225038051605224609375">
        <ele>8</ele>
        <time>2024-02-20T09:16:58.000Z</time>
        <extensions>
          <ns3:TrackPointExtension/>
        </extensions>
      </trkpt>
      <trkpt lat="31.99863427318632602691650390625" lon="118.74323266558349132537841796875">
        <ele>8</ele>
        <time>2024-02-20T09:16:59.000Z</time>
        <extensions>
          <ns3:TrackPointExtension/>
        </extensions>
      </trkpt>
      <trkpt lat="31.998617090284824371337890625" lon="118.7432402931153774261474609375">
        <ele>8</ele>
        <time>2024-02-20T09:17:00.000Z</time>
        <extensions>
          <ns3:TrackPointExtension>
            <ns3:hr>139</ns3:hr>
            <ns3:cad>82</ns3:cad>
          </ns3:TrackPointExtension>
        </extensions>
      </trkpt>
      <trkpt lat="31.99860376305878162384033203125" lon="118.74326317571103572845458984375">
        <ele>8</ele>
        <time>2024-02-20T09:17:01.000Z</time>
        <extensions>
          <ns3:TrackPointExtension/>
        </extensions>
      </trkpt>
      <trkpt lat="31.99859236367046833038330078125" lon="118.74328605830669403076171875">
        <ele>7.80000019073486328125</ele>
        <time>2024-02-20T09:17:02.000Z</time>
        <extensions>
          <ns3:TrackPointExtension/>
        </extensions>
      </trkpt>
      <trkpt lat="31.998580880463123321533203125" lon="118.74330894090235233306884765625">
        <ele>7.599999904632568359375</ele>
        <time>2024-02-20T09:17:03.000Z</time>
        <extensions>
          <ns3:TrackPointExtension/>
        </extensions>
      </trkpt>
      <trkpt lat="31.9985713250935077667236328125" lon="118.7433395348489284515380859375">
        <ele>7.400000095367431640625</ele>
        <time>2024-02-20T09:17:04.000Z</time>
        <extensions>
          <ns3:TrackPointExtension/>
        </extensions>
      </trkpt>
      <trkpt lat="31.9985599257051944732666015625" lon="118.74336241744458675384521484375">
        <ele>7.19999980926513671875</ele>
        <time>2024-02-20T09:17:05.000Z</time>
        <extensions>
          <ns3:TrackPointExtension>
            <ns3:hr>139</ns3:hr>
            <ns3:cad>82</ns3:cad>
          </ns3:TrackPointExtension>
        </extensions>
      </trkpt>
      <trkpt lat="31.99855037033557891845703125" lon="118.7434005551040172576904296875">
        <ele>7</ele>
        <time>2024-02-20T09:17:06.000Z</time>
        <extensions>
          <ns3:TrackPointExtension/>
        </extensions>
      </trkpt>
      <trkpt lat="31.9985408149659633636474609375" lon="118.7434310652315616607666015625">
        <ele>7.19999980926513671875</ele>
        <time>2024-02-20T09:17:07.000Z</time>
        <extensions>
          <ns3:TrackPointExtension/>
        </extensions>
      </trkpt>
      <trkpt lat="31.99853318743407726287841796875" lon="118.7434615753591060638427734375">
        <ele>7.19999980926513671875</ele>
        <time>2024-02-20T09:17:08.000Z</time>
        <extensions>
          <ns3:TrackPointExtension/>
        </extensions>
      </trkpt>
      <trkpt lat="31.99852178804576396942138671875" lon="118.7434920854866504669189453125">
        <ele>7</ele>
        <time>2024-02-20T09:17:09.000Z</time>
        <extensions>
          <ns3:TrackPointExtension/>
        </extensions>
      </trkpt>
      <trkpt lat="31.99851223267614841461181640625" lon="118.7435225956141948699951171875">
        <ele>6.80000019073486328125</ele>
        <time>2024-02-20T09:17:10.000Z</time>
        <extensions>
          <ns3:TrackPointExtension>
            <ns3:hr>139</ns3:hr>
            <ns3:cad>83</ns3:cad>
          </ns3:TrackPointExtension>
        </extensions>
      </trkpt>
      <trkpt lat="31.9985046051442623138427734375" lon="118.74356073327362537384033203125">
        <ele>6.599999904632568359375</ele>
        <time>2024-02-20T09:17:11.000Z</time>
        <extensions>
          <ns3:TrackPointExtension/>
        </extensions>
      </trkpt>
      <trkpt lat="31.998495049774646759033203125" lon="118.7435836158692836761474609375">
        <ele>6.599999904632568359375</ele>
        <time>2024-02-20T09:17:12.000Z</time>
        <extensions>
          <ns3:TrackPointExtension/>
        </extensions>
      </trkpt>
      <trkpt lat="31.99848172254860401153564453125" lon="118.7436141259968280792236328125">
        <ele>6.400000095367431640625</ele>
        <time>2024-02-20T09:17:13.000Z</time>
        <extensions>
          <ns3:TrackPointExtension/>
        </extensions>
      </trkpt>
      <trkpt lat="31.9984683953225612640380859375" lon="118.7436446361243724822998046875">
        <ele>6.19999980926513671875</ele>
        <time>2024-02-20T09:17:14.000Z</time>
        <extensions>
          <ns3:TrackPointExtension/>
        </extensions>
      </trkpt>
      <trkpt lat="31.99845691211521625518798828125" lon="118.74367523007094860076904296875">
        <ele>6.19999980926513671875</ele>
        <time>2024-02-20T09:17:15.000Z</time>
        <extensions>
          <ns3:TrackPointExtension>
            <ns3:hr>139</ns3:hr>
            <ns3:cad>83</ns3:cad>
          </ns3:TrackPointExtension>
        </extensions>
      </trkpt>
      <trkpt lat="31.99844735674560070037841796875" lon="118.7437133677303791046142578125">
        <ele>6.80000019073486328125</ele>
        <time>2024-02-20T09:17:16.000Z</time>
        <extensions>
          <ns3:TrackPointExtension/>
        </extensions>
      </trkpt>
      <trkpt lat="31.99843595735728740692138671875" lon="118.7437438778579235076904296875">
        <ele>7.400000095367431640625</ele>
        <time>2024-02-20T09:17:17.000Z</time>
        <extensions>
          <ns3:TrackPointExtension/>
        </extensions>
      </trkpt>
      <trkpt lat="31.99842640198767185211181640625" lon="118.7437743879854679107666015625">
        <ele>7.80000019073486328125</ele>
        <time>2024-02-20T09:17:18.000Z</time>
        <extensions>
          <ns3:TrackPointExtension/>
        </extensions>
      </trkpt>
      <trkpt lat="31.99841684661805629730224609375" lon="118.7438048981130123138427734375">
        <ele>8.3999996185302734375</ele>
        <time>2024-02-20T09:17:19.000Z</time>
        <extensions>
          <ns3:TrackPointExtension/>
        </extensions>
      </trkpt>
      <trkpt lat="31.99840729124844074249267578125" lon="118.7438354082405567169189453125">
        <ele>8.80000019073486328125</ele>
        <time>2024-02-20T09:17:20.000Z</time>
        <extensions>
          <ns3:TrackPointExtension>
            <ns3:hr>133</ns3:hr>
            <ns3:cad>83</ns3:cad>
          </ns3:TrackPointExtension>
        </extensions>
      </trkpt>
      <trkpt lat="31.998397819697856903076171875" lon="118.74387354589998722076416015625">
        <ele>9.3999996185302734375</ele>
        <time>2024-02-20T09:17:21.000Z</time>
        <extensions>
          <ns3:TrackPointExtension/>
        </extensions>
      </trkpt>
      <trkpt lat="31.99838633649051189422607421875" lon="118.74390405602753162384033203125">
        <ele>9.6000003814697265625</ele>
        <time>2024-02-20T09:17:22.000Z</time>
        <extensions>
          <ns3:TrackPointExtension/>
        </extensions>
      </trkpt>
      <trkpt lat="31.998373009264469146728515625" lon="118.74393456615507602691650390625">
        <ele>9.80000019073486328125</ele>
        <time>2024-02-20T09:17:23.000Z</time>
        <extensions>
          <ns3:TrackPointExtension/>
        </extensions>
      </trkpt>
      <trkpt lat="31.9983577542006969451904296875" lon="118.74396507628262042999267578125">
        <ele>9.80000019073486328125</ele>
        <time>2024-02-20T09:17:24.000Z</time>
        <extensions>
          <ns3:TrackPointExtension/>
        </extensions>
      </trkpt>
      <trkpt lat="31.9983443431556224822998046875" lon="118.7439879588782787322998046875">
        <ele>10</ele>
        <time>2024-02-20T09:17:25.000Z</time>
        <extensions>
          <ns3:TrackPointExtension>
            <ns3:hr>132</ns3:hr>
            <ns3:cad>83</ns3:cad>
          </ns3:TrackPointExtension>
        </extensions>
      </trkpt>
      <trkpt lat="31.99833487160503864288330078125" lon="118.74401092529296875">
        <ele>10.19999980926513671875</ele>
        <time>2024-02-20T09:17:26.000Z</time>
        <extensions>
          <ns3:TrackPointExtension/>
        </extensions>
      </trkpt>
      <trkpt lat="31.99832531623542308807373046875" lon="118.744041435420513153076171875">
        <ele>10.3999996185302734375</ele>
        <time>2024-02-20T09:17:27.000Z</time>
        <extensions>
          <ns3:TrackPointExtension/>
        </extensions>
      </trkpt>
      <trkpt lat="31.998311989009380340576171875" lon="118.74406431801617145538330078125">
        <ele>10.6000003814697265625</ele>
        <time>2024-02-20T09:17:28.000Z</time>
        <extensions>
          <ns3:TrackPointExtension/>
        </extensions>
      </trkpt>
      <trkpt lat="31.99829480610787868499755859375" lon="118.74409482814371585845947265625">
        <ele>10.80000019073486328125</ele>
        <time>2024-02-20T09:17:29.000Z</time>
        <extensions>
          <ns3:TrackPointExtension/>
        </extensions>
      </trkpt>
      <trkpt lat="31.9982776232063770294189453125" lon="118.74411008320748805999755859375">
        <ele>11</ele>
        <time>2024-02-20T09:17:30.000Z</time>
        <extensions>
          <ns3:TrackPointExtension>
            <ns3:hr>130</ns3:hr>
            <ns3:cad>83</ns3:cad>
          </ns3:TrackPointExtension>
        </extensions>
      </trkpt>
      <trkpt lat="31.998262368142604827880859375" lon="118.74412533827126026153564453125">
        <ele>11.19999980926513671875</ele>
        <time>2024-02-20T09:17:31.000Z</time>
        <extensions>
          <ns3:TrackPointExtension/>
        </extensions>
      </trkpt>
      <trkpt lat="31.99824325740337371826171875" lon="118.74414059333503246307373046875">
        <ele>11.3999996185302734375</ele>
        <time>2024-02-20T09:17:32.000Z</time>
        <extensions>
          <ns3:TrackPointExtension/>
        </extensions>
      </trkpt>
      <trkpt lat="31.99822423048317432403564453125" lon="118.7441482208669185638427734375">
        <ele>11.3999996185302734375</ele>
        <time>2024-02-20T09:17:33.000Z</time>
        <extensions>
          <ns3:TrackPointExtension/>
        </extensions>
      </trkpt>
      <trkpt lat="31.99820327572524547576904296875" lon="118.7441482208669185638427734375">
        <ele>11.6000003814697265625</ele>
        <time>2024-02-20T09:17:34.000Z</time>
        <extensions>
          <ns3:TrackPointExtension/>
        </extensions>
      </trkpt>
      <trkpt lat="31.99818030931055545806884765625" lon="118.7441482208669185638427734375">
        <ele>11.80000019073486328125</ele>
        <time>2024-02-20T09:17:35.000Z</time>
        <extensions>
          <ns3:TrackPointExtension>
            <ns3:hr>130</ns3:hr>
            <ns3:cad>80</ns3:cad>
          </ns3:TrackPointExtension>
        </extensions>
      </trkpt>
      <trkpt lat="31.9981555826961994171142578125" lon="118.7441482208669185638427734375">
        <ele>12.19999980926513671875</ele>
        <time>2024-02-20T09:17:36.000Z</time>
        <extensions>
          <ns3:TrackPointExtension/>
        </extensions>
      </trkpt>
      <trkpt lat="31.99812884442508220672607421875" lon="118.7441482208669185638427734375">
        <ele>12.3999996185302734375</ele>
        <time>2024-02-20T09:17:37.000Z</time>
        <extensions>
          <ns3:TrackPointExtension/>
        </extensions>
      </trkpt>
      <trkpt lat="31.99810403399169445037841796875" lon="118.7441482208669185638427734375">
        <ele>12.6000003814697265625</ele>
        <time>2024-02-20T09:17:38.000Z</time>
        <extensions>
          <ns3:TrackPointExtension/>
        </extensions>
      </trkpt>
      <trkpt lat="31.99807922355830669403076171875" lon="118.7441482208669185638427734375">
        <ele>12.6000003814697265625</ele>
        <time>2024-02-20T09:17:39.000Z</time>
        <extensions>
          <ns3:TrackPointExtension/>
        </extensions>
      </trkpt>
      <trkpt lat="31.998054496943950653076171875" lon="118.7441482208669185638427734375">
        <ele>12.3999996185302734375</ele>
        <time>2024-02-20T09:17:40.000Z</time>
        <extensions>
          <ns3:TrackPointExtension>
            <ns3:hr>130</ns3:hr>
            <ns3:cad>80</ns3:cad>
          </ns3:TrackPointExtension>
        </extensions>
      </trkpt>
      <trkpt lat="31.99803161434829235076904296875" lon="118.7441482208669185638427734375">
        <ele>12.3999996185302734375</ele>
        <time>2024-02-20T09:17:41.000Z</time>
        <extensions>
          <ns3:TrackPointExtension/>
        </extensions>
      </trkpt>
      <trkpt lat="31.998010575771331787109375" lon="118.74415584839880466461181640625">
        <ele>12.19999980926513671875</ele>
        <time>2024-02-20T09:17:42.000Z</time>
        <extensions>
          <ns3:TrackPointExtension/>
        </extensions>
      </trkpt>
      <trkpt lat="31.99798769317567348480224609375" lon="118.74415584839880466461181640625">
        <ele>12.19999980926513671875</ele>
        <time>2024-02-20T09:17:43.000Z</time>
        <extensions>
          <ns3:TrackPointExtension/>
        </extensions>
      </trkpt>
      <trkpt lat="31.99796673841774463653564453125" lon="118.744163475930690765380859375">
        <ele>12</ele>
        <time>2024-02-20T09:17:44.000Z</time>
        <extensions>
          <ns3:TrackPointExtension/>
        </extensions>
      </trkpt>
      <trkpt lat="31.997943855822086334228515625" lon="118.7441787309944629669189453125">
        <ele>11.80000019073486328125</ele>
        <time>2024-02-20T09:17:45.000Z</time>
        <extensions>
          <ns3:TrackPointExtension>
            <ns3:hr>130</ns3:hr>
            <ns3:cad>81</ns3:cad>
          </ns3:TrackPointExtension>
        </extensions>
      </trkpt>
      <trkpt lat="31.99792097322642803192138671875" lon="118.74418635852634906768798828125">
        <ele>11.6000003814697265625</ele>
        <time>2024-02-20T09:17:46.000Z</time>
        <extensions>
          <ns3:TrackPointExtension/>
        </extensions>
      </trkpt>
      <trkpt lat="31.9978980906307697296142578125" lon="118.74420161359012126922607421875">
        <ele>11.19999980926513671875</ele>
        <time>2024-02-20T09:17:47.000Z</time>
        <extensions>
          <ns3:TrackPointExtension/>
        </extensions>
      </trkpt>
      <trkpt lat="31.99787520803511142730712890625" lon="118.7442092411220073699951171875">
        <ele>11</ele>
        <time>2024-02-20T09:17:48.000Z</time>
        <extensions>
          <ns3:TrackPointExtension/>
        </extensions>
      </trkpt>
      <trkpt lat="31.99785039760172367095947265625" lon="118.744224496185779571533203125">
        <ele>10.3999996185302734375</ele>
        <time>2024-02-20T09:17:49.000Z</time>
        <extensions>
          <ns3:TrackPointExtension/>
        </extensions>
      </trkpt>
      <trkpt lat="31.99782558716833591461181640625" lon="118.7442397512495517730712890625">
        <ele>10</ele>
        <time>2024-02-20T09:17:50.000Z</time>
        <extensions>
          <ns3:TrackPointExtension>
            <ns3:hr>130</ns3:hr>
            <ns3:cad>82</ns3:cad>
          </ns3:TrackPointExtension>
        </extensions>
      </trkpt>
      <trkpt lat="31.99780077673494815826416015625" lon="118.744255006313323974609375">
        <ele>9.3999996185302734375</ele>
        <time>2024-02-20T09:17:51.000Z</time>
        <extensions>
          <ns3:TrackPointExtension/>
        </extensions>
      </trkpt>
      <trkpt lat="31.99777789413928985595703125" lon="118.7442702613770961761474609375">
        <ele>8.80000019073486328125</ele>
        <time>2024-02-20T09:17:52.000Z</time>
        <extensions>
          <ns3:TrackPointExtension/>
        </extensions>
      </trkpt>
      <trkpt lat="31.997753083705902099609375" lon="118.744285516440868377685546875">
        <ele>8.3999996185302734375</ele>
        <time>2024-02-20T09:17:53.000Z</time>
        <extensions>
          <ns3:TrackPointExtension/>
        </extensions>
      </trkpt>
      <trkpt lat="31.99773020111024379730224609375" lon="118.74429314397275447845458984375">
        <ele>8</ele>
        <time>2024-02-20T09:17:54.000Z</time>
        <extensions>
          <ns3:TrackPointExtension/>
        </extensions>
      </trkpt>
      <trkpt lat="31.99770539067685604095458984375" lon="118.7443007715046405792236328125">
        <ele>7.599999904632568359375</ele>
        <time>2024-02-20T09:17:55.000Z</time>
        <extensions>
          <ns3:TrackPointExtension>
            <ns3:hr>130</ns3:hr>
            <ns3:cad>83</ns3:cad>
          </ns3:TrackPointExtension>
        </extensions>
      </trkpt>
      <trkpt lat="31.99767873622477054595947265625" lon="118.74430839903652667999267578125">
        <ele>7.400000095367431640625</ele>
        <time>2024-02-20T09:17:56.000Z</time>
        <extensions>
          <ns3:TrackPointExtension/>
        </extensions>
      </trkpt>
      <trkpt lat="31.9976519979536533355712890625" lon="118.74431602656841278076171875">
        <ele>7.19999980926513671875</ele>
        <time>2024-02-20T09:17:57.000Z</time>
        <extensions>
          <ns3:TrackPointExtension/>
        </extensions>
      </trkpt>
      <trkpt lat="31.997625343501567840576171875" lon="118.74431602656841278076171875">
        <ele>7</ele>
        <time>2024-02-20T09:17:58.000Z</time>
        <extensions>
          <ns3:TrackPointExtension/>
        </extensions>
      </trkpt>
      <trkpt lat="31.997600533068180084228515625" lon="118.74432365410029888153076171875">
        <ele>6.80000019073486328125</ele>
        <time>2024-02-20T09:17:59.000Z</time>
        <extensions>
          <ns3:TrackPointExtension/>
        </extensions>
      </trkpt>
      <trkpt lat="31.9975718669593334197998046875" lon="118.74432365410029888153076171875">
        <ele>6.599999904632568359375</ele>
        <time>2024-02-20T09:18:00.000Z</time>
        <extensions>
          <ns3:TrackPointExtension>
            <ns3:hr>130</ns3:hr>
            <ns3:cad>83</ns3:cad>
          </ns3:TrackPointExtension>
        </extensions>
      </trkpt>
      <trkpt lat="31.99754328466951847076416015625" lon="118.74432365410029888153076171875">
        <ele>6.400000095367431640625</ele>
        <time>2024-02-20T09:18:01.000Z</time>
        <extensions>
          <ns3:TrackPointExtension/>
        </extensions>
      </trkpt>
      <trkpt lat="31.997514702379703521728515625" lon="118.74432365410029888153076171875">
        <ele>6.19999980926513671875</ele>
        <time>2024-02-20T09:18:02.000Z</time>
        <extensions>
          <ns3:TrackPointExtension/>
        </extensions>
      </trkpt>
      <trkpt lat="31.99749181978404521942138671875" lon="118.74431602656841278076171875">
        <ele>6</ele>
        <time>2024-02-20T09:18:03.000Z</time>
        <extensions>
          <ns3:TrackPointExtension/>
        </extensions>
      </trkpt>
      <trkpt lat="31.9974689371883869171142578125" lon="118.74430839903652667999267578125">
        <ele>6</ele>
        <time>2024-02-20T09:18:04.000Z</time>
        <extensions>
          <ns3:TrackPointExtension/>
        </extensions>
      </trkpt>
      <trkpt lat="31.99744605459272861480712890625" lon="118.7443007715046405792236328125">
        <ele>6</ele>
        <time>2024-02-20T09:18:05.000Z</time>
        <extensions>
          <ns3:TrackPointExtension>
            <ns3:hr>130</ns3:hr>
            <ns3:cad>82</ns3:cad>
          </ns3:TrackPointExtension>
        </extensions>
      </trkpt>
      <trkpt lat="31.9974231719970703125" lon="118.74427788890898227691650390625">
        <ele>6</ele>
        <time>2024-02-20T09:18:06.000Z</time>
        <extensions>
          <ns3:TrackPointExtension/>
        </extensions>
      </trkpt>
      <trkpt lat="31.99739836156368255615234375" lon="118.74426263384521007537841796875">
        <ele>6</ele>
        <time>2024-02-20T09:18:07.000Z</time>
        <extensions>
          <ns3:TrackPointExtension/>
        </extensions>
      </trkpt>
      <trkpt lat="31.9973735511302947998046875" lon="118.74424737878143787384033203125">
        <ele>6</ele>
        <time>2024-02-20T09:18:08.000Z</time>
        <extensions>
          <ns3:TrackPointExtension/>
        </extensions>
      </trkpt>
      <trkpt lat="31.99735066853463649749755859375" lon="118.74423212371766567230224609375">
        <ele>6</ele>
        <time>2024-02-20T09:18:09.000Z</time>
        <extensions>
          <ns3:TrackPointExtension/>
        </extensions>
      </trkpt>
      <trkpt lat="31.99732585810124874114990234375" lon="118.7442092411220073699951171875">
        <ele>6</ele>
        <time>2024-02-20T09:18:10.000Z</time>
        <extensions>
          <ns3:TrackPointExtension>
            <ns3:hr>130</ns3:hr>
            <ns3:cad>83</ns3:cad>
          </ns3:TrackPointExtension>
        </extensions>
      </trkpt>
      <trkpt lat="31.9973029755055904388427734375" lon="118.74419398605823516845703125">
        <ele>6</ele>
        <time>2024-02-20T09:18:11.000Z</time>
        <extensions>
          <ns3:TrackPointExtension/>
        </extensions>
      </trkpt>
      <trkpt lat="31.9972781650722026824951171875" lon="118.7441787309944629669189453125">
        <ele>6</ele>
        <time>2024-02-20T09:18:12.000Z</time>
        <extensions>
          <ns3:TrackPointExtension/>
        </extensions>
      </trkpt>
      <trkpt lat="31.9972533546388149261474609375" lon="118.744163475930690765380859375">
        <ele>6</ele>
        <time>2024-02-20T09:18:13.000Z</time>
        <extensions>
          <ns3:TrackPointExtension/>
        </extensions>
      </trkpt>
      <trkpt lat="31.99723047204315662384033203125" lon="118.74414059333503246307373046875">
        <ele>6</ele>
        <time>2024-02-20T09:18:14.000Z</time>
        <extensions>
          <ns3:TrackPointExtension/>
        </extensions>
      </trkpt>
      <trkpt lat="31.99720566160976886749267578125" lon="118.74412533827126026153564453125">
        <ele>6</ele>
        <time>2024-02-20T09:18:15.000Z</time>
        <extensions>
          <ns3:TrackPointExtension>
            <ns3:hr>130</ns3:hr>
            <ns3:cad>82</ns3:cad>
          </ns3:TrackPointExtension>
        </extensions>
      </trkpt>
      <trkpt lat="31.99718470685184001922607421875" lon="118.7441177107393741607666015625">
        <ele>6</ele>
        <time>2024-02-20T09:18:16.000Z</time>
        <extensions>
          <ns3:TrackPointExtension/>
        </extensions>
      </trkpt>
      <trkpt lat="31.997165679931640625" lon="118.744102455675601959228515625">
        <ele>6</ele>
        <time>2024-02-20T09:18:17.000Z</time>
        <extensions>
          <ns3:TrackPointExtension/>
        </extensions>
      </trkpt>
      <trkpt lat="31.99714849703013896942138671875" lon="118.74407957307994365692138671875">
        <ele>6</ele>
        <time>2024-02-20T09:18:18.000Z</time>
        <extensions>
          <ns3:TrackPointExtension/>
        </extensions>
      </trkpt>
      <trkpt lat="31.9971256144344806671142578125" lon="118.74406431801617145538330078125">
        <ele>6</ele>
        <time>2024-02-20T09:18:19.000Z</time>
        <extensions>
          <ns3:TrackPointExtension/>
        </extensions>
      </trkpt>
      <trkpt lat="31.99710273183882236480712890625" lon="118.744041435420513153076171875">
        <ele>6</ele>
        <time>2024-02-20T09:18:20.000Z</time>
        <extensions>
          <ns3:TrackPointExtension>
            <ns3:hr>130</ns3:hr>
            <ns3:cad>82</ns3:cad>
          </ns3:TrackPointExtension>
        </extensions>
      </trkpt>
      <trkpt lat="31.99707792140543460845947265625" lon="118.7440261803567409515380859375">
        <ele>6</ele>
        <time>2024-02-20T09:18:21.000Z</time>
        <extensions>
          <ns3:TrackPointExtension/>
        </extensions>
      </trkpt>
      <trkpt lat="31.99705503880977630615234375" lon="118.74401092529296875">
        <ele>6</ele>
        <time>2024-02-20T09:18:22.000Z</time>
        <extensions>
          <ns3:TrackPointExtension/>
        </extensions>
      </trkpt>
      <trkpt lat="31.99703215621411800384521484375" lon="118.744003213942050933837890625">
        <ele>6</ele>
        <time>2024-02-20T09:18:23.000Z</time>
        <extensions>
          <ns3:TrackPointExtension/>
        </extensions>
      </trkpt>
      <trkpt lat="31.99700734578073024749755859375" lon="118.7439879588782787322998046875">
        <ele>6</ele>
        <time>2024-02-20T09:18:24.000Z</time>
        <extensions>
          <ns3:TrackPointExtension/>
        </extensions>
      </trkpt>
      <trkpt lat="31.99698253534734249114990234375" lon="118.74397270381450653076171875">
        <ele>6</ele>
        <time>2024-02-20T09:18:25.000Z</time>
        <extensions>
          <ns3:TrackPointExtension>
            <ns3:hr>130</ns3:hr>
            <ns3:cad>82</ns3:cad>
          </ns3:TrackPointExtension>
        </extensions>
      </trkpt>
      <trkpt lat="31.9969596527516841888427734375" lon="118.7439574487507343292236328125">
        <ele>6</ele>
        <time>2024-02-20T09:18:26.000Z</time>
        <extensions>
          <ns3:TrackPointExtension/>
        </extensions>
      </trkpt>
      <trkpt lat="31.9969348423182964324951171875" lon="118.743942193686962127685546875">
        <ele>6</ele>
        <time>2024-02-20T09:18:27.000Z</time>
        <extensions>
          <ns3:TrackPointExtension/>
        </extensions>
      </trkpt>
      <trkpt lat="31.99691195972263813018798828125" lon="118.7439269386231899261474609375">
        <ele>6.19999980926513671875</ele>
        <time>2024-02-20T09:18:28.000Z</time>
        <extensions>
          <ns3:TrackPointExtension/>
        </extensions>
      </trkpt>
      <trkpt lat="31.99689284898340702056884765625" lon="118.743911683559417724609375">
        <ele>6.19999980926513671875</ele>
        <time>2024-02-20T09:18:29.000Z</time>
        <extensions>
          <ns3:TrackPointExtension/>
        </extensions>
      </trkpt>
      <trkpt lat="31.9968738220632076263427734375" lon="118.74390405602753162384033203125">
        <ele>6.19999980926513671875</ele>
        <time>2024-02-20T09:18:30.000Z</time>
        <extensions>
          <ns3:TrackPointExtension>
            <ns3:hr>131</ns3:hr>
            <ns3:cad>83</ns3:cad>
          </ns3:TrackPointExtension>
        </extensions>
      </trkpt>
      <trkpt lat="31.99685093946754932403564453125" lon="118.7438964284956455230712890625">
        <ele>6.19999980926513671875</ele>
        <time>2024-02-20T09:18:31.000Z</time>
        <extensions>
          <ns3:TrackPointExtension/>
        </extensions>
      </trkpt>
      <trkpt lat="31.99682612903416156768798828125" lon="118.74388880096375942230224609375">
        <ele>6.19999980926513671875</ele>
        <time>2024-02-20T09:18:32.000Z</time>
        <extensions>
          <ns3:TrackPointExtension/>
        </extensions>
      </trkpt>
      <trkpt lat="31.99680517427623271942138671875" lon="118.743881173431873321533203125">
        <ele>6.19999980926513671875</ele>
        <time>2024-02-20T09:18:33.000Z</time>
        <extensions>
          <ns3:TrackPointExtension/>
        </extensions>
      </trkpt>
      <trkpt lat="31.99678606353700160980224609375" lon="118.74387354589998722076416015625">
        <ele>6.19999980926513671875</ele>
        <time>2024-02-20T09:18:34.000Z</time>
        <extensions>
          <ns3:TrackPointExtension/>
        </extensions>
      </trkpt>
      <trkpt lat="31.99677080847322940826416015625" lon="118.74387354589998722076416015625">
        <ele>6.19999980926513671875</ele>
        <time>2024-02-20T09:18:35.000Z</time>
        <extensions>
          <ns3:TrackPointExtension>
            <ns3:hr>132</ns3:hr>
            <ns3:cad>82</ns3:cad>
          </ns3:TrackPointExtension>
        </extensions>
      </trkpt>
      <trkpt lat="31.99675940908491611480712890625" lon="118.743881173431873321533203125">
        <ele>6.19999980926513671875</ele>
        <time>2024-02-20T09:18:36.000Z</time>
        <extensions>
          <ns3:TrackPointExtension/>
        </extensions>
      </trkpt>
      <trkpt lat="31.9967517815530300140380859375" lon="118.743881173431873321533203125">
        <ele>6</ele>
        <time>2024-02-20T09:18:37.000Z</time>
        <extensions>
          <ns3:TrackPointExtension/>
        </extensions>
      </trkpt>
      <trkpt lat="31.99674792587757110595703125" lon="118.74388880096375942230224609375">
        <ele>6</ele>
        <time>2024-02-20T09:18:39.000Z</time>
        <extensions>
          <ns3:TrackPointExtension/>
        </extensions>
      </trkpt>
      <trkpt lat="31.99674415402114391326904296875" lon="118.74388880096375942230224609375">
        <ele>6</ele>
        <time>2024-02-20T09:18:40.000Z</time>
        <extensions>
          <ns3:TrackPointExtension>
            <ns3:hr>132</ns3:hr>
            <ns3:cad>74</ns3:cad>
          </ns3:TrackPointExtension>
        </extensions>
      </trkpt>
      <trkpt lat="31.99674415402114391326904296875" lon="118.74388880096375942230224609375">
        <ele>6</ele>
        <time>2024-02-20T09:18:41.000Z</time>
        <extensions>
          <ns3:TrackPointExtension/>
        </extensions>
      </trkpt>
      <trkpt lat="31.99674599803984165191650390625" lon="118.74388880096375942230224609375">
        <ele>6</ele>
        <time>2024-02-20T09:18:42.000Z</time>
        <extensions>
          <ns3:TrackPointExtension/>
        </extensions>
      </trkpt>
      <trkpt lat="31.99674599803984165191650390625" lon="118.74388880096375942230224609375">
        <ele>6</ele>
        <time>2024-02-20T09:18:43.000Z</time>
        <extensions>
          <ns3:TrackPointExtension/>
        </extensions>
      </trkpt>
      <trkpt lat="31.99674792587757110595703125" lon="118.74388880096375942230224609375">
        <ele>6</ele>
        <time>2024-02-20T09:18:44.000Z</time>
        <extensions>
          <ns3:TrackPointExtension/>
        </extensions>
      </trkpt>
      <trkpt lat="31.99674792587757110595703125" lon="118.74388880096375942230224609375">
        <ele>6</ele>
        <time>2024-02-20T09:18:45.000Z</time>
        <extensions>
          <ns3:TrackPointExtension>
            <ns3:hr>130</ns3:hr>
            <ns3:cad>69</ns3:cad>
          </ns3:TrackPointExtension>
        </extensions>
      </trkpt>
      <trkpt lat="31.99674792587757110595703125" lon="118.74388880096375942230224609375">
        <ele>6</ele>
        <time>2024-02-20T09:18:46.000Z</time>
        <extensions>
          <ns3:TrackPointExtension/>
        </extensions>
      </trkpt>
      <trkpt lat="31.99674792587757110595703125" lon="118.74388880096375942230224609375">
        <ele>6</ele>
        <time>2024-02-20T09:18:47.000Z</time>
        <extensions>
          <ns3:TrackPointExtension/>
        </extensions>
      </trkpt>
      <trkpt lat="31.99674792587757110595703125" lon="118.74388880096375942230224609375">
        <ele>6</ele>
        <time>2024-02-20T09:18:48.000Z</time>
        <extensions>
          <ns3:TrackPointExtension/>
        </extensions>
      </trkpt>
      <trkpt lat="31.99674792587757110595703125" lon="118.74388880096375942230224609375">
        <ele>6</ele>
        <time>2024-02-20T09:18:49.000Z</time>
        <extensions>
          <ns3:TrackPointExtension/>
        </extensions>
      </trkpt>
      <trkpt lat="31.99674792587757110595703125" lon="118.74388880096375942230224609375">
        <ele>6</ele>
        <time>2024-02-20T09:18:50.000Z</time>
        <extensions>
          <ns3:TrackPointExtension/>
        </extensions>
      </trkpt>
      <trkpt lat="31.99674985371530055999755859375" lon="118.74388880096375942230224609375">
        <ele>6</ele>
        <time>2024-02-20T09:18:51.000Z</time>
        <extensions>
          <ns3:TrackPointExtension/>
        </extensions>
      </trkpt>
      <trkpt lat="31.99674985371530055999755859375" lon="118.743881173431873321533203125">
        <ele>6</ele>
        <time>2024-02-20T09:18:52.000Z</time>
        <extensions>
          <ns3:TrackPointExtension/>
        </extensions>
      </trkpt>
    </trkseg>
  </trk>
</gpx>
