<gpx xmlns:ns3="http://www.garmin.com/xmlschemas/TrackPointExtension/v1" xmlns="http://www.topografix.com/GPX/1/1" xmlns:xsi="http://www.w3.org/2001/XMLSchema-instance" xmlns:ns2="http://www.garmin.com/xmlschemas/GpxExtensions/v3" creator="Garmin Connect" version="1.1" xsi:schemaLocation="http://www.topografix.com/GPX/1/1 http://www.topografix.com/GPX/11.xsd">
  <extensions>
<distance>640.0</distance>
<average_hr>116.0</average_hr>
<average_speed>1.8130311614730878</average_speed>
<start_time>2024-02-19T00:51:25+00:00</start_time>
<end_time>2024-02-19T00:57:18+00:00</end_time>
<moving_time>343.0</moving_time>
<elapsed_time>657.0</elapsed_time>
</extensions>
<metadata>
    <link href="connect.garmin.com">
      <text>Garmin Connect</text>
    </link>
    <time>2024-02-19T00:51:25.000Z</time>
  </metadata>
  <trk>
    <name>南京市 徒步</name>
    <type>hiking</type>
    <trkseg>
      <trkpt lat="31.99991033412516117095947265625" lon="118.74604026786983013153076171875">
        <ele>8.3999996185302734375</ele>
        <time>2024-02-19T00:51:30.000Z</time>
        <extensions>
          <ns3:TrackPointExtension>
            <ns3:hr>104</ns3:hr>
          </ns3:TrackPointExtension>
        </extensions>
      </trkpt>
      <trkpt lat="31.99990647844970226287841796875" lon="118.7460173852741718292236328125">
        <ele>8.19999980926513671875</ele>
        <time>2024-02-19T00:51:31.000Z</time>
        <extensions>
          <ns3:TrackPointExtension/>
        </extensions>
      </trkpt>
      <trkpt lat="31.99989692308008670806884765625" lon="118.746002130210399627685546875">
        <ele>8.19999980926513671875</ele>
        <time>2024-02-19T00:51:32.000Z</time>
        <extensions>
          <ns3:TrackPointExtension/>
        </extensions>
      </trkpt>
      <trkpt lat="31.99988552369177341461181640625" lon="118.74599450267851352691650390625">
        <ele>8.19999980926513671875</ele>
        <time>2024-02-19T00:51:33.000Z</time>
        <extensions>
          <ns3:TrackPointExtension/>
        </extensions>
      </trkpt>
      <trkpt lat="31.9998721964657306671142578125" lon="118.74597924761474132537841796875">
        <ele>8.19999980926513671875</ele>
        <time>2024-02-19T00:51:34.000Z</time>
        <extensions>
          <ns3:TrackPointExtension/>
        </extensions>
      </trkpt>
      <trkpt lat="31.9998587854206562042236328125" lon="118.745971620082855224609375">
        <ele>8.19999980926513671875</ele>
        <time>2024-02-19T00:51:36.000Z</time>
        <extensions>
          <ns3:TrackPointExtension/>
        </extensions>
      </trkpt>
      <trkpt lat="31.999843530356884002685546875" lon="118.74596399255096912384033203125">
        <ele>8.19999980926513671875</ele>
        <time>2024-02-19T00:51:37.000Z</time>
        <extensions>
          <ns3:TrackPointExtension/>
        </extensions>
      </trkpt>
      <trkpt lat="31.999832130968570709228515625" lon="118.74594873748719692230224609375">
        <ele>8</ele>
        <time>2024-02-19T00:51:38.000Z</time>
        <extensions>
          <ns3:TrackPointExtension/>
        </extensions>
      </trkpt>
      <trkpt lat="31.99982450343668460845947265625" lon="118.745941109955310821533203125">
        <ele>8</ele>
        <time>2024-02-19T00:51:39.000Z</time>
        <extensions>
          <ns3:TrackPointExtension/>
        </extensions>
      </trkpt>
      <trkpt lat="31.999818719923496246337890625" lon="118.7459258548915386199951171875">
        <ele>8</ele>
        <time>2024-02-19T00:51:40.000Z</time>
        <extensions>
          <ns3:TrackPointExtension>
            <ns3:hr>122</ns3:hr>
          </ns3:TrackPointExtension>
        </extensions>
      </trkpt>
      <trkpt lat="31.99981494806706905364990234375" lon="118.74591059982776641845703125">
        <ele>7.80000019073486328125</ele>
        <time>2024-02-19T00:51:41.000Z</time>
        <extensions>
          <ns3:TrackPointExtension/>
        </extensions>
      </trkpt>
      <trkpt lat="31.9998168759047985076904296875" lon="118.74588771723210811614990234375">
        <ele>7.80000019073486328125</ele>
        <time>2024-02-19T00:51:42.000Z</time>
        <extensions>
          <ns3:TrackPointExtension/>
        </extensions>
      </trkpt>
      <trkpt lat="31.999818719923496246337890625" lon="118.7458648346364498138427734375">
        <ele>8</ele>
        <time>2024-02-19T00:51:43.000Z</time>
        <extensions>
          <ns3:TrackPointExtension/>
        </extensions>
      </trkpt>
      <trkpt lat="31.9998225755989551544189453125" lon="118.7458495795726776123046875">
        <ele>8</ele>
        <time>2024-02-19T00:51:44.000Z</time>
        <extensions>
          <ns3:TrackPointExtension/>
        </extensions>
      </trkpt>
      <trkpt lat="31.9998264312744140625" lon="118.7458343245089054107666015625">
        <ele>8</ele>
        <time>2024-02-19T00:51:45.000Z</time>
        <extensions>
          <ns3:TrackPointExtension>
            <ns3:hr>122</ns3:hr>
          </ns3:TrackPointExtension>
        </extensions>
      </trkpt>
      <trkpt lat="31.999832130968570709228515625" lon="118.745819069445133209228515625">
        <ele>8</ele>
        <time>2024-02-19T00:51:46.000Z</time>
        <extensions>
          <ns3:TrackPointExtension/>
        </extensions>
      </trkpt>
      <trkpt lat="31.99983590282499790191650390625" lon="118.7458038143813610076904296875">
        <ele>8</ele>
        <time>2024-02-19T00:51:47.000Z</time>
        <extensions>
          <ns3:TrackPointExtension/>
        </extensions>
      </trkpt>
      <trkpt lat="31.99983590282499790191650390625" lon="118.74578855931758880615234375">
        <ele>8</ele>
        <time>2024-02-19T00:51:48.000Z</time>
        <extensions>
          <ns3:TrackPointExtension/>
        </extensions>
      </trkpt>
      <trkpt lat="31.99983405880630016326904296875" lon="118.7457733042538166046142578125">
        <ele>8</ele>
        <time>2024-02-19T00:51:49.000Z</time>
        <extensions>
          <ns3:TrackPointExtension/>
        </extensions>
      </trkpt>
      <trkpt lat="31.9998264312744140625" lon="118.745758049190044403076171875">
        <ele>8</ele>
        <time>2024-02-19T00:51:50.000Z</time>
        <extensions>
          <ns3:TrackPointExtension>
            <ns3:hr>122</ns3:hr>
          </ns3:TrackPointExtension>
        </extensions>
      </trkpt>
      <trkpt lat="31.9998168759047985076904296875" lon="118.7457427941262722015380859375">
        <ele>8</ele>
        <time>2024-02-19T00:51:51.000Z</time>
        <extensions>
          <ns3:TrackPointExtension/>
        </extensions>
      </trkpt>
      <trkpt lat="31.99980162084102630615234375" lon="118.7457275390625">
        <ele>8</ele>
        <time>2024-02-19T00:51:52.000Z</time>
        <extensions>
          <ns3:TrackPointExtension/>
        </extensions>
      </trkpt>
      <trkpt lat="31.9997863657772541046142578125" lon="118.74571220017969608306884765625">
        <ele>8</ele>
        <time>2024-02-19T00:51:53.000Z</time>
        <extensions>
          <ns3:TrackPointExtension/>
        </extensions>
      </trkpt>
      <trkpt lat="31.9997672550380229949951171875" lon="118.74569694511592388153076171875">
        <ele>8</ele>
        <time>2024-02-19T00:51:54.000Z</time>
        <extensions>
          <ns3:TrackPointExtension/>
        </extensions>
      </trkpt>
      <trkpt lat="31.99975007213652133941650390625" lon="118.74568931758403778076171875">
        <ele>8</ele>
        <time>2024-02-19T00:51:55.000Z</time>
        <extensions>
          <ns3:TrackPointExtension>
            <ns3:hr>120</ns3:hr>
          </ns3:TrackPointExtension>
        </extensions>
      </trkpt>
      <trkpt lat="31.999732889235019683837890625" lon="118.7456740625202655792236328125">
        <ele>8</ele>
        <time>2024-02-19T00:51:56.000Z</time>
        <extensions>
          <ns3:TrackPointExtension/>
        </extensions>
      </trkpt>
      <trkpt lat="31.99971956200897693634033203125" lon="118.74566643498837947845458984375">
        <ele>8</ele>
        <time>2024-02-19T00:51:57.000Z</time>
        <extensions>
          <ns3:TrackPointExtension/>
        </extensions>
      </trkpt>
      <trkpt lat="31.9997119344770908355712890625" lon="118.745658807456493377685546875">
        <ele>8</ele>
        <time>2024-02-19T00:51:58.000Z</time>
        <extensions>
          <ns3:TrackPointExtension/>
        </extensions>
      </trkpt>
      <trkpt lat="31.99971000663936138153076171875" lon="118.745658807456493377685546875">
        <ele>8</ele>
        <time>2024-02-19T00:51:59.000Z</time>
        <extensions>
          <ns3:TrackPointExtension/>
        </extensions>
      </trkpt>
      <trkpt lat="31.9997062347829341888427734375" lon="118.745658807456493377685546875">
        <ele>8</ele>
        <time>2024-02-19T00:52:00.000Z</time>
        <extensions>
          <ns3:TrackPointExtension>
            <ns3:hr>119</ns3:hr>
          </ns3:TrackPointExtension>
        </extensions>
      </trkpt>
      <trkpt lat="31.9997062347829341888427734375" lon="118.745658807456493377685546875">
        <ele>8</ele>
        <time>2024-02-19T00:52:01.000Z</time>
        <extensions>
          <ns3:TrackPointExtension/>
        </extensions>
      </trkpt>
      <trkpt lat="31.9997005350887775421142578125" lon="118.74565117992460727691650390625">
        <ele>8</ele>
        <time>2024-02-19T00:52:02.000Z</time>
        <extensions>
          <ns3:TrackPointExtension/>
        </extensions>
      </trkpt>
      <trkpt lat="31.99969290755689144134521484375" lon="118.7456435523927211761474609375">
        <ele>8</ele>
        <time>2024-02-19T00:52:03.000Z</time>
        <extensions>
          <ns3:TrackPointExtension/>
        </extensions>
      </trkpt>
      <trkpt lat="31.99968335218727588653564453125" lon="118.74563592486083507537841796875">
        <ele>8</ele>
        <time>2024-02-19T00:52:04.000Z</time>
        <extensions>
          <ns3:TrackPointExtension/>
        </extensions>
      </trkpt>
      <trkpt lat="31.99967379681766033172607421875" lon="118.745628297328948974609375">
        <ele>8</ele>
        <time>2024-02-19T00:52:05.000Z</time>
        <extensions>
          <ns3:TrackPointExtension>
            <ns3:hr>115</ns3:hr>
          </ns3:TrackPointExtension>
        </extensions>
      </trkpt>
      <trkpt lat="31.99966424144804477691650390625" lon="118.74562066979706287384033203125">
        <ele>8</ele>
        <time>2024-02-19T00:52:06.000Z</time>
        <extensions>
          <ns3:TrackPointExtension/>
        </extensions>
      </trkpt>
      <trkpt lat="31.9996547698974609375" lon="118.74560541473329067230224609375">
        <ele>8</ele>
        <time>2024-02-19T00:52:07.000Z</time>
        <extensions>
          <ns3:TrackPointExtension/>
        </extensions>
      </trkpt>
      <trkpt lat="31.99964328669011592864990234375" lon="118.745597787201404571533203125">
        <ele>8</ele>
        <time>2024-02-19T00:52:08.000Z</time>
        <extensions>
          <ns3:TrackPointExtension/>
        </extensions>
      </trkpt>
      <trkpt lat="31.99963373132050037384033203125" lon="118.74559015966951847076416015625">
        <ele>8</ele>
        <time>2024-02-19T00:52:09.000Z</time>
        <extensions>
          <ns3:TrackPointExtension/>
        </extensions>
      </trkpt>
      <trkpt lat="31.99962417595088481903076171875" lon="118.7455825321376323699951171875">
        <ele>8</ele>
        <time>2024-02-19T00:52:10.000Z</time>
        <extensions>
          <ns3:TrackPointExtension>
            <ns3:hr>113</ns3:hr>
          </ns3:TrackPointExtension>
        </extensions>
      </trkpt>
      <trkpt lat="31.9996147044003009796142578125" lon="118.74556727707386016845703125">
        <ele>8</ele>
        <time>2024-02-19T00:52:11.000Z</time>
        <extensions>
          <ns3:TrackPointExtension/>
        </extensions>
      </trkpt>
      <trkpt lat="31.9996051490306854248046875" lon="118.74555964954197406768798828125">
        <ele>8</ele>
        <time>2024-02-19T00:52:12.000Z</time>
        <extensions>
          <ns3:TrackPointExtension/>
        </extensions>
      </trkpt>
      <trkpt lat="31.9995955936610698699951171875" lon="118.7455520220100879669189453125">
        <ele>8</ele>
        <time>2024-02-19T00:52:13.000Z</time>
        <extensions>
          <ns3:TrackPointExtension/>
        </extensions>
      </trkpt>
      <trkpt lat="31.999586038291454315185546875" lon="118.74554439447820186614990234375">
        <ele>8</ele>
        <time>2024-02-19T00:52:14.000Z</time>
        <extensions>
          <ns3:TrackPointExtension/>
        </extensions>
      </trkpt>
      <trkpt lat="31.99957656674087047576904296875" lon="118.74552913941442966461181640625">
        <ele>8</ele>
        <time>2024-02-19T00:52:15.000Z</time>
        <extensions>
          <ns3:TrackPointExtension>
            <ns3:hr>113</ns3:hr>
          </ns3:TrackPointExtension>
        </extensions>
      </trkpt>
      <trkpt lat="31.999568939208984375" lon="118.74551388435065746307373046875">
        <ele>8</ele>
        <time>2024-02-19T00:52:16.000Z</time>
        <extensions>
          <ns3:TrackPointExtension/>
        </extensions>
      </trkpt>
      <trkpt lat="31.99956315569579601287841796875" lon="118.74549862928688526153564453125">
        <ele>8</ele>
        <time>2024-02-19T00:52:17.000Z</time>
        <extensions>
          <ns3:TrackPointExtension/>
        </extensions>
      </trkpt>
      <trkpt lat="31.9995593838393688201904296875" lon="118.745475746691226959228515625">
        <ele>8</ele>
        <time>2024-02-19T00:52:18.000Z</time>
        <extensions>
          <ns3:TrackPointExtension/>
        </extensions>
      </trkpt>
      <trkpt lat="31.999555528163909912109375" lon="118.7454604916274547576904296875">
        <ele>8</ele>
        <time>2024-02-19T00:52:19.000Z</time>
        <extensions>
          <ns3:TrackPointExtension/>
        </extensions>
      </trkpt>
      <trkpt lat="31.999555528163909912109375" lon="118.74543760903179645538330078125">
        <ele>8</ele>
        <time>2024-02-19T00:52:20.000Z</time>
        <extensions>
          <ns3:TrackPointExtension>
            <ns3:hr>114</ns3:hr>
          </ns3:TrackPointExtension>
        </extensions>
      </trkpt>
      <trkpt lat="31.999555528163909912109375" lon="118.745414726436138153076171875">
        <ele>8</ele>
        <time>2024-02-19T00:52:21.000Z</time>
        <extensions>
          <ns3:TrackPointExtension/>
        </extensions>
      </trkpt>
      <trkpt lat="31.99955745600163936614990234375" lon="118.7453994713723659515380859375">
        <ele>8</ele>
        <time>2024-02-19T00:52:22.000Z</time>
        <extensions>
          <ns3:TrackPointExtension/>
        </extensions>
      </trkpt>
      <trkpt lat="31.999561227858066558837890625" lon="118.74538421630859375">
        <ele>8</ele>
        <time>2024-02-19T00:52:23.000Z</time>
        <extensions>
          <ns3:TrackPointExtension/>
        </extensions>
      </trkpt>
      <trkpt lat="31.9995650835335254669189453125" lon="118.7453612498939037322998046875">
        <ele>8</ele>
        <time>2024-02-19T00:52:24.000Z</time>
        <extensions>
          <ns3:TrackPointExtension/>
        </extensions>
      </trkpt>
      <trkpt lat="31.9995707832276821136474609375" lon="118.74534599483013153076171875">
        <ele>8</ele>
        <time>2024-02-19T00:52:25.000Z</time>
        <extensions>
          <ns3:TrackPointExtension>
            <ns3:hr>113</ns3:hr>
          </ns3:TrackPointExtension>
        </extensions>
      </trkpt>
      <trkpt lat="31.999574638903141021728515625" lon="118.7453307397663593292236328125">
        <ele>8</ele>
        <time>2024-02-19T00:52:26.000Z</time>
        <extensions>
          <ns3:TrackPointExtension/>
        </extensions>
      </trkpt>
      <trkpt lat="31.99957656674087047576904296875" lon="118.745315484702587127685546875">
        <ele>8</ele>
        <time>2024-02-19T00:52:27.000Z</time>
        <extensions>
          <ns3:TrackPointExtension/>
        </extensions>
      </trkpt>
      <trkpt lat="31.99958033859729766845703125" lon="118.7453002296388149261474609375">
        <ele>8.19999980926513671875</ele>
        <time>2024-02-19T00:52:28.000Z</time>
        <extensions>
          <ns3:TrackPointExtension/>
        </extensions>
      </trkpt>
      <trkpt lat="31.99958226643502712249755859375" lon="118.745284974575042724609375">
        <ele>8.19999980926513671875</ele>
        <time>2024-02-19T00:52:29.000Z</time>
        <extensions>
          <ns3:TrackPointExtension/>
        </extensions>
      </trkpt>
      <trkpt lat="31.9995841942727565765380859375" lon="118.7452697195112705230712890625">
        <ele>8.19999980926513671875</ele>
        <time>2024-02-19T00:52:30.000Z</time>
        <extensions>
          <ns3:TrackPointExtension>
            <ns3:hr>114</ns3:hr>
          </ns3:TrackPointExtension>
        </extensions>
      </trkpt>
      <trkpt lat="31.999586038291454315185546875" lon="118.745254464447498321533203125">
        <ele>8.3999996185302734375</ele>
        <time>2024-02-19T00:52:31.000Z</time>
        <extensions>
          <ns3:TrackPointExtension/>
        </extensions>
      </trkpt>
      <trkpt lat="31.99958796612918376922607421875" lon="118.74524683691561222076416015625">
        <ele>8.3999996185302734375</ele>
        <time>2024-02-19T00:52:32.000Z</time>
        <extensions>
          <ns3:TrackPointExtension/>
        </extensions>
      </trkpt>
      <trkpt lat="31.99959182180464267730712890625" lon="118.74523158185184001922607421875">
        <ele>8.3999996185302734375</ele>
        <time>2024-02-19T00:52:33.000Z</time>
        <extensions>
          <ns3:TrackPointExtension/>
        </extensions>
      </trkpt>
      <trkpt lat="31.9995955936610698699951171875" lon="118.74521632678806781768798828125">
        <ele>8.3999996185302734375</ele>
        <time>2024-02-19T00:52:34.000Z</time>
        <extensions>
          <ns3:TrackPointExtension/>
        </extensions>
      </trkpt>
      <trkpt lat="31.99960322119295597076416015625" lon="118.74520107172429561614990234375">
        <ele>8.6000003814697265625</ele>
        <time>2024-02-19T00:52:35.000Z</time>
        <extensions>
          <ns3:TrackPointExtension>
            <ns3:hr>117</ns3:hr>
          </ns3:TrackPointExtension>
        </extensions>
      </trkpt>
      <trkpt lat="31.99960892088711261749267578125" lon="118.745193444192409515380859375">
        <ele>8.6000003814697265625</ele>
        <time>2024-02-19T00:52:36.000Z</time>
        <extensions>
          <ns3:TrackPointExtension/>
        </extensions>
      </trkpt>
      <trkpt lat="31.99961654841899871826171875" lon="118.74518581666052341461181640625">
        <ele>8.6000003814697265625</ele>
        <time>2024-02-19T00:52:37.000Z</time>
        <extensions>
          <ns3:TrackPointExtension/>
        </extensions>
      </trkpt>
      <trkpt lat="31.99962417595088481903076171875" lon="118.7451781891286373138427734375">
        <ele>8.6000003814697265625</ele>
        <time>2024-02-19T00:52:38.000Z</time>
        <extensions>
          <ns3:TrackPointExtension/>
        </extensions>
      </trkpt>
      <trkpt lat="31.9996318034827709197998046875" lon="118.74517056159675121307373046875">
        <ele>8.6000003814697265625</ele>
        <time>2024-02-19T00:52:39.000Z</time>
        <extensions>
          <ns3:TrackPointExtension/>
        </extensions>
      </trkpt>
      <trkpt lat="31.999641358852386474609375" lon="118.74515530653297901153564453125">
        <ele>8.6000003814697265625</ele>
        <time>2024-02-19T00:52:40.000Z</time>
        <extensions>
          <ns3:TrackPointExtension>
            <ns3:hr>114</ns3:hr>
          </ns3:TrackPointExtension>
        </extensions>
      </trkpt>
      <trkpt lat="31.9996509142220020294189453125" lon="118.74514005146920680999755859375">
        <ele>8.80000019073486328125</ele>
        <time>2024-02-19T00:52:41.000Z</time>
        <extensions>
          <ns3:TrackPointExtension/>
        </extensions>
      </trkpt>
      <trkpt lat="31.99965854175388813018798828125" lon="118.74512479640543460845947265625">
        <ele>8.6000003814697265625</ele>
        <time>2024-02-19T00:52:42.000Z</time>
        <extensions>
          <ns3:TrackPointExtension/>
        </extensions>
      </trkpt>
      <trkpt lat="31.99966809712350368499755859375" lon="118.74510954134166240692138671875">
        <ele>8.6000003814697265625</ele>
        <time>2024-02-19T00:52:43.000Z</time>
        <extensions>
          <ns3:TrackPointExtension/>
        </extensions>
      </trkpt>
      <trkpt lat="31.99967949651181697845458984375" lon="118.74509428627789020538330078125">
        <ele>8.3999996185302734375</ele>
        <time>2024-02-19T00:52:44.000Z</time>
        <extensions>
          <ns3:TrackPointExtension/>
        </extensions>
      </trkpt>
      <trkpt lat="31.9996871240437030792236328125" lon="118.7450866587460041046142578125">
        <ele>8.3999996185302734375</ele>
        <time>2024-02-19T00:52:45.000Z</time>
        <extensions>
          <ns3:TrackPointExtension>
            <ns3:hr>113</ns3:hr>
          </ns3:TrackPointExtension>
        </extensions>
      </trkpt>
      <trkpt lat="31.99969475157558917999267578125" lon="118.745071403682231903076171875">
        <ele>8.19999980926513671875</ele>
        <time>2024-02-19T00:52:46.000Z</time>
        <extensions>
          <ns3:TrackPointExtension/>
        </extensions>
      </trkpt>
      <trkpt lat="31.99970430694520473480224609375" lon="118.7450561486184597015380859375">
        <ele>8</ele>
        <time>2024-02-19T00:52:47.000Z</time>
        <extensions>
          <ns3:TrackPointExtension/>
        </extensions>
      </trkpt>
      <trkpt lat="31.99971000663936138153076171875" lon="118.7450408935546875">
        <ele>8</ele>
        <time>2024-02-19T00:52:48.000Z</time>
        <extensions>
          <ns3:TrackPointExtension/>
        </extensions>
      </trkpt>
      <trkpt lat="31.99971386231482028961181640625" lon="118.745033182203769683837890625">
        <ele>8</ele>
        <time>2024-02-19T00:52:49.000Z</time>
        <extensions>
          <ns3:TrackPointExtension/>
        </extensions>
      </trkpt>
      <trkpt lat="31.99971579015254974365234375" lon="118.74501029960811138153076171875">
        <ele>7.80000019073486328125</ele>
        <time>2024-02-19T00:52:50.000Z</time>
        <extensions>
          <ns3:TrackPointExtension>
            <ns3:hr>113</ns3:hr>
          </ns3:TrackPointExtension>
        </extensions>
      </trkpt>
      <trkpt lat="31.99971956200897693634033203125" lon="118.74499504454433917999267578125">
        <ele>7.80000019073486328125</ele>
        <time>2024-02-19T00:52:51.000Z</time>
        <extensions>
          <ns3:TrackPointExtension/>
        </extensions>
      </trkpt>
      <trkpt lat="31.999721489846706390380859375" lon="118.74497978948056697845458984375">
        <ele>7.599999904632568359375</ele>
        <time>2024-02-19T00:52:52.000Z</time>
        <extensions>
          <ns3:TrackPointExtension/>
        </extensions>
      </trkpt>
      <trkpt lat="31.99972526170313358306884765625" lon="118.74496453441679477691650390625">
        <ele>7.599999904632568359375</ele>
        <time>2024-02-19T00:52:53.000Z</time>
        <extensions>
          <ns3:TrackPointExtension/>
        </extensions>
      </trkpt>
      <trkpt lat="31.99972911737859249114990234375" lon="118.74494927935302257537841796875">
        <ele>7.599999904632568359375</ele>
        <time>2024-02-19T00:52:54.000Z</time>
        <extensions>
          <ns3:TrackPointExtension/>
        </extensions>
      </trkpt>
      <trkpt lat="31.9997310452163219451904296875" lon="118.7449263967573642730712890625">
        <ele>7.400000095367431640625</ele>
        <time>2024-02-19T00:52:55.000Z</time>
        <extensions>
          <ns3:TrackPointExtension>
            <ns3:hr>112</ns3:hr>
          </ns3:TrackPointExtension>
        </extensions>
      </trkpt>
      <trkpt lat="31.99973481707274913787841796875" lon="118.744911141693592071533203125">
        <ele>7.400000095367431640625</ele>
        <time>2024-02-19T00:52:56.000Z</time>
        <extensions>
          <ns3:TrackPointExtension/>
        </extensions>
      </trkpt>
      <trkpt lat="31.9997406005859375" lon="118.7448958866298198699951171875">
        <ele>7.400000095367431640625</ele>
        <time>2024-02-19T00:52:57.000Z</time>
        <extensions>
          <ns3:TrackPointExtension/>
        </extensions>
      </trkpt>
      <trkpt lat="31.99974822811782360076904296875" lon="118.74488063156604766845703125">
        <ele>7.400000095367431640625</ele>
        <time>2024-02-19T00:52:58.000Z</time>
        <extensions>
          <ns3:TrackPointExtension/>
        </extensions>
      </trkpt>
      <trkpt lat="31.9997558556497097015380859375" lon="118.7448653765022754669189453125">
        <ele>7.400000095367431640625</ele>
        <time>2024-02-19T00:52:59.000Z</time>
        <extensions>
          <ns3:TrackPointExtension/>
        </extensions>
      </trkpt>
      <trkpt lat="31.99976532720029354095458984375" lon="118.74485774897038936614990234375">
        <ele>7.400000095367431640625</ele>
        <time>2024-02-19T00:53:00.000Z</time>
        <extensions>
          <ns3:TrackPointExtension>
            <ns3:hr>116</ns3:hr>
          </ns3:TrackPointExtension>
        </extensions>
      </trkpt>
      <trkpt lat="31.9997729547321796417236328125" lon="118.74484249390661716461181640625">
        <ele>7.400000095367431640625</ele>
        <time>2024-02-19T00:53:01.000Z</time>
        <extensions>
          <ns3:TrackPointExtension/>
        </extensions>
      </trkpt>
      <trkpt lat="31.999782510101795196533203125" lon="118.74482723884284496307373046875">
        <ele>7.19999980926513671875</ele>
        <time>2024-02-19T00:53:02.000Z</time>
        <extensions>
          <ns3:TrackPointExtension/>
        </extensions>
      </trkpt>
      <trkpt lat="31.99978820979595184326171875" lon="118.7448196113109588623046875">
        <ele>7.19999980926513671875</ele>
        <time>2024-02-19T00:53:03.000Z</time>
        <extensions>
          <ns3:TrackPointExtension/>
        </extensions>
      </trkpt>
      <trkpt lat="31.99979583732783794403076171875" lon="118.7448043562471866607666015625">
        <ele>7.19999980926513671875</ele>
        <time>2024-02-19T00:53:04.000Z</time>
        <extensions>
          <ns3:TrackPointExtension/>
        </extensions>
      </trkpt>
      <trkpt lat="31.99979969300329685211181640625" lon="118.744789101183414459228515625">
        <ele>7.19999980926513671875</ele>
        <time>2024-02-19T00:53:05.000Z</time>
        <extensions>
          <ns3:TrackPointExtension>
            <ns3:hr>116</ns3:hr>
          </ns3:TrackPointExtension>
        </extensions>
      </trkpt>
      <trkpt lat="31.9998034648597240447998046875" lon="118.7447738461196422576904296875">
        <ele>7.19999980926513671875</ele>
        <time>2024-02-19T00:53:06.000Z</time>
        <extensions>
          <ns3:TrackPointExtension/>
        </extensions>
      </trkpt>
      <trkpt lat="31.999807320535182952880859375" lon="118.74475859105587005615234375">
        <ele>7.19999980926513671875</ele>
        <time>2024-02-19T00:53:07.000Z</time>
        <extensions>
          <ns3:TrackPointExtension/>
        </extensions>
      </trkpt>
      <trkpt lat="31.99980924837291240692138671875" lon="118.7447433359920978546142578125">
        <ele>7.19999980926513671875</ele>
        <time>2024-02-19T00:53:08.000Z</time>
        <extensions>
          <ns3:TrackPointExtension/>
        </extensions>
      </trkpt>
      <trkpt lat="31.999813020229339599609375" lon="118.744728080928325653076171875">
        <ele>7.19999980926513671875</ele>
        <time>2024-02-19T00:53:09.000Z</time>
        <extensions>
          <ns3:TrackPointExtension/>
        </extensions>
      </trkpt>
      <trkpt lat="31.999818719923496246337890625" lon="118.7447128258645534515380859375">
        <ele>7</ele>
        <time>2024-02-19T00:53:10.000Z</time>
        <extensions>
          <ns3:TrackPointExtension>
            <ns3:hr>116</ns3:hr>
          </ns3:TrackPointExtension>
        </extensions>
      </trkpt>
      <trkpt lat="31.99982450343668460845947265625" lon="118.74469757080078125">
        <ele>7</ele>
        <time>2024-02-19T00:53:11.000Z</time>
        <extensions>
          <ns3:TrackPointExtension/>
        </extensions>
      </trkpt>
      <trkpt lat="31.99983020313084125518798828125" lon="118.74468223191797733306884765625">
        <ele>6.80000019073486328125</ele>
        <time>2024-02-19T00:53:12.000Z</time>
        <extensions>
          <ns3:TrackPointExtension/>
        </extensions>
      </trkpt>
      <trkpt lat="31.99983590282499790191650390625" lon="118.74466697685420513153076171875">
        <ele>6.80000019073486328125</ele>
        <time>2024-02-19T00:53:13.000Z</time>
        <extensions>
          <ns3:TrackPointExtension/>
        </extensions>
      </trkpt>
      <trkpt lat="31.9998416863381862640380859375" lon="118.74465172179043292999267578125">
        <ele>6.599999904632568359375</ele>
        <time>2024-02-19T00:53:14.000Z</time>
        <extensions>
          <ns3:TrackPointExtension/>
        </extensions>
      </trkpt>
      <trkpt lat="31.999843530356884002685546875" lon="118.744628839194774627685546875">
        <ele>6.599999904632568359375</ele>
        <time>2024-02-19T00:53:15.000Z</time>
        <extensions>
          <ns3:TrackPointExtension>
            <ns3:hr>115</ns3:hr>
          </ns3:TrackPointExtension>
        </extensions>
      </trkpt>
      <trkpt lat="31.999843530356884002685546875" lon="118.74460595659911632537841796875">
        <ele>6.400000095367431640625</ele>
        <time>2024-02-19T00:53:16.000Z</time>
        <extensions>
          <ns3:TrackPointExtension/>
        </extensions>
      </trkpt>
      <trkpt lat="31.99984545819461345672607421875" lon="118.7445830740034580230712890625">
        <ele>6.400000095367431640625</ele>
        <time>2024-02-19T00:53:17.000Z</time>
        <extensions>
          <ns3:TrackPointExtension/>
        </extensions>
      </trkpt>
      <trkpt lat="31.9998473860323429107666015625" lon="118.74456019140779972076416015625">
        <ele>6.19999980926513671875</ele>
        <time>2024-02-19T00:53:18.000Z</time>
        <extensions>
          <ns3:TrackPointExtension/>
        </extensions>
      </trkpt>
      <trkpt lat="31.9998530857264995574951171875" lon="118.74453730881214141845703125">
        <ele>6.19999980926513671875</ele>
        <time>2024-02-19T00:53:19.000Z</time>
        <extensions>
          <ns3:TrackPointExtension/>
        </extensions>
      </trkpt>
      <trkpt lat="31.999856941401958465576171875" lon="118.74451442621648311614990234375">
        <ele>6</ele>
        <time>2024-02-19T00:53:20.000Z</time>
        <extensions>
          <ns3:TrackPointExtension>
            <ns3:hr>118</ns3:hr>
          </ns3:TrackPointExtension>
        </extensions>
      </trkpt>
      <trkpt lat="31.99986071325838565826416015625" lon="118.7444915436208248138427734375">
        <ele>6</ele>
        <time>2024-02-19T00:53:21.000Z</time>
        <extensions>
          <ns3:TrackPointExtension/>
        </extensions>
      </trkpt>
      <trkpt lat="31.99986641295254230499267578125" lon="118.7444762885570526123046875">
        <ele>6.19999980926513671875</ele>
        <time>2024-02-19T00:53:22.000Z</time>
        <extensions>
          <ns3:TrackPointExtension/>
        </extensions>
      </trkpt>
      <trkpt lat="31.9998721964657306671142578125" lon="118.7444610334932804107666015625">
        <ele>6.19999980926513671875</ele>
        <time>2024-02-19T00:53:23.000Z</time>
        <extensions>
          <ns3:TrackPointExtension/>
        </extensions>
      </trkpt>
      <trkpt lat="31.99988166801631450653076171875" lon="118.744445778429508209228515625">
        <ele>6.19999980926513671875</ele>
        <time>2024-02-19T00:53:24.000Z</time>
        <extensions>
          <ns3:TrackPointExtension/>
        </extensions>
      </trkpt>
      <trkpt lat="31.99990077875554561614990234375" lon="118.744445778429508209228515625">
        <ele>6.19999980926513671875</ele>
        <time>2024-02-19T00:53:25.000Z</time>
        <extensions>
          <ns3:TrackPointExtension>
            <ns3:hr>118</ns3:hr>
          </ns3:TrackPointExtension>
        </extensions>
      </trkpt>
      <trkpt lat="31.99991988949477672576904296875" lon="118.744445778429508209228515625">
        <ele>6.19999980926513671875</ele>
        <time>2024-02-19T00:53:26.000Z</time>
        <extensions>
          <ns3:TrackPointExtension/>
        </extensions>
      </trkpt>
      <trkpt lat="31.9999389164149761199951171875" lon="118.74443815089762210845947265625">
        <ele>6.19999980926513671875</ele>
        <time>2024-02-19T00:53:27.000Z</time>
        <extensions>
          <ns3:TrackPointExtension/>
        </extensions>
      </trkpt>
      <trkpt lat="31.99995609931647777557373046875" lon="118.74443815089762210845947265625">
        <ele>6.19999980926513671875</ele>
        <time>2024-02-19T00:53:28.000Z</time>
        <extensions>
          <ns3:TrackPointExtension/>
        </extensions>
      </trkpt>
      <trkpt lat="31.99996749870479106903076171875" lon="118.7444305233657360076904296875">
        <ele>6.19999980926513671875</ele>
        <time>2024-02-19T00:53:29.000Z</time>
        <extensions>
          <ns3:TrackPointExtension/>
        </extensions>
      </trkpt>
      <trkpt lat="31.99997705407440662384033203125" lon="118.74441526830196380615234375">
        <ele>6.400000095367431640625</ele>
        <time>2024-02-19T00:53:30.000Z</time>
        <extensions>
          <ns3:TrackPointExtension>
            <ns3:hr>118</ns3:hr>
          </ns3:TrackPointExtension>
        </extensions>
      </trkpt>
      <trkpt lat="31.99998275376856327056884765625" lon="118.7444000132381916046142578125">
        <ele>6.400000095367431640625</ele>
        <time>2024-02-19T00:53:31.000Z</time>
        <extensions>
          <ns3:TrackPointExtension/>
        </extensions>
      </trkpt>
      <trkpt lat="31.999990381300449371337890625" lon="118.74439238570630550384521484375">
        <ele>6.400000095367431640625</ele>
        <time>2024-02-19T00:53:32.000Z</time>
        <extensions>
          <ns3:TrackPointExtension/>
        </extensions>
      </trkpt>
      <trkpt lat="31.9999980926513671875" lon="118.74437713064253330230712890625">
        <ele>6.400000095367431640625</ele>
        <time>2024-02-19T00:53:33.000Z</time>
        <extensions>
          <ns3:TrackPointExtension/>
        </extensions>
      </trkpt>
      <trkpt lat="32.000003792345523834228515625" lon="118.7443695031106472015380859375">
        <ele>6.400000095367431640625</ele>
        <time>2024-02-19T00:53:34.000Z</time>
        <extensions>
          <ns3:TrackPointExtension/>
        </extensions>
      </trkpt>
      <trkpt lat="32.00001141987740993499755859375" lon="118.74436187557876110076904296875">
        <ele>6.400000095367431640625</ele>
        <time>2024-02-19T00:53:35.000Z</time>
        <extensions>
          <ns3:TrackPointExtension>
            <ns3:hr>114</ns3:hr>
          </ns3:TrackPointExtension>
        </extensions>
      </trkpt>
      <trkpt lat="32.0000190474092960357666015625" lon="118.744346536695957183837890625">
        <ele>6.400000095367431640625</ele>
        <time>2024-02-19T00:53:36.000Z</time>
        <extensions>
          <ns3:TrackPointExtension/>
        </extensions>
      </trkpt>
      <trkpt lat="32.0000304467976093292236328125" lon="118.74433890916407108306884765625">
        <ele>6.400000095367431640625</ele>
        <time>2024-02-19T00:53:37.000Z</time>
        <extensions>
          <ns3:TrackPointExtension/>
        </extensions>
      </trkpt>
      <trkpt lat="32.00004193000495433807373046875" lon="118.7443312816321849822998046875">
        <ele>6.400000095367431640625</ele>
        <time>2024-02-19T00:53:38.000Z</time>
        <extensions>
          <ns3:TrackPointExtension/>
        </extensions>
      </trkpt>
      <trkpt lat="32.0000495575368404388427734375" lon="118.74431602656841278076171875">
        <ele>6.400000095367431640625</ele>
        <time>2024-02-19T00:53:39.000Z</time>
        <extensions>
          <ns3:TrackPointExtension/>
        </extensions>
      </trkpt>
      <trkpt lat="32.0000609569251537322998046875" lon="118.74430839903652667999267578125">
        <ele>6.19999980926513671875</ele>
        <time>2024-02-19T00:53:40.000Z</time>
        <extensions>
          <ns3:TrackPointExtension>
            <ns3:hr>115</ns3:hr>
          </ns3:TrackPointExtension>
        </extensions>
      </trkpt>
      <trkpt lat="32.00006858445703983306884765625" lon="118.74429314397275447845458984375">
        <ele>6.19999980926513671875</ele>
        <time>2024-02-19T00:53:41.000Z</time>
        <extensions>
          <ns3:TrackPointExtension/>
        </extensions>
      </trkpt>
      <trkpt lat="32.000076211988925933837890625" lon="118.744285516440868377685546875">
        <ele>6.19999980926513671875</ele>
        <time>2024-02-19T00:53:42.000Z</time>
        <extensions>
          <ns3:TrackPointExtension/>
        </extensions>
      </trkpt>
      <trkpt lat="32.00008769519627094268798828125" lon="118.7442702613770961761474609375">
        <ele>6.19999980926513671875</ele>
        <time>2024-02-19T00:53:43.000Z</time>
        <extensions>
          <ns3:TrackPointExtension/>
        </extensions>
      </trkpt>
      <trkpt lat="32.00009532272815704345703125" lon="118.74426263384521007537841796875">
        <ele>6.19999980926513671875</ele>
        <time>2024-02-19T00:53:44.000Z</time>
        <extensions>
          <ns3:TrackPointExtension/>
        </extensions>
      </trkpt>
      <trkpt lat="32.00010295026004314422607421875" lon="118.74424737878143787384033203125">
        <ele>6.19999980926513671875</ele>
        <time>2024-02-19T00:53:45.000Z</time>
        <extensions>
          <ns3:TrackPointExtension>
            <ns3:hr>116</ns3:hr>
          </ns3:TrackPointExtension>
        </extensions>
      </trkpt>
      <trkpt lat="32.000114433467388153076171875" lon="118.7442397512495517730712890625">
        <ele>6</ele>
        <time>2024-02-19T00:53:46.000Z</time>
        <extensions>
          <ns3:TrackPointExtension/>
        </extensions>
      </trkpt>
      <trkpt lat="32.000125832855701446533203125" lon="118.744224496185779571533203125">
        <ele>7</ele>
        <time>2024-02-19T00:53:47.000Z</time>
        <extensions>
          <ns3:TrackPointExtension/>
        </extensions>
      </trkpt>
      <trkpt lat="32.00013731606304645538330078125" lon="118.74421686865389347076416015625">
        <ele>7</ele>
        <time>2024-02-19T00:53:48.000Z</time>
        <extensions>
          <ns3:TrackPointExtension/>
        </extensions>
      </trkpt>
      <trkpt lat="32.00014494359493255615234375" lon="118.7442092411220073699951171875">
        <ele>7.19999980926513671875</ele>
        <time>2024-02-19T00:53:49.000Z</time>
        <extensions>
          <ns3:TrackPointExtension/>
        </extensions>
      </trkpt>
      <trkpt lat="32.000156342983245849609375" lon="118.74420161359012126922607421875">
        <ele>7.19999980926513671875</ele>
        <time>2024-02-19T00:53:50.000Z</time>
        <extensions>
          <ns3:TrackPointExtension>
            <ns3:hr>117</ns3:hr>
          </ns3:TrackPointExtension>
        </extensions>
      </trkpt>
      <trkpt lat="32.00016397051513195037841796875" lon="118.74419398605823516845703125">
        <ele>7.400000095367431640625</ele>
        <time>2024-02-19T00:53:51.000Z</time>
        <extensions>
          <ns3:TrackPointExtension/>
        </extensions>
      </trkpt>
      <trkpt lat="32.0001715980470180511474609375" lon="118.74418635852634906768798828125">
        <ele>7.400000095367431640625</ele>
        <time>2024-02-19T00:53:52.000Z</time>
        <extensions>
          <ns3:TrackPointExtension/>
        </extensions>
      </trkpt>
      <trkpt lat="32.00017922557890415191650390625" lon="118.7441787309944629669189453125">
        <ele>7.400000095367431640625</ele>
        <time>2024-02-19T00:53:53.000Z</time>
        <extensions>
          <ns3:TrackPointExtension/>
        </extensions>
      </trkpt>
      <trkpt lat="32.000186853110790252685546875" lon="118.74417110346257686614990234375">
        <ele>7.599999904632568359375</ele>
        <time>2024-02-19T00:53:54.000Z</time>
        <extensions>
          <ns3:TrackPointExtension/>
        </extensions>
      </trkpt>
      <trkpt lat="32.00019833631813526153564453125" lon="118.74415584839880466461181640625">
        <ele>7.80000019073486328125</ele>
        <time>2024-02-19T00:53:55.000Z</time>
        <extensions>
          <ns3:TrackPointExtension>
            <ns3:hr>117</ns3:hr>
          </ns3:TrackPointExtension>
        </extensions>
      </trkpt>
      <trkpt lat="32.00020973570644855499267578125" lon="118.7441482208669185638427734375">
        <ele>7.80000019073486328125</ele>
        <time>2024-02-19T00:53:56.000Z</time>
        <extensions>
          <ns3:TrackPointExtension/>
        </extensions>
      </trkpt>
      <trkpt lat="32.00021736323833465576171875" lon="118.7441329658031463623046875">
        <ele>8</ele>
        <time>2024-02-19T00:53:57.000Z</time>
        <extensions>
          <ns3:TrackPointExtension/>
        </extensions>
      </trkpt>
      <trkpt lat="32.00022884644567966461181640625" lon="118.7441177107393741607666015625">
        <ele>8</ele>
        <time>2024-02-19T00:53:58.000Z</time>
        <extensions>
          <ns3:TrackPointExtension/>
        </extensions>
      </trkpt>
      <trkpt lat="32.00024024583399295806884765625" lon="118.744102455675601959228515625">
        <ele>8.19999980926513671875</ele>
        <time>2024-02-19T00:53:59.000Z</time>
        <extensions>
          <ns3:TrackPointExtension/>
        </extensions>
      </trkpt>
      <trkpt lat="32.0002517290413379669189453125" lon="118.7440872006118297576904296875">
        <ele>8.3999996185302734375</ele>
        <time>2024-02-19T00:54:00.000Z</time>
        <extensions>
          <ns3:TrackPointExtension>
            <ns3:hr>118</ns3:hr>
          </ns3:TrackPointExtension>
        </extensions>
      </trkpt>
      <trkpt lat="32.00026321224868297576904296875" lon="118.74406431801617145538330078125">
        <ele>8.3999996185302734375</ele>
        <time>2024-02-19T00:54:01.000Z</time>
        <extensions>
          <ns3:TrackPointExtension/>
        </extensions>
      </trkpt>
      <trkpt lat="32.0002708397805690765380859375" lon="118.74404906295239925384521484375">
        <ele>8.3999996185302734375</ele>
        <time>2024-02-19T00:54:02.000Z</time>
        <extensions>
          <ns3:TrackPointExtension/>
        </extensions>
      </trkpt>
      <trkpt lat="32.0002822391688823699951171875" lon="118.7440261803567409515380859375">
        <ele>8.6000003814697265625</ele>
        <time>2024-02-19T00:54:03.000Z</time>
        <extensions>
          <ns3:TrackPointExtension/>
        </extensions>
      </trkpt>
      <trkpt lat="32.00028986670076847076416015625" lon="118.74401092529296875">
        <ele>8.6000003814697265625</ele>
        <time>2024-02-19T00:54:04.000Z</time>
        <extensions>
          <ns3:TrackPointExtension/>
        </extensions>
      </trkpt>
      <trkpt lat="32.00029372237622737884521484375" lon="118.74399558641016483306884765625">
        <ele>8.6000003814697265625</ele>
        <time>2024-02-19T00:54:05.000Z</time>
        <extensions>
          <ns3:TrackPointExtension>
            <ns3:hr>120</ns3:hr>
          </ns3:TrackPointExtension>
        </extensions>
      </trkpt>
      <trkpt lat="32.000297494232654571533203125" lon="118.74398033134639263153076171875">
        <ele>8.6000003814697265625</ele>
        <time>2024-02-19T00:54:06.000Z</time>
        <extensions>
          <ns3:TrackPointExtension/>
        </extensions>
      </trkpt>
      <trkpt lat="32.0003013499081134796142578125" lon="118.74397270381450653076171875">
        <ele>8.6000003814697265625</ele>
        <time>2024-02-19T00:54:07.000Z</time>
        <extensions>
          <ns3:TrackPointExtension/>
        </extensions>
      </trkpt>
      <trkpt lat="32.00030512176454067230224609375" lon="118.7439574487507343292236328125">
        <ele>8.6000003814697265625</ele>
        <time>2024-02-19T00:54:08.000Z</time>
        <extensions>
          <ns3:TrackPointExtension/>
        </extensions>
      </trkpt>
      <trkpt lat="32.00030897743999958038330078125" lon="118.74394982121884822845458984375">
        <ele>8.6000003814697265625</ele>
        <time>2024-02-19T00:54:09.000Z</time>
        <extensions>
          <ns3:TrackPointExtension/>
        </extensions>
      </trkpt>
      <trkpt lat="32.00030897743999958038330078125" lon="118.74393456615507602691650390625">
        <ele>8.6000003814697265625</ele>
        <time>2024-02-19T00:54:10.000Z</time>
        <extensions>
          <ns3:TrackPointExtension>
            <ns3:hr>120</ns3:hr>
          </ns3:TrackPointExtension>
        </extensions>
      </trkpt>
      <trkpt lat="32.00031660497188568115234375" lon="118.74391931109130382537841796875">
        <ele>8.6000003814697265625</ele>
        <time>2024-02-19T00:54:11.000Z</time>
        <extensions>
          <ns3:TrackPointExtension/>
        </extensions>
      </trkpt>
      <trkpt lat="32.00032037682831287384033203125" lon="118.74390405602753162384033203125">
        <ele>8.3999996185302734375</ele>
        <time>2024-02-19T00:54:12.000Z</time>
        <extensions>
          <ns3:TrackPointExtension/>
        </extensions>
      </trkpt>
      <trkpt lat="32.000328004360198974609375" lon="118.74388880096375942230224609375">
        <ele>8.3999996185302734375</ele>
        <time>2024-02-19T00:54:13.000Z</time>
        <extensions>
          <ns3:TrackPointExtension/>
        </extensions>
      </trkpt>
      <trkpt lat="32.00033563189208507537841796875" lon="118.74387354589998722076416015625">
        <ele>8.3999996185302734375</ele>
        <time>2024-02-19T00:54:14.000Z</time>
        <extensions>
          <ns3:TrackPointExtension/>
        </extensions>
      </trkpt>
      <trkpt lat="32.00033948756754398345947265625" lon="118.74385829083621501922607421875">
        <ele>8.3999996185302734375</ele>
        <time>2024-02-19T00:54:15.000Z</time>
        <extensions>
          <ns3:TrackPointExtension>
            <ns3:hr>116</ns3:hr>
          </ns3:TrackPointExtension>
        </extensions>
      </trkpt>
      <trkpt lat="32.0003432594239711761474609375" lon="118.74384303577244281768798828125">
        <ele>8.3999996185302734375</ele>
        <time>2024-02-19T00:54:16.000Z</time>
        <extensions>
          <ns3:TrackPointExtension/>
        </extensions>
      </trkpt>
      <trkpt lat="32.000347115099430084228515625" lon="118.74382778070867061614990234375">
        <ele>8.19999980926513671875</ele>
        <time>2024-02-19T00:54:17.000Z</time>
        <extensions>
          <ns3:TrackPointExtension/>
        </extensions>
      </trkpt>
      <trkpt lat="32.00035088695585727691650390625" lon="118.74381252564489841461181640625">
        <ele>8.19999980926513671875</ele>
        <time>2024-02-19T00:54:18.000Z</time>
        <extensions>
          <ns3:TrackPointExtension/>
        </extensions>
      </trkpt>
      <trkpt lat="32.00035474263131618499755859375" lon="118.7438048981130123138427734375">
        <ele>8.19999980926513671875</ele>
        <time>2024-02-19T00:54:19.000Z</time>
        <extensions>
          <ns3:TrackPointExtension/>
        </extensions>
      </trkpt>
      <trkpt lat="32.0003623701632022857666015625" lon="118.7437896430492401123046875">
        <ele>8.19999980926513671875</ele>
        <time>2024-02-19T00:54:20.000Z</time>
        <extensions>
          <ns3:TrackPointExtension>
            <ns3:hr>114</ns3:hr>
          </ns3:TrackPointExtension>
        </extensions>
      </trkpt>
      <trkpt lat="32.00036614201962947845458984375" lon="118.7437743879854679107666015625">
        <ele>8.19999980926513671875</ele>
        <time>2024-02-19T00:54:21.000Z</time>
        <extensions>
          <ns3:TrackPointExtension/>
        </extensions>
      </trkpt>
      <trkpt lat="32.0003737695515155792236328125" lon="118.74376676045358180999755859375">
        <ele>8.19999980926513671875</ele>
        <time>2024-02-19T00:54:22.000Z</time>
        <extensions>
          <ns3:TrackPointExtension/>
        </extensions>
      </trkpt>
      <trkpt lat="32.0003776252269744873046875" lon="118.74375150538980960845947265625">
        <ele>8.19999980926513671875</ele>
        <time>2024-02-19T00:54:23.000Z</time>
        <extensions>
          <ns3:TrackPointExtension/>
        </extensions>
      </trkpt>
      <trkpt lat="32.00038525275886058807373046875" lon="118.74373625032603740692138671875">
        <ele>8</ele>
        <time>2024-02-19T00:54:24.000Z</time>
        <extensions>
          <ns3:TrackPointExtension/>
        </extensions>
      </trkpt>
      <trkpt lat="32.0003928802907466888427734375" lon="118.74372862279415130615234375">
        <ele>8</ele>
        <time>2024-02-19T00:54:25.000Z</time>
        <extensions>
          <ns3:TrackPointExtension>
            <ns3:hr>112</ns3:hr>
          </ns3:TrackPointExtension>
        </extensions>
      </trkpt>
      <trkpt lat="32.00040050782263278961181640625" lon="118.7437133677303791046142578125">
        <ele>8</ele>
        <time>2024-02-19T00:54:26.000Z</time>
        <extensions>
          <ns3:TrackPointExtension/>
        </extensions>
      </trkpt>
      <trkpt lat="32.000408135354518890380859375" lon="118.743698112666606903076171875">
        <ele>8</ele>
        <time>2024-02-19T00:54:27.000Z</time>
        <extensions>
          <ns3:TrackPointExtension/>
        </extensions>
      </trkpt>
      <trkpt lat="32.0004233904182910919189453125" lon="118.74369048513472080230712890625">
        <ele>8</ele>
        <time>2024-02-19T00:54:28.000Z</time>
        <extensions>
          <ns3:TrackPointExtension/>
        </extensions>
      </trkpt>
      <trkpt lat="32.00043487362563610076904296875" lon="118.74367523007094860076904296875">
        <ele>8</ele>
        <time>2024-02-19T00:54:29.000Z</time>
        <extensions>
          <ns3:TrackPointExtension/>
        </extensions>
      </trkpt>
      <trkpt lat="32.00045012868940830230712890625" lon="118.743659891188144683837890625">
        <ele>8</ele>
        <time>2024-02-19T00:54:30.000Z</time>
        <extensions>
          <ns3:TrackPointExtension>
            <ns3:hr>112</ns3:hr>
          </ns3:TrackPointExtension>
        </extensions>
      </trkpt>
      <trkpt lat="32.00046538375318050384521484375" lon="118.74365226365625858306884765625">
        <ele>8</ele>
        <time>2024-02-19T00:54:31.000Z</time>
        <extensions>
          <ns3:TrackPointExtension/>
        </extensions>
      </trkpt>
      <trkpt lat="32.00048063881695270538330078125" lon="118.74363700859248638153076171875">
        <ele>8</ele>
        <time>2024-02-19T00:54:32.000Z</time>
        <extensions>
          <ns3:TrackPointExtension/>
        </extensions>
      </trkpt>
      <trkpt lat="32.00049203820526599884033203125" lon="118.74362938106060028076171875">
        <ele>8</ele>
        <time>2024-02-19T00:54:33.000Z</time>
        <extensions>
          <ns3:TrackPointExtension/>
        </extensions>
      </trkpt>
      <trkpt lat="32.0005035214126110076904296875" lon="118.7436141259968280792236328125">
        <ele>8</ele>
        <time>2024-02-19T00:54:34.000Z</time>
        <extensions>
          <ns3:TrackPointExtension/>
        </extensions>
      </trkpt>
      <trkpt lat="32.0005149208009243011474609375" lon="118.74360649846494197845458984375">
        <ele>8</ele>
        <time>2024-02-19T00:54:35.000Z</time>
        <extensions>
          <ns3:TrackPointExtension>
            <ns3:hr>112</ns3:hr>
          </ns3:TrackPointExtension>
        </extensions>
      </trkpt>
      <trkpt lat="32.00052640400826930999755859375" lon="118.74359124340116977691650390625">
        <ele>8</ele>
        <time>2024-02-19T00:54:36.000Z</time>
        <extensions>
          <ns3:TrackPointExtension/>
        </extensions>
      </trkpt>
      <trkpt lat="32.00053780339658260345458984375" lon="118.74357598833739757537841796875">
        <ele>8</ele>
        <time>2024-02-19T00:54:37.000Z</time>
        <extensions>
          <ns3:TrackPointExtension/>
        </extensions>
      </trkpt>
      <trkpt lat="32.00055305846035480499267578125" lon="118.743568360805511474609375">
        <ele>8</ele>
        <time>2024-02-19T00:54:38.000Z</time>
        <extensions>
          <ns3:TrackPointExtension/>
        </extensions>
      </trkpt>
      <trkpt lat="32.00056068599224090576171875" lon="118.7435531057417392730712890625">
        <ele>8</ele>
        <time>2024-02-19T00:54:39.000Z</time>
        <extensions>
          <ns3:TrackPointExtension/>
        </extensions>
      </trkpt>
      <trkpt lat="32.00057216919958591461181640625" lon="118.743537850677967071533203125">
        <ele>8</ele>
        <time>2024-02-19T00:54:40.000Z</time>
        <extensions>
          <ns3:TrackPointExtension>
            <ns3:hr>113</ns3:hr>
          </ns3:TrackPointExtension>
        </extensions>
      </trkpt>
      <trkpt lat="32.00058356858789920806884765625" lon="118.7435225956141948699951171875">
        <ele>8</ele>
        <time>2024-02-19T00:54:41.000Z</time>
        <extensions>
          <ns3:TrackPointExtension/>
        </extensions>
      </trkpt>
      <trkpt lat="32.000591196119785308837890625" lon="118.74350734055042266845703125">
        <ele>8</ele>
        <time>2024-02-19T00:54:42.000Z</time>
        <extensions>
          <ns3:TrackPointExtension/>
        </extensions>
      </trkpt>
      <trkpt lat="32.00060267932713031768798828125" lon="118.7434920854866504669189453125">
        <ele>8</ele>
        <time>2024-02-19T00:54:43.000Z</time>
        <extensions>
          <ns3:TrackPointExtension/>
        </extensions>
      </trkpt>
      <trkpt lat="32.00061030685901641845703125" lon="118.743476830422878265380859375">
        <ele>8</ele>
        <time>2024-02-19T00:54:44.000Z</time>
        <extensions>
          <ns3:TrackPointExtension/>
        </extensions>
      </trkpt>
      <trkpt lat="32.00061793439090251922607421875" lon="118.7434615753591060638427734375">
        <ele>8</ele>
        <time>2024-02-19T00:54:45.000Z</time>
        <extensions>
          <ns3:TrackPointExtension>
            <ns3:hr>113</ns3:hr>
          </ns3:TrackPointExtension>
        </extensions>
      </trkpt>
      <trkpt lat="32.000629417598247528076171875" lon="118.74345394782721996307373046875">
        <ele>8</ele>
        <time>2024-02-19T00:54:46.000Z</time>
        <extensions>
          <ns3:TrackPointExtension/>
        </extensions>
      </trkpt>
      <trkpt lat="32.000640816986560821533203125" lon="118.74343869276344776153564453125">
        <ele>8</ele>
        <time>2024-02-19T00:54:47.000Z</time>
        <extensions>
          <ns3:TrackPointExtension/>
        </extensions>
      </trkpt>
      <trkpt lat="32.00064844451844692230224609375" lon="118.7434310652315616607666015625">
        <ele>8</ele>
        <time>2024-02-19T00:54:48.000Z</time>
        <extensions>
          <ns3:TrackPointExtension/>
        </extensions>
      </trkpt>
      <trkpt lat="32.00065992772579193115234375" lon="118.743415810167789459228515625">
        <ele>8</ele>
        <time>2024-02-19T00:54:49.000Z</time>
        <extensions>
          <ns3:TrackPointExtension/>
        </extensions>
      </trkpt>
      <trkpt lat="32.000671327114105224609375" lon="118.74340818263590335845947265625">
        <ele>8</ele>
        <time>2024-02-19T00:54:50.000Z</time>
        <extensions>
          <ns3:TrackPointExtension>
            <ns3:hr>111</ns3:hr>
          </ns3:TrackPointExtension>
        </extensions>
      </trkpt>
      <trkpt lat="32.0006865821778774261474609375" lon="118.74339292757213115692138671875">
        <ele>8</ele>
        <time>2024-02-19T00:54:51.000Z</time>
        <extensions>
          <ns3:TrackPointExtension/>
        </extensions>
      </trkpt>
      <trkpt lat="32.00069806538522243499755859375" lon="118.74338530004024505615234375">
        <ele>7.80000019073486328125</ele>
        <time>2024-02-19T00:54:52.000Z</time>
        <extensions>
          <ns3:TrackPointExtension/>
        </extensions>
      </trkpt>
      <trkpt lat="32.00070946477353572845458984375" lon="118.7433700449764728546142578125">
        <ele>7.599999904632568359375</ele>
        <time>2024-02-19T00:54:53.000Z</time>
        <extensions>
          <ns3:TrackPointExtension/>
        </extensions>
      </trkpt>
      <trkpt lat="32.0007170923054218292236328125" lon="118.743354789912700653076171875">
        <ele>7.599999904632568359375</ele>
        <time>2024-02-19T00:54:54.000Z</time>
        <extensions>
          <ns3:TrackPointExtension/>
        </extensions>
      </trkpt>
      <trkpt lat="32.00072857551276683807373046875" lon="118.74334716238081455230712890625">
        <ele>7.400000095367431640625</ele>
        <time>2024-02-19T00:54:55.000Z</time>
        <extensions>
          <ns3:TrackPointExtension>
            <ns3:hr>114</ns3:hr>
          </ns3:TrackPointExtension>
        </extensions>
      </trkpt>
      <trkpt lat="32.00073997490108013153076171875" lon="118.74333190731704235076904296875">
        <ele>7.19999980926513671875</ele>
        <time>2024-02-19T00:54:56.000Z</time>
        <extensions>
          <ns3:TrackPointExtension/>
        </extensions>
      </trkpt>
      <trkpt lat="32.0007476024329662322998046875" lon="118.74332427978515625">
        <ele>7</ele>
        <time>2024-02-19T00:54:57.000Z</time>
        <extensions>
          <ns3:TrackPointExtension/>
        </extensions>
      </trkpt>
      <trkpt lat="32.000762857496738433837890625" lon="118.743316568434238433837890625">
        <ele>7</ele>
        <time>2024-02-19T00:54:58.000Z</time>
        <extensions>
          <ns3:TrackPointExtension/>
        </extensions>
      </trkpt>
      <trkpt lat="32.00077434070408344268798828125" lon="118.74330894090235233306884765625">
        <ele>6.80000019073486328125</ele>
        <time>2024-02-19T00:54:59.000Z</time>
        <extensions>
          <ns3:TrackPointExtension/>
        </extensions>
      </trkpt>
      <trkpt lat="32.0007858239114284515380859375" lon="118.743316568434238433837890625">
        <ele>6.80000019073486328125</ele>
        <time>2024-02-19T00:55:00.000Z</time>
        <extensions>
          <ns3:TrackPointExtension>
            <ns3:hr>114</ns3:hr>
          </ns3:TrackPointExtension>
        </extensions>
      </trkpt>
      <trkpt lat="32.000801078975200653076171875" lon="118.743316568434238433837890625">
        <ele>6.599999904632568359375</ele>
        <time>2024-02-19T00:55:01.000Z</time>
        <extensions>
          <ns3:TrackPointExtension/>
        </extensions>
      </trkpt>
      <trkpt lat="32.0008163340389728546142578125" lon="118.74332427978515625">
        <ele>6.599999904632568359375</ele>
        <time>2024-02-19T00:55:02.000Z</time>
        <extensions>
          <ns3:TrackPointExtension/>
        </extensions>
      </trkpt>
      <trkpt lat="32.0008277334272861480712890625" lon="118.74333190731704235076904296875">
        <ele>6.599999904632568359375</ele>
        <time>2024-02-19T00:55:03.000Z</time>
        <extensions>
          <ns3:TrackPointExtension/>
        </extensions>
      </trkpt>
      <trkpt lat="32.000842988491058349609375" lon="118.7433395348489284515380859375">
        <ele>6.400000095367431640625</ele>
        <time>2024-02-19T00:55:04.000Z</time>
        <extensions>
          <ns3:TrackPointExtension/>
        </extensions>
      </trkpt>
      <trkpt lat="32.00085447169840335845947265625" lon="118.74334716238081455230712890625">
        <ele>6.400000095367431640625</ele>
        <time>2024-02-19T00:55:05.000Z</time>
        <extensions>
          <ns3:TrackPointExtension>
            <ns3:hr>111</ns3:hr>
          </ns3:TrackPointExtension>
        </extensions>
      </trkpt>
      <trkpt lat="32.00086972676217555999755859375" lon="118.743354789912700653076171875">
        <ele>6.400000095367431640625</ele>
        <time>2024-02-19T00:55:06.000Z</time>
        <extensions>
          <ns3:TrackPointExtension/>
        </extensions>
      </trkpt>
      <trkpt lat="32.00088112615048885345458984375" lon="118.74336241744458675384521484375">
        <ele>6.400000095367431640625</ele>
        <time>2024-02-19T00:55:07.000Z</time>
        <extensions>
          <ns3:TrackPointExtension/>
        </extensions>
      </trkpt>
      <trkpt lat="32.0008926093578338623046875" lon="118.7433700449764728546142578125">
        <ele>6.400000095367431640625</ele>
        <time>2024-02-19T00:55:08.000Z</time>
        <extensions>
          <ns3:TrackPointExtension/>
        </extensions>
      </trkpt>
      <trkpt lat="32.00090400874614715576171875" lon="118.7433700449764728546142578125">
        <ele>6.19999980926513671875</ele>
        <time>2024-02-19T00:55:09.000Z</time>
        <extensions>
          <ns3:TrackPointExtension/>
        </extensions>
      </trkpt>
      <trkpt lat="32.00091549195349216461181640625" lon="118.74337767250835895538330078125">
        <ele>6.19999980926513671875</ele>
        <time>2024-02-19T00:55:10.000Z</time>
        <extensions>
          <ns3:TrackPointExtension>
            <ns3:hr>115</ns3:hr>
          </ns3:TrackPointExtension>
        </extensions>
      </trkpt>
      <trkpt lat="32.00092689134180545806884765625" lon="118.74338530004024505615234375">
        <ele>6.19999980926513671875</ele>
        <time>2024-02-19T00:55:11.000Z</time>
        <extensions>
          <ns3:TrackPointExtension/>
        </extensions>
      </trkpt>
      <trkpt lat="32.0009383745491504669189453125" lon="118.74339292757213115692138671875">
        <ele>6.19999980926513671875</ele>
        <time>2024-02-19T00:55:12.000Z</time>
        <extensions>
          <ns3:TrackPointExtension/>
        </extensions>
      </trkpt>
      <trkpt lat="32.00094985775649547576904296875" lon="118.74339292757213115692138671875">
        <ele>6.19999980926513671875</ele>
        <time>2024-02-19T00:55:13.000Z</time>
        <extensions>
          <ns3:TrackPointExtension/>
        </extensions>
      </trkpt>
      <trkpt lat="32.00096125714480876922607421875" lon="118.7434005551040172576904296875">
        <ele>6</ele>
        <time>2024-02-19T00:55:14.000Z</time>
        <extensions>
          <ns3:TrackPointExtension/>
        </extensions>
      </trkpt>
      <trkpt lat="32.00097651220858097076416015625" lon="118.7434005551040172576904296875">
        <ele>6</ele>
        <time>2024-02-19T00:55:15.000Z</time>
        <extensions>
          <ns3:TrackPointExtension>
            <ns3:hr>116</ns3:hr>
          </ns3:TrackPointExtension>
        </extensions>
      </trkpt>
      <trkpt lat="32.0009879954159259796142578125" lon="118.7434005551040172576904296875">
        <ele>5.80000019073486328125</ele>
        <time>2024-02-19T00:55:16.000Z</time>
        <extensions>
          <ns3:TrackPointExtension/>
        </extensions>
      </trkpt>
      <trkpt lat="32.0009993948042392730712890625" lon="118.74340818263590335845947265625">
        <ele>5.80000019073486328125</ele>
        <time>2024-02-19T00:55:17.000Z</time>
        <extensions>
          <ns3:TrackPointExtension/>
        </extensions>
      </trkpt>
      <trkpt lat="32.001014649868011474609375" lon="118.74340818263590335845947265625">
        <ele>5.599999904632568359375</ele>
        <time>2024-02-19T00:55:18.000Z</time>
        <extensions>
          <ns3:TrackPointExtension/>
        </extensions>
      </trkpt>
      <trkpt lat="32.0010299049317836761474609375" lon="118.743415810167789459228515625">
        <ele>5.599999904632568359375</ele>
        <time>2024-02-19T00:55:19.000Z</time>
        <extensions>
          <ns3:TrackPointExtension/>
        </extensions>
      </trkpt>
      <trkpt lat="32.00104138813912868499755859375" lon="118.743415810167789459228515625">
        <ele>5.599999904632568359375</ele>
        <time>2024-02-19T00:55:20.000Z</time>
        <extensions>
          <ns3:TrackPointExtension>
            <ns3:hr>119</ns3:hr>
          </ns3:TrackPointExtension>
        </extensions>
      </trkpt>
      <trkpt lat="32.0010604150593280792236328125" lon="118.743415810167789459228515625">
        <ele>5.400000095367431640625</ele>
        <time>2024-02-19T00:55:21.000Z</time>
        <extensions>
          <ns3:TrackPointExtension/>
        </extensions>
      </trkpt>
      <trkpt lat="32.0010795257985591888427734375" lon="118.743415810167789459228515625">
        <ele>5.19999980926513671875</ele>
        <time>2024-02-19T00:55:22.000Z</time>
        <extensions>
          <ns3:TrackPointExtension/>
        </extensions>
      </trkpt>
      <trkpt lat="32.00109855271875858306884765625" lon="118.743415810167789459228515625">
        <ele>5</ele>
        <time>2024-02-19T00:55:23.000Z</time>
        <extensions>
          <ns3:TrackPointExtension/>
        </extensions>
      </trkpt>
      <trkpt lat="32.00112151913344860076904296875" lon="118.74340818263590335845947265625">
        <ele>5</ele>
        <time>2024-02-19T00:55:24.000Z</time>
        <extensions>
          <ns3:TrackPointExtension/>
        </extensions>
      </trkpt>
      <trkpt lat="32.00114817358553409576416015625" lon="118.74340818263590335845947265625">
        <ele>4.80000019073486328125</ele>
        <time>2024-02-19T00:55:25.000Z</time>
        <extensions>
          <ns3:TrackPointExtension>
            <ns3:hr>119</ns3:hr>
          </ns3:TrackPointExtension>
        </extensions>
      </trkpt>
      <trkpt lat="32.00117491185665130615234375" lon="118.74340818263590335845947265625">
        <ele>4.599999904632568359375</ele>
        <time>2024-02-19T00:55:26.000Z</time>
        <extensions>
          <ns3:TrackPointExtension/>
        </extensions>
      </trkpt>
      <trkpt lat="32.0012015663087368011474609375" lon="118.74340818263590335845947265625">
        <ele>4.400000095367431640625</ele>
        <time>2024-02-19T00:55:27.000Z</time>
        <extensions>
          <ns3:TrackPointExtension/>
        </extensions>
      </trkpt>
      <trkpt lat="32.00122444890439510345458984375" lon="118.743415810167789459228515625">
        <ele>4.19999980926513671875</ele>
        <time>2024-02-19T00:55:28.000Z</time>
        <extensions>
          <ns3:TrackPointExtension/>
        </extensions>
      </trkpt>
      <trkpt lat="32.00124355964362621307373046875" lon="118.74342343769967555999755859375">
        <ele>4</ele>
        <time>2024-02-19T00:55:29.000Z</time>
        <extensions>
          <ns3:TrackPointExtension/>
        </extensions>
      </trkpt>
      <trkpt lat="32.00125881470739841461181640625" lon="118.7434310652315616607666015625">
        <ele>4</ele>
        <time>2024-02-19T00:55:30.000Z</time>
        <extensions>
          <ns3:TrackPointExtension>
            <ns3:hr>120</ns3:hr>
          </ns3:TrackPointExtension>
        </extensions>
      </trkpt>
      <trkpt lat="32.00127021409571170806884765625" lon="118.7434310652315616607666015625">
        <ele>3.7999999523162841796875</ele>
        <time>2024-02-19T00:55:31.000Z</time>
        <extensions>
          <ns3:TrackPointExtension/>
        </extensions>
      </trkpt>
      <trkpt lat="32.001277841627597808837890625" lon="118.74343869276344776153564453125">
        <ele>3.7999999523162841796875</ele>
        <time>2024-02-19T00:55:32.000Z</time>
        <extensions>
          <ns3:TrackPointExtension/>
        </extensions>
      </trkpt>
      <trkpt lat="32.00128932483494281768798828125" lon="118.74343869276344776153564453125">
        <ele>3.7999999523162841796875</ele>
        <time>2024-02-19T00:55:33.000Z</time>
        <extensions>
          <ns3:TrackPointExtension/>
        </extensions>
      </trkpt>
      <trkpt lat="32.0013008080422878265380859375" lon="118.74343869276344776153564453125">
        <ele>3.7999999523162841796875</ele>
        <time>2024-02-19T00:55:34.000Z</time>
        <extensions>
          <ns3:TrackPointExtension/>
        </extensions>
      </trkpt>
      <trkpt lat="32.0013122074306011199951171875" lon="118.7434463202953338623046875">
        <ele>3.599999904632568359375</ele>
        <time>2024-02-19T00:55:35.000Z</time>
        <extensions>
          <ns3:TrackPointExtension>
            <ns3:hr>121</ns3:hr>
          </ns3:TrackPointExtension>
        </extensions>
      </trkpt>
      <trkpt lat="32.001327462494373321533203125" lon="118.7434463202953338623046875">
        <ele>3.599999904632568359375</ele>
        <time>2024-02-19T00:55:36.000Z</time>
        <extensions>
          <ns3:TrackPointExtension/>
        </extensions>
      </trkpt>
      <trkpt lat="32.00133894570171833038330078125" lon="118.7434463202953338623046875">
        <ele>3.599999904632568359375</ele>
        <time>2024-02-19T00:55:37.000Z</time>
        <extensions>
          <ns3:TrackPointExtension/>
        </extensions>
      </trkpt>
      <trkpt lat="32.00135034509003162384033203125" lon="118.74345394782721996307373046875">
        <ele>3.599999904632568359375</ele>
        <time>2024-02-19T00:55:38.000Z</time>
        <extensions>
          <ns3:TrackPointExtension/>
        </extensions>
      </trkpt>
      <trkpt lat="32.0013618282973766326904296875" lon="118.7434615753591060638427734375">
        <ele>3.599999904632568359375</ele>
        <time>2024-02-19T00:55:39.000Z</time>
        <extensions>
          <ns3:TrackPointExtension/>
        </extensions>
      </trkpt>
      <trkpt lat="32.00136945582926273345947265625" lon="118.74346920289099216461181640625">
        <ele>3.599999904632568359375</ele>
        <time>2024-02-19T00:55:40.000Z</time>
        <extensions>
          <ns3:TrackPointExtension>
            <ns3:hr>120</ns3:hr>
          </ns3:TrackPointExtension>
        </extensions>
      </trkpt>
      <trkpt lat="32.0013732276856899261474609375" lon="118.74348445795476436614990234375">
        <ele>3.400000095367431640625</ele>
        <time>2024-02-19T00:55:41.000Z</time>
        <extensions>
          <ns3:TrackPointExtension/>
        </extensions>
      </trkpt>
      <trkpt lat="32.001377083361148834228515625" lon="118.74350734055042266845703125">
        <ele>3.2000000476837158203125</ele>
        <time>2024-02-19T00:55:42.000Z</time>
        <extensions>
          <ns3:TrackPointExtension/>
        </extensions>
      </trkpt>
      <trkpt lat="32.00138085521757602691650390625" lon="118.7435225956141948699951171875">
        <ele>3.2000000476837158203125</ele>
        <time>2024-02-19T00:55:43.000Z</time>
        <extensions>
          <ns3:TrackPointExtension/>
        </extensions>
      </trkpt>
      <trkpt lat="32.00138085521757602691650390625" lon="118.7435531057417392730712890625">
        <ele>3</ele>
        <time>2024-02-19T00:55:44.000Z</time>
        <extensions>
          <ns3:TrackPointExtension/>
        </extensions>
      </trkpt>
      <trkpt lat="32.001377083361148834228515625" lon="118.74357598833739757537841796875">
        <ele>3</ele>
        <time>2024-02-19T00:55:45.000Z</time>
        <extensions>
          <ns3:TrackPointExtension>
            <ns3:hr>119</ns3:hr>
          </ns3:TrackPointExtension>
        </extensions>
      </trkpt>
      <trkpt lat="32.00136945582926273345947265625" lon="118.74360649846494197845458984375">
        <ele>3.2000000476837158203125</ele>
        <time>2024-02-19T00:55:46.000Z</time>
        <extensions>
          <ns3:TrackPointExtension/>
        </extensions>
      </trkpt>
      <trkpt lat="32.00136560015380382537841796875" lon="118.74362938106060028076171875">
        <ele>3.2000000476837158203125</ele>
        <time>2024-02-19T00:55:47.000Z</time>
        <extensions>
          <ns3:TrackPointExtension/>
        </extensions>
      </trkpt>
      <trkpt lat="32.001357972621917724609375" lon="118.74365226365625858306884765625">
        <ele>3.2000000476837158203125</ele>
        <time>2024-02-19T00:55:48.000Z</time>
        <extensions>
          <ns3:TrackPointExtension/>
        </extensions>
      </trkpt>
      <trkpt lat="32.00135034509003162384033203125" lon="118.74367523007094860076904296875">
        <ele>3.2000000476837158203125</ele>
        <time>2024-02-19T00:55:49.000Z</time>
        <extensions>
          <ns3:TrackPointExtension/>
        </extensions>
      </trkpt>
      <trkpt lat="32.0013427175581455230712890625" lon="118.74369048513472080230712890625">
        <ele>3.400000095367431640625</ele>
        <time>2024-02-19T00:55:50.000Z</time>
        <extensions>
          <ns3:TrackPointExtension>
            <ns3:hr>119</ns3:hr>
          </ns3:TrackPointExtension>
        </extensions>
      </trkpt>
      <trkpt lat="32.0013427175581455230712890625" lon="118.74370574019849300384521484375">
        <ele>3.400000095367431640625</ele>
        <time>2024-02-19T00:55:51.000Z</time>
        <extensions>
          <ns3:TrackPointExtension/>
        </extensions>
      </trkpt>
      <trkpt lat="32.00134657323360443115234375" lon="118.74370574019849300384521484375">
        <ele>3.400000095367431640625</ele>
        <time>2024-02-19T00:55:52.000Z</time>
        <extensions>
          <ns3:TrackPointExtension/>
        </extensions>
      </trkpt>
      <trkpt lat="32.00135420076549053192138671875" lon="118.74370574019849300384521484375">
        <ele>3.2000000476837158203125</ele>
        <time>2024-02-19T00:55:53.000Z</time>
        <extensions>
          <ns3:TrackPointExtension/>
        </extensions>
      </trkpt>
      <trkpt lat="32.00136560015380382537841796875" lon="118.743698112666606903076171875">
        <ele>3.2000000476837158203125</ele>
        <time>2024-02-19T00:55:54.000Z</time>
        <extensions>
          <ns3:TrackPointExtension/>
        </extensions>
      </trkpt>
      <trkpt lat="32.001377083361148834228515625" lon="118.74367523007094860076904296875">
        <ele>3</ele>
        <time>2024-02-19T00:55:55.000Z</time>
        <extensions>
          <ns3:TrackPointExtension>
            <ns3:hr>119</ns3:hr>
          </ns3:TrackPointExtension>
        </extensions>
      </trkpt>
      <trkpt lat="32.001388482749462127685546875" lon="118.743659891188144683837890625">
        <ele>3</ele>
        <time>2024-02-19T00:55:56.000Z</time>
        <extensions>
          <ns3:TrackPointExtension/>
        </extensions>
      </trkpt>
      <trkpt lat="32.00139611028134822845458984375" lon="118.74363700859248638153076171875">
        <ele>3</ele>
        <time>2024-02-19T00:55:57.000Z</time>
        <extensions>
          <ns3:TrackPointExtension/>
        </extensions>
      </trkpt>
      <trkpt lat="32.0014075934886932373046875" lon="118.7436141259968280792236328125">
        <ele>2.7999999523162841796875</ele>
        <time>2024-02-19T00:55:58.000Z</time>
        <extensions>
          <ns3:TrackPointExtension/>
        </extensions>
      </trkpt>
      <trkpt lat="32.00141136534512042999267578125" lon="118.74359124340116977691650390625">
        <ele>2.7999999523162841796875</ele>
        <time>2024-02-19T00:55:59.000Z</time>
        <extensions>
          <ns3:TrackPointExtension/>
        </extensions>
      </trkpt>
      <trkpt lat="32.00141899287700653076171875" lon="118.743568360805511474609375">
        <ele>2.7999999523162841796875</ele>
        <time>2024-02-19T00:56:00.000Z</time>
        <extensions>
          <ns3:TrackPointExtension>
            <ns3:hr>119</ns3:hr>
          </ns3:TrackPointExtension>
        </extensions>
      </trkpt>
      <trkpt lat="32.0014228485524654388427734375" lon="118.74354547820985317230224609375">
        <ele>3</ele>
        <time>2024-02-19T00:56:01.000Z</time>
        <extensions>
          <ns3:TrackPointExtension/>
        </extensions>
      </trkpt>
      <trkpt lat="32.00142662040889263153076171875" lon="118.74353022314608097076416015625">
        <ele>3</ele>
        <time>2024-02-19T00:56:02.000Z</time>
        <extensions>
          <ns3:TrackPointExtension/>
        </extensions>
      </trkpt>
      <trkpt lat="32.00142662040889263153076171875" lon="118.74351496808230876922607421875">
        <ele>3.2000000476837158203125</ele>
        <time>2024-02-19T00:56:03.000Z</time>
        <extensions>
          <ns3:TrackPointExtension/>
        </extensions>
      </trkpt>
      <trkpt lat="32.00142662040889263153076171875" lon="118.74349971301853656768798828125">
        <ele>3.2000000476837158203125</ele>
        <time>2024-02-19T00:56:04.000Z</time>
        <extensions>
          <ns3:TrackPointExtension/>
        </extensions>
      </trkpt>
      <trkpt lat="32.00142662040889263153076171875" lon="118.7434920854866504669189453125">
        <ele>3.400000095367431640625</ele>
        <time>2024-02-19T00:56:05.000Z</time>
        <extensions>
          <ns3:TrackPointExtension>
            <ns3:hr>119</ns3:hr>
          </ns3:TrackPointExtension>
        </extensions>
      </trkpt>
      <trkpt lat="32.00142662040889263153076171875" lon="118.743476830422878265380859375">
        <ele>3.400000095367431640625</ele>
        <time>2024-02-19T00:56:06.000Z</time>
        <extensions>
          <ns3:TrackPointExtension/>
        </extensions>
      </trkpt>
      <trkpt lat="32.00142662040889263153076171875" lon="118.743476830422878265380859375">
        <ele>3.400000095367431640625</ele>
        <time>2024-02-19T00:56:07.000Z</time>
        <extensions>
          <ns3:TrackPointExtension/>
        </extensions>
      </trkpt>
      <trkpt lat="32.00142662040889263153076171875" lon="118.74346920289099216461181640625">
        <ele>3.599999904632568359375</ele>
        <time>2024-02-19T00:56:08.000Z</time>
        <extensions>
          <ns3:TrackPointExtension/>
        </extensions>
      </trkpt>
      <trkpt lat="32.00142662040889263153076171875" lon="118.74346920289099216461181640625">
        <ele>3.599999904632568359375</ele>
        <time>2024-02-19T00:56:09.000Z</time>
        <extensions>
          <ns3:TrackPointExtension/>
        </extensions>
      </trkpt>
      <trkpt lat="32.00142662040889263153076171875" lon="118.7434615753591060638427734375">
        <ele>3.599999904632568359375</ele>
        <time>2024-02-19T00:56:10.000Z</time>
        <extensions>
          <ns3:TrackPointExtension>
            <ns3:hr>119</ns3:hr>
          </ns3:TrackPointExtension>
        </extensions>
      </trkpt>
      <trkpt lat="32.0014228485524654388427734375" lon="118.74345394782721996307373046875">
        <ele>3.599999904632568359375</ele>
        <time>2024-02-19T00:56:11.000Z</time>
        <extensions>
          <ns3:TrackPointExtension/>
        </extensions>
      </trkpt>
      <trkpt lat="32.0014228485524654388427734375" lon="118.7434463202953338623046875">
        <ele>3.599999904632568359375</ele>
        <time>2024-02-19T00:56:12.000Z</time>
        <extensions>
          <ns3:TrackPointExtension/>
        </extensions>
      </trkpt>
      <trkpt lat="32.00141899287700653076171875" lon="118.74343869276344776153564453125">
        <ele>3.7999999523162841796875</ele>
        <time>2024-02-19T00:56:13.000Z</time>
        <extensions>
          <ns3:TrackPointExtension/>
        </extensions>
      </trkpt>
      <trkpt lat="32.00141136534512042999267578125" lon="118.7434310652315616607666015625">
        <ele>3.7999999523162841796875</ele>
        <time>2024-02-19T00:56:14.000Z</time>
        <extensions>
          <ns3:TrackPointExtension/>
        </extensions>
      </trkpt>
      <trkpt lat="32.0014075934886932373046875" lon="118.743415810167789459228515625">
        <ele>3.7999999523162841796875</ele>
        <time>2024-02-19T00:56:15.000Z</time>
        <extensions>
          <ns3:TrackPointExtension>
            <ns3:hr>119</ns3:hr>
          </ns3:TrackPointExtension>
        </extensions>
      </trkpt>
      <trkpt lat="32.00139996595680713653564453125" lon="118.74339292757213115692138671875">
        <ele>4</ele>
        <time>2024-02-19T00:56:16.000Z</time>
        <extensions>
          <ns3:TrackPointExtension/>
        </extensions>
      </trkpt>
      <trkpt lat="32.00139611028134822845458984375" lon="118.74337767250835895538330078125">
        <ele>4</ele>
        <time>2024-02-19T00:56:17.000Z</time>
        <extensions>
          <ns3:TrackPointExtension/>
        </extensions>
      </trkpt>
      <trkpt lat="32.0013923384249210357666015625" lon="118.743354789912700653076171875">
        <ele>4</ele>
        <time>2024-02-19T00:56:18.000Z</time>
        <extensions>
          <ns3:TrackPointExtension/>
        </extensions>
      </trkpt>
      <trkpt lat="32.00138471089303493499755859375" lon="118.74333190731704235076904296875">
        <ele>4</ele>
        <time>2024-02-19T00:56:19.000Z</time>
        <extensions>
          <ns3:TrackPointExtension/>
        </extensions>
      </trkpt>
      <trkpt lat="32.00138085521757602691650390625" lon="118.743316568434238433837890625">
        <ele>4</ele>
        <time>2024-02-19T00:56:20.000Z</time>
        <extensions>
          <ns3:TrackPointExtension>
            <ns3:hr>119</ns3:hr>
          </ns3:TrackPointExtension>
        </extensions>
      </trkpt>
      <trkpt lat="32.00138471089303493499755859375" lon="118.74328605830669403076171875">
        <ele>4</ele>
        <time>2024-02-19T00:56:21.000Z</time>
        <extensions>
          <ns3:TrackPointExtension/>
        </extensions>
      </trkpt>
      <trkpt lat="32.00138471089303493499755859375" lon="118.743255548179149627685546875">
        <ele>4</ele>
        <time>2024-02-19T00:56:22.000Z</time>
        <extensions>
          <ns3:TrackPointExtension/>
        </extensions>
      </trkpt>
      <trkpt lat="32.0013923384249210357666015625" lon="118.74323266558349132537841796875">
        <ele>4.19999980926513671875</ele>
        <time>2024-02-19T00:56:23.000Z</time>
        <extensions>
          <ns3:TrackPointExtension/>
        </extensions>
      </trkpt>
      <trkpt lat="32.00139611028134822845458984375" lon="118.74320215545594692230224609375">
        <ele>4.19999980926513671875</ele>
        <time>2024-02-19T00:56:24.000Z</time>
        <extensions>
          <ns3:TrackPointExtension/>
        </extensions>
      </trkpt>
      <trkpt lat="32.0014037378132343292236328125" lon="118.7431792728602886199951171875">
        <ele>4.400000095367431640625</ele>
        <time>2024-02-19T00:56:25.000Z</time>
        <extensions>
          <ns3:TrackPointExtension>
            <ns3:hr>120</ns3:hr>
          </ns3:TrackPointExtension>
        </extensions>
      </trkpt>
      <trkpt lat="32.0014037378132343292236328125" lon="118.74316401779651641845703125">
        <ele>4.400000095367431640625</ele>
        <time>2024-02-19T00:56:26.000Z</time>
        <extensions>
          <ns3:TrackPointExtension/>
        </extensions>
      </trkpt>
      <trkpt lat="32.0014075934886932373046875" lon="118.7431487627327442169189453125">
        <ele>4.400000095367431640625</ele>
        <time>2024-02-19T00:56:27.000Z</time>
        <extensions>
          <ns3:TrackPointExtension/>
        </extensions>
      </trkpt>
      <trkpt lat="32.00141522102057933807373046875" lon="118.743133507668972015380859375">
        <ele>4.599999904632568359375</ele>
        <time>2024-02-19T00:56:28.000Z</time>
        <extensions>
          <ns3:TrackPointExtension/>
        </extensions>
      </trkpt>
      <trkpt lat="32.00142662040889263153076171875" lon="118.74311062507331371307373046875">
        <ele>4.599999904632568359375</ele>
        <time>2024-02-19T00:56:29.000Z</time>
        <extensions>
          <ns3:TrackPointExtension/>
        </extensions>
      </trkpt>
      <trkpt lat="32.00144187547266483306884765625" lon="118.74309537000954151153564453125">
        <ele>4.80000019073486328125</ele>
        <time>2024-02-19T00:56:30.000Z</time>
        <extensions>
          <ns3:TrackPointExtension>
            <ns3:hr>120</ns3:hr>
          </ns3:TrackPointExtension>
        </extensions>
      </trkpt>
      <trkpt lat="32.00145721435546875" lon="118.743072487413883209228515625">
        <ele>5</ele>
        <time>2024-02-19T00:56:31.000Z</time>
        <extensions>
          <ns3:TrackPointExtension/>
        </extensions>
      </trkpt>
      <trkpt lat="32.00147624127566814422607421875" lon="118.74304960481822490692138671875">
        <ele>5</ele>
        <time>2024-02-19T00:56:32.000Z</time>
        <extensions>
          <ns3:TrackPointExtension/>
        </extensions>
      </trkpt>
      <trkpt lat="32.00149535201489925384521484375" lon="118.7430267222225666046142578125">
        <ele>4.80000019073486328125</ele>
        <time>2024-02-19T00:56:33.000Z</time>
        <extensions>
          <ns3:TrackPointExtension/>
        </extensions>
      </trkpt>
      <trkpt lat="32.0015143789350986480712890625" lon="118.74300383962690830230712890625">
        <ele>4.599999904632568359375</ele>
        <time>2024-02-19T00:56:34.000Z</time>
        <extensions>
          <ns3:TrackPointExtension/>
        </extensions>
      </trkpt>
      <trkpt lat="32.00153726153075695037841796875" lon="118.74298858456313610076904296875">
        <ele>4.599999904632568359375</ele>
        <time>2024-02-19T00:56:35.000Z</time>
        <extensions>
          <ns3:TrackPointExtension>
            <ns3:hr>120</ns3:hr>
          </ns3:TrackPointExtension>
        </extensions>
      </trkpt>
      <trkpt lat="32.001560144126415252685546875" lon="118.742973245680332183837890625">
        <ele>4.400000095367431640625</ele>
        <time>2024-02-19T00:56:36.000Z</time>
        <extensions>
          <ns3:TrackPointExtension/>
        </extensions>
      </trkpt>
      <trkpt lat="32.00159065425395965576171875" lon="118.7429579906165599822998046875">
        <ele>4.400000095367431640625</ele>
        <time>2024-02-19T00:56:37.000Z</time>
        <extensions>
          <ns3:TrackPointExtension/>
        </extensions>
      </trkpt>
      <trkpt lat="32.001621164381504058837890625" lon="118.74295036308467388153076171875">
        <ele>4.400000095367431640625</ele>
        <time>2024-02-19T00:56:38.000Z</time>
        <extensions>
          <ns3:TrackPointExtension/>
        </extensions>
      </trkpt>
      <trkpt lat="32.0016555301845073699951171875" lon="118.74294273555278778076171875">
        <ele>4.400000095367431640625</ele>
        <time>2024-02-19T00:56:39.000Z</time>
        <extensions>
          <ns3:TrackPointExtension/>
        </extensions>
      </trkpt>
      <trkpt lat="32.00168989598751068115234375" lon="118.7429274804890155792236328125">
        <ele>4.19999980926513671875</ele>
        <time>2024-02-19T00:56:40.000Z</time>
        <extensions>
          <ns3:TrackPointExtension>
            <ns3:hr>119</ns3:hr>
          </ns3:TrackPointExtension>
        </extensions>
      </trkpt>
      <trkpt lat="32.001720406115055084228515625" lon="118.74290459789335727691650390625">
        <ele>4.19999980926513671875</ele>
        <time>2024-02-19T00:56:41.000Z</time>
        <extensions>
          <ns3:TrackPointExtension/>
        </extensions>
      </trkpt>
      <trkpt lat="32.0017509162425994873046875" lon="118.742881715297698974609375">
        <ele>4.19999980926513671875</ele>
        <time>2024-02-19T00:56:42.000Z</time>
        <extensions>
          <ns3:TrackPointExtension/>
        </extensions>
      </trkpt>
      <trkpt lat="32.001781426370143890380859375" lon="118.742851205170154571533203125">
        <ele>4</ele>
        <time>2024-02-19T00:56:43.000Z</time>
        <extensions>
          <ns3:TrackPointExtension/>
        </extensions>
      </trkpt>
      <trkpt lat="32.00180816464126110076904296875" lon="118.74281306751072406768798828125">
        <ele>3.7999999523162841796875</ele>
        <time>2024-02-19T00:56:44.000Z</time>
        <extensions>
          <ns3:TrackPointExtension/>
        </extensions>
      </trkpt>
      <trkpt lat="32.00183867476880550384521484375" lon="118.74278255738317966461181640625">
        <ele>4</ele>
        <time>2024-02-19T00:56:45.000Z</time>
        <extensions>
          <ns3:TrackPointExtension>
            <ns3:hr>119</ns3:hr>
          </ns3:TrackPointExtension>
        </extensions>
      </trkpt>
      <trkpt lat="32.00186532922089099884033203125" lon="118.74275204725563526153564453125">
        <ele>4</ele>
        <time>2024-02-19T00:56:46.000Z</time>
        <extensions>
          <ns3:TrackPointExtension/>
        </extensions>
      </trkpt>
      <trkpt lat="32.00189583934843540191650390625" lon="118.742729164659976959228515625">
        <ele>4.19999980926513671875</ele>
        <time>2024-02-19T00:56:47.000Z</time>
        <extensions>
          <ns3:TrackPointExtension/>
        </extensions>
      </trkpt>
      <trkpt lat="32.0019225776195526123046875" lon="118.74270628206431865692138671875">
        <ele>4.400000095367431640625</ele>
        <time>2024-02-19T00:56:48.000Z</time>
        <extensions>
          <ns3:TrackPointExtension/>
        </extensions>
      </trkpt>
      <trkpt lat="32.00194546021521091461181640625" lon="118.74269102700054645538330078125">
        <ele>4.400000095367431640625</ele>
        <time>2024-02-19T00:56:49.000Z</time>
        <extensions>
          <ns3:TrackPointExtension/>
        </extensions>
      </trkpt>
      <trkpt lat="32.001964487135410308837890625" lon="118.74267577193677425384521484375">
        <ele>4.400000095367431640625</ele>
        <time>2024-02-19T00:56:50.000Z</time>
        <extensions>
          <ns3:TrackPointExtension>
            <ns3:hr>117</ns3:hr>
          </ns3:TrackPointExtension>
        </extensions>
      </trkpt>
      <trkpt lat="32.00197982601821422576904296875" lon="118.742668144404888153076171875">
        <ele>4.400000095367431640625</ele>
        <time>2024-02-19T00:56:51.000Z</time>
        <extensions>
          <ns3:TrackPointExtension/>
        </extensions>
      </trkpt>
      <trkpt lat="32.00199122540652751922607421875" lon="118.74266051687300205230712890625">
        <ele>4.400000095367431640625</ele>
        <time>2024-02-19T00:56:52.000Z</time>
        <extensions>
          <ns3:TrackPointExtension/>
        </extensions>
      </trkpt>
      <trkpt lat="32.0019988529384136199951171875" lon="118.7426528893411159515380859375">
        <ele>4.400000095367431640625</ele>
        <time>2024-02-19T00:56:53.000Z</time>
        <extensions>
          <ns3:TrackPointExtension/>
        </extensions>
      </trkpt>
      <trkpt lat="32.00200648047029972076416015625" lon="118.74263763427734375">
        <ele>4.19999980926513671875</ele>
        <time>2024-02-19T00:56:54.000Z</time>
        <extensions>
          <ns3:TrackPointExtension/>
        </extensions>
      </trkpt>
      <trkpt lat="32.002014108002185821533203125" lon="118.742629922926425933837890625">
        <ele>4.19999980926513671875</ele>
        <time>2024-02-19T00:56:55.000Z</time>
        <extensions>
          <ns3:TrackPointExtension>
            <ns3:hr>118</ns3:hr>
          </ns3:TrackPointExtension>
        </extensions>
      </trkpt>
      <trkpt lat="32.00202173553407192230224609375" lon="118.74262229539453983306884765625">
        <ele>4.19999980926513671875</ele>
        <time>2024-02-19T00:56:56.000Z</time>
        <extensions>
          <ns3:TrackPointExtension/>
        </extensions>
      </trkpt>
      <trkpt lat="32.00202559120953083038330078125" lon="118.7426146678626537322998046875">
        <ele>4.19999980926513671875</ele>
        <time>2024-02-19T00:56:57.000Z</time>
        <extensions>
          <ns3:TrackPointExtension/>
        </extensions>
      </trkpt>
      <trkpt lat="32.0020293630659580230712890625" lon="118.7426146678626537322998046875">
        <ele>4.19999980926513671875</ele>
        <time>2024-02-19T00:56:58.000Z</time>
        <extensions>
          <ns3:TrackPointExtension/>
        </extensions>
      </trkpt>
      <trkpt lat="32.00203699059784412384033203125" lon="118.74260704033076763153076171875">
        <ele>4.19999980926513671875</ele>
        <time>2024-02-19T00:56:59.000Z</time>
        <extensions>
          <ns3:TrackPointExtension/>
        </extensions>
      </trkpt>
      <trkpt lat="32.0020484738051891326904296875" lon="118.74260704033076763153076171875">
        <ele>4.19999980926513671875</ele>
        <time>2024-02-19T00:57:00.000Z</time>
        <extensions>
          <ns3:TrackPointExtension>
            <ns3:hr>118</ns3:hr>
          </ns3:TrackPointExtension>
        </extensions>
      </trkpt>
      <trkpt lat="32.00205610133707523345947265625" lon="118.74260704033076763153076171875">
        <ele>4.19999980926513671875</ele>
        <time>2024-02-19T00:57:01.000Z</time>
        <extensions>
          <ns3:TrackPointExtension/>
        </extensions>
      </trkpt>
      <trkpt lat="32.00207135640084743499755859375" lon="118.7426146678626537322998046875">
        <ele>4.19999980926513671875</ele>
        <time>2024-02-19T00:57:02.000Z</time>
        <extensions>
          <ns3:TrackPointExtension/>
        </extensions>
      </trkpt>
      <trkpt lat="32.00208661146461963653564453125" lon="118.74262229539453983306884765625">
        <ele>4.400000095367431640625</ele>
        <time>2024-02-19T00:57:03.000Z</time>
        <extensions>
          <ns3:TrackPointExtension/>
        </extensions>
      </trkpt>
      <trkpt lat="32.00209801085293292999267578125" lon="118.74264526180922985076904296875">
        <ele>4.599999904632568359375</ele>
        <time>2024-02-19T00:57:04.000Z</time>
        <extensions>
          <ns3:TrackPointExtension/>
        </extensions>
      </trkpt>
      <trkpt lat="32.0021094940602779388427734375" lon="118.74266051687300205230712890625">
        <ele>4.80000019073486328125</ele>
        <time>2024-02-19T00:57:05.000Z</time>
        <extensions>
          <ns3:TrackPointExtension>
            <ns3:hr>119</ns3:hr>
          </ns3:TrackPointExtension>
        </extensions>
      </trkpt>
      <trkpt lat="32.00211326591670513153076171875" lon="118.7426833994686603546142578125">
        <ele>5</ele>
        <time>2024-02-19T00:57:06.000Z</time>
        <extensions>
          <ns3:TrackPointExtension/>
        </extensions>
      </trkpt>
      <trkpt lat="32.00211712159216403961181640625" lon="118.74270628206431865692138671875">
        <ele>5.19999980926513671875</ele>
        <time>2024-02-19T00:57:07.000Z</time>
        <extensions>
          <ns3:TrackPointExtension/>
        </extensions>
      </trkpt>
      <trkpt lat="32.00211326591670513153076171875" lon="118.742729164659976959228515625">
        <ele>5.19999980926513671875</ele>
        <time>2024-02-19T00:57:08.000Z</time>
        <extensions>
          <ns3:TrackPointExtension/>
        </extensions>
      </trkpt>
      <trkpt lat="32.00210563838481903076171875" lon="118.7427444197237491607666015625">
        <ele>5.400000095367431640625</ele>
        <time>2024-02-19T00:57:09.000Z</time>
        <extensions>
          <ns3:TrackPointExtension/>
        </extensions>
      </trkpt>
      <trkpt lat="32.00209801085293292999267578125" lon="118.7427596747875213623046875">
        <ele>5.400000095367431640625</ele>
        <time>2024-02-19T00:57:10.000Z</time>
        <extensions>
          <ns3:TrackPointExtension>
            <ns3:hr>120</ns3:hr>
          </ns3:TrackPointExtension>
        </extensions>
      </trkpt>
      <trkpt lat="32.0020903833210468292236328125" lon="118.7427749298512935638427734375">
        <ele>5.599999904632568359375</ele>
        <time>2024-02-19T00:57:11.000Z</time>
        <extensions>
          <ns3:TrackPointExtension/>
        </extensions>
      </trkpt>
      <trkpt lat="32.00208661146461963653564453125" lon="118.742790184915065765380859375">
        <ele>5.599999904632568359375</ele>
        <time>2024-02-19T00:57:12.000Z</time>
        <extensions>
          <ns3:TrackPointExtension/>
        </extensions>
      </trkpt>
      <trkpt lat="32.00208275578916072845458984375" lon="118.74279781244695186614990234375">
        <ele>5.599999904632568359375</ele>
        <time>2024-02-19T00:57:13.000Z</time>
        <extensions>
          <ns3:TrackPointExtension/>
        </extensions>
      </trkpt>
      <trkpt lat="32.00208275578916072845458984375" lon="118.7428054399788379669189453125">
        <ele>5.80000019073486328125</ele>
        <time>2024-02-19T00:57:14.000Z</time>
        <extensions>
          <ns3:TrackPointExtension/>
        </extensions>
      </trkpt>
      <trkpt lat="32.00208275578916072845458984375" lon="118.74281306751072406768798828125">
        <ele>5.80000019073486328125</ele>
        <time>2024-02-19T00:57:15.000Z</time>
        <extensions>
          <ns3:TrackPointExtension>
            <ns3:hr>120</ns3:hr>
          </ns3:TrackPointExtension>
        </extensions>
      </trkpt>
      <trkpt lat="32.00208275578916072845458984375" lon="118.74282069504261016845703125">
        <ele>5.80000019073486328125</ele>
        <time>2024-02-19T00:57:16.000Z</time>
        <extensions>
          <ns3:TrackPointExtension/>
        </extensions>
      </trkpt>
      <trkpt lat="32.00208275578916072845458984375" lon="118.74282832257449626922607421875">
        <ele>5.80000019073486328125</ele>
        <time>2024-02-19T00:57:17.000Z</time>
        <extensions>
          <ns3:TrackPointExtension/>
        </extensions>
      </trkpt>
      <trkpt lat="32.0020789839327335357666015625" lon="118.7428359501063823699951171875">
        <ele>6</ele>
        <time>2024-02-19T00:57:18.000Z</time>
        <extensions>
          <ns3:TrackPointExtension/>
        </extensions>
      </trkpt>
    </trkseg>
  </trk>
</gpx>
