<gpx xmlns:ns3="http://www.garmin.com/xmlschemas/TrackPointExtension/v1" xmlns="http://www.topografix.com/GPX/1/1" xmlns:xsi="http://www.w3.org/2001/XMLSchema-instance" xmlns:ns2="http://www.garmin.com/xmlschemas/GpxExtensions/v3" creator="Garmin Connect" version="1.1" xsi:schemaLocation="http://www.topografix.com/GPX/1/1 http://www.topografix.com/GPX/11.xsd">
  <extensions>
<distance>2690.0</distance>
<average_hr>109.0</average_hr>
<average_speed>1.3887454827052141</average_speed>
<start_time>2021-03-16T03:45:35+00:00</start_time>
<end_time>2021-03-16T04:17:52+00:00</end_time>
<moving_time>1932.0</moving_time>
<elapsed_time>1937.0</elapsed_time>
</extensions>
<metadata>
    <link href="connect.garmin.com">
      <text>Garmin Connect</text>
    </link>
    <time>2021-03-16T03:45:35.000Z</time>
  </metadata>
  <trk>
    <name>步行</name>
    <type>walking</type>
    <trkseg/>
  </trk>
</gpx>
