<gpx xmlns:ns3="http://www.garmin.com/xmlschemas/TrackPointExtension/v1" xmlns="http://www.topografix.com/GPX/1/1" xmlns:xsi="http://www.w3.org/2001/XMLSchema-instance" xmlns:ns2="http://www.garmin.com/xmlschemas/GpxExtensions/v3" creator="Garmin Connect" version="1.1" xsi:schemaLocation="http://www.topografix.com/GPX/1/1 http://www.topografix.com/GPX/11.xsd">
  <extensions>
<distance>540.0</distance>
<average_hr>96.0</average_hr>
<average_speed>0.804769001490313</average_speed>
<start_time>2020-10-01T09:33:06+00:00</start_time>
<end_time>2020-10-01T09:44:17+00:00</end_time>
<moving_time>90.0</moving_time>
<elapsed_time>671.0</elapsed_time>
</extensions>
<metadata>
    <link href="connect.garmin.com">
      <text>Garmin Connect</text>
    </link>
    <time>2020-10-01T09:33:06.000Z</time>
  </metadata>
  <trk>
    <name>六安市 步行</name>
    <type>walking</type>
    <trkseg>
      <trkpt lat="31.52742379344999790191650390625" lon="116.58738705329596996307373046875">
        <ele>39.59999847412109375</ele>
        <time>2020-10-01T09:38:30.000Z</time>
        <extensions>
          <ns3:TrackPointExtension/>
        </extensions>
      </trkpt>
      <trkpt lat="31.52742379344999790191650390625" lon="116.58738705329596996307373046875">
        <ele>39.59999847412109375</ele>
        <time>2020-10-01T09:38:31.000Z</time>
        <extensions>
          <ns3:TrackPointExtension>
            <ns3:hr>104</ns3:hr>
          </ns3:TrackPointExtension>
        </extensions>
      </trkpt>
      <trkpt lat="31.52742194943130016326904296875" lon="116.5873794257640838623046875">
        <ele>39.40000152587890625</ele>
        <time>2020-10-01T09:38:32.000Z</time>
        <extensions>
          <ns3:TrackPointExtension/>
        </extensions>
      </trkpt>
      <trkpt lat="31.52741809375584125518798828125" lon="116.5873794257640838623046875">
        <ele>39.40000152587890625</ele>
        <time>2020-10-01T09:38:33.000Z</time>
        <extensions>
          <ns3:TrackPointExtension/>
        </extensions>
      </trkpt>
      <trkpt lat="31.5274143218994140625" lon="116.58737179823219776153564453125">
        <ele>39.40000152587890625</ele>
        <time>2020-10-01T09:38:34.000Z</time>
        <extensions>
          <ns3:TrackPointExtension/>
        </extensions>
      </trkpt>
      <trkpt lat="31.5274047665297985076904296875" lon="116.58737179823219776153564453125">
        <ele>39.40000152587890625</ele>
        <time>2020-10-01T09:38:35.000Z</time>
        <extensions>
          <ns3:TrackPointExtension/>
        </extensions>
      </trkpt>
      <trkpt lat="31.52739898301661014556884765625" lon="116.5873641707003116607666015625">
        <ele>39.40000152587890625</ele>
        <time>2020-10-01T09:38:36.000Z</time>
        <extensions>
          <ns3:TrackPointExtension>
            <ns3:hr>106</ns3:hr>
          </ns3:TrackPointExtension>
        </extensions>
      </trkpt>
      <trkpt lat="31.52739328332245349884033203125" lon="116.5873641707003116607666015625">
        <ele>39.40000152587890625</ele>
        <time>2020-10-01T09:38:37.000Z</time>
        <extensions>
          <ns3:TrackPointExtension/>
        </extensions>
      </trkpt>
      <trkpt lat="31.5273856557905673980712890625" lon="116.58735654316842555999755859375">
        <ele>39.40000152587890625</ele>
        <time>2020-10-01T09:38:38.000Z</time>
        <extensions>
          <ns3:TrackPointExtension/>
        </extensions>
      </trkpt>
      <trkpt lat="31.5273799560964107513427734375" lon="116.58735654316842555999755859375">
        <ele>39.40000152587890625</ele>
        <time>2020-10-01T09:38:39.000Z</time>
        <extensions>
          <ns3:TrackPointExtension/>
        </extensions>
      </trkpt>
      <trkpt lat="31.52737232856452465057373046875" lon="116.587348915636539459228515625">
        <ele>39.40000152587890625</ele>
        <time>2020-10-01T09:38:40.000Z</time>
        <extensions>
          <ns3:TrackPointExtension/>
        </extensions>
      </trkpt>
      <trkpt lat="31.52736662887036800384521484375" lon="116.58734128810465335845947265625">
        <ele>39.40000152587890625</ele>
        <time>2020-10-01T09:38:41.000Z</time>
        <extensions>
          <ns3:TrackPointExtension>
            <ns3:hr>105</ns3:hr>
          </ns3:TrackPointExtension>
        </extensions>
      </trkpt>
      <trkpt lat="31.5273608453571796417236328125" lon="116.5873336605727672576904296875">
        <ele>39.40000152587890625</ele>
        <time>2020-10-01T09:38:42.000Z</time>
        <extensions>
          <ns3:TrackPointExtension/>
        </extensions>
      </trkpt>
      <trkpt lat="31.52735321782529354095458984375" lon="116.5873336605727672576904296875">
        <ele>39.40000152587890625</ele>
        <time>2020-10-01T09:38:43.000Z</time>
        <extensions>
          <ns3:TrackPointExtension/>
        </extensions>
      </trkpt>
      <trkpt lat="31.52734751813113689422607421875" lon="116.58732603304088115692138671875">
        <ele>39.200000762939453125</ele>
        <time>2020-10-01T09:38:44.000Z</time>
        <extensions>
          <ns3:TrackPointExtension/>
        </extensions>
      </trkpt>
      <trkpt lat="31.52734181843698024749755859375" lon="116.58731840550899505615234375">
        <ele>39.200000762939453125</ele>
        <time>2020-10-01T09:38:45.000Z</time>
        <extensions>
          <ns3:TrackPointExtension/>
        </extensions>
      </trkpt>
      <trkpt lat="31.52733611874282360076904296875" lon="116.58731840550899505615234375">
        <ele>39.200000762939453125</ele>
        <time>2020-10-01T09:38:46.000Z</time>
        <extensions>
          <ns3:TrackPointExtension>
            <ns3:hr>103</ns3:hr>
          </ns3:TrackPointExtension>
        </extensions>
      </trkpt>
      <trkpt lat="31.5273303352296352386474609375" lon="116.58731077797710895538330078125">
        <ele>39.200000762939453125</ele>
        <time>2020-10-01T09:38:47.000Z</time>
        <extensions>
          <ns3:TrackPointExtension/>
        </extensions>
      </trkpt>
      <trkpt lat="31.5273246355354785919189453125" lon="116.58731077797710895538330078125">
        <ele>39.200000762939453125</ele>
        <time>2020-10-01T09:38:48.000Z</time>
        <extensions>
          <ns3:TrackPointExtension/>
        </extensions>
      </trkpt>
      <trkpt lat="31.5273189358413219451904296875" lon="116.5873031504452228546142578125">
        <ele>39.200000762939453125</ele>
        <time>2020-10-01T09:38:49.000Z</time>
        <extensions>
          <ns3:TrackPointExtension/>
        </extensions>
      </trkpt>
      <trkpt lat="31.52731315232813358306884765625" lon="116.5873031504452228546142578125">
        <ele>39.200000762939453125</ele>
        <time>2020-10-01T09:38:50.000Z</time>
        <extensions>
          <ns3:TrackPointExtension/>
        </extensions>
      </trkpt>
      <trkpt lat="31.52730745263397693634033203125" lon="116.5873031504452228546142578125">
        <ele>39.200000762939453125</ele>
        <time>2020-10-01T09:38:51.000Z</time>
        <extensions>
          <ns3:TrackPointExtension>
            <ns3:hr>101</ns3:hr>
          </ns3:TrackPointExtension>
        </extensions>
      </trkpt>
      <trkpt lat="31.52730368077754974365234375" lon="116.58729552291333675384521484375">
        <ele>39.200000762939453125</ele>
        <time>2020-10-01T09:38:52.000Z</time>
        <extensions>
          <ns3:TrackPointExtension/>
        </extensions>
      </trkpt>
      <trkpt lat="31.52729789726436138153076171875" lon="116.587287895381450653076171875">
        <ele>39.200000762939453125</ele>
        <time>2020-10-01T09:38:53.000Z</time>
        <extensions>
          <ns3:TrackPointExtension/>
        </extensions>
      </trkpt>
      <trkpt lat="31.5272941254079341888427734375" lon="116.587287895381450653076171875">
        <ele>39.200000762939453125</ele>
        <time>2020-10-01T09:38:54.000Z</time>
        <extensions>
          <ns3:TrackPointExtension/>
        </extensions>
      </trkpt>
      <trkpt lat="31.52729026973247528076171875" lon="116.58728026784956455230712890625">
        <ele>39.200000762939453125</ele>
        <time>2020-10-01T09:38:55.000Z</time>
        <extensions>
          <ns3:TrackPointExtension/>
        </extensions>
      </trkpt>
      <trkpt lat="31.52728649787604808807373046875" lon="116.5872726403176784515380859375">
        <ele>39</ele>
        <time>2020-10-01T09:38:56.000Z</time>
        <extensions>
          <ns3:TrackPointExtension>
            <ns3:hr>101</ns3:hr>
          </ns3:TrackPointExtension>
        </extensions>
      </trkpt>
      <trkpt lat="31.527284570038318634033203125" lon="116.58725738525390625">
        <ele>39</ele>
        <time>2020-10-01T09:38:57.000Z</time>
        <extensions>
          <ns3:TrackPointExtension/>
        </extensions>
      </trkpt>
      <trkpt lat="31.52728079818189144134521484375" lon="116.587249673902988433837890625">
        <ele>39</ele>
        <time>2020-10-01T09:38:58.000Z</time>
        <extensions>
          <ns3:TrackPointExtension/>
        </extensions>
      </trkpt>
      <trkpt lat="31.52728079818189144134521484375" lon="116.5872344188392162322998046875">
        <ele>39</ele>
        <time>2020-10-01T09:38:59.000Z</time>
        <extensions>
          <ns3:TrackPointExtension/>
        </extensions>
      </trkpt>
      <trkpt lat="31.52728079818189144134521484375" lon="116.58722679130733013153076171875">
        <ele>38.799999237060546875</ele>
        <time>2020-10-01T09:39:00.000Z</time>
        <extensions>
          <ns3:TrackPointExtension/>
        </extensions>
      </trkpt>
      <trkpt lat="31.52728264220058917999267578125" lon="116.58721153624355792999267578125">
        <ele>38.799999237060546875</ele>
        <time>2020-10-01T09:39:01.000Z</time>
        <extensions>
          <ns3:TrackPointExtension>
            <ns3:hr>103</ns3:hr>
          </ns3:TrackPointExtension>
        </extensions>
      </trkpt>
      <trkpt lat="31.527284570038318634033203125" lon="116.58719628117978572845458984375">
        <ele>38.59999847412109375</ele>
        <time>2020-10-01T09:39:02.000Z</time>
        <extensions>
          <ns3:TrackPointExtension/>
        </extensions>
      </trkpt>
      <trkpt lat="31.52728649787604808807373046875" lon="116.587188653647899627685546875">
        <ele>38.59999847412109375</ele>
        <time>2020-10-01T09:39:03.000Z</time>
        <extensions>
          <ns3:TrackPointExtension/>
        </extensions>
      </trkpt>
      <trkpt lat="31.5272884257137775421142578125" lon="116.5871733985841274261474609375">
        <ele>38.40000152587890625</ele>
        <time>2020-10-01T09:39:04.000Z</time>
        <extensions>
          <ns3:TrackPointExtension/>
        </extensions>
      </trkpt>
      <trkpt lat="31.5272884257137775421142578125" lon="116.587158143520355224609375">
        <ele>38.40000152587890625</ele>
        <time>2020-10-01T09:39:05.000Z</time>
        <extensions>
          <ns3:TrackPointExtension/>
        </extensions>
      </trkpt>
      <trkpt lat="31.5272884257137775421142578125" lon="116.58715051598846912384033203125">
        <ele>38.40000152587890625</ele>
        <time>2020-10-01T09:39:06.000Z</time>
        <extensions>
          <ns3:TrackPointExtension>
            <ns3:hr>105</ns3:hr>
          </ns3:TrackPointExtension>
        </extensions>
      </trkpt>
      <trkpt lat="31.5272884257137775421142578125" lon="116.58713526092469692230224609375">
        <ele>38.200000762939453125</ele>
        <time>2020-10-01T09:39:07.000Z</time>
        <extensions>
          <ns3:TrackPointExtension/>
        </extensions>
      </trkpt>
      <trkpt lat="31.52728649787604808807373046875" lon="116.58712000586092472076416015625">
        <ele>38</ele>
        <time>2020-10-01T09:39:08.000Z</time>
        <extensions>
          <ns3:TrackPointExtension/>
        </extensions>
      </trkpt>
      <trkpt lat="31.52728264220058917999267578125" lon="116.5871123783290386199951171875">
        <ele>38</ele>
        <time>2020-10-01T09:39:09.000Z</time>
        <extensions>
          <ns3:TrackPointExtension/>
        </extensions>
      </trkpt>
      <trkpt lat="31.5272788703441619873046875" lon="116.58709712326526641845703125">
        <ele>38</ele>
        <time>2020-10-01T09:39:10.000Z</time>
        <extensions>
          <ns3:TrackPointExtension/>
        </extensions>
      </trkpt>
      <trkpt lat="31.52727124281227588653564453125" lon="116.58708949573338031768798828125">
        <ele>37.799999237060546875</ele>
        <time>2020-10-01T09:39:11.000Z</time>
        <extensions>
          <ns3:TrackPointExtension>
            <ns3:hr>105</ns3:hr>
          </ns3:TrackPointExtension>
        </extensions>
      </trkpt>
      <trkpt lat="31.52726168744266033172607421875" lon="116.58707424066960811614990234375">
        <ele>37.799999237060546875</ele>
        <time>2020-10-01T09:39:12.000Z</time>
        <extensions>
          <ns3:TrackPointExtension/>
        </extensions>
      </trkpt>
      <trkpt lat="31.52725028805434703826904296875" lon="116.587066613137722015380859375">
        <ele>37.799999237060546875</ele>
        <time>2020-10-01T09:39:13.000Z</time>
        <extensions>
          <ns3:TrackPointExtension/>
        </extensions>
      </trkpt>
      <trkpt lat="31.5272388048470020294189453125" lon="116.58705898560583591461181640625">
        <ele>37.59999847412109375</ele>
        <time>2020-10-01T09:39:14.000Z</time>
        <extensions>
          <ns3:TrackPointExtension/>
        </extensions>
      </trkpt>
      <trkpt lat="31.52722547762095928192138671875" lon="116.58704373054206371307373046875">
        <ele>37.59999847412109375</ele>
        <time>2020-10-01T09:39:15.000Z</time>
        <extensions>
          <ns3:TrackPointExtension/>
        </extensions>
      </trkpt>
      <trkpt lat="31.52721022255718708038330078125" lon="116.5870361030101776123046875">
        <ele>37.40000152587890625</ele>
        <time>2020-10-01T09:39:16.000Z</time>
        <extensions>
          <ns3:TrackPointExtension>
            <ns3:hr>104</ns3:hr>
          </ns3:TrackPointExtension>
        </extensions>
      </trkpt>
      <trkpt lat="31.52719496749341487884521484375" lon="116.58702847547829151153564453125">
        <ele>37.40000152587890625</ele>
        <time>2020-10-01T09:39:17.000Z</time>
        <extensions>
          <ns3:TrackPointExtension/>
        </extensions>
      </trkpt>
      <trkpt lat="31.52717971242964267730712890625" lon="116.5870208479464054107666015625">
        <ele>37.40000152587890625</ele>
        <time>2020-10-01T09:39:18.000Z</time>
        <extensions>
          <ns3:TrackPointExtension/>
        </extensions>
      </trkpt>
      <trkpt lat="31.52716445736587047576904296875" lon="116.58701322041451930999755859375">
        <ele>37.40000152587890625</ele>
        <time>2020-10-01T09:39:19.000Z</time>
        <extensions>
          <ns3:TrackPointExtension/>
        </extensions>
      </trkpt>
      <trkpt lat="31.52715104632079601287841796875" lon="116.587005592882633209228515625">
        <ele>37.200000762939453125</ele>
        <time>2020-10-01T09:39:20.000Z</time>
        <extensions>
          <ns3:TrackPointExtension/>
        </extensions>
      </trkpt>
      <trkpt lat="31.52713964693248271942138671875" lon="116.5869903378188610076904296875">
        <ele>37.200000762939453125</ele>
        <time>2020-10-01T09:39:21.000Z</time>
        <extensions>
          <ns3:TrackPointExtension>
            <ns3:hr>105</ns3:hr>
          </ns3:TrackPointExtension>
        </extensions>
      </trkpt>
      <trkpt lat="31.5271281637251377105712890625" lon="116.58698271028697490692138671875">
        <ele>37.200000762939453125</ele>
        <time>2020-10-01T09:39:22.000Z</time>
        <extensions>
          <ns3:TrackPointExtension/>
        </extensions>
      </trkpt>
      <trkpt lat="31.52711860835552215576171875" lon="116.58697508275508880615234375">
        <ele>37</ele>
        <time>2020-10-01T09:39:23.000Z</time>
        <extensions>
          <ns3:TrackPointExtension/>
        </extensions>
      </trkpt>
      <trkpt lat="31.52711098082363605499267578125" lon="116.58696745522320270538330078125">
        <ele>37</ele>
        <time>2020-10-01T09:39:24.000Z</time>
        <extensions>
          <ns3:TrackPointExtension/>
        </extensions>
      </trkpt>
      <trkpt lat="31.5271033532917499542236328125" lon="116.58695220015943050384521484375">
        <ele>37</ele>
        <time>2020-10-01T09:39:25.000Z</time>
        <extensions>
          <ns3:TrackPointExtension/>
        </extensions>
      </trkpt>
      <trkpt lat="31.5270976535975933074951171875" lon="116.586944572627544403076171875">
        <ele>37</ele>
        <time>2020-10-01T09:39:26.000Z</time>
        <extensions>
          <ns3:TrackPointExtension>
            <ns3:hr>105</ns3:hr>
          </ns3:TrackPointExtension>
        </extensions>
      </trkpt>
      <trkpt lat="31.52709002606570720672607421875" lon="116.5869293175637722015380859375">
        <ele>36.799999237060546875</ele>
        <time>2020-10-01T09:39:27.000Z</time>
        <extensions>
          <ns3:TrackPointExtension/>
        </extensions>
      </trkpt>
      <trkpt lat="31.5270862542092800140380859375" lon="116.58692169003188610076904296875">
        <ele>36.799999237060546875</ele>
        <time>2020-10-01T09:39:28.000Z</time>
        <extensions>
          <ns3:TrackPointExtension/>
        </extensions>
      </trkpt>
      <trkpt lat="31.52708047069609165191650390625" lon="116.5869140625">
        <ele>36.799999237060546875</ele>
        <time>2020-10-01T09:39:29.000Z</time>
        <extensions>
          <ns3:TrackPointExtension/>
        </extensions>
      </trkpt>
      <trkpt lat="31.52707477100193500518798828125" lon="116.586906351149082183837890625">
        <ele>36.799999237060546875</ele>
        <time>2020-10-01T09:39:30.000Z</time>
        <extensions>
          <ns3:TrackPointExtension/>
        </extensions>
      </trkpt>
      <trkpt lat="31.52706907130777835845947265625" lon="116.5868910960853099822998046875">
        <ele>36.799999237060546875</ele>
        <time>2020-10-01T09:39:31.000Z</time>
        <extensions>
          <ns3:TrackPointExtension>
            <ns3:hr>102</ns3:hr>
          </ns3:TrackPointExtension>
        </extensions>
      </trkpt>
      <trkpt lat="31.527063287794589996337890625" lon="116.58688346855342388153076171875">
        <ele>36.59999847412109375</ele>
        <time>2020-10-01T09:39:32.000Z</time>
        <extensions>
          <ns3:TrackPointExtension/>
        </extensions>
      </trkpt>
      <trkpt lat="31.52705566026270389556884765625" lon="116.58687584102153778076171875">
        <ele>36.59999847412109375</ele>
        <time>2020-10-01T09:39:33.000Z</time>
        <extensions>
          <ns3:TrackPointExtension/>
        </extensions>
      </trkpt>
      <trkpt lat="31.5270480327308177947998046875" lon="116.58686821348965167999267578125">
        <ele>36.59999847412109375</ele>
        <time>2020-10-01T09:39:34.000Z</time>
        <extensions>
          <ns3:TrackPointExtension/>
        </extensions>
      </trkpt>
      <trkpt lat="31.52704040519893169403076171875" lon="116.5868605859577655792236328125">
        <ele>36.59999847412109375</ele>
        <time>2020-10-01T09:39:35.000Z</time>
        <extensions>
          <ns3:TrackPointExtension/>
        </extensions>
      </trkpt>
      <trkpt lat="31.52703277766704559326171875" lon="116.58685295842587947845458984375">
        <ele>36.59999847412109375</ele>
        <time>2020-10-01T09:39:36.000Z</time>
        <extensions>
          <ns3:TrackPointExtension>
            <ns3:hr>102</ns3:hr>
          </ns3:TrackPointExtension>
        </extensions>
      </trkpt>
      <trkpt lat="31.527027077972888946533203125" lon="116.586845330893993377685546875">
        <ele>36.59999847412109375</ele>
        <time>2020-10-01T09:39:37.000Z</time>
        <extensions>
          <ns3:TrackPointExtension/>
        </extensions>
      </trkpt>
      <trkpt lat="31.5270213782787322998046875" lon="116.58683770336210727691650390625">
        <ele>36.59999847412109375</ele>
        <time>2020-10-01T09:39:38.000Z</time>
        <extensions>
          <ns3:TrackPointExtension/>
        </extensions>
      </trkpt>
      <trkpt lat="31.527015678584575653076171875" lon="116.58683770336210727691650390625">
        <ele>36.59999847412109375</ele>
        <time>2020-10-01T09:39:39.000Z</time>
        <extensions>
          <ns3:TrackPointExtension/>
        </extensions>
      </trkpt>
      <trkpt lat="31.5270118229091167449951171875" lon="116.5868300758302211761474609375">
        <ele>36.59999847412109375</ele>
        <time>2020-10-01T09:39:40.000Z</time>
        <extensions>
          <ns3:TrackPointExtension/>
        </extensions>
      </trkpt>
      <trkpt lat="31.52700805105268955230712890625" lon="116.58682244829833507537841796875">
        <ele>36.40000152587890625</ele>
        <time>2020-10-01T09:39:41.000Z</time>
        <extensions>
          <ns3:TrackPointExtension>
            <ns3:hr>103</ns3:hr>
          </ns3:TrackPointExtension>
        </extensions>
      </trkpt>
      <trkpt lat="31.52700419537723064422607421875" lon="116.586814820766448974609375">
        <ele>36.40000152587890625</ele>
        <time>2020-10-01T09:39:42.000Z</time>
        <extensions>
          <ns3:TrackPointExtension/>
        </extensions>
      </trkpt>
      <trkpt lat="31.5270004235208034515380859375" lon="116.586814820766448974609375">
        <ele>36.40000152587890625</ele>
        <time>2020-10-01T09:39:43.000Z</time>
        <extensions>
          <ns3:TrackPointExtension/>
        </extensions>
      </trkpt>
      <trkpt lat="31.52699656784534454345703125" lon="116.58680719323456287384033203125">
        <ele>36.40000152587890625</ele>
        <time>2020-10-01T09:39:44.000Z</time>
        <extensions>
          <ns3:TrackPointExtension/>
        </extensions>
      </trkpt>
      <trkpt lat="31.52699279598891735076904296875" lon="116.58680719323456287384033203125">
        <ele>36.40000152587890625</ele>
        <time>2020-10-01T09:39:45.000Z</time>
        <extensions>
          <ns3:TrackPointExtension/>
        </extensions>
      </trkpt>
      <trkpt lat="31.52698894031345844268798828125" lon="116.58680719323456287384033203125">
        <ele>36.40000152587890625</ele>
        <time>2020-10-01T09:39:46.000Z</time>
        <extensions>
          <ns3:TrackPointExtension>
            <ns3:hr>103</ns3:hr>
          </ns3:TrackPointExtension>
        </extensions>
      </trkpt>
      <trkpt lat="31.52698516845703125" lon="116.58680719323456287384033203125">
        <ele>36.40000152587890625</ele>
        <time>2020-10-01T09:39:47.000Z</time>
        <extensions>
          <ns3:TrackPointExtension/>
        </extensions>
      </trkpt>
      <trkpt lat="31.52698324061930179595947265625" lon="116.5867995657026767730712890625">
        <ele>36.40000152587890625</ele>
        <time>2020-10-01T09:39:48.000Z</time>
        <extensions>
          <ns3:TrackPointExtension/>
        </extensions>
      </trkpt>
      <trkpt lat="31.52697938494384288787841796875" lon="116.5867995657026767730712890625">
        <ele>36.40000152587890625</ele>
        <time>2020-10-01T09:39:49.000Z</time>
        <extensions>
          <ns3:TrackPointExtension/>
        </extensions>
      </trkpt>
      <trkpt lat="31.526977457106113433837890625" lon="116.58680719323456287384033203125">
        <ele>36.40000152587890625</ele>
        <time>2020-10-01T09:39:50.000Z</time>
        <extensions>
          <ns3:TrackPointExtension/>
        </extensions>
      </trkpt>
      <trkpt lat="31.526977457106113433837890625" lon="116.58680719323456287384033203125">
        <ele>36.40000152587890625</ele>
        <time>2020-10-01T09:39:51.000Z</time>
        <extensions>
          <ns3:TrackPointExtension>
            <ns3:hr>103</ns3:hr>
          </ns3:TrackPointExtension>
        </extensions>
      </trkpt>
      <trkpt lat="31.526977457106113433837890625" lon="116.58680719323456287384033203125">
        <ele>36.40000152587890625</ele>
        <time>2020-10-01T09:39:52.000Z</time>
        <extensions>
          <ns3:TrackPointExtension/>
        </extensions>
      </trkpt>
      <trkpt lat="31.526977457106113433837890625" lon="116.58680719323456287384033203125">
        <ele>36.40000152587890625</ele>
        <time>2020-10-01T09:39:53.000Z</time>
        <extensions>
          <ns3:TrackPointExtension/>
        </extensions>
      </trkpt>
      <trkpt lat="31.52697938494384288787841796875" lon="116.58680719323456287384033203125">
        <ele>36.40000152587890625</ele>
        <time>2020-10-01T09:39:54.000Z</time>
        <extensions>
          <ns3:TrackPointExtension/>
        </extensions>
      </trkpt>
      <trkpt lat="31.5269813127815723419189453125" lon="116.58680719323456287384033203125">
        <ele>36.40000152587890625</ele>
        <time>2020-10-01T09:39:55.000Z</time>
        <extensions>
          <ns3:TrackPointExtension/>
        </extensions>
      </trkpt>
      <trkpt lat="31.5269813127815723419189453125" lon="116.58680719323456287384033203125">
        <ele>36.40000152587890625</ele>
        <time>2020-10-01T09:39:56.000Z</time>
        <extensions>
          <ns3:TrackPointExtension>
            <ns3:hr>104</ns3:hr>
          </ns3:TrackPointExtension>
        </extensions>
      </trkpt>
      <trkpt lat="31.52698324061930179595947265625" lon="116.58680719323456287384033203125">
        <ele>36.40000152587890625</ele>
        <time>2020-10-01T09:39:57.000Z</time>
        <extensions>
          <ns3:TrackPointExtension/>
        </extensions>
      </trkpt>
      <trkpt lat="31.52698516845703125" lon="116.58680719323456287384033203125">
        <ele>36.40000152587890625</ele>
        <time>2020-10-01T09:39:58.000Z</time>
        <extensions>
          <ns3:TrackPointExtension/>
        </extensions>
      </trkpt>
      <trkpt lat="31.5269870124757289886474609375" lon="116.5867995657026767730712890625">
        <ele>36.40000152587890625</ele>
        <time>2020-10-01T09:39:59.000Z</time>
        <extensions>
          <ns3:TrackPointExtension/>
        </extensions>
      </trkpt>
      <trkpt lat="31.52698894031345844268798828125" lon="116.5867995657026767730712890625">
        <ele>36.40000152587890625</ele>
        <time>2020-10-01T09:40:00.000Z</time>
        <extensions>
          <ns3:TrackPointExtension/>
        </extensions>
      </trkpt>
      <trkpt lat="31.52699279598891735076904296875" lon="116.5867995657026767730712890625">
        <ele>36.40000152587890625</ele>
        <time>2020-10-01T09:40:01.000Z</time>
        <extensions>
          <ns3:TrackPointExtension>
            <ns3:hr>104</ns3:hr>
          </ns3:TrackPointExtension>
        </extensions>
      </trkpt>
      <trkpt lat="31.52699464000761508941650390625" lon="116.58679193817079067230224609375">
        <ele>36.40000152587890625</ele>
        <time>2020-10-01T09:40:02.000Z</time>
        <extensions>
          <ns3:TrackPointExtension/>
        </extensions>
      </trkpt>
      <trkpt lat="31.52699656784534454345703125" lon="116.58679193817079067230224609375">
        <ele>36.40000152587890625</ele>
        <time>2020-10-01T09:40:03.000Z</time>
        <extensions>
          <ns3:TrackPointExtension/>
        </extensions>
      </trkpt>
      <trkpt lat="31.5270004235208034515380859375" lon="116.58679193817079067230224609375">
        <ele>36.40000152587890625</ele>
        <time>2020-10-01T09:40:04.000Z</time>
        <extensions>
          <ns3:TrackPointExtension/>
        </extensions>
      </trkpt>
      <trkpt lat="31.52700419537723064422607421875" lon="116.586784310638904571533203125">
        <ele>36.40000152587890625</ele>
        <time>2020-10-01T09:40:05.000Z</time>
        <extensions>
          <ns3:TrackPointExtension/>
        </extensions>
      </trkpt>
      <trkpt lat="31.52700805105268955230712890625" lon="116.586784310638904571533203125">
        <ele>36.40000152587890625</ele>
        <time>2020-10-01T09:40:06.000Z</time>
        <extensions>
          <ns3:TrackPointExtension>
            <ns3:hr>106</ns3:hr>
          </ns3:TrackPointExtension>
        </extensions>
      </trkpt>
      <trkpt lat="31.5270118229091167449951171875" lon="116.586784310638904571533203125">
        <ele>36.40000152587890625</ele>
        <time>2020-10-01T09:40:07.000Z</time>
        <extensions>
          <ns3:TrackPointExtension/>
        </extensions>
      </trkpt>
      <trkpt lat="31.5270175226032733917236328125" lon="116.586784310638904571533203125">
        <ele>36.40000152587890625</ele>
        <time>2020-10-01T09:40:08.000Z</time>
        <extensions>
          <ns3:TrackPointExtension/>
        </extensions>
      </trkpt>
      <trkpt lat="31.52702330611646175384521484375" lon="116.586784310638904571533203125">
        <ele>36.40000152587890625</ele>
        <time>2020-10-01T09:40:09.000Z</time>
        <extensions>
          <ns3:TrackPointExtension/>
        </extensions>
      </trkpt>
      <trkpt lat="31.52702900581061840057373046875" lon="116.586784310638904571533203125">
        <ele>36.40000152587890625</ele>
        <time>2020-10-01T09:40:10.000Z</time>
        <extensions>
          <ns3:TrackPointExtension/>
        </extensions>
      </trkpt>
      <trkpt lat="31.52703470550477504730224609375" lon="116.586784310638904571533203125">
        <ele>36.40000152587890625</ele>
        <time>2020-10-01T09:40:11.000Z</time>
        <extensions>
          <ns3:TrackPointExtension>
            <ns3:hr>104</ns3:hr>
          </ns3:TrackPointExtension>
        </extensions>
      </trkpt>
      <trkpt lat="31.5270423330366611480712890625" lon="116.586784310638904571533203125">
        <ele>36.40000152587890625</ele>
        <time>2020-10-01T09:40:12.000Z</time>
        <extensions>
          <ns3:TrackPointExtension/>
        </extensions>
      </trkpt>
    </trkseg>
  </trk>
</gpx>
