<gpx xmlns:ns3="http://www.garmin.com/xmlschemas/TrackPointExtension/v1" xmlns="http://www.topografix.com/GPX/1/1" xmlns:xsi="http://www.w3.org/2001/XMLSchema-instance" xmlns:ns2="http://www.garmin.com/xmlschemas/GpxExtensions/v3" creator="Garmin Connect" version="1.1" xsi:schemaLocation="http://www.topografix.com/GPX/1/1 http://www.topografix.com/GPX/11.xsd">
  <extensions>
<distance>1050.0</distance>
<average_hr>100.0</average_hr>
<average_speed>1.2352941176470589</average_speed>
<start_time>2022-03-16T04:02:12+00:00</start_time>
<end_time>2022-03-16T04:16:22+00:00</end_time>
<moving_time>223.0</moving_time>
<elapsed_time>851.0</elapsed_time>
</extensions>
<metadata>
    <link href="connect.garmin.com">
      <text>Garmin Connect</text>
    </link>
    <time>2022-03-16T04:02:12.000Z</time>
  </metadata>
  <trk>
    <name>南京市 步行</name>
    <type>walking</type>
    <trkseg>
      <trkpt lat="32.05369180999696254730224609375" lon="118.73124687932431697845458984375">
        <ele>8.80000019073486328125</ele>
        <time>2022-03-16T04:07:53.000Z</time>
        <extensions>
          <ns3:TrackPointExtension/>
        </extensions>
      </trkpt>
      <trkpt lat="32.0536880381405353546142578125" lon="118.73124687932431697845458984375">
        <ele>8.80000019073486328125</ele>
        <time>2022-03-16T04:07:54.000Z</time>
        <extensions>
          <ns3:TrackPointExtension/>
        </extensions>
      </trkpt>
      <trkpt lat="32.05368041060864925384521484375" lon="118.731239251792430877685546875">
        <ele>8.6000003814697265625</ele>
        <time>2022-03-16T04:07:55.000Z</time>
        <extensions>
          <ns3:TrackPointExtension/>
        </extensions>
      </trkpt>
      <trkpt lat="32.053672783076763153076171875" lon="118.731239251792430877685546875">
        <ele>8.6000003814697265625</ele>
        <time>2022-03-16T04:07:56.000Z</time>
        <extensions>
          <ns3:TrackPointExtension/>
        </extensions>
      </trkpt>
      <trkpt lat="32.05366515554487705230712890625" lon="118.73123162426054477691650390625">
        <ele>8.6000003814697265625</ele>
        <time>2022-03-16T04:07:57.000Z</time>
        <extensions>
          <ns3:TrackPointExtension>
            <ns3:hr>100</ns3:hr>
          </ns3:TrackPointExtension>
        </extensions>
      </trkpt>
      <trkpt lat="32.0536575280129909515380859375" lon="118.73123162426054477691650390625">
        <ele>8.6000003814697265625</ele>
        <time>2022-03-16T04:07:58.000Z</time>
        <extensions>
          <ns3:TrackPointExtension/>
        </extensions>
      </trkpt>
      <trkpt lat="32.05364990048110485076904296875" lon="118.7312239967286586761474609375">
        <ele>8.6000003814697265625</ele>
        <time>2022-03-16T04:07:59.000Z</time>
        <extensions>
          <ns3:TrackPointExtension/>
        </extensions>
      </trkpt>
      <trkpt lat="32.054309807717800140380859375" lon="118.73274992220103740692138671875">
        <ele>9</ele>
        <time>2022-03-16T04:08:46.000Z</time>
        <extensions>
          <ns3:TrackPointExtension/>
        </extensions>
      </trkpt>
      <trkpt lat="32.05431357957422733306884765625" lon="118.732772804796695709228515625">
        <ele>9</ele>
        <time>2022-03-16T04:08:47.000Z</time>
        <extensions>
          <ns3:TrackPointExtension>
            <ns3:hr>97</ns3:hr>
          </ns3:TrackPointExtension>
        </extensions>
      </trkpt>
      <trkpt lat="32.0543250627815723419189453125" lon="118.73279568739235401153564453125">
        <ele>9</ele>
        <time>2022-03-16T04:08:48.000Z</time>
        <extensions>
          <ns3:TrackPointExtension/>
        </extensions>
      </trkpt>
      <trkpt lat="32.05432891845703125" lon="118.7328185699880123138427734375">
        <ele>9</ele>
        <time>2022-03-16T04:08:49.000Z</time>
        <extensions>
          <ns3:TrackPointExtension/>
        </extensions>
      </trkpt>
      <trkpt lat="32.054321207106113433837890625" lon="118.73284145258367061614990234375">
        <ele>9</ele>
        <time>2022-03-16T04:08:50.000Z</time>
        <extensions>
          <ns3:TrackPointExtension/>
        </extensions>
      </trkpt>
      <trkpt lat="32.05430218018591403961181640625" lon="118.73286433517932891845703125">
        <ele>8.80000019073486328125</ele>
        <time>2022-03-16T04:08:51.000Z</time>
        <extensions>
          <ns3:TrackPointExtension/>
        </extensions>
      </trkpt>
      <trkpt lat="32.0542945526540279388427734375" lon="118.732894845306873321533203125">
        <ele>8.6000003814697265625</ele>
        <time>2022-03-16T04:08:52.000Z</time>
        <extensions>
          <ns3:TrackPointExtension>
            <ns3:hr>97</ns3:hr>
          </ns3:TrackPointExtension>
        </extensions>
      </trkpt>
      <trkpt lat="32.05429069697856903076171875" lon="118.73291772790253162384033203125">
        <ele>8.3999996185302734375</ele>
        <time>2022-03-16T04:08:53.000Z</time>
        <extensions>
          <ns3:TrackPointExtension/>
        </extensions>
      </trkpt>
      <trkpt lat="32.05428306944668292999267578125" lon="118.7329406104981899261474609375">
        <ele>8.19999980926513671875</ele>
        <time>2022-03-16T04:08:54.000Z</time>
        <extensions>
          <ns3:TrackPointExtension/>
        </extensions>
      </trkpt>
      <trkpt lat="32.05427167005836963653564453125" lon="118.7329711206257343292236328125">
        <ele>8</ele>
        <time>2022-03-16T04:08:55.000Z</time>
        <extensions>
          <ns3:TrackPointExtension/>
        </extensions>
      </trkpt>
      <trkpt lat="32.054260186851024627685546875" lon="118.73299400322139263153076171875">
        <ele>8</ele>
        <time>2022-03-16T04:08:56.000Z</time>
        <extensions>
          <ns3:TrackPointExtension/>
        </extensions>
      </trkpt>
      <trkpt lat="32.0542449317872524261474609375" lon="118.73302459716796875">
        <ele>7.599999904632568359375</ele>
        <time>2022-03-16T04:08:57.000Z</time>
        <extensions>
          <ns3:TrackPointExtension>
            <ns3:hr>100</ns3:hr>
          </ns3:TrackPointExtension>
        </extensions>
      </trkpt>
      <trkpt lat="32.054229676723480224609375" lon="118.733055107295513153076171875">
        <ele>7.599999904632568359375</ele>
        <time>2022-03-16T04:08:58.000Z</time>
        <extensions>
          <ns3:TrackPointExtension/>
        </extensions>
      </trkpt>
      <trkpt lat="32.0542144216597080230712890625" lon="118.73308561742305755615234375">
        <ele>7.599999904632568359375</ele>
        <time>2022-03-16T04:08:59.000Z</time>
        <extensions>
          <ns3:TrackPointExtension/>
        </extensions>
      </trkpt>
      <trkpt lat="32.05419153906404972076416015625" lon="118.733116127550601959228515625">
        <ele>7.400000095367431640625</ele>
        <time>2022-03-16T04:09:00.000Z</time>
        <extensions>
          <ns3:TrackPointExtension/>
        </extensions>
      </trkpt>
      <trkpt lat="32.05416865646839141845703125" lon="118.7331466376781463623046875">
        <ele>7.400000095367431640625</ele>
        <time>2022-03-16T04:09:01.000Z</time>
        <extensions>
          <ns3:TrackPointExtension/>
        </extensions>
      </trkpt>
      <trkpt lat="32.05414191819727420806884765625" lon="118.733177147805690765380859375">
        <ele>7.400000095367431640625</ele>
        <time>2022-03-16T04:09:02.000Z</time>
        <extensions>
          <ns3:TrackPointExtension>
            <ns3:hr>102</ns3:hr>
          </ns3:TrackPointExtension>
        </extensions>
      </trkpt>
      <trkpt lat="32.05411526374518871307373046875" lon="118.73320765793323516845703125">
        <ele>7.400000095367431640625</ele>
        <time>2022-03-16T04:09:03.000Z</time>
        <extensions>
          <ns3:TrackPointExtension/>
        </extensions>
      </trkpt>
      <trkpt lat="32.054088525474071502685546875" lon="118.733238168060779571533203125">
        <ele>7.599999904632568359375</ele>
        <time>2022-03-16T04:09:04.000Z</time>
        <extensions>
          <ns3:TrackPointExtension/>
        </extensions>
      </trkpt>
      <trkpt lat="32.0540618710219860076904296875" lon="118.733268678188323974609375">
        <ele>7.80000019073486328125</ele>
        <time>2022-03-16T04:09:05.000Z</time>
        <extensions>
          <ns3:TrackPointExtension/>
        </extensions>
      </trkpt>
      <trkpt lat="32.0540313608944416046142578125" lon="118.73330681584775447845458984375">
        <ele>8.19999980926513671875</ele>
        <time>2022-03-16T04:09:06.000Z</time>
        <extensions>
          <ns3:TrackPointExtension/>
        </extensions>
      </trkpt>
      <trkpt lat="32.05400462262332439422607421875" lon="118.73332969844341278076171875">
        <ele>8.3999996185302734375</ele>
        <time>2022-03-16T04:09:07.000Z</time>
        <extensions>
          <ns3:TrackPointExtension>
            <ns3:hr>102</ns3:hr>
          </ns3:TrackPointExtension>
        </extensions>
      </trkpt>
      <trkpt lat="32.0539817400276660919189453125" lon="118.733360208570957183837890625">
        <ele>8.80000019073486328125</ele>
        <time>2022-03-16T04:09:08.000Z</time>
        <extensions>
          <ns3:TrackPointExtension/>
        </extensions>
      </trkpt>
      <trkpt lat="32.05395500175654888153076171875" lon="118.73339080251753330230712890625">
        <ele>9.19999980926513671875</ele>
        <time>2022-03-16T04:09:09.000Z</time>
        <extensions>
          <ns3:TrackPointExtension/>
        </extensions>
      </trkpt>
      <trkpt lat="32.0539359748363494873046875" lon="118.7334136851131916046142578125">
        <ele>9.3999996185302734375</ele>
        <time>2022-03-16T04:09:10.000Z</time>
        <extensions>
          <ns3:TrackPointExtension/>
        </extensions>
      </trkpt>
      <trkpt lat="32.053916864097118377685546875" lon="118.73343656770884990692138671875">
        <ele>9.6000003814697265625</ele>
        <time>2022-03-16T04:09:11.000Z</time>
        <extensions>
          <ns3:TrackPointExtension/>
        </extensions>
      </trkpt>
      <trkpt lat="32.05389783717691898345947265625" lon="118.733459450304508209228515625">
        <ele>9.80000019073486328125</ele>
        <time>2022-03-16T04:09:12.000Z</time>
        <extensions>
          <ns3:TrackPointExtension>
            <ns3:hr>104</ns3:hr>
          </ns3:TrackPointExtension>
        </extensions>
      </trkpt>
      <trkpt lat="32.05387872643768787384033203125" lon="118.73348233290016651153564453125">
        <ele>10</ele>
        <time>2022-03-16T04:09:13.000Z</time>
        <extensions>
          <ns3:TrackPointExtension/>
        </extensions>
      </trkpt>
      <trkpt lat="32.05386347137391567230224609375" lon="118.73349758796393871307373046875">
        <ele>10.19999980926513671875</ele>
        <time>2022-03-16T04:09:14.000Z</time>
        <extensions>
          <ns3:TrackPointExtension/>
        </extensions>
      </trkpt>
      <trkpt lat="32.05384821631014347076416015625" lon="118.733520470559597015380859375">
        <ele>10.3999996185302734375</ele>
        <time>2022-03-16T04:09:15.000Z</time>
        <extensions>
          <ns3:TrackPointExtension/>
        </extensions>
      </trkpt>
      <trkpt lat="32.05383681692183017730712890625" lon="118.73354335315525531768798828125">
        <ele>10.3999996185302734375</ele>
        <time>2022-03-16T04:09:16.000Z</time>
        <extensions>
          <ns3:TrackPointExtension/>
        </extensions>
      </trkpt>
      <trkpt lat="32.05382533371448516845703125" lon="118.73355860821902751922607421875">
        <ele>10.6000003814697265625</ele>
        <time>2022-03-16T04:09:17.000Z</time>
        <extensions>
          <ns3:TrackPointExtension>
            <ns3:hr>105</ns3:hr>
          </ns3:TrackPointExtension>
        </extensions>
      </trkpt>
      <trkpt lat="32.05381770618259906768798828125" lon="118.73357386328279972076416015625">
        <ele>10.6000003814697265625</ele>
        <time>2022-03-16T04:09:18.000Z</time>
        <extensions>
          <ns3:TrackPointExtension/>
        </extensions>
      </trkpt>
      <trkpt lat="32.0538100786507129669189453125" lon="118.7335967458784580230712890625">
        <ele>10.6000003814697265625</ele>
        <time>2022-03-16T04:09:19.000Z</time>
        <extensions>
          <ns3:TrackPointExtension/>
        </extensions>
      </trkpt>
      <trkpt lat="32.05380245111882686614990234375" lon="118.733612000942230224609375">
        <ele>10.6000003814697265625</ele>
        <time>2022-03-16T04:09:20.000Z</time>
        <extensions>
          <ns3:TrackPointExtension/>
        </extensions>
      </trkpt>
      <trkpt lat="32.05380245111882686614990234375" lon="118.7336272560060024261474609375">
        <ele>10.6000003814697265625</ele>
        <time>2022-03-16T04:09:21.000Z</time>
        <extensions>
          <ns3:TrackPointExtension/>
        </extensions>
      </trkpt>
      <trkpt lat="32.05380245111882686614990234375" lon="118.73363488353788852691650390625">
        <ele>10.6000003814697265625</ele>
        <time>2022-03-16T04:09:22.000Z</time>
        <extensions>
          <ns3:TrackPointExtension>
            <ns3:hr>104</ns3:hr>
          </ns3:TrackPointExtension>
        </extensions>
      </trkpt>
      <trkpt lat="32.05380245111882686614990234375" lon="118.73365013860166072845458984375">
        <ele>10.6000003814697265625</ele>
        <time>2022-03-16T04:09:23.000Z</time>
        <extensions>
          <ns3:TrackPointExtension/>
        </extensions>
      </trkpt>
      <trkpt lat="32.053806222975254058837890625" lon="118.73366539366543292999267578125">
        <ele>10.3999996185302734375</ele>
        <time>2022-03-16T04:09:24.000Z</time>
        <extensions>
          <ns3:TrackPointExtension/>
        </extensions>
      </trkpt>
      <trkpt lat="32.053813934326171875" lon="118.73367302119731903076171875">
        <ele>10.3999996185302734375</ele>
        <time>2022-03-16T04:09:25.000Z</time>
        <extensions>
          <ns3:TrackPointExtension/>
        </extensions>
      </trkpt>
      <trkpt lat="32.05381770618259906768798828125" lon="118.73368064872920513153076171875">
        <ele>10.19999980926513671875</ele>
        <time>2022-03-16T04:09:26.000Z</time>
        <extensions>
          <ns3:TrackPointExtension/>
        </extensions>
      </trkpt>
      <trkpt lat="32.05382533371448516845703125" lon="118.7336882762610912322998046875">
        <ele>10.19999980926513671875</ele>
        <time>2022-03-16T04:09:27.000Z</time>
        <extensions>
          <ns3:TrackPointExtension>
            <ns3:hr>104</ns3:hr>
          </ns3:TrackPointExtension>
        </extensions>
      </trkpt>
      <trkpt lat="32.0538291893899440765380859375" lon="118.733703531324863433837890625">
        <ele>10</ele>
        <time>2022-03-16T04:09:28.000Z</time>
        <extensions>
          <ns3:TrackPointExtension/>
        </extensions>
      </trkpt>
      <trkpt lat="32.05383296124637126922607421875" lon="118.73371124267578125">
        <ele>10</ele>
        <time>2022-03-16T04:09:29.000Z</time>
        <extensions>
          <ns3:TrackPointExtension/>
        </extensions>
      </trkpt>
      <trkpt lat="32.05383681692183017730712890625" lon="118.73371887020766735076904296875">
        <ele>10</ele>
        <time>2022-03-16T04:09:30.000Z</time>
        <extensions>
          <ns3:TrackPointExtension/>
        </extensions>
      </trkpt>
      <trkpt lat="32.0538405887782573699951171875" lon="118.7337264977395534515380859375">
        <ele>10</ele>
        <time>2022-03-16T04:09:31.000Z</time>
        <extensions>
          <ns3:TrackPointExtension/>
        </extensions>
      </trkpt>
      <trkpt lat="32.05384821631014347076416015625" lon="118.7337264977395534515380859375">
        <ele>9.80000019073486328125</ele>
        <time>2022-03-16T04:09:32.000Z</time>
        <extensions>
          <ns3:TrackPointExtension>
            <ns3:hr>106</ns3:hr>
          </ns3:TrackPointExtension>
        </extensions>
      </trkpt>
      <trkpt lat="32.05385207198560237884521484375" lon="118.73373412527143955230712890625">
        <ele>9.80000019073486328125</ele>
        <time>2022-03-16T04:09:33.000Z</time>
        <extensions>
          <ns3:TrackPointExtension/>
        </extensions>
      </trkpt>
      <trkpt lat="32.053855843842029571533203125" lon="118.733741752803325653076171875">
        <ele>9.6000003814697265625</ele>
        <time>2022-03-16T04:09:34.000Z</time>
        <extensions>
          <ns3:TrackPointExtension/>
        </extensions>
      </trkpt>
      <trkpt lat="32.05386347137391567230224609375" lon="118.73374938033521175384521484375">
        <ele>9.6000003814697265625</ele>
        <time>2022-03-16T04:09:35.000Z</time>
        <extensions>
          <ns3:TrackPointExtension/>
        </extensions>
      </trkpt>
      <trkpt lat="32.05386732704937458038330078125" lon="118.7337570078670978546142578125">
        <ele>9.6000003814697265625</ele>
        <time>2022-03-16T04:09:36.000Z</time>
        <extensions>
          <ns3:TrackPointExtension/>
        </extensions>
      </trkpt>
      <trkpt lat="32.05387872643768787384033203125" lon="118.7337570078670978546142578125">
        <ele>9.3999996185302734375</ele>
        <time>2022-03-16T04:09:37.000Z</time>
        <extensions>
          <ns3:TrackPointExtension>
            <ns3:hr>106</ns3:hr>
          </ns3:TrackPointExtension>
        </extensions>
      </trkpt>
      <trkpt lat="32.053886353969573974609375" lon="118.73376463539898395538330078125">
        <ele>9.19999980926513671875</ele>
        <time>2022-03-16T04:09:38.000Z</time>
        <extensions>
          <ns3:TrackPointExtension/>
        </extensions>
      </trkpt>
      <trkpt lat="32.05389398150146007537841796875" lon="118.73377226293087005615234375">
        <ele>9.19999980926513671875</ele>
        <time>2022-03-16T04:09:39.000Z</time>
        <extensions>
          <ns3:TrackPointExtension/>
        </extensions>
      </trkpt>
      <trkpt lat="32.053905464708805084228515625" lon="118.73377989046275615692138671875">
        <ele>9</ele>
        <time>2022-03-16T04:09:40.000Z</time>
        <extensions>
          <ns3:TrackPointExtension/>
        </extensions>
      </trkpt>
      <trkpt lat="32.05391309224069118499755859375" lon="118.7337875179946422576904296875">
        <ele>8.80000019073486328125</ele>
        <time>2022-03-16T04:09:41.000Z</time>
        <extensions>
          <ns3:TrackPointExtension/>
        </extensions>
      </trkpt>
      <trkpt lat="32.0539207197725772857666015625" lon="118.73379514552652835845947265625">
        <ele>8.80000019073486328125</ele>
        <time>2022-03-16T04:09:42.000Z</time>
        <extensions>
          <ns3:TrackPointExtension>
            <ns3:hr>105</ns3:hr>
          </ns3:TrackPointExtension>
        </extensions>
      </trkpt>
      <trkpt lat="32.05392834730446338653564453125" lon="118.733802773058414459228515625">
        <ele>8.6000003814697265625</ele>
        <time>2022-03-16T04:09:43.000Z</time>
        <extensions>
          <ns3:TrackPointExtension/>
        </extensions>
      </trkpt>
      <trkpt lat="32.0539359748363494873046875" lon="118.7338180281221866607666015625">
        <ele>8.6000003814697265625</ele>
        <time>2022-03-16T04:09:44.000Z</time>
        <extensions>
          <ns3:TrackPointExtension/>
        </extensions>
      </trkpt>
      <trkpt lat="32.05393974669277667999267578125" lon="118.73382565565407276153564453125">
        <ele>8.3999996185302734375</ele>
        <time>2022-03-16T04:09:45.000Z</time>
        <extensions>
          <ns3:TrackPointExtension/>
        </extensions>
      </trkpt>
      <trkpt lat="32.05394360236823558807373046875" lon="118.73384091071784496307373046875">
        <ele>8.3999996185302734375</ele>
        <time>2022-03-16T04:09:46.000Z</time>
        <extensions>
          <ns3:TrackPointExtension/>
        </extensions>
      </trkpt>
      <trkpt lat="32.05394360236823558807373046875" lon="118.73385616578161716461181640625">
        <ele>8.3999996185302734375</ele>
        <time>2022-03-16T04:09:47.000Z</time>
        <extensions>
          <ns3:TrackPointExtension>
            <ns3:hr>104</ns3:hr>
          </ns3:TrackPointExtension>
        </extensions>
      </trkpt>
      <trkpt lat="32.05394360236823558807373046875" lon="118.733863793313503265380859375">
        <ele>8.3999996185302734375</ele>
        <time>2022-03-16T04:09:48.000Z</time>
        <extensions>
          <ns3:TrackPointExtension/>
        </extensions>
      </trkpt>
      <trkpt lat="32.05393974669277667999267578125" lon="118.7338790483772754669189453125">
        <ele>8.19999980926513671875</ele>
        <time>2022-03-16T04:09:49.000Z</time>
        <extensions>
          <ns3:TrackPointExtension/>
        </extensions>
      </trkpt>
      <trkpt lat="32.05393974669277667999267578125" lon="118.73388667590916156768798828125">
        <ele>8.19999980926513671875</ele>
        <time>2022-03-16T04:09:50.000Z</time>
        <extensions>
          <ns3:TrackPointExtension/>
        </extensions>
      </trkpt>
      <trkpt lat="32.05393974669277667999267578125" lon="118.73389430344104766845703125">
        <ele>8.19999980926513671875</ele>
        <time>2022-03-16T04:09:51.000Z</time>
        <extensions>
          <ns3:TrackPointExtension/>
        </extensions>
      </trkpt>
      <trkpt lat="32.05393974669277667999267578125" lon="118.7339095585048198699951171875">
        <ele>8</ele>
        <time>2022-03-16T04:09:52.000Z</time>
        <extensions>
          <ns3:TrackPointExtension>
            <ns3:hr>105</ns3:hr>
          </ns3:TrackPointExtension>
        </extensions>
      </trkpt>
      <trkpt lat="32.05394360236823558807373046875" lon="118.73391718603670597076416015625">
        <ele>8</ele>
        <time>2022-03-16T04:09:53.000Z</time>
        <extensions>
          <ns3:TrackPointExtension/>
        </extensions>
      </trkpt>
      <trkpt lat="32.05394737422466278076171875" lon="118.733924813568592071533203125">
        <ele>7.80000019073486328125</ele>
        <time>2022-03-16T04:09:54.000Z</time>
        <extensions>
          <ns3:TrackPointExtension/>
        </extensions>
      </trkpt>
      <trkpt lat="32.0539512299001216888427734375" lon="118.73393244110047817230224609375">
        <ele>7.80000019073486328125</ele>
        <time>2022-03-16T04:09:55.000Z</time>
        <extensions>
          <ns3:TrackPointExtension/>
        </extensions>
      </trkpt>
      <trkpt lat="32.05395885743200778961181640625" lon="118.73393244110047817230224609375">
        <ele>7.80000019073486328125</ele>
        <time>2022-03-16T04:09:56.000Z</time>
        <extensions>
          <ns3:TrackPointExtension/>
        </extensions>
      </trkpt>
      <trkpt lat="32.05397025682032108306884765625" lon="118.7339400686323642730712890625">
        <ele>7.599999904632568359375</ele>
        <time>2022-03-16T04:09:57.000Z</time>
        <extensions>
          <ns3:TrackPointExtension>
            <ns3:hr>106</ns3:hr>
          </ns3:TrackPointExtension>
        </extensions>
      </trkpt>
      <trkpt lat="32.0539817400276660919189453125" lon="118.7339400686323642730712890625">
        <ele>7.599999904632568359375</ele>
        <time>2022-03-16T04:09:58.000Z</time>
        <extensions>
          <ns3:TrackPointExtension/>
        </extensions>
      </trkpt>
      <trkpt lat="32.05399699509143829345703125" lon="118.73394769616425037384033203125">
        <ele>7.400000095367431640625</ele>
        <time>2022-03-16T04:09:59.000Z</time>
        <extensions>
          <ns3:TrackPointExtension/>
        </extensions>
      </trkpt>
      <trkpt lat="32.05400847829878330230712890625" lon="118.73394769616425037384033203125">
        <ele>7.19999980926513671875</ele>
        <time>2022-03-16T04:10:00.000Z</time>
        <extensions>
          <ns3:TrackPointExtension/>
        </extensions>
      </trkpt>
      <trkpt lat="32.05401987768709659576416015625" lon="118.733955323696136474609375">
        <ele>7.19999980926513671875</ele>
        <time>2022-03-16T04:10:01.000Z</time>
        <extensions>
          <ns3:TrackPointExtension/>
        </extensions>
      </trkpt>
      <trkpt lat="32.054027505218982696533203125" lon="118.73396295122802257537841796875">
        <ele>7.19999980926513671875</ele>
        <time>2022-03-16T04:10:02.000Z</time>
        <extensions>
          <ns3:TrackPointExtension>
            <ns3:hr>104</ns3:hr>
          </ns3:TrackPointExtension>
        </extensions>
      </trkpt>
      <trkpt lat="32.05403898842632770538330078125" lon="118.7339705787599086761474609375">
        <ele>7</ele>
        <time>2022-03-16T04:10:03.000Z</time>
        <extensions>
          <ns3:TrackPointExtension/>
        </extensions>
      </trkpt>
      <trkpt lat="32.0540427602827548980712890625" lon="118.7339705787599086761474609375">
        <ele>7</ele>
        <time>2022-03-16T04:10:04.000Z</time>
        <extensions>
          <ns3:TrackPointExtension/>
        </extensions>
      </trkpt>
      <trkpt lat="32.05404661595821380615234375" lon="118.73397820629179477691650390625">
        <ele>7</ele>
        <time>2022-03-16T04:10:05.000Z</time>
        <extensions>
          <ns3:TrackPointExtension/>
        </extensions>
      </trkpt>
      <trkpt lat="32.05405038781464099884033203125" lon="118.733985833823680877685546875">
        <ele>7</ele>
        <time>2022-03-16T04:10:06.000Z</time>
        <extensions>
          <ns3:TrackPointExtension/>
        </extensions>
      </trkpt>
      <trkpt lat="32.05405038781464099884033203125" lon="118.73399346135556697845458984375">
        <ele>7</ele>
        <time>2022-03-16T04:10:07.000Z</time>
        <extensions>
          <ns3:TrackPointExtension>
            <ns3:hr>103</ns3:hr>
          </ns3:TrackPointExtension>
        </extensions>
      </trkpt>
      <trkpt lat="32.05405038781464099884033203125" lon="118.7340010888874530792236328125">
        <ele>7</ele>
        <time>2022-03-16T04:10:08.000Z</time>
        <extensions>
          <ns3:TrackPointExtension/>
        </extensions>
      </trkpt>
      <trkpt lat="32.05405038781464099884033203125" lon="118.73400871641933917999267578125">
        <ele>7</ele>
        <time>2022-03-16T04:10:09.000Z</time>
        <extensions>
          <ns3:TrackPointExtension/>
        </extensions>
      </trkpt>
      <trkpt lat="32.05405038781464099884033203125" lon="118.73402397148311138153076171875">
        <ele>7</ele>
        <time>2022-03-16T04:10:10.000Z</time>
        <extensions>
          <ns3:TrackPointExtension/>
        </extensions>
      </trkpt>
      <trkpt lat="32.05404661595821380615234375" lon="118.7340315990149974822998046875">
        <ele>7</ele>
        <time>2022-03-16T04:10:11.000Z</time>
        <extensions>
          <ns3:TrackPointExtension/>
        </extensions>
      </trkpt>
      <trkpt lat="32.05404661595821380615234375" lon="118.73403922654688358306884765625">
        <ele>7</ele>
        <time>2022-03-16T04:10:12.000Z</time>
        <extensions>
          <ns3:TrackPointExtension>
            <ns3:hr>105</ns3:hr>
          </ns3:TrackPointExtension>
        </extensions>
      </trkpt>
      <trkpt lat="32.05404661595821380615234375" lon="118.734046854078769683837890625">
        <ele>7</ele>
        <time>2022-03-16T04:10:13.000Z</time>
        <extensions>
          <ns3:TrackPointExtension/>
        </extensions>
      </trkpt>
      <trkpt lat="32.05404661595821380615234375" lon="118.73406219296157360076904296875">
        <ele>7</ele>
        <time>2022-03-16T04:10:14.000Z</time>
        <extensions>
          <ns3:TrackPointExtension/>
        </extensions>
      </trkpt>
      <trkpt lat="32.05405038781464099884033203125" lon="118.7340698204934597015380859375">
        <ele>7</ele>
        <time>2022-03-16T04:10:15.000Z</time>
        <extensions>
          <ns3:TrackPointExtension/>
        </extensions>
      </trkpt>
      <trkpt lat="32.05405038781464099884033203125" lon="118.73407744802534580230712890625">
        <ele>7</ele>
        <time>2022-03-16T04:10:16.000Z</time>
        <extensions>
          <ns3:TrackPointExtension/>
        </extensions>
      </trkpt>
      <trkpt lat="32.05405038781464099884033203125" lon="118.73409270308911800384521484375">
        <ele>7</ele>
        <time>2022-03-16T04:10:17.000Z</time>
        <extensions>
          <ns3:TrackPointExtension>
            <ns3:hr>104</ns3:hr>
          </ns3:TrackPointExtension>
        </extensions>
      </trkpt>
      <trkpt lat="32.05405424349009990692138671875" lon="118.7341003306210041046142578125">
        <ele>7</ele>
        <time>2022-03-16T04:10:18.000Z</time>
        <extensions>
          <ns3:TrackPointExtension/>
        </extensions>
      </trkpt>
      <trkpt lat="32.05405424349009990692138671875" lon="118.73411558568477630615234375">
        <ele>7</ele>
        <time>2022-03-16T04:10:19.000Z</time>
        <extensions>
          <ns3:TrackPointExtension/>
        </extensions>
      </trkpt>
      <trkpt lat="32.05405424349009990692138671875" lon="118.73412321321666240692138671875">
        <ele>7</ele>
        <time>2022-03-16T04:10:20.000Z</time>
        <extensions>
          <ns3:TrackPointExtension/>
        </extensions>
      </trkpt>
      <trkpt lat="32.05405424349009990692138671875" lon="118.73413846828043460845947265625">
        <ele>7</ele>
        <time>2022-03-16T04:10:21.000Z</time>
        <extensions>
          <ns3:TrackPointExtension/>
        </extensions>
      </trkpt>
      <trkpt lat="32.054058015346527099609375" lon="118.734146095812320709228515625">
        <ele>6.80000019073486328125</ele>
        <time>2022-03-16T04:10:22.000Z</time>
        <extensions>
          <ns3:TrackPointExtension>
            <ns3:hr>104</ns3:hr>
          </ns3:TrackPointExtension>
        </extensions>
      </trkpt>
      <trkpt lat="32.0540618710219860076904296875" lon="118.73415372334420680999755859375">
        <ele>6.80000019073486328125</ele>
        <time>2022-03-16T04:10:23.000Z</time>
        <extensions>
          <ns3:TrackPointExtension/>
        </extensions>
      </trkpt>
      <trkpt lat="32.05406564287841320037841796875" lon="118.73416897840797901153564453125">
        <ele>6.80000019073486328125</ele>
        <time>2022-03-16T04:10:24.000Z</time>
        <extensions>
          <ns3:TrackPointExtension/>
        </extensions>
      </trkpt>
      <trkpt lat="32.0540732704102993011474609375" lon="118.7341766059398651123046875">
        <ele>6.80000019073486328125</ele>
        <time>2022-03-16T04:10:25.000Z</time>
        <extensions>
          <ns3:TrackPointExtension/>
        </extensions>
      </trkpt>
      <trkpt lat="32.05408089794218540191650390625" lon="118.73418423347175121307373046875">
        <ele>6.80000019073486328125</ele>
        <time>2022-03-16T04:10:26.000Z</time>
        <extensions>
          <ns3:TrackPointExtension/>
        </extensions>
      </trkpt>
      <trkpt lat="32.0540923811495304107666015625" lon="118.7341918610036373138427734375">
        <ele>6.599999904632568359375</ele>
        <time>2022-03-16T04:10:27.000Z</time>
        <extensions>
          <ns3:TrackPointExtension>
            <ns3:hr>103</ns3:hr>
          </ns3:TrackPointExtension>
        </extensions>
      </trkpt>
      <trkpt lat="32.0541037805378437042236328125" lon="118.73419948853552341461181640625">
        <ele>6.599999904632568359375</ele>
        <time>2022-03-16T04:10:28.000Z</time>
        <extensions>
          <ns3:TrackPointExtension/>
        </extensions>
      </trkpt>
      <trkpt lat="32.05411526374518871307373046875" lon="118.73419948853552341461181640625">
        <ele>6.400000095367431640625</ele>
        <time>2022-03-16T04:10:29.000Z</time>
        <extensions>
          <ns3:TrackPointExtension/>
        </extensions>
      </trkpt>
      <trkpt lat="32.05413051880896091461181640625" lon="118.734207116067409515380859375">
        <ele>6.400000095367431640625</ele>
        <time>2022-03-16T04:10:30.000Z</time>
        <extensions>
          <ns3:TrackPointExtension/>
        </extensions>
      </trkpt>
      <trkpt lat="32.05414577387273311614990234375" lon="118.73421474359929561614990234375">
        <ele>6.19999980926513671875</ele>
        <time>2022-03-16T04:10:31.000Z</time>
        <extensions>
          <ns3:TrackPointExtension/>
        </extensions>
      </trkpt>
      <trkpt lat="32.05416102893650531768798828125" lon="118.7342223711311817169189453125">
        <ele>6.19999980926513671875</ele>
        <time>2022-03-16T04:10:32.000Z</time>
        <extensions>
          <ns3:TrackPointExtension>
            <ns3:hr>104</ns3:hr>
          </ns3:TrackPointExtension>
        </extensions>
      </trkpt>
      <trkpt lat="32.05417628400027751922607421875" lon="118.73422999866306781768798828125">
        <ele>6</ele>
        <time>2022-03-16T04:10:33.000Z</time>
        <extensions>
          <ns3:TrackPointExtension/>
        </extensions>
      </trkpt>
      <trkpt lat="32.05419153906404972076416015625" lon="118.73422999866306781768798828125">
        <ele>6</ele>
        <time>2022-03-16T04:10:34.000Z</time>
        <extensions>
          <ns3:TrackPointExtension/>
        </extensions>
      </trkpt>
      <trkpt lat="32.05421064980328083038330078125" lon="118.73423762619495391845703125">
        <ele>5.80000019073486328125</ele>
        <time>2022-03-16T04:10:35.000Z</time>
        <extensions>
          <ns3:TrackPointExtension/>
        </extensions>
      </trkpt>
      <trkpt lat="32.05422590486705303192138671875" lon="118.73424525372684001922607421875">
        <ele>5.80000019073486328125</ele>
        <time>2022-03-16T04:10:36.000Z</time>
        <extensions>
          <ns3:TrackPointExtension/>
        </extensions>
      </trkpt>
      <trkpt lat="32.05424115993082523345947265625" lon="118.73424525372684001922607421875">
        <ele>5.599999904632568359375</ele>
        <time>2022-03-16T04:10:37.000Z</time>
        <extensions>
          <ns3:TrackPointExtension>
            <ns3:hr>106</ns3:hr>
          </ns3:TrackPointExtension>
        </extensions>
      </trkpt>
      <trkpt lat="32.054260186851024627685546875" lon="118.7342528812587261199951171875">
        <ele>5.599999904632568359375</ele>
        <time>2022-03-16T04:10:38.000Z</time>
        <extensions>
          <ns3:TrackPointExtension/>
        </extensions>
      </trkpt>
      <trkpt lat="32.0542754419147968292236328125" lon="118.7342528812587261199951171875">
        <ele>5.400000095367431640625</ele>
        <time>2022-03-16T04:10:39.000Z</time>
        <extensions>
          <ns3:TrackPointExtension/>
        </extensions>
      </trkpt>
      <trkpt lat="32.0542945526540279388427734375" lon="118.7342528812587261199951171875">
        <ele>5.400000095367431640625</ele>
        <time>2022-03-16T04:10:40.000Z</time>
        <extensions>
          <ns3:TrackPointExtension/>
        </extensions>
      </trkpt>
      <trkpt lat="32.05431743524968624114990234375" lon="118.7342528812587261199951171875">
        <ele>5.19999980926513671875</ele>
        <time>2022-03-16T04:10:41.000Z</time>
        <extensions>
          <ns3:TrackPointExtension/>
        </extensions>
      </trkpt>
      <trkpt lat="32.05433654598891735076904296875" lon="118.73424525372684001922607421875">
        <ele>5</ele>
        <time>2022-03-16T04:10:42.000Z</time>
        <extensions>
          <ns3:TrackPointExtension>
            <ns3:hr>107</ns3:hr>
          </ns3:TrackPointExtension>
        </extensions>
      </trkpt>
      <trkpt lat="32.054359428584575653076171875" lon="118.73423762619495391845703125">
        <ele>4.80000019073486328125</ele>
        <time>2022-03-16T04:10:43.000Z</time>
        <extensions>
          <ns3:TrackPointExtension/>
        </extensions>
      </trkpt>
      <trkpt lat="32.05438231118023395538330078125" lon="118.73422999866306781768798828125">
        <ele>4.80000019073486328125</ele>
        <time>2022-03-16T04:10:44.000Z</time>
        <extensions>
          <ns3:TrackPointExtension/>
        </extensions>
      </trkpt>
      <trkpt lat="32.05440896563231945037841796875" lon="118.7342223711311817169189453125">
        <ele>4.599999904632568359375</ele>
        <time>2022-03-16T04:10:45.000Z</time>
        <extensions>
          <ns3:TrackPointExtension/>
        </extensions>
      </trkpt>
      <trkpt lat="32.054431848227977752685546875" lon="118.73421474359929561614990234375">
        <ele>4.599999904632568359375</ele>
        <time>2022-03-16T04:10:46.000Z</time>
        <extensions>
          <ns3:TrackPointExtension/>
        </extensions>
      </trkpt>
      <trkpt lat="32.05445858649909496307373046875" lon="118.73419948853552341461181640625">
        <ele>4.599999904632568359375</ele>
        <time>2022-03-16T04:10:47.000Z</time>
        <extensions>
          <ns3:TrackPointExtension>
            <ns3:hr>104</ns3:hr>
          </ns3:TrackPointExtension>
        </extensions>
      </trkpt>
      <trkpt lat="32.05448524095118045806884765625" lon="118.73418423347175121307373046875">
        <ele>4.400000095367431640625</ele>
        <time>2022-03-16T04:10:48.000Z</time>
        <extensions>
          <ns3:TrackPointExtension/>
        </extensions>
      </trkpt>
      <trkpt lat="32.0545158348977565765380859375" lon="118.7341766059398651123046875">
        <ele>4.19999980926513671875</ele>
        <time>2022-03-16T04:10:49.000Z</time>
        <extensions>
          <ns3:TrackPointExtension/>
        </extensions>
      </trkpt>
      <trkpt lat="32.054542489349842071533203125" lon="118.7341613508760929107666015625">
        <ele>4.19999980926513671875</ele>
        <time>2022-03-16T04:10:50.000Z</time>
        <extensions>
          <ns3:TrackPointExtension/>
        </extensions>
      </trkpt>
      <trkpt lat="32.054572999477386474609375" lon="118.734146095812320709228515625">
        <ele>4</ele>
        <time>2022-03-16T04:10:51.000Z</time>
        <extensions>
          <ns3:TrackPointExtension/>
        </extensions>
      </trkpt>
      <trkpt lat="32.054603509604930877685546875" lon="118.73413846828043460845947265625">
        <ele>4</ele>
        <time>2022-03-16T04:10:52.000Z</time>
        <extensions>
          <ns3:TrackPointExtension>
            <ns3:hr>103</ns3:hr>
          </ns3:TrackPointExtension>
        </extensions>
      </trkpt>
      <trkpt lat="32.0546378754079341888427734375" lon="118.73412321321666240692138671875">
        <ele>3.7999999523162841796875</ele>
        <time>2022-03-16T04:10:53.000Z</time>
        <extensions>
          <ns3:TrackPointExtension/>
        </extensions>
      </trkpt>
      <trkpt lat="32.0546683855354785919189453125" lon="118.73411558568477630615234375">
        <ele>3.7999999523162841796875</ele>
        <time>2022-03-16T04:10:54.000Z</time>
        <extensions>
          <ns3:TrackPointExtension/>
        </extensions>
      </trkpt>
      <trkpt lat="32.0546988956630229949951171875" lon="118.73410795815289020538330078125">
        <ele>3.599999904632568359375</ele>
        <time>2022-03-16T04:10:55.000Z</time>
        <extensions>
          <ns3:TrackPointExtension/>
        </extensions>
      </trkpt>
      <trkpt lat="32.0547294057905673980712890625" lon="118.7341003306210041046142578125">
        <ele>3.599999904632568359375</ele>
        <time>2022-03-16T04:10:56.000Z</time>
        <extensions>
          <ns3:TrackPointExtension/>
        </extensions>
      </trkpt>
      <trkpt lat="32.0547599159181118011474609375" lon="118.73409270308911800384521484375">
        <ele>3.599999904632568359375</ele>
        <time>2022-03-16T04:10:57.000Z</time>
        <extensions>
          <ns3:TrackPointExtension>
            <ns3:hr>102</ns3:hr>
          </ns3:TrackPointExtension>
        </extensions>
      </trkpt>
      <trkpt lat="32.0547904260456562042236328125" lon="118.734085075557231903076171875">
        <ele>3.7999999523162841796875</ele>
        <time>2022-03-16T04:10:58.000Z</time>
        <extensions>
          <ns3:TrackPointExtension/>
        </extensions>
      </trkpt>
      <trkpt lat="32.05481716431677341461181640625" lon="118.734085075557231903076171875">
        <ele>3.7999999523162841796875</ele>
        <time>2022-03-16T04:10:59.000Z</time>
        <extensions>
          <ns3:TrackPointExtension/>
        </extensions>
      </trkpt>
      <trkpt lat="32.05484767444431781768798828125" lon="118.73407744802534580230712890625">
        <ele>4</ele>
        <time>2022-03-16T04:11:00.000Z</time>
        <extensions>
          <ns3:TrackPointExtension/>
        </extensions>
      </trkpt>
      <trkpt lat="32.05487818457186222076416015625" lon="118.73407744802534580230712890625">
        <ele>4.19999980926513671875</ele>
        <time>2022-03-16T04:11:01.000Z</time>
        <extensions>
          <ns3:TrackPointExtension/>
        </extensions>
      </trkpt>
      <trkpt lat="32.05490492284297943115234375" lon="118.7340698204934597015380859375">
        <ele>4.400000095367431640625</ele>
        <time>2022-03-16T04:11:02.000Z</time>
        <extensions>
          <ns3:TrackPointExtension>
            <ns3:hr>103</ns3:hr>
          </ns3:TrackPointExtension>
        </extensions>
      </trkpt>
      <trkpt lat="32.054935432970523834228515625" lon="118.73406219296157360076904296875">
        <ele>4.80000019073486328125</ele>
        <time>2022-03-16T04:11:03.000Z</time>
        <extensions>
          <ns3:TrackPointExtension/>
        </extensions>
      </trkpt>
      <trkpt lat="32.0549659430980682373046875" lon="118.73406219296157360076904296875">
        <ele>5.19999980926513671875</ele>
        <time>2022-03-16T04:11:04.000Z</time>
        <extensions>
          <ns3:TrackPointExtension/>
        </extensions>
      </trkpt>
      <trkpt lat="32.05500022508203983306884765625" lon="118.7340545654296875">
        <ele>5.400000095367431640625</ele>
        <time>2022-03-16T04:11:05.000Z</time>
        <extensions>
          <ns3:TrackPointExtension/>
        </extensions>
      </trkpt>
      <trkpt lat="32.0550308190286159515380859375" lon="118.734046854078769683837890625">
        <ele>5.599999904632568359375</ele>
        <time>2022-03-16T04:11:06.000Z</time>
        <extensions>
          <ns3:TrackPointExtension/>
        </extensions>
      </trkpt>
      <trkpt lat="32.05506895668804645538330078125" lon="118.73403922654688358306884765625">
        <ele>5.599999904632568359375</ele>
        <time>2022-03-16T04:11:07.000Z</time>
        <extensions>
          <ns3:TrackPointExtension>
            <ns3:hr>104</ns3:hr>
          </ns3:TrackPointExtension>
        </extensions>
      </trkpt>
      <trkpt lat="32.0551032386720180511474609375" lon="118.7340315990149974822998046875">
        <ele>5.80000019073486328125</ele>
        <time>2022-03-16T04:11:08.000Z</time>
        <extensions>
          <ns3:TrackPointExtension/>
        </extensions>
      </trkpt>
      <trkpt lat="32.05514137633144855499267578125" lon="118.73401634395122528076171875">
        <ele>6</ele>
        <time>2022-03-16T04:11:09.000Z</time>
        <extensions>
          <ns3:TrackPointExtension/>
        </extensions>
      </trkpt>
      <trkpt lat="32.0551833696663379669189453125" lon="118.73400871641933917999267578125">
        <ele>6.400000095367431640625</ele>
        <time>2022-03-16T04:11:10.000Z</time>
        <extensions>
          <ns3:TrackPointExtension/>
        </extensions>
      </trkpt>
      <trkpt lat="32.05522536300122737884521484375" lon="118.7340010888874530792236328125">
        <ele>6.599999904632568359375</ele>
        <time>2022-03-16T04:11:11.000Z</time>
        <extensions>
          <ns3:TrackPointExtension/>
        </extensions>
      </trkpt>
      <trkpt lat="32.05527112819254398345947265625" lon="118.73399346135556697845458984375">
        <ele>7</ele>
        <time>2022-03-16T04:11:12.000Z</time>
        <extensions>
          <ns3:TrackPointExtension>
            <ns3:hr>106</ns3:hr>
          </ns3:TrackPointExtension>
        </extensions>
      </trkpt>
      <trkpt lat="32.05531689338386058807373046875" lon="118.733985833823680877685546875">
        <ele>7.19999980926513671875</ele>
        <time>2022-03-16T04:11:13.000Z</time>
        <extensions>
          <ns3:TrackPointExtension/>
        </extensions>
      </trkpt>
      <trkpt lat="32.05536651425063610076904296875" lon="118.7339705787599086761474609375">
        <ele>7.599999904632568359375</ele>
        <time>2022-03-16T04:11:14.000Z</time>
        <extensions>
          <ns3:TrackPointExtension/>
        </extensions>
      </trkpt>
      <trkpt lat="32.05541227944195270538330078125" lon="118.73396295122802257537841796875">
        <ele>7.80000019073486328125</ele>
        <time>2022-03-16T04:11:15.000Z</time>
        <extensions>
          <ns3:TrackPointExtension/>
        </extensions>
      </trkpt>
      <trkpt lat="32.055461816489696502685546875" lon="118.733955323696136474609375">
        <ele>8.19999980926513671875</ele>
        <time>2022-03-16T04:11:16.000Z</time>
        <extensions>
          <ns3:TrackPointExtension/>
        </extensions>
      </trkpt>
      <trkpt lat="32.0555075816810131072998046875" lon="118.73394769616425037384033203125">
        <ele>8.19999980926513671875</ele>
        <time>2022-03-16T04:11:17.000Z</time>
        <extensions>
          <ns3:TrackPointExtension>
            <ns3:hr>106</ns3:hr>
          </ns3:TrackPointExtension>
        </extensions>
      </trkpt>
      <trkpt lat="32.05555343069136142730712890625" lon="118.73393244110047817230224609375">
        <ele>8.19999980926513671875</ele>
        <time>2022-03-16T04:11:18.000Z</time>
        <extensions>
          <ns3:TrackPointExtension/>
        </extensions>
      </trkpt>
      <trkpt lat="32.05559534020721912384033203125" lon="118.733924813568592071533203125">
        <ele>8.3999996185302734375</ele>
        <time>2022-03-16T04:11:19.000Z</time>
        <extensions>
          <ns3:TrackPointExtension/>
        </extensions>
      </trkpt>
      <trkpt lat="32.0556373335421085357666015625" lon="118.73391718603670597076416015625">
        <ele>8.3999996185302734375</ele>
        <time>2022-03-16T04:11:20.000Z</time>
        <extensions>
          <ns3:TrackPointExtension/>
        </extensions>
      </trkpt>
      <trkpt lat="32.05567161552608013153076171875" lon="118.7339095585048198699951171875">
        <ele>8.6000003814697265625</ele>
        <time>2022-03-16T04:11:21.000Z</time>
        <extensions>
          <ns3:TrackPointExtension/>
        </extensions>
      </trkpt>
      <trkpt lat="32.05570598132908344268798828125" lon="118.73390193097293376922607421875">
        <ele>8.6000003814697265625</ele>
        <time>2022-03-16T04:11:22.000Z</time>
        <extensions>
          <ns3:TrackPointExtension>
            <ns3:hr>106</ns3:hr>
          </ns3:TrackPointExtension>
        </extensions>
      </trkpt>
      <trkpt lat="32.05574034713208675384521484375" lon="118.73389430344104766845703125">
        <ele>8.3999996185302734375</ele>
        <time>2022-03-16T04:11:23.000Z</time>
        <extensions>
          <ns3:TrackPointExtension/>
        </extensions>
      </trkpt>
      <trkpt lat="32.05576700158417224884033203125" lon="118.73389430344104766845703125">
        <ele>8.3999996185302734375</ele>
        <time>2022-03-16T04:11:24.000Z</time>
        <extensions>
          <ns3:TrackPointExtension/>
        </extensions>
      </trkpt>
      <trkpt lat="32.055793739855289459228515625" lon="118.73389430344104766845703125">
        <ele>8.19999980926513671875</ele>
        <time>2022-03-16T04:11:25.000Z</time>
        <extensions>
          <ns3:TrackPointExtension/>
        </extensions>
      </trkpt>
      <trkpt lat="32.05581662245094776153564453125" lon="118.73388667590916156768798828125">
        <ele>8.19999980926513671875</ele>
        <time>2022-03-16T04:11:26.000Z</time>
        <extensions>
          <ns3:TrackPointExtension/>
        </extensions>
      </trkpt>
      <trkpt lat="32.05583564937114715576171875" lon="118.73388667590916156768798828125">
        <ele>8</ele>
        <time>2022-03-16T04:11:27.000Z</time>
        <extensions>
          <ns3:TrackPointExtension>
            <ns3:hr>105</ns3:hr>
          </ns3:TrackPointExtension>
        </extensions>
      </trkpt>
      <trkpt lat="32.055854760110378265380859375" lon="118.73389430344104766845703125">
        <ele>8</ele>
        <time>2022-03-16T04:11:28.000Z</time>
        <extensions>
          <ns3:TrackPointExtension/>
        </extensions>
      </trkpt>
      <trkpt lat="32.055873870849609375" lon="118.73389430344104766845703125">
        <ele>8</ele>
        <time>2022-03-16T04:11:29.000Z</time>
        <extensions>
          <ns3:TrackPointExtension/>
        </extensions>
      </trkpt>
      <trkpt lat="32.05589289776980876922607421875" lon="118.73389430344104766845703125">
        <ele>8</ele>
        <time>2022-03-16T04:11:30.000Z</time>
        <extensions>
          <ns3:TrackPointExtension/>
        </extensions>
      </trkpt>
      <trkpt lat="32.05590815283358097076416015625" lon="118.73390193097293376922607421875">
        <ele>8</ele>
        <time>2022-03-16T04:11:31.000Z</time>
        <extensions>
          <ns3:TrackPointExtension/>
        </extensions>
      </trkpt>
      <trkpt lat="32.05592726357281208038330078125" lon="118.73390193097293376922607421875">
        <ele>7.80000019073486328125</ele>
        <time>2022-03-16T04:11:32.000Z</time>
        <extensions>
          <ns3:TrackPointExtension>
            <ns3:hr>105</ns3:hr>
          </ns3:TrackPointExtension>
        </extensions>
      </trkpt>
      <trkpt lat="32.05594251863658428192138671875" lon="118.73390193097293376922607421875">
        <ele>7.80000019073486328125</ele>
        <time>2022-03-16T04:11:33.000Z</time>
        <extensions>
          <ns3:TrackPointExtension/>
        </extensions>
      </trkpt>
      <trkpt lat="32.05595777370035648345947265625" lon="118.73390193097293376922607421875">
        <ele>7.80000019073486328125</ele>
        <time>2022-03-16T04:11:34.000Z</time>
        <extensions>
          <ns3:TrackPointExtension/>
        </extensions>
      </trkpt>
      <trkpt lat="32.055976800620555877685546875" lon="118.73390193097293376922607421875">
        <ele>7.80000019073486328125</ele>
        <time>2022-03-16T04:11:35.000Z</time>
        <extensions>
          <ns3:TrackPointExtension/>
        </extensions>
      </trkpt>
      <trkpt lat="32.0559959113597869873046875" lon="118.73389430344104766845703125">
        <ele>7.80000019073486328125</ele>
        <time>2022-03-16T04:11:36.000Z</time>
        <extensions>
          <ns3:TrackPointExtension/>
        </extensions>
      </trkpt>
      <trkpt lat="32.0560111664235591888427734375" lon="118.73389430344104766845703125">
        <ele>7.599999904632568359375</ele>
        <time>2022-03-16T04:11:37.000Z</time>
        <extensions>
          <ns3:TrackPointExtension>
            <ns3:hr>107</ns3:hr>
          </ns3:TrackPointExtension>
        </extensions>
      </trkpt>
      <trkpt lat="32.05603019334375858306884765625" lon="118.73388667590916156768798828125">
        <ele>7.400000095367431640625</ele>
        <time>2022-03-16T04:11:38.000Z</time>
        <extensions>
          <ns3:TrackPointExtension/>
        </extensions>
      </trkpt>
      <trkpt lat="32.05604930408298969268798828125" lon="118.7338790483772754669189453125">
        <ele>7.19999980926513671875</ele>
        <time>2022-03-16T04:11:39.000Z</time>
        <extensions>
          <ns3:TrackPointExtension/>
        </extensions>
      </trkpt>
      <trkpt lat="32.05606841482222080230712890625" lon="118.7338790483772754669189453125">
        <ele>7.19999980926513671875</ele>
        <time>2022-03-16T04:11:40.000Z</time>
        <extensions>
          <ns3:TrackPointExtension/>
        </extensions>
      </trkpt>
      <trkpt lat="32.056087441742420196533203125" lon="118.73387142084538936614990234375">
        <ele>7</ele>
        <time>2022-03-16T04:11:41.000Z</time>
        <extensions>
          <ns3:TrackPointExtension/>
        </extensions>
      </trkpt>
      <trkpt lat="32.05610655248165130615234375" lon="118.73387142084538936614990234375">
        <ele>6.80000019073486328125</ele>
        <time>2022-03-16T04:11:42.000Z</time>
        <extensions>
          <ns3:TrackPointExtension>
            <ns3:hr>107</ns3:hr>
          </ns3:TrackPointExtension>
        </extensions>
      </trkpt>
      <trkpt lat="32.0561218075454235076904296875" lon="118.733863793313503265380859375">
        <ele>6.80000019073486328125</ele>
        <time>2022-03-16T04:11:43.000Z</time>
        <extensions>
          <ns3:TrackPointExtension/>
        </extensions>
      </trkpt>
      <trkpt lat="32.056137062609195709228515625" lon="118.733863793313503265380859375">
        <ele>6.599999904632568359375</ele>
        <time>2022-03-16T04:11:44.000Z</time>
        <extensions>
          <ns3:TrackPointExtension/>
        </extensions>
      </trkpt>
      <trkpt lat="32.0561523176729679107666015625" lon="118.733863793313503265380859375">
        <ele>6.400000095367431640625</ele>
        <time>2022-03-16T04:11:45.000Z</time>
        <extensions>
          <ns3:TrackPointExtension/>
        </extensions>
      </trkpt>
      <trkpt lat="32.0561637170612812042236328125" lon="118.733863793313503265380859375">
        <ele>6.400000095367431640625</ele>
        <time>2022-03-16T04:11:46.000Z</time>
        <extensions>
          <ns3:TrackPointExtension/>
        </extensions>
      </trkpt>
      <trkpt lat="32.05617520026862621307373046875" lon="118.73387142084538936614990234375">
        <ele>6.400000095367431640625</ele>
        <time>2022-03-16T04:11:47.000Z</time>
        <extensions>
          <ns3:TrackPointExtension>
            <ns3:hr>106</ns3:hr>
          </ns3:TrackPointExtension>
        </extensions>
      </trkpt>
      <trkpt lat="32.05618659965693950653076171875" lon="118.7338790483772754669189453125">
        <ele>6.19999980926513671875</ele>
        <time>2022-03-16T04:11:48.000Z</time>
        <extensions>
          <ns3:TrackPointExtension/>
        </extensions>
      </trkpt>
      <trkpt lat="32.0561942271888256072998046875" lon="118.7338790483772754669189453125">
        <ele>6.19999980926513671875</ele>
        <time>2022-03-16T04:11:49.000Z</time>
        <extensions>
          <ns3:TrackPointExtension/>
        </extensions>
      </trkpt>
      <trkpt lat="32.05620571039617061614990234375" lon="118.73388667590916156768798828125">
        <ele>6.19999980926513671875</ele>
        <time>2022-03-16T04:11:50.000Z</time>
        <extensions>
          <ns3:TrackPointExtension/>
        </extensions>
      </trkpt>
      <trkpt lat="32.0562133379280567169189453125" lon="118.73389430344104766845703125">
        <ele>6.19999980926513671875</ele>
        <time>2022-03-16T04:11:51.000Z</time>
        <extensions>
          <ns3:TrackPointExtension/>
        </extensions>
      </trkpt>
      <trkpt lat="32.05622096545994281768798828125" lon="118.73390193097293376922607421875">
        <ele>6.19999980926513671875</ele>
        <time>2022-03-16T04:11:52.000Z</time>
        <extensions>
          <ns3:TrackPointExtension>
            <ns3:hr>105</ns3:hr>
          </ns3:TrackPointExtension>
        </extensions>
      </trkpt>
      <trkpt lat="32.05622859299182891845703125" lon="118.73390193097293376922607421875">
        <ele>6.19999980926513671875</ele>
        <time>2022-03-16T04:11:53.000Z</time>
        <extensions>
          <ns3:TrackPointExtension/>
        </extensions>
      </trkpt>
      <trkpt lat="32.05623622052371501922607421875" lon="118.7339095585048198699951171875">
        <ele>6.19999980926513671875</ele>
        <time>2022-03-16T04:11:54.000Z</time>
        <extensions>
          <ns3:TrackPointExtension/>
        </extensions>
      </trkpt>
      <trkpt lat="32.0562438480556011199951171875" lon="118.73391718603670597076416015625">
        <ele>6</ele>
        <time>2022-03-16T04:11:55.000Z</time>
        <extensions>
          <ns3:TrackPointExtension/>
        </extensions>
      </trkpt>
      <trkpt lat="32.05625147558748722076416015625" lon="118.73391718603670597076416015625">
        <ele>6</ele>
        <time>2022-03-16T04:11:56.000Z</time>
        <extensions>
          <ns3:TrackPointExtension/>
        </extensions>
      </trkpt>
      <trkpt lat="32.0562629587948322296142578125" lon="118.73391718603670597076416015625">
        <ele>6</ele>
        <time>2022-03-16T04:11:57.000Z</time>
        <extensions>
          <ns3:TrackPointExtension>
            <ns3:hr>107</ns3:hr>
          </ns3:TrackPointExtension>
        </extensions>
      </trkpt>
      <trkpt lat="32.05627058632671833038330078125" lon="118.73391718603670597076416015625">
        <ele>6</ele>
        <time>2022-03-16T04:11:58.000Z</time>
        <extensions>
          <ns3:TrackPointExtension/>
        </extensions>
      </trkpt>
      <trkpt lat="32.05628198571503162384033203125" lon="118.73391718603670597076416015625">
        <ele>6</ele>
        <time>2022-03-16T04:11:59.000Z</time>
        <extensions>
          <ns3:TrackPointExtension/>
        </extensions>
      </trkpt>
      <trkpt lat="32.0562934689223766326904296875" lon="118.73391718603670597076416015625">
        <ele>6</ele>
        <time>2022-03-16T04:12:00.000Z</time>
        <extensions>
          <ns3:TrackPointExtension/>
        </extensions>
      </trkpt>
      <trkpt lat="32.05630109645426273345947265625" lon="118.73391718603670597076416015625">
        <ele>6</ele>
        <time>2022-03-16T04:12:01.000Z</time>
        <extensions>
          <ns3:TrackPointExtension/>
        </extensions>
      </trkpt>
      <trkpt lat="32.05631249584257602691650390625" lon="118.733924813568592071533203125">
        <ele>6</ele>
        <time>2022-03-16T04:12:02.000Z</time>
        <extensions>
          <ns3:TrackPointExtension>
            <ns3:hr>106</ns3:hr>
          </ns3:TrackPointExtension>
        </extensions>
      </trkpt>
      <trkpt lat="32.056320123374462127685546875" lon="118.733924813568592071533203125">
        <ele>6</ele>
        <time>2022-03-16T04:12:03.000Z</time>
        <extensions>
          <ns3:TrackPointExtension/>
        </extensions>
      </trkpt>
      <trkpt lat="32.0563239790499210357666015625" lon="118.73393244110047817230224609375">
        <ele>6</ele>
        <time>2022-03-16T04:12:04.000Z</time>
        <extensions>
          <ns3:TrackPointExtension/>
        </extensions>
      </trkpt>
      <trkpt lat="32.05633160658180713653564453125" lon="118.73393244110047817230224609375">
        <ele>6</ele>
        <time>2022-03-16T04:12:05.000Z</time>
        <extensions>
          <ns3:TrackPointExtension/>
        </extensions>
      </trkpt>
      <trkpt lat="32.0563353784382343292236328125" lon="118.7339400686323642730712890625">
        <ele>6</ele>
        <time>2022-03-16T04:12:06.000Z</time>
        <extensions>
          <ns3:TrackPointExtension/>
        </extensions>
      </trkpt>
      <trkpt lat="32.0563353784382343292236328125" lon="118.73394769616425037384033203125">
        <ele>6</ele>
        <time>2022-03-16T04:12:07.000Z</time>
        <extensions>
          <ns3:TrackPointExtension>
            <ns3:hr>104</ns3:hr>
          </ns3:TrackPointExtension>
        </extensions>
      </trkpt>
      <trkpt lat="32.0563353784382343292236328125" lon="118.733955323696136474609375">
        <ele>6</ele>
        <time>2022-03-16T04:12:08.000Z</time>
        <extensions>
          <ns3:TrackPointExtension/>
        </extensions>
      </trkpt>
      <trkpt lat="32.05633160658180713653564453125" lon="118.73396295122802257537841796875">
        <ele>6</ele>
        <time>2022-03-16T04:12:09.000Z</time>
        <extensions>
          <ns3:TrackPointExtension/>
        </extensions>
      </trkpt>
      <trkpt lat="32.05632775090634822845458984375" lon="118.73397820629179477691650390625">
        <ele>6</ele>
        <time>2022-03-16T04:12:10.000Z</time>
        <extensions>
          <ns3:TrackPointExtension/>
        </extensions>
      </trkpt>
      <trkpt lat="32.0563239790499210357666015625" lon="118.733985833823680877685546875">
        <ele>6</ele>
        <time>2022-03-16T04:12:11.000Z</time>
        <extensions>
          <ns3:TrackPointExtension/>
        </extensions>
      </trkpt>
      <trkpt lat="32.056320123374462127685546875" lon="118.7340010888874530792236328125">
        <ele>6</ele>
        <time>2022-03-16T04:12:12.000Z</time>
        <extensions>
          <ns3:TrackPointExtension>
            <ns3:hr>102</ns3:hr>
          </ns3:TrackPointExtension>
        </extensions>
      </trkpt>
      <trkpt lat="32.05631249584257602691650390625" lon="118.73400871641933917999267578125">
        <ele>6</ele>
        <time>2022-03-16T04:12:13.000Z</time>
        <extensions>
          <ns3:TrackPointExtension/>
        </extensions>
      </trkpt>
      <trkpt lat="32.0563048683106899261474609375" lon="118.73402397148311138153076171875">
        <ele>6.19999980926513671875</ele>
        <time>2022-03-16T04:12:14.000Z</time>
        <extensions>
          <ns3:TrackPointExtension/>
        </extensions>
      </trkpt>
      <trkpt lat="32.05630109645426273345947265625" lon="118.73403922654688358306884765625">
        <ele>6.19999980926513671875</ele>
        <time>2022-03-16T04:12:15.000Z</time>
        <extensions>
          <ns3:TrackPointExtension/>
        </extensions>
      </trkpt>
      <trkpt lat="32.0562934689223766326904296875" lon="118.734046854078769683837890625">
        <ele>6.19999980926513671875</ele>
        <time>2022-03-16T04:12:16.000Z</time>
        <extensions>
          <ns3:TrackPointExtension/>
        </extensions>
      </trkpt>
      <trkpt lat="32.05628584139049053192138671875" lon="118.73406219296157360076904296875">
        <ele>6.400000095367431640625</ele>
        <time>2022-03-16T04:12:17.000Z</time>
        <extensions>
          <ns3:TrackPointExtension>
            <ns3:hr>103</ns3:hr>
          </ns3:TrackPointExtension>
        </extensions>
      </trkpt>
      <trkpt lat="32.05628198571503162384033203125" lon="118.73407744802534580230712890625">
        <ele>6.400000095367431640625</ele>
        <time>2022-03-16T04:12:18.000Z</time>
        <extensions>
          <ns3:TrackPointExtension/>
        </extensions>
      </trkpt>
      <trkpt lat="32.0562743581831455230712890625" lon="118.734085075557231903076171875">
        <ele>6.400000095367431640625</ele>
        <time>2022-03-16T04:12:19.000Z</time>
        <extensions>
          <ns3:TrackPointExtension/>
        </extensions>
      </trkpt>
      <trkpt lat="32.05626673065125942230224609375" lon="118.73409270308911800384521484375">
        <ele>6.400000095367431640625</ele>
        <time>2022-03-16T04:12:20.000Z</time>
        <extensions>
          <ns3:TrackPointExtension/>
        </extensions>
      </trkpt>
    </trkseg>
  </trk>
</gpx>
