<gpx xmlns:ns3="http://www.garmin.com/xmlschemas/TrackPointExtension/v1" xmlns="http://www.topografix.com/GPX/1/1" xmlns:xsi="http://www.w3.org/2001/XMLSchema-instance" xmlns:ns2="http://www.garmin.com/xmlschemas/GpxExtensions/v3" creator="Garmin Connect" version="1.1" xsi:schemaLocation="http://www.topografix.com/GPX/1/1 http://www.topografix.com/GPX/11.xsd">
  <extensions>
<distance>5080.0</distance>
<average_hr>171.0</average_hr>
<average_speed>2.889647326507395</average_speed>
<start_time>2022-08-09T11:36:25+00:00</start_time>
<end_time>2022-08-09T12:05:43+00:00</end_time>
<moving_time>1758.0</moving_time>
<elapsed_time>1763.0</elapsed_time>
</extensions>
<metadata>
    <link href="connect.garmin.com">
      <text>Garmin Connect</text>
    </link>
    <time>2022-08-09T11:36:25.000Z</time>
  </metadata>
  <trk>
    <name>室内跑步</name>
    <type>indoor_running</type>
    <trkseg/>
  </trk>
</gpx>
