<gpx xmlns:ns3="http://www.garmin.com/xmlschemas/TrackPointExtension/v1" xmlns="http://www.topografix.com/GPX/1/1" xmlns:xsi="http://www.w3.org/2001/XMLSchema-instance" xmlns:ns2="http://www.garmin.com/xmlschemas/GpxExtensions/v3" creator="Garmin Connect" version="1.1" xsi:schemaLocation="http://www.topografix.com/GPX/1/1 http://www.topografix.com/GPX/11.xsd">
  <extensions>
<distance>350.0</distance>
<average_hr>109.0</average_hr>
<average_speed>1.09375</average_speed>
<start_time>2023-04-07T03:54:11+00:00</start_time>
<end_time>2023-04-07T03:59:31+00:00</end_time>
<moving_time>316.0</moving_time>
<elapsed_time>346.0</elapsed_time>
</extensions>
<metadata>
    <link href="connect.garmin.com">
      <text>Garmin Connect</text>
    </link>
    <time>2023-04-07T03:54:11.000Z</time>
  </metadata>
  <trk>
    <name>南京市 跑步</name>
    <type>running</type>
    <trkseg>
      <trkpt lat="32.002044618129730224609375" lon="118.742790184915065765380859375">
        <ele>5.400000095367431640625</ele>
        <time>2023-04-07T03:54:13.000Z</time>
        <extensions>
          <ns3:TrackPointExtension/>
        </extensions>
      </trkpt>
      <trkpt lat="32.002044618129730224609375" lon="118.742790184915065765380859375">
        <ele>5.400000095367431640625</ele>
        <time>2023-04-07T03:54:14.000Z</time>
        <extensions>
          <ns3:TrackPointExtension/>
        </extensions>
      </trkpt>
      <trkpt lat="32.00204084627330303192138671875" lon="118.74279781244695186614990234375">
        <ele>5.599999904632568359375</ele>
        <time>2023-04-07T03:54:15.000Z</time>
        <extensions>
          <ns3:TrackPointExtension/>
        </extensions>
      </trkpt>
      <trkpt lat="32.00204084627330303192138671875" lon="118.7428054399788379669189453125">
        <ele>5.599999904632568359375</ele>
        <time>2023-04-07T03:54:16.000Z</time>
        <extensions>
          <ns3:TrackPointExtension>
            <ns3:hr>116</ns3:hr>
          </ns3:TrackPointExtension>
        </extensions>
      </trkpt>
      <trkpt lat="32.00203699059784412384033203125" lon="118.74281306751072406768798828125">
        <ele>5.599999904632568359375</ele>
        <time>2023-04-07T03:54:17.000Z</time>
        <extensions>
          <ns3:TrackPointExtension/>
        </extensions>
      </trkpt>
      <trkpt lat="32.0020293630659580230712890625" lon="118.74282069504261016845703125">
        <ele>5.599999904632568359375</ele>
        <time>2023-04-07T03:54:18.000Z</time>
        <extensions>
          <ns3:TrackPointExtension/>
        </extensions>
      </trkpt>
      <trkpt lat="32.00202559120953083038330078125" lon="118.74282832257449626922607421875">
        <ele>5.599999904632568359375</ele>
        <time>2023-04-07T03:54:19.000Z</time>
        <extensions>
          <ns3:TrackPointExtension/>
        </extensions>
      </trkpt>
      <trkpt lat="32.00202173553407192230224609375" lon="118.7428359501063823699951171875">
        <ele>5.599999904632568359375</ele>
        <time>2023-04-07T03:54:20.000Z</time>
        <extensions>
          <ns3:TrackPointExtension/>
        </extensions>
      </trkpt>
      <trkpt lat="32.0020179636776447296142578125" lon="118.74284357763826847076416015625">
        <ele>5.599999904632568359375</ele>
        <time>2023-04-07T03:54:21.000Z</time>
        <extensions>
          <ns3:TrackPointExtension>
            <ns3:hr>115</ns3:hr>
            <ns3:cad>47</ns3:cad>
          </ns3:TrackPointExtension>
        </extensions>
      </trkpt>
      <trkpt lat="32.00201033614575862884521484375" lon="118.742851205170154571533203125">
        <ele>5.400000095367431640625</ele>
        <time>2023-04-07T03:54:22.000Z</time>
        <extensions>
          <ns3:TrackPointExtension/>
        </extensions>
      </trkpt>
      <trkpt lat="32.00200648047029972076416015625" lon="118.74285883270204067230224609375">
        <ele>5.400000095367431640625</ele>
        <time>2023-04-07T03:54:23.000Z</time>
        <extensions>
          <ns3:TrackPointExtension/>
        </extensions>
      </trkpt>
      <trkpt lat="32.002002708613872528076171875" lon="118.7428664602339267730712890625">
        <ele>5.400000095367431640625</ele>
        <time>2023-04-07T03:54:24.000Z</time>
        <extensions>
          <ns3:TrackPointExtension/>
        </extensions>
      </trkpt>
      <trkpt lat="32.00199508108198642730712890625" lon="118.74287408776581287384033203125">
        <ele>5.400000095367431640625</ele>
        <time>2023-04-07T03:54:25.000Z</time>
        <extensions>
          <ns3:TrackPointExtension/>
        </extensions>
      </trkpt>
      <trkpt lat="32.0019874535501003265380859375" lon="118.742881715297698974609375">
        <ele>5.400000095367431640625</ele>
        <time>2023-04-07T03:54:26.000Z</time>
        <extensions>
          <ns3:TrackPointExtension>
            <ns3:hr>115</ns3:hr>
            <ns3:cad>46</ns3:cad>
          </ns3:TrackPointExtension>
        </extensions>
      </trkpt>
      <trkpt lat="32.00198359787464141845703125" lon="118.74288934282958507537841796875">
        <ele>5.400000095367431640625</ele>
        <time>2023-04-07T03:54:27.000Z</time>
        <extensions>
          <ns3:TrackPointExtension/>
        </extensions>
      </trkpt>
      <trkpt lat="32.00197597034275531768798828125" lon="118.74290459789335727691650390625">
        <ele>5.400000095367431640625</ele>
        <time>2023-04-07T03:54:28.000Z</time>
        <extensions>
          <ns3:TrackPointExtension/>
        </extensions>
      </trkpt>
      <trkpt lat="32.0019683428108692169189453125" lon="118.742912225425243377685546875">
        <ele>5.400000095367431640625</ele>
        <time>2023-04-07T03:54:29.000Z</time>
        <extensions>
          <ns3:TrackPointExtension/>
        </extensions>
      </trkpt>
      <trkpt lat="32.00196071527898311614990234375" lon="118.74291985295712947845458984375">
        <ele>5.400000095367431640625</ele>
        <time>2023-04-07T03:54:30.000Z</time>
        <extensions>
          <ns3:TrackPointExtension/>
        </extensions>
      </trkpt>
      <trkpt lat="32.00195685960352420806884765625" lon="118.74293510802090167999267578125">
        <ele>5.400000095367431640625</ele>
        <time>2023-04-07T03:54:31.000Z</time>
        <extensions>
          <ns3:TrackPointExtension>
            <ns3:hr>115</ns3:hr>
            <ns3:cad>47</ns3:cad>
          </ns3:TrackPointExtension>
        </extensions>
      </trkpt>
      <trkpt lat="32.00194546021521091461181640625" lon="118.74294273555278778076171875">
        <ele>5.400000095367431640625</ele>
        <time>2023-04-07T03:54:32.000Z</time>
        <extensions>
          <ns3:TrackPointExtension/>
        </extensions>
      </trkpt>
      <trkpt lat="32.00194160453975200653076171875" lon="118.74295036308467388153076171875">
        <ele>5.400000095367431640625</ele>
        <time>2023-04-07T03:54:33.000Z</time>
        <extensions>
          <ns3:TrackPointExtension/>
        </extensions>
      </trkpt>
      <trkpt lat="32.00193020515143871307373046875" lon="118.74296561814844608306884765625">
        <ele>5.400000095367431640625</ele>
        <time>2023-04-07T03:54:34.000Z</time>
        <extensions>
          <ns3:TrackPointExtension/>
        </extensions>
      </trkpt>
      <trkpt lat="32.00192634947597980499267578125" lon="118.742973245680332183837890625">
        <ele>5.400000095367431640625</ele>
        <time>2023-04-07T03:54:35.000Z</time>
        <extensions>
          <ns3:TrackPointExtension/>
        </extensions>
      </trkpt>
      <trkpt lat="32.0019187219440937042236328125" lon="118.74298858456313610076904296875">
        <ele>5.400000095367431640625</ele>
        <time>2023-04-07T03:54:36.000Z</time>
        <extensions>
          <ns3:TrackPointExtension>
            <ns3:hr>115</ns3:hr>
            <ns3:cad>48</ns3:cad>
          </ns3:TrackPointExtension>
        </extensions>
      </trkpt>
      <trkpt lat="32.0019073225557804107666015625" lon="118.7429962120950222015380859375">
        <ele>5.19999980926513671875</ele>
        <time>2023-04-07T03:54:37.000Z</time>
        <extensions>
          <ns3:TrackPointExtension/>
        </extensions>
      </trkpt>
      <trkpt lat="32.00189969502389430999755859375" lon="118.743011467158794403076171875">
        <ele>5.19999980926513671875</ele>
        <time>2023-04-07T03:54:38.000Z</time>
        <extensions>
          <ns3:TrackPointExtension/>
        </extensions>
      </trkpt>
      <trkpt lat="32.001892067492008209228515625" lon="118.7430267222225666046142578125">
        <ele>5.19999980926513671875</ele>
        <time>2023-04-07T03:54:39.000Z</time>
        <extensions>
          <ns3:TrackPointExtension/>
        </extensions>
      </trkpt>
      <trkpt lat="32.00188443996012210845947265625" lon="118.74303434975445270538330078125">
        <ele>5.19999980926513671875</ele>
        <time>2023-04-07T03:54:40.000Z</time>
        <extensions>
          <ns3:TrackPointExtension/>
        </extensions>
      </trkpt>
      <trkpt lat="32.0018768124282360076904296875" lon="118.74304960481822490692138671875">
        <ele>5.19999980926513671875</ele>
        <time>2023-04-07T03:54:41.000Z</time>
        <extensions>
          <ns3:TrackPointExtension>
            <ns3:hr>115</ns3:hr>
            <ns3:cad>48</ns3:cad>
          </ns3:TrackPointExtension>
        </extensions>
      </trkpt>
      <trkpt lat="32.00186532922089099884033203125" lon="118.74306485988199710845947265625">
        <ele>5.19999980926513671875</ele>
        <time>2023-04-07T03:54:42.000Z</time>
        <extensions>
          <ns3:TrackPointExtension/>
        </extensions>
      </trkpt>
      <trkpt lat="32.0018577016890048980712890625" lon="118.743072487413883209228515625">
        <ele>5.19999980926513671875</ele>
        <time>2023-04-07T03:54:43.000Z</time>
        <extensions>
          <ns3:TrackPointExtension/>
        </extensions>
      </trkpt>
      <trkpt lat="32.0018463023006916046142578125" lon="118.7430877424776554107666015625">
        <ele>5.19999980926513671875</ele>
        <time>2023-04-07T03:54:44.000Z</time>
        <extensions>
          <ns3:TrackPointExtension/>
        </extensions>
      </trkpt>
      <trkpt lat="32.00183867476880550384521484375" lon="118.7431029975414276123046875">
        <ele>5.19999980926513671875</ele>
        <time>2023-04-07T03:54:45.000Z</time>
        <extensions>
          <ns3:TrackPointExtension/>
        </extensions>
      </trkpt>
      <trkpt lat="32.0018271915614604949951171875" lon="118.7431182526051998138427734375">
        <ele>5.19999980926513671875</ele>
        <time>2023-04-07T03:54:46.000Z</time>
        <extensions>
          <ns3:TrackPointExtension>
            <ns3:hr>115</ns3:hr>
            <ns3:cad>49</ns3:cad>
          </ns3:TrackPointExtension>
        </extensions>
      </trkpt>
      <trkpt lat="32.00181956402957439422607421875" lon="118.743133507668972015380859375">
        <ele>5</ele>
        <time>2023-04-07T03:54:47.000Z</time>
        <extensions>
          <ns3:TrackPointExtension/>
        </extensions>
      </trkpt>
      <trkpt lat="32.00180816464126110076904296875" lon="118.7431487627327442169189453125">
        <ele>5</ele>
        <time>2023-04-07T03:54:48.000Z</time>
        <extensions>
          <ns3:TrackPointExtension/>
        </extensions>
      </trkpt>
      <trkpt lat="32.001800537109375" lon="118.74316401779651641845703125">
        <ele>5</ele>
        <time>2023-04-07T03:54:49.000Z</time>
        <extensions>
          <ns3:TrackPointExtension/>
        </extensions>
      </trkpt>
      <trkpt lat="32.001792825758457183837890625" lon="118.7431792728602886199951171875">
        <ele>5</ele>
        <time>2023-04-07T03:54:50.000Z</time>
        <extensions>
          <ns3:TrackPointExtension/>
        </extensions>
      </trkpt>
      <trkpt lat="32.00178519822657108306884765625" lon="118.743194527924060821533203125">
        <ele>5</ele>
        <time>2023-04-07T03:54:51.000Z</time>
        <extensions>
          <ns3:TrackPointExtension>
            <ns3:hr>115</ns3:hr>
            <ns3:cad>51</ns3:cad>
          </ns3:TrackPointExtension>
        </extensions>
      </trkpt>
      <trkpt lat="32.0017775706946849822998046875" lon="118.7432097829878330230712890625">
        <ele>5</ele>
        <time>2023-04-07T03:54:52.000Z</time>
        <extensions>
          <ns3:TrackPointExtension/>
        </extensions>
      </trkpt>
      <trkpt lat="32.00176994316279888153076171875" lon="118.743225038051605224609375">
        <ele>5</ele>
        <time>2023-04-07T03:54:53.000Z</time>
        <extensions>
          <ns3:TrackPointExtension/>
        </extensions>
      </trkpt>
      <trkpt lat="32.00176231563091278076171875" lon="118.7432402931153774261474609375">
        <ele>5</ele>
        <time>2023-04-07T03:54:54.000Z</time>
        <extensions>
          <ns3:TrackPointExtension/>
        </extensions>
      </trkpt>
      <trkpt lat="32.00175854377448558807373046875" lon="118.743255548179149627685546875">
        <ele>5</ele>
        <time>2023-04-07T03:54:55.000Z</time>
        <extensions>
          <ns3:TrackPointExtension/>
        </extensions>
      </trkpt>
      <trkpt lat="32.0017509162425994873046875" lon="118.7432708032429218292236328125">
        <ele>5</ele>
        <time>2023-04-07T03:54:56.000Z</time>
        <extensions>
          <ns3:TrackPointExtension>
            <ns3:hr>96</ns3:hr>
            <ns3:cad>52</ns3:cad>
          </ns3:TrackPointExtension>
        </extensions>
      </trkpt>
      <trkpt lat="32.0017470605671405792236328125" lon="118.74327843077480792999267578125">
        <ele>5</ele>
        <time>2023-04-07T03:54:57.000Z</time>
        <extensions>
          <ns3:TrackPointExtension/>
        </extensions>
      </trkpt>
      <trkpt lat="32.00173943303525447845458984375" lon="118.74329368583858013153076171875">
        <ele>5</ele>
        <time>2023-04-07T03:54:58.000Z</time>
        <extensions>
          <ns3:TrackPointExtension/>
        </extensions>
      </trkpt>
      <trkpt lat="32.0017356611788272857666015625" lon="118.74330894090235233306884765625">
        <ele>5</ele>
        <time>2023-04-07T03:54:59.000Z</time>
        <extensions>
          <ns3:TrackPointExtension/>
        </extensions>
      </trkpt>
      <trkpt lat="32.001731805503368377685546875" lon="118.743316568434238433837890625">
        <ele>5</ele>
        <time>2023-04-07T03:55:00.000Z</time>
        <extensions>
          <ns3:TrackPointExtension/>
        </extensions>
      </trkpt>
      <trkpt lat="32.00172803364694118499755859375" lon="118.74333190731704235076904296875">
        <ele>5</ele>
        <time>2023-04-07T03:55:01.000Z</time>
        <extensions>
          <ns3:TrackPointExtension>
            <ns3:hr>96</ns3:hr>
            <ns3:cad>52</ns3:cad>
          </ns3:TrackPointExtension>
        </extensions>
      </trkpt>
      <trkpt lat="32.00172417797148227691650390625" lon="118.74334716238081455230712890625">
        <ele>4.80000019073486328125</ele>
        <time>2023-04-07T03:55:02.000Z</time>
        <extensions>
          <ns3:TrackPointExtension/>
        </extensions>
      </trkpt>
      <trkpt lat="32.001720406115055084228515625" lon="118.74336241744458675384521484375">
        <ele>4.80000019073486328125</ele>
        <time>2023-04-07T03:55:03.000Z</time>
        <extensions>
          <ns3:TrackPointExtension/>
        </extensions>
      </trkpt>
      <trkpt lat="32.0017165504395961761474609375" lon="118.7433700449764728546142578125">
        <ele>4.80000019073486328125</ele>
        <time>2023-04-07T03:55:04.000Z</time>
        <extensions>
          <ns3:TrackPointExtension/>
        </extensions>
      </trkpt>
      <trkpt lat="32.0017165504395961761474609375" lon="118.74338530004024505615234375">
        <ele>4.80000019073486328125</ele>
        <time>2023-04-07T03:55:05.000Z</time>
        <extensions>
          <ns3:TrackPointExtension/>
        </extensions>
      </trkpt>
      <trkpt lat="32.00171277858316898345947265625" lon="118.7434005551040172576904296875">
        <ele>4.599999904632568359375</ele>
        <time>2023-04-07T03:55:06.000Z</time>
        <extensions>
          <ns3:TrackPointExtension>
            <ns3:hr>91</ns3:hr>
            <ns3:cad>51</ns3:cad>
          </ns3:TrackPointExtension>
        </extensions>
      </trkpt>
      <trkpt lat="32.00171277858316898345947265625" lon="118.743415810167789459228515625">
        <ele>4.599999904632568359375</ele>
        <time>2023-04-07T03:55:07.000Z</time>
        <extensions>
          <ns3:TrackPointExtension/>
        </extensions>
      </trkpt>
      <trkpt lat="32.00171277858316898345947265625" lon="118.7434310652315616607666015625">
        <ele>4.400000095367431640625</ele>
        <time>2023-04-07T03:55:08.000Z</time>
        <extensions>
          <ns3:TrackPointExtension/>
        </extensions>
      </trkpt>
      <trkpt lat="32.00171277858316898345947265625" lon="118.7434463202953338623046875">
        <ele>4.400000095367431640625</ele>
        <time>2023-04-07T03:55:09.000Z</time>
        <extensions>
          <ns3:TrackPointExtension/>
        </extensions>
      </trkpt>
      <trkpt lat="32.00171277858316898345947265625" lon="118.74345394782721996307373046875">
        <ele>4.19999980926513671875</ele>
        <time>2023-04-07T03:55:10.000Z</time>
        <extensions>
          <ns3:TrackPointExtension/>
        </extensions>
      </trkpt>
      <trkpt lat="32.00171277858316898345947265625" lon="118.74346920289099216461181640625">
        <ele>4.19999980926513671875</ele>
        <time>2023-04-07T03:55:11.000Z</time>
        <extensions>
          <ns3:TrackPointExtension>
            <ns3:hr>96</ns3:hr>
            <ns3:cad>52</ns3:cad>
          </ns3:TrackPointExtension>
        </extensions>
      </trkpt>
      <trkpt lat="32.00171277858316898345947265625" lon="118.74348445795476436614990234375">
        <ele>4</ele>
        <time>2023-04-07T03:55:12.000Z</time>
        <extensions>
          <ns3:TrackPointExtension/>
        </extensions>
      </trkpt>
      <trkpt lat="32.00171277858316898345947265625" lon="118.7434920854866504669189453125">
        <ele>4</ele>
        <time>2023-04-07T03:55:13.000Z</time>
        <extensions>
          <ns3:TrackPointExtension/>
        </extensions>
      </trkpt>
      <trkpt lat="32.0017165504395961761474609375" lon="118.74349971301853656768798828125">
        <ele>4</ele>
        <time>2023-04-07T03:55:14.000Z</time>
        <extensions>
          <ns3:TrackPointExtension/>
        </extensions>
      </trkpt>
      <trkpt lat="32.0017165504395961761474609375" lon="118.74351496808230876922607421875">
        <ele>3.7999999523162841796875</ele>
        <time>2023-04-07T03:55:15.000Z</time>
        <extensions>
          <ns3:TrackPointExtension/>
        </extensions>
      </trkpt>
      <trkpt lat="32.0017165504395961761474609375" lon="118.7435225956141948699951171875">
        <ele>3.7999999523162841796875</ele>
        <time>2023-04-07T03:55:16.000Z</time>
        <extensions>
          <ns3:TrackPointExtension>
            <ns3:hr>99</ns3:hr>
            <ns3:cad>53</ns3:cad>
          </ns3:TrackPointExtension>
        </extensions>
      </trkpt>
      <trkpt lat="32.0017165504395961761474609375" lon="118.74353022314608097076416015625">
        <ele>3.7999999523162841796875</ele>
        <time>2023-04-07T03:55:17.000Z</time>
        <extensions>
          <ns3:TrackPointExtension/>
        </extensions>
      </trkpt>
      <trkpt lat="32.001720406115055084228515625" lon="118.74354547820985317230224609375">
        <ele>3.599999904632568359375</ele>
        <time>2023-04-07T03:55:18.000Z</time>
        <extensions>
          <ns3:TrackPointExtension/>
        </extensions>
      </trkpt>
      <trkpt lat="32.001720406115055084228515625" lon="118.7435531057417392730712890625">
        <ele>3.599999904632568359375</ele>
        <time>2023-04-07T03:55:19.000Z</time>
        <extensions>
          <ns3:TrackPointExtension/>
        </extensions>
      </trkpt>
      <trkpt lat="32.001720406115055084228515625" lon="118.74356073327362537384033203125">
        <ele>3.599999904632568359375</ele>
        <time>2023-04-07T03:55:20.000Z</time>
        <extensions>
          <ns3:TrackPointExtension/>
        </extensions>
      </trkpt>
      <trkpt lat="32.00172417797148227691650390625" lon="118.743568360805511474609375">
        <ele>3.400000095367431640625</ele>
        <time>2023-04-07T03:55:21.000Z</time>
        <extensions>
          <ns3:TrackPointExtension>
            <ns3:hr>101</ns3:hr>
            <ns3:cad>53</ns3:cad>
          </ns3:TrackPointExtension>
        </extensions>
      </trkpt>
      <trkpt lat="32.00172417797148227691650390625" lon="118.74357598833739757537841796875">
        <ele>3.400000095367431640625</ele>
        <time>2023-04-07T03:55:22.000Z</time>
        <extensions>
          <ns3:TrackPointExtension/>
        </extensions>
      </trkpt>
      <trkpt lat="32.00172803364694118499755859375" lon="118.74357598833739757537841796875">
        <ele>3.400000095367431640625</ele>
        <time>2023-04-07T03:55:23.000Z</time>
        <extensions>
          <ns3:TrackPointExtension/>
        </extensions>
      </trkpt>
      <trkpt lat="32.00172803364694118499755859375" lon="118.7435836158692836761474609375">
        <ele>3.400000095367431640625</ele>
        <time>2023-04-07T03:55:24.000Z</time>
        <extensions>
          <ns3:TrackPointExtension/>
        </extensions>
      </trkpt>
      <trkpt lat="32.001731805503368377685546875" lon="118.74359124340116977691650390625">
        <ele>3.400000095367431640625</ele>
        <time>2023-04-07T03:55:25.000Z</time>
        <extensions>
          <ns3:TrackPointExtension/>
        </extensions>
      </trkpt>
      <trkpt lat="32.001731805503368377685546875" lon="118.74359124340116977691650390625">
        <ele>3.400000095367431640625</ele>
        <time>2023-04-07T03:55:26.000Z</time>
        <extensions>
          <ns3:TrackPointExtension>
            <ns3:hr>102</ns3:hr>
            <ns3:cad>54</ns3:cad>
          </ns3:TrackPointExtension>
        </extensions>
      </trkpt>
      <trkpt lat="32.001731805503368377685546875" lon="118.743598870933055877685546875">
        <ele>3.400000095367431640625</ele>
        <time>2023-04-07T03:55:27.000Z</time>
        <extensions>
          <ns3:TrackPointExtension/>
        </extensions>
      </trkpt>
      <trkpt lat="32.0017356611788272857666015625" lon="118.743598870933055877685546875">
        <ele>3.400000095367431640625</ele>
        <time>2023-04-07T03:55:28.000Z</time>
        <extensions>
          <ns3:TrackPointExtension/>
        </extensions>
      </trkpt>
      <trkpt lat="32.001731805503368377685546875" lon="118.74360649846494197845458984375">
        <ele>3.2000000476837158203125</ele>
        <time>2023-04-07T03:55:29.000Z</time>
        <extensions>
          <ns3:TrackPointExtension/>
        </extensions>
      </trkpt>
      <trkpt lat="32.001731805503368377685546875" lon="118.74360649846494197845458984375">
        <ele>3.2000000476837158203125</ele>
        <time>2023-04-07T03:55:30.000Z</time>
        <extensions>
          <ns3:TrackPointExtension/>
        </extensions>
      </trkpt>
      <trkpt lat="32.00172803364694118499755859375" lon="118.74360649846494197845458984375">
        <ele>3.2000000476837158203125</ele>
        <time>2023-04-07T03:55:31.000Z</time>
        <extensions>
          <ns3:TrackPointExtension>
            <ns3:hr>102</ns3:hr>
          </ns3:TrackPointExtension>
        </extensions>
      </trkpt>
      <trkpt lat="32.00172417797148227691650390625" lon="118.7436141259968280792236328125">
        <ele>3.2000000476837158203125</ele>
        <time>2023-04-07T03:55:32.000Z</time>
        <extensions>
          <ns3:TrackPointExtension/>
        </extensions>
      </trkpt>
      <trkpt lat="32.0017165504395961761474609375" lon="118.7436141259968280792236328125">
        <ele>3.2000000476837158203125</ele>
        <time>2023-04-07T03:55:33.000Z</time>
        <extensions>
          <ns3:TrackPointExtension/>
        </extensions>
      </trkpt>
      <trkpt lat="32.00171277858316898345947265625" lon="118.7436141259968280792236328125">
        <ele>3.2000000476837158203125</ele>
        <time>2023-04-07T03:55:34.000Z</time>
        <extensions>
          <ns3:TrackPointExtension/>
        </extensions>
      </trkpt>
      <trkpt lat="32.001701295375823974609375" lon="118.7436141259968280792236328125">
        <ele>3</ele>
        <time>2023-04-07T03:55:35.000Z</time>
        <extensions>
          <ns3:TrackPointExtension/>
        </extensions>
      </trkpt>
      <trkpt lat="32.00169366784393787384033203125" lon="118.74362175352871417999267578125">
        <ele>3</ele>
        <time>2023-04-07T03:55:36.000Z</time>
        <extensions>
          <ns3:TrackPointExtension>
            <ns3:hr>102</ns3:hr>
            <ns3:cad>54</ns3:cad>
          </ns3:TrackPointExtension>
        </extensions>
      </trkpt>
      <trkpt lat="32.00168226845562458038330078125" lon="118.74362175352871417999267578125">
        <ele>3</ele>
        <time>2023-04-07T03:55:37.000Z</time>
        <extensions>
          <ns3:TrackPointExtension/>
        </extensions>
      </trkpt>
      <trkpt lat="32.001670785248279571533203125" lon="118.74362175352871417999267578125">
        <ele>3</ele>
        <time>2023-04-07T03:55:38.000Z</time>
        <extensions>
          <ns3:TrackPointExtension/>
        </extensions>
      </trkpt>
      <trkpt lat="32.001659385859966278076171875" lon="118.74362175352871417999267578125">
        <ele>2.7999999523162841796875</ele>
        <time>2023-04-07T03:55:39.000Z</time>
        <extensions>
          <ns3:TrackPointExtension/>
        </extensions>
      </trkpt>
      <trkpt lat="32.00164790265262126922607421875" lon="118.74362175352871417999267578125">
        <ele>2.7999999523162841796875</ele>
        <time>2023-04-07T03:55:40.000Z</time>
        <extensions>
          <ns3:TrackPointExtension/>
        </extensions>
      </trkpt>
      <trkpt lat="32.00163650326430797576904296875" lon="118.74362175352871417999267578125">
        <ele>2.7999999523162841796875</ele>
        <time>2023-04-07T03:55:41.000Z</time>
        <extensions>
          <ns3:TrackPointExtension>
            <ns3:hr>102</ns3:hr>
            <ns3:cad>54</ns3:cad>
          </ns3:TrackPointExtension>
        </extensions>
      </trkpt>
      <trkpt lat="32.0016250200569629669189453125" lon="118.74362175352871417999267578125">
        <ele>2.7999999523162841796875</ele>
        <time>2023-04-07T03:55:42.000Z</time>
        <extensions>
          <ns3:TrackPointExtension/>
        </extensions>
      </trkpt>
      <trkpt lat="32.00161353684961795806884765625" lon="118.74362175352871417999267578125">
        <ele>2.7999999523162841796875</ele>
        <time>2023-04-07T03:55:43.000Z</time>
        <extensions>
          <ns3:TrackPointExtension/>
        </extensions>
      </trkpt>
      <trkpt lat="32.0016059093177318572998046875" lon="118.74362938106060028076171875">
        <ele>2.599999904632568359375</ele>
        <time>2023-04-07T03:55:44.000Z</time>
        <extensions>
          <ns3:TrackPointExtension/>
        </extensions>
      </trkpt>
      <trkpt lat="32.0015945099294185638427734375" lon="118.74362938106060028076171875">
        <ele>2.599999904632568359375</ele>
        <time>2023-04-07T03:55:45.000Z</time>
        <extensions>
          <ns3:TrackPointExtension/>
        </extensions>
      </trkpt>
      <trkpt lat="32.00158688239753246307373046875" lon="118.74362938106060028076171875">
        <ele>2.599999904632568359375</ele>
        <time>2023-04-07T03:55:46.000Z</time>
        <extensions>
          <ns3:TrackPointExtension>
            <ns3:hr>102</ns3:hr>
            <ns3:cad>55</ns3:cad>
          </ns3:TrackPointExtension>
        </extensions>
      </trkpt>
      <trkpt lat="32.0015792548656463623046875" lon="118.74363700859248638153076171875">
        <ele>2.400000095367431640625</ele>
        <time>2023-04-07T03:55:47.000Z</time>
        <extensions>
          <ns3:TrackPointExtension/>
        </extensions>
      </trkpt>
      <trkpt lat="32.00157162733376026153564453125" lon="118.74363700859248638153076171875">
        <ele>2.400000095367431640625</ele>
        <time>2023-04-07T03:55:48.000Z</time>
        <extensions>
          <ns3:TrackPointExtension/>
        </extensions>
      </trkpt>
      <trkpt lat="32.0015639998018741607666015625" lon="118.7436446361243724822998046875">
        <ele>2.400000095367431640625</ele>
        <time>2023-04-07T03:55:49.000Z</time>
        <extensions>
          <ns3:TrackPointExtension/>
        </extensions>
      </trkpt>
      <trkpt lat="32.00155637226998805999755859375" lon="118.74365226365625858306884765625">
        <ele>2.2000000476837158203125</ele>
        <time>2023-04-07T03:55:50.000Z</time>
        <extensions>
          <ns3:TrackPointExtension/>
        </extensions>
      </trkpt>
      <trkpt lat="32.001548744738101959228515625" lon="118.74365226365625858306884765625">
        <ele>2.2000000476837158203125</ele>
        <time>2023-04-07T03:55:51.000Z</time>
        <extensions>
          <ns3:TrackPointExtension>
            <ns3:cad>55</ns3:cad>
          </ns3:TrackPointExtension>
        </extensions>
      </trkpt>
      <trkpt lat="32.00154111720621585845947265625" lon="118.743659891188144683837890625">
        <ele>2.2000000476837158203125</ele>
        <time>2023-04-07T03:55:52.000Z</time>
        <extensions>
          <ns3:TrackPointExtension/>
        </extensions>
      </trkpt>
      <trkpt lat="32.00153726153075695037841796875" lon="118.743659891188144683837890625">
        <ele>2.2000000476837158203125</ele>
        <time>2023-04-07T03:55:53.000Z</time>
        <extensions>
          <ns3:TrackPointExtension/>
        </extensions>
      </trkpt>
      <trkpt lat="32.001529633998870849609375" lon="118.7436676025390625">
        <ele>2</ele>
        <time>2023-04-07T03:55:54.000Z</time>
        <extensions>
          <ns3:TrackPointExtension/>
        </extensions>
      </trkpt>
      <trkpt lat="32.00152200646698474884033203125" lon="118.74367523007094860076904296875">
        <ele>2</ele>
        <time>2023-04-07T03:55:55.000Z</time>
        <extensions>
          <ns3:TrackPointExtension/>
        </extensions>
      </trkpt>
      <trkpt lat="32.0015143789350986480712890625" lon="118.74367523007094860076904296875">
        <ele>2</ele>
        <time>2023-04-07T03:55:56.000Z</time>
        <extensions>
          <ns3:TrackPointExtension>
            <ns3:hr>107</ns3:hr>
            <ns3:cad>55</ns3:cad>
          </ns3:TrackPointExtension>
        </extensions>
      </trkpt>
      <trkpt lat="32.00151060707867145538330078125" lon="118.7436828576028347015380859375">
        <ele>2.2000000476837158203125</ele>
        <time>2023-04-07T03:55:57.000Z</time>
        <extensions>
          <ns3:TrackPointExtension/>
        </extensions>
      </trkpt>
      <trkpt lat="32.0015029795467853546142578125" lon="118.7436828576028347015380859375">
        <ele>2.2000000476837158203125</ele>
        <time>2023-04-07T03:55:58.000Z</time>
        <extensions>
          <ns3:TrackPointExtension/>
        </extensions>
      </trkpt>
      <trkpt lat="32.00149535201489925384521484375" lon="118.74369048513472080230712890625">
        <ele>2.2000000476837158203125</ele>
        <time>2023-04-07T03:55:59.000Z</time>
        <extensions>
          <ns3:TrackPointExtension/>
        </extensions>
      </trkpt>
      <trkpt lat="32.001487724483013153076171875" lon="118.74369048513472080230712890625">
        <ele>2.2000000476837158203125</ele>
        <time>2023-04-07T03:56:00.000Z</time>
        <extensions>
          <ns3:TrackPointExtension/>
        </extensions>
      </trkpt>
      <trkpt lat="32.00148009695112705230712890625" lon="118.743698112666606903076171875">
        <ele>2.400000095367431640625</ele>
        <time>2023-04-07T03:56:01.000Z</time>
        <extensions>
          <ns3:TrackPointExtension>
            <ns3:hr>109</ns3:hr>
            <ns3:cad>55</ns3:cad>
          </ns3:TrackPointExtension>
        </extensions>
      </trkpt>
      <trkpt lat="32.00147624127566814422607421875" lon="118.74370574019849300384521484375">
        <ele>2.400000095367431640625</ele>
        <time>2023-04-07T03:56:02.000Z</time>
        <extensions>
          <ns3:TrackPointExtension/>
        </extensions>
      </trkpt>
      <trkpt lat="32.0014724694192409515380859375" lon="118.74370574019849300384521484375">
        <ele>2.400000095367431640625</ele>
        <time>2023-04-07T03:56:03.000Z</time>
        <extensions>
          <ns3:TrackPointExtension/>
        </extensions>
      </trkpt>
      <trkpt lat="32.00146484188735485076904296875" lon="118.7437133677303791046142578125">
        <ele>2.400000095367431640625</ele>
        <time>2023-04-07T03:56:04.000Z</time>
        <extensions>
          <ns3:TrackPointExtension/>
        </extensions>
      </trkpt>
      <trkpt lat="32.00146098621189594268798828125" lon="118.74372099526226520538330078125">
        <ele>2.400000095367431640625</ele>
        <time>2023-04-07T03:56:05.000Z</time>
        <extensions>
          <ns3:TrackPointExtension/>
        </extensions>
      </trkpt>
      <trkpt lat="32.00145721435546875" lon="118.74372862279415130615234375">
        <ele>2.599999904632568359375</ele>
        <time>2023-04-07T03:56:06.000Z</time>
        <extensions>
          <ns3:TrackPointExtension>
            <ns3:hr>110</ns3:hr>
            <ns3:cad>55</ns3:cad>
          </ns3:TrackPointExtension>
        </extensions>
      </trkpt>
      <trkpt lat="32.0014533586800098419189453125" lon="118.74373625032603740692138671875">
        <ele>2.599999904632568359375</ele>
        <time>2023-04-07T03:56:07.000Z</time>
        <extensions>
          <ns3:TrackPointExtension/>
        </extensions>
      </trkpt>
      <trkpt lat="32.001449503004550933837890625" lon="118.74375150538980960845947265625">
        <ele>2.599999904632568359375</ele>
        <time>2023-04-07T03:56:08.000Z</time>
        <extensions>
          <ns3:TrackPointExtension/>
        </extensions>
      </trkpt>
      <trkpt lat="32.00144573114812374114990234375" lon="118.743759132921695709228515625">
        <ele>2.599999904632568359375</ele>
        <time>2023-04-07T03:56:09.000Z</time>
        <extensions>
          <ns3:TrackPointExtension/>
        </extensions>
      </trkpt>
      <trkpt lat="32.00144187547266483306884765625" lon="118.74376676045358180999755859375">
        <ele>2.599999904632568359375</ele>
        <time>2023-04-07T03:56:10.000Z</time>
        <extensions>
          <ns3:TrackPointExtension/>
        </extensions>
      </trkpt>
      <trkpt lat="32.001438103616237640380859375" lon="118.74378201551735401153564453125">
        <ele>2.599999904632568359375</ele>
        <time>2023-04-07T03:56:11.000Z</time>
        <extensions>
          <ns3:TrackPointExtension>
            <ns3:hr>111</ns3:hr>
            <ns3:cad>56</ns3:cad>
          </ns3:TrackPointExtension>
        </extensions>
      </trkpt>
      <trkpt lat="32.0014342479407787322998046875" lon="118.7437896430492401123046875">
        <ele>2.599999904632568359375</ele>
        <time>2023-04-07T03:56:12.000Z</time>
        <extensions>
          <ns3:TrackPointExtension/>
        </extensions>
      </trkpt>
      <trkpt lat="32.00143047608435153961181640625" lon="118.74379727058112621307373046875">
        <ele>2.7999999523162841796875</ele>
        <time>2023-04-07T03:56:13.000Z</time>
        <extensions>
          <ns3:TrackPointExtension/>
        </extensions>
      </trkpt>
      <trkpt lat="32.00142662040889263153076171875" lon="118.74381252564489841461181640625">
        <ele>2.7999999523162841796875</ele>
        <time>2023-04-07T03:56:14.000Z</time>
        <extensions>
          <ns3:TrackPointExtension/>
        </extensions>
      </trkpt>
      <trkpt lat="32.00141899287700653076171875" lon="118.743820153176784515380859375">
        <ele>2.7999999523162841796875</ele>
        <time>2023-04-07T03:56:15.000Z</time>
        <extensions>
          <ns3:TrackPointExtension/>
        </extensions>
      </trkpt>
      <trkpt lat="32.00141522102057933807373046875" lon="118.7438354082405567169189453125">
        <ele>2.7999999523162841796875</ele>
        <time>2023-04-07T03:56:16.000Z</time>
        <extensions>
          <ns3:TrackPointExtension>
            <ns3:hr>110</ns3:hr>
            <ns3:cad>57</ns3:cad>
          </ns3:TrackPointExtension>
        </extensions>
      </trkpt>
      <trkpt lat="32.00141136534512042999267578125" lon="118.74384303577244281768798828125">
        <ele>2.7999999523162841796875</ele>
        <time>2023-04-07T03:56:17.000Z</time>
        <extensions>
          <ns3:TrackPointExtension/>
        </extensions>
      </trkpt>
      <trkpt lat="32.0014075934886932373046875" lon="118.74385829083621501922607421875">
        <ele>2.7999999523162841796875</ele>
        <time>2023-04-07T03:56:18.000Z</time>
        <extensions>
          <ns3:TrackPointExtension/>
        </extensions>
      </trkpt>
      <trkpt lat="32.0014037378132343292236328125" lon="118.7438659183681011199951171875">
        <ele>2.7999999523162841796875</ele>
        <time>2023-04-07T03:56:19.000Z</time>
        <extensions>
          <ns3:TrackPointExtension/>
        </extensions>
      </trkpt>
      <trkpt lat="32.00139996595680713653564453125" lon="118.743881173431873321533203125">
        <ele>3</ele>
        <time>2023-04-07T03:56:20.000Z</time>
        <extensions>
          <ns3:TrackPointExtension/>
        </extensions>
      </trkpt>
      <trkpt lat="32.0013923384249210357666015625" lon="118.74388880096375942230224609375">
        <ele>3</ele>
        <time>2023-04-07T03:56:21.000Z</time>
        <extensions>
          <ns3:TrackPointExtension>
            <ns3:hr>110</ns3:hr>
            <ns3:cad>56</ns3:cad>
          </ns3:TrackPointExtension>
        </extensions>
      </trkpt>
      <trkpt lat="32.001388482749462127685546875" lon="118.7438964284956455230712890625">
        <ele>3</ele>
        <time>2023-04-07T03:56:22.000Z</time>
        <extensions>
          <ns3:TrackPointExtension/>
        </extensions>
      </trkpt>
      <trkpt lat="32.001388482749462127685546875" lon="118.74390405602753162384033203125">
        <ele>3</ele>
        <time>2023-04-07T03:56:23.000Z</time>
        <extensions>
          <ns3:TrackPointExtension/>
        </extensions>
      </trkpt>
      <trkpt lat="32.00138471089303493499755859375" lon="118.74391931109130382537841796875">
        <ele>3</ele>
        <time>2023-04-07T03:56:24.000Z</time>
        <extensions>
          <ns3:TrackPointExtension/>
        </extensions>
      </trkpt>
      <trkpt lat="32.00138085521757602691650390625" lon="118.7439269386231899261474609375">
        <ele>3</ele>
        <time>2023-04-07T03:56:25.000Z</time>
        <extensions>
          <ns3:TrackPointExtension/>
        </extensions>
      </trkpt>
      <trkpt lat="32.0013732276856899261474609375" lon="118.74393456615507602691650390625">
        <ele>3.2000000476837158203125</ele>
        <time>2023-04-07T03:56:26.000Z</time>
        <extensions>
          <ns3:TrackPointExtension>
            <ns3:hr>110</ns3:hr>
            <ns3:cad>56</ns3:cad>
          </ns3:TrackPointExtension>
        </extensions>
      </trkpt>
      <trkpt lat="32.00136945582926273345947265625" lon="118.743942193686962127685546875">
        <ele>3.2000000476837158203125</ele>
        <time>2023-04-07T03:56:27.000Z</time>
        <extensions>
          <ns3:TrackPointExtension/>
        </extensions>
      </trkpt>
      <trkpt lat="32.00136560015380382537841796875" lon="118.74394982121884822845458984375">
        <ele>3.2000000476837158203125</ele>
        <time>2023-04-07T03:56:28.000Z</time>
        <extensions>
          <ns3:TrackPointExtension/>
        </extensions>
      </trkpt>
      <trkpt lat="32.001357972621917724609375" lon="118.7439574487507343292236328125">
        <ele>3.2000000476837158203125</ele>
        <time>2023-04-07T03:56:29.000Z</time>
        <extensions>
          <ns3:TrackPointExtension/>
        </extensions>
      </trkpt>
      <trkpt lat="32.00135420076549053192138671875" lon="118.74396507628262042999267578125">
        <ele>3.400000095367431640625</ele>
        <time>2023-04-07T03:56:30.000Z</time>
        <extensions>
          <ns3:TrackPointExtension/>
        </extensions>
      </trkpt>
      <trkpt lat="32.00134657323360443115234375" lon="118.74396507628262042999267578125">
        <ele>3.400000095367431640625</ele>
        <time>2023-04-07T03:56:31.000Z</time>
        <extensions>
          <ns3:TrackPointExtension>
            <ns3:hr>110</ns3:hr>
            <ns3:cad>55</ns3:cad>
          </ns3:TrackPointExtension>
        </extensions>
      </trkpt>
      <trkpt lat="32.00133894570171833038330078125" lon="118.74396507628262042999267578125">
        <ele>3.400000095367431640625</ele>
        <time>2023-04-07T03:56:32.000Z</time>
        <extensions>
          <ns3:TrackPointExtension/>
        </extensions>
      </trkpt>
      <trkpt lat="32.00133509002625942230224609375" lon="118.74397270381450653076171875">
        <ele>3.599999904632568359375</ele>
        <time>2023-04-07T03:56:33.000Z</time>
        <extensions>
          <ns3:TrackPointExtension/>
        </extensions>
      </trkpt>
      <trkpt lat="32.001327462494373321533203125" lon="118.74397270381450653076171875">
        <ele>3.599999904632568359375</ele>
        <time>2023-04-07T03:56:34.000Z</time>
        <extensions>
          <ns3:TrackPointExtension/>
        </extensions>
      </trkpt>
      <trkpt lat="32.001316063106060028076171875" lon="118.74397270381450653076171875">
        <ele>3.599999904632568359375</ele>
        <time>2023-04-07T03:56:35.000Z</time>
        <extensions>
          <ns3:TrackPointExtension/>
        </extensions>
      </trkpt>
      <trkpt lat="32.00130843557417392730712890625" lon="118.74398033134639263153076171875">
        <ele>3.7999999523162841796875</ele>
        <time>2023-04-07T03:56:36.000Z</time>
        <extensions>
          <ns3:TrackPointExtension>
            <ns3:hr>110</ns3:hr>
            <ns3:cad>53</ns3:cad>
          </ns3:TrackPointExtension>
        </extensions>
      </trkpt>
      <trkpt lat="32.0013008080422878265380859375" lon="118.74398033134639263153076171875">
        <ele>3.7999999523162841796875</ele>
        <time>2023-04-07T03:56:37.000Z</time>
        <extensions>
          <ns3:TrackPointExtension/>
        </extensions>
      </trkpt>
      <trkpt lat="32.00129318051040172576904296875" lon="118.74398033134639263153076171875">
        <ele>3.7999999523162841796875</ele>
        <time>2023-04-07T03:56:38.000Z</time>
        <extensions>
          <ns3:TrackPointExtension/>
        </extensions>
      </trkpt>
      <trkpt lat="32.001285552978515625" lon="118.7439879588782787322998046875">
        <ele>4</ele>
        <time>2023-04-07T03:56:39.000Z</time>
        <extensions>
          <ns3:TrackPointExtension/>
        </extensions>
      </trkpt>
      <trkpt lat="32.001277841627597808837890625" lon="118.74399558641016483306884765625">
        <ele>4</ele>
        <time>2023-04-07T03:56:40.000Z</time>
        <extensions>
          <ns3:TrackPointExtension/>
        </extensions>
      </trkpt>
      <trkpt lat="32.00127021409571170806884765625" lon="118.74399558641016483306884765625">
        <ele>4</ele>
        <time>2023-04-07T03:56:41.000Z</time>
        <extensions>
          <ns3:TrackPointExtension>
            <ns3:hr>111</ns3:hr>
            <ns3:cad>54</ns3:cad>
          </ns3:TrackPointExtension>
        </extensions>
      </trkpt>
      <trkpt lat="32.0012625865638256072998046875" lon="118.744003213942050933837890625">
        <ele>4.19999980926513671875</ele>
        <time>2023-04-07T03:56:42.000Z</time>
        <extensions>
          <ns3:TrackPointExtension/>
        </extensions>
      </trkpt>
      <trkpt lat="32.0012511871755123138427734375" lon="118.74401092529296875">
        <ele>4.19999980926513671875</ele>
        <time>2023-04-07T03:56:43.000Z</time>
        <extensions>
          <ns3:TrackPointExtension/>
        </extensions>
      </trkpt>
      <trkpt lat="32.00124733150005340576171875" lon="118.7440261803567409515380859375">
        <ele>4.19999980926513671875</ele>
        <time>2023-04-07T03:56:44.000Z</time>
        <extensions>
          <ns3:TrackPointExtension/>
        </extensions>
      </trkpt>
      <trkpt lat="32.00123970396816730499267578125" lon="118.74403380788862705230712890625">
        <ele>4.400000095367431640625</ele>
        <time>2023-04-07T03:56:45.000Z</time>
        <extensions>
          <ns3:TrackPointExtension/>
        </extensions>
      </trkpt>
      <trkpt lat="32.0012320764362812042236328125" lon="118.744041435420513153076171875">
        <ele>4.400000095367431640625</ele>
        <time>2023-04-07T03:56:46.000Z</time>
        <extensions>
          <ns3:TrackPointExtension>
            <ns3:hr>112</ns3:hr>
            <ns3:cad>56</ns3:cad>
          </ns3:TrackPointExtension>
        </extensions>
      </trkpt>
      <trkpt lat="32.00122444890439510345458984375" lon="118.74404906295239925384521484375">
        <ele>4.400000095367431640625</ele>
        <time>2023-04-07T03:56:47.000Z</time>
        <extensions>
          <ns3:TrackPointExtension/>
        </extensions>
      </trkpt>
      <trkpt lat="32.0012206770479679107666015625" lon="118.7440566904842853546142578125">
        <ele>4.400000095367431640625</ele>
        <time>2023-04-07T03:56:48.000Z</time>
        <extensions>
          <ns3:TrackPointExtension/>
        </extensions>
      </trkpt>
      <trkpt lat="32.00121304951608180999755859375" lon="118.74406431801617145538330078125">
        <ele>4.599999904632568359375</ele>
        <time>2023-04-07T03:56:49.000Z</time>
        <extensions>
          <ns3:TrackPointExtension/>
        </extensions>
      </trkpt>
      <trkpt lat="32.00120919384062290191650390625" lon="118.74407194554805755615234375">
        <ele>4.599999904632568359375</ele>
        <time>2023-04-07T03:56:50.000Z</time>
        <extensions>
          <ns3:TrackPointExtension/>
        </extensions>
      </trkpt>
      <trkpt lat="32.0012015663087368011474609375" lon="118.7440872006118297576904296875">
        <ele>4.599999904632568359375</ele>
        <time>2023-04-07T03:56:51.000Z</time>
        <extensions>
          <ns3:TrackPointExtension>
            <ns3:hr>113</ns3:hr>
            <ns3:cad>56</ns3:cad>
          </ns3:TrackPointExtension>
        </extensions>
      </trkpt>
      <trkpt lat="32.00119779445230960845947265625" lon="118.74409482814371585845947265625">
        <ele>4.599999904632568359375</ele>
        <time>2023-04-07T03:56:52.000Z</time>
        <extensions>
          <ns3:TrackPointExtension/>
        </extensions>
      </trkpt>
      <trkpt lat="32.00119393877685070037841796875" lon="118.744102455675601959228515625">
        <ele>4.80000019073486328125</ele>
        <time>2023-04-07T03:56:53.000Z</time>
        <extensions>
          <ns3:TrackPointExtension/>
        </extensions>
      </trkpt>
      <trkpt lat="32.0011901669204235076904296875" lon="118.74411008320748805999755859375">
        <ele>4.80000019073486328125</ele>
        <time>2023-04-07T03:56:54.000Z</time>
        <extensions>
          <ns3:TrackPointExtension/>
        </extensions>
      </trkpt>
      <trkpt lat="32.001186311244964599609375" lon="118.7441177107393741607666015625">
        <ele>4.80000019073486328125</ele>
        <time>2023-04-07T03:56:55.000Z</time>
        <extensions>
          <ns3:TrackPointExtension/>
        </extensions>
      </trkpt>
      <trkpt lat="32.00118253938853740692138671875" lon="118.74412533827126026153564453125">
        <ele>4.80000019073486328125</ele>
        <time>2023-04-07T03:56:56.000Z</time>
        <extensions>
          <ns3:TrackPointExtension>
            <ns3:hr>113</ns3:hr>
            <ns3:cad>55</ns3:cad>
          </ns3:TrackPointExtension>
        </extensions>
      </trkpt>
      <trkpt lat="32.00117868371307849884033203125" lon="118.7441329658031463623046875">
        <ele>4.80000019073486328125</ele>
        <time>2023-04-07T03:56:57.000Z</time>
        <extensions>
          <ns3:TrackPointExtension/>
        </extensions>
      </trkpt>
      <trkpt lat="32.00117491185665130615234375" lon="118.7441482208669185638427734375">
        <ele>5</ele>
        <time>2023-04-07T03:56:58.000Z</time>
        <extensions>
          <ns3:TrackPointExtension/>
        </extensions>
      </trkpt>
      <trkpt lat="32.00117491185665130615234375" lon="118.74415584839880466461181640625">
        <ele>5</ele>
        <time>2023-04-07T03:56:59.000Z</time>
        <extensions>
          <ns3:TrackPointExtension/>
        </extensions>
      </trkpt>
      <trkpt lat="32.0011710561811923980712890625" lon="118.744163475930690765380859375">
        <ele>5</ele>
        <time>2023-04-07T03:57:00.000Z</time>
        <extensions>
          <ns3:TrackPointExtension/>
        </extensions>
      </trkpt>
      <trkpt lat="32.00116728432476520538330078125" lon="118.74417110346257686614990234375">
        <ele>5</ele>
        <time>2023-04-07T03:57:01.000Z</time>
        <extensions>
          <ns3:TrackPointExtension>
            <ns3:hr>113</ns3:hr>
            <ns3:cad>55</ns3:cad>
          </ns3:TrackPointExtension>
        </extensions>
      </trkpt>
      <trkpt lat="32.00116728432476520538330078125" lon="118.7441787309944629669189453125">
        <ele>5</ele>
        <time>2023-04-07T03:57:02.000Z</time>
        <extensions>
          <ns3:TrackPointExtension/>
        </extensions>
      </trkpt>
      <trkpt lat="32.00116342864930629730224609375" lon="118.74418635852634906768798828125">
        <ele>5</ele>
        <time>2023-04-07T03:57:03.000Z</time>
        <extensions>
          <ns3:TrackPointExtension/>
        </extensions>
      </trkpt>
      <trkpt lat="32.00116342864930629730224609375" lon="118.74419398605823516845703125">
        <ele>5</ele>
        <time>2023-04-07T03:57:04.000Z</time>
        <extensions>
          <ns3:TrackPointExtension/>
        </extensions>
      </trkpt>
      <trkpt lat="32.0011596567928791046142578125" lon="118.74420161359012126922607421875">
        <ele>5</ele>
        <time>2023-04-07T03:57:05.000Z</time>
        <extensions>
          <ns3:TrackPointExtension/>
        </extensions>
      </trkpt>
      <trkpt lat="32.001155801117420196533203125" lon="118.7442092411220073699951171875">
        <ele>5</ele>
        <time>2023-04-07T03:57:06.000Z</time>
        <extensions>
          <ns3:TrackPointExtension>
            <ns3:hr>111</ns3:hr>
            <ns3:cad>54</ns3:cad>
          </ns3:TrackPointExtension>
        </extensions>
      </trkpt>
      <trkpt lat="32.00115202926099300384521484375" lon="118.74421686865389347076416015625">
        <ele>5</ele>
        <time>2023-04-07T03:57:07.000Z</time>
        <extensions>
          <ns3:TrackPointExtension/>
        </extensions>
      </trkpt>
      <trkpt lat="32.00114817358553409576416015625" lon="118.744224496185779571533203125">
        <ele>5</ele>
        <time>2023-04-07T03:57:08.000Z</time>
        <extensions>
          <ns3:TrackPointExtension/>
        </extensions>
      </trkpt>
      <trkpt lat="32.0011405460536479949951171875" lon="118.74423212371766567230224609375">
        <ele>5</ele>
        <time>2023-04-07T03:57:09.000Z</time>
        <extensions>
          <ns3:TrackPointExtension/>
        </extensions>
      </trkpt>
      <trkpt lat="32.00113677419722080230712890625" lon="118.7442397512495517730712890625">
        <ele>5</ele>
        <time>2023-04-07T03:57:10.000Z</time>
        <extensions>
          <ns3:TrackPointExtension/>
        </extensions>
      </trkpt>
      <trkpt lat="32.00113291852176189422607421875" lon="118.74424737878143787384033203125">
        <ele>5</ele>
        <time>2023-04-07T03:57:11.000Z</time>
        <extensions>
          <ns3:TrackPointExtension>
            <ns3:hr>112</ns3:hr>
            <ns3:cad>55</ns3:cad>
          </ns3:TrackPointExtension>
        </extensions>
      </trkpt>
      <trkpt lat="32.00112529098987579345703125" lon="118.744255006313323974609375">
        <ele>5</ele>
        <time>2023-04-07T03:57:12.000Z</time>
        <extensions>
          <ns3:TrackPointExtension/>
        </extensions>
      </trkpt>
      <trkpt lat="32.00112151913344860076904296875" lon="118.74426263384521007537841796875">
        <ele>5</ele>
        <time>2023-04-07T03:57:13.000Z</time>
        <extensions>
          <ns3:TrackPointExtension/>
        </extensions>
      </trkpt>
      <trkpt lat="32.0011138916015625" lon="118.7442702613770961761474609375">
        <ele>5</ele>
        <time>2023-04-07T03:57:14.000Z</time>
        <extensions>
          <ns3:TrackPointExtension/>
        </extensions>
      </trkpt>
      <trkpt lat="32.001106180250644683837890625" lon="118.7442702613770961761474609375">
        <ele>5</ele>
        <time>2023-04-07T03:57:15.000Z</time>
        <extensions>
          <ns3:TrackPointExtension/>
        </extensions>
      </trkpt>
      <trkpt lat="32.00109855271875858306884765625" lon="118.74427788890898227691650390625">
        <ele>5</ele>
        <time>2023-04-07T03:57:16.000Z</time>
        <extensions>
          <ns3:TrackPointExtension>
            <ns3:hr>111</ns3:hr>
            <ns3:cad>57</ns3:cad>
          </ns3:TrackPointExtension>
        </extensions>
      </trkpt>
      <trkpt lat="32.0010909251868724822998046875" lon="118.744285516440868377685546875">
        <ele>5</ele>
        <time>2023-04-07T03:57:17.000Z</time>
        <extensions>
          <ns3:TrackPointExtension/>
        </extensions>
      </trkpt>
      <trkpt lat="32.00108715333044528961181640625" lon="118.74429314397275447845458984375">
        <ele>5</ele>
        <time>2023-04-07T03:57:18.000Z</time>
        <extensions>
          <ns3:TrackPointExtension/>
        </extensions>
      </trkpt>
      <trkpt lat="32.0010795257985591888427734375" lon="118.74429314397275447845458984375">
        <ele>5</ele>
        <time>2023-04-07T03:57:19.000Z</time>
        <extensions>
          <ns3:TrackPointExtension/>
        </extensions>
      </trkpt>
      <trkpt lat="32.00107567012310028076171875" lon="118.7443007715046405792236328125">
        <ele>5</ele>
        <time>2023-04-07T03:57:20.000Z</time>
        <extensions>
          <ns3:TrackPointExtension/>
        </extensions>
      </trkpt>
      <trkpt lat="32.00106804259121417999267578125" lon="118.74430839903652667999267578125">
        <ele>5</ele>
        <time>2023-04-07T03:57:21.000Z</time>
        <extensions>
          <ns3:TrackPointExtension>
            <ns3:hr>111</ns3:hr>
            <ns3:cad>55</ns3:cad>
          </ns3:TrackPointExtension>
        </extensions>
      </trkpt>
      <trkpt lat="32.0010642707347869873046875" lon="118.74430839903652667999267578125">
        <ele>5</ele>
        <time>2023-04-07T03:57:22.000Z</time>
        <extensions>
          <ns3:TrackPointExtension/>
        </extensions>
      </trkpt>
      <trkpt lat="32.0010604150593280792236328125" lon="118.74431602656841278076171875">
        <ele>5</ele>
        <time>2023-04-07T03:57:23.000Z</time>
        <extensions>
          <ns3:TrackPointExtension/>
        </extensions>
      </trkpt>
      <trkpt lat="32.00105278752744197845458984375" lon="118.74431602656841278076171875">
        <ele>5</ele>
        <time>2023-04-07T03:57:24.000Z</time>
        <extensions>
          <ns3:TrackPointExtension/>
        </extensions>
      </trkpt>
      <trkpt lat="32.0010490156710147857666015625" lon="118.74432365410029888153076171875">
        <ele>5</ele>
        <time>2023-04-07T03:57:25.000Z</time>
        <extensions>
          <ns3:TrackPointExtension/>
        </extensions>
      </trkpt>
      <trkpt lat="32.001045159995555877685546875" lon="118.74432365410029888153076171875">
        <ele>5</ele>
        <time>2023-04-07T03:57:26.000Z</time>
        <extensions>
          <ns3:TrackPointExtension>
            <ns3:hr>111</ns3:hr>
            <ns3:cad>55</ns3:cad>
          </ns3:TrackPointExtension>
        </extensions>
      </trkpt>
      <trkpt lat="32.00104138813912868499755859375" lon="118.7443312816321849822998046875">
        <ele>5.19999980926513671875</ele>
        <time>2023-04-07T03:57:27.000Z</time>
        <extensions>
          <ns3:TrackPointExtension/>
        </extensions>
      </trkpt>
      <trkpt lat="32.00103753246366977691650390625" lon="118.74433890916407108306884765625">
        <ele>5.19999980926513671875</ele>
        <time>2023-04-07T03:57:28.000Z</time>
        <extensions>
          <ns3:TrackPointExtension/>
        </extensions>
      </trkpt>
      <trkpt lat="32.0010299049317836761474609375" lon="118.74433890916407108306884765625">
        <ele>5.19999980926513671875</ele>
        <time>2023-04-07T03:57:29.000Z</time>
        <extensions>
          <ns3:TrackPointExtension/>
        </extensions>
      </trkpt>
      <trkpt lat="32.00102227739989757537841796875" lon="118.744346536695957183837890625">
        <ele>5.19999980926513671875</ele>
        <time>2023-04-07T03:57:30.000Z</time>
        <extensions>
          <ns3:TrackPointExtension/>
        </extensions>
      </trkpt>
      <trkpt lat="32.0010185055434703826904296875" lon="118.744354248046875">
        <ele>5.19999980926513671875</ele>
        <time>2023-04-07T03:57:31.000Z</time>
        <extensions>
          <ns3:TrackPointExtension>
            <ns3:hr>111</ns3:hr>
            <ns3:cad>55</ns3:cad>
          </ns3:TrackPointExtension>
        </extensions>
      </trkpt>
      <trkpt lat="32.00100702233612537384033203125" lon="118.744354248046875">
        <ele>5.400000095367431640625</ele>
        <time>2023-04-07T03:57:32.000Z</time>
        <extensions>
          <ns3:TrackPointExtension/>
        </extensions>
      </trkpt>
      <trkpt lat="32.00100325047969818115234375" lon="118.74436187557876110076904296875">
        <ele>5.400000095367431640625</ele>
        <time>2023-04-07T03:57:33.000Z</time>
        <extensions>
          <ns3:TrackPointExtension/>
        </extensions>
      </trkpt>
      <trkpt lat="32.00099176727235317230224609375" lon="118.7443695031106472015380859375">
        <ele>5.400000095367431640625</ele>
        <time>2023-04-07T03:57:34.000Z</time>
        <extensions>
          <ns3:TrackPointExtension/>
        </extensions>
      </trkpt>
      <trkpt lat="32.000984139740467071533203125" lon="118.7443695031106472015380859375">
        <ele>5.400000095367431640625</ele>
        <time>2023-04-07T03:57:35.000Z</time>
        <extensions>
          <ns3:TrackPointExtension/>
        </extensions>
      </trkpt>
      <trkpt lat="32.00097651220858097076416015625" lon="118.74437713064253330230712890625">
        <ele>5.400000095367431640625</ele>
        <time>2023-04-07T03:57:36.000Z</time>
        <extensions>
          <ns3:TrackPointExtension>
            <ns3:hr>111</ns3:hr>
            <ns3:cad>54</ns3:cad>
          </ns3:TrackPointExtension>
        </extensions>
      </trkpt>
      <trkpt lat="32.0009688846766948699951171875" lon="118.744384758174419403076171875">
        <ele>5.599999904632568359375</ele>
        <time>2023-04-07T03:57:37.000Z</time>
        <extensions>
          <ns3:TrackPointExtension/>
        </extensions>
      </trkpt>
      <trkpt lat="32.0009574852883815765380859375" lon="118.74439238570630550384521484375">
        <ele>5.599999904632568359375</ele>
        <time>2023-04-07T03:57:38.000Z</time>
        <extensions>
          <ns3:TrackPointExtension/>
        </extensions>
      </trkpt>
      <trkpt lat="32.00094985775649547576904296875" lon="118.7444000132381916046142578125">
        <ele>5.80000019073486328125</ele>
        <time>2023-04-07T03:57:39.000Z</time>
        <extensions>
          <ns3:TrackPointExtension/>
        </extensions>
      </trkpt>
      <trkpt lat="32.000942230224609375" lon="118.7444000132381916046142578125">
        <ele>5.80000019073486328125</ele>
        <time>2023-04-07T03:57:40.000Z</time>
        <extensions>
          <ns3:TrackPointExtension/>
        </extensions>
      </trkpt>
      <trkpt lat="32.000934518873691558837890625" lon="118.74440764077007770538330078125">
        <ele>5.80000019073486328125</ele>
        <time>2023-04-07T03:57:41.000Z</time>
        <extensions>
          <ns3:TrackPointExtension>
            <ns3:hr>108</ns3:hr>
            <ns3:cad>53</ns3:cad>
          </ns3:TrackPointExtension>
        </extensions>
      </trkpt>
      <trkpt lat="32.000923119485378265380859375" lon="118.74441526830196380615234375">
        <ele>6</ele>
        <time>2023-04-07T03:57:42.000Z</time>
        <extensions>
          <ns3:TrackPointExtension/>
        </extensions>
      </trkpt>
      <trkpt lat="32.00091549195349216461181640625" lon="118.74442289583384990692138671875">
        <ele>6</ele>
        <time>2023-04-07T03:57:43.000Z</time>
        <extensions>
          <ns3:TrackPointExtension/>
        </extensions>
      </trkpt>
      <trkpt lat="32.0009078644216060638427734375" lon="118.7444305233657360076904296875">
        <ele>6.19999980926513671875</ele>
        <time>2023-04-07T03:57:44.000Z</time>
        <extensions>
          <ns3:TrackPointExtension/>
        </extensions>
      </trkpt>
      <trkpt lat="32.00090023688971996307373046875" lon="118.74443815089762210845947265625">
        <ele>6.19999980926513671875</ele>
        <time>2023-04-07T03:57:45.000Z</time>
        <extensions>
          <ns3:TrackPointExtension/>
        </extensions>
      </trkpt>
      <trkpt lat="32.0008926093578338623046875" lon="118.744445778429508209228515625">
        <ele>6.19999980926513671875</ele>
        <time>2023-04-07T03:57:46.000Z</time>
        <extensions>
          <ns3:TrackPointExtension>
            <ns3:hr>108</ns3:hr>
            <ns3:cad>55</ns3:cad>
          </ns3:TrackPointExtension>
        </extensions>
      </trkpt>
      <trkpt lat="32.00088498182594776153564453125" lon="118.74445340596139430999755859375">
        <ele>6.400000095367431640625</ele>
        <time>2023-04-07T03:57:47.000Z</time>
        <extensions>
          <ns3:TrackPointExtension/>
        </extensions>
      </trkpt>
      <trkpt lat="32.0008773542940616607666015625" lon="118.74446866102516651153564453125">
        <ele>6.400000095367431640625</ele>
        <time>2023-04-07T03:57:48.000Z</time>
        <extensions>
          <ns3:TrackPointExtension/>
        </extensions>
      </trkpt>
      <trkpt lat="32.00086972676217555999755859375" lon="118.7444762885570526123046875">
        <ele>6.400000095367431640625</ele>
        <time>2023-04-07T03:57:49.000Z</time>
        <extensions>
          <ns3:TrackPointExtension/>
        </extensions>
      </trkpt>
      <trkpt lat="32.000862099230289459228515625" lon="118.74448391608893871307373046875">
        <ele>6.400000095367431640625</ele>
        <time>2023-04-07T03:57:50.000Z</time>
        <extensions>
          <ns3:TrackPointExtension/>
        </extensions>
      </trkpt>
      <trkpt lat="32.00085447169840335845947265625" lon="118.74449917115271091461181640625">
        <ele>6.400000095367431640625</ele>
        <time>2023-04-07T03:57:51.000Z</time>
        <extensions>
          <ns3:TrackPointExtension>
            <ns3:hr>108</ns3:hr>
            <ns3:cad>57</ns3:cad>
          </ns3:TrackPointExtension>
        </extensions>
      </trkpt>
      <trkpt lat="32.0008468441665172576904296875" lon="118.744506798684597015380859375">
        <ele>6.400000095367431640625</ele>
        <time>2023-04-07T03:57:52.000Z</time>
        <extensions>
          <ns3:TrackPointExtension/>
        </extensions>
      </trkpt>
      <trkpt lat="32.00083921663463115692138671875" lon="118.74451442621648311614990234375">
        <ele>6.400000095367431640625</ele>
        <time>2023-04-07T03:57:53.000Z</time>
        <extensions>
          <ns3:TrackPointExtension/>
        </extensions>
      </trkpt>
      <trkpt lat="32.00083536095917224884033203125" lon="118.7445220537483692169189453125">
        <ele>6.400000095367431640625</ele>
        <time>2023-04-07T03:57:54.000Z</time>
        <extensions>
          <ns3:TrackPointExtension/>
        </extensions>
      </trkpt>
      <trkpt lat="32.0008277334272861480712890625" lon="118.74452968128025531768798828125">
        <ele>6.599999904632568359375</ele>
        <time>2023-04-07T03:57:55.000Z</time>
        <extensions>
          <ns3:TrackPointExtension/>
        </extensions>
      </trkpt>
      <trkpt lat="32.00082010589540004730224609375" lon="118.74453730881214141845703125">
        <ele>6.599999904632568359375</ele>
        <time>2023-04-07T03:57:56.000Z</time>
        <extensions>
          <ns3:TrackPointExtension>
            <ns3:hr>111</ns3:hr>
            <ns3:cad>58</ns3:cad>
          </ns3:TrackPointExtension>
        </extensions>
      </trkpt>
      <trkpt lat="32.000812478363513946533203125" lon="118.74454493634402751922607421875">
        <ele>6.599999904632568359375</ele>
        <time>2023-04-07T03:57:57.000Z</time>
        <extensions>
          <ns3:TrackPointExtension/>
        </extensions>
      </trkpt>
      <trkpt lat="32.00080485083162784576416015625" lon="118.7445525638759136199951171875">
        <ele>6.599999904632568359375</ele>
        <time>2023-04-07T03:57:58.000Z</time>
        <extensions>
          <ns3:TrackPointExtension/>
        </extensions>
      </trkpt>
      <trkpt lat="32.000801078975200653076171875" lon="118.74456019140779972076416015625">
        <ele>6.599999904632568359375</ele>
        <time>2023-04-07T03:57:59.000Z</time>
        <extensions>
          <ns3:TrackPointExtension/>
        </extensions>
      </trkpt>
      <trkpt lat="32.00079345144331455230712890625" lon="118.744567818939685821533203125">
        <ele>6.599999904632568359375</ele>
        <time>2023-04-07T03:58:00.000Z</time>
        <extensions>
          <ns3:TrackPointExtension/>
        </extensions>
      </trkpt>
      <trkpt lat="32.0007858239114284515380859375" lon="118.74457544647157192230224609375">
        <ele>6.599999904632568359375</ele>
        <time>2023-04-07T03:58:01.000Z</time>
        <extensions>
          <ns3:TrackPointExtension>
            <ns3:hr>111</ns3:hr>
            <ns3:cad>57</ns3:cad>
          </ns3:TrackPointExtension>
        </extensions>
      </trkpt>
      <trkpt lat="32.00078196823596954345703125" lon="118.74457544647157192230224609375">
        <ele>6.599999904632568359375</ele>
        <time>2023-04-07T03:58:02.000Z</time>
        <extensions>
          <ns3:TrackPointExtension/>
        </extensions>
      </trkpt>
      <trkpt lat="32.00077434070408344268798828125" lon="118.7445830740034580230712890625">
        <ele>6.80000019073486328125</ele>
        <time>2023-04-07T03:58:03.000Z</time>
        <extensions>
          <ns3:TrackPointExtension/>
        </extensions>
      </trkpt>
      <trkpt lat="32.00077056884765625" lon="118.7445830740034580230712890625">
        <ele>6.80000019073486328125</ele>
        <time>2023-04-07T03:58:04.000Z</time>
        <extensions>
          <ns3:TrackPointExtension/>
        </extensions>
      </trkpt>
      <trkpt lat="32.000762857496738433837890625" lon="118.74459070153534412384033203125">
        <ele>6.80000019073486328125</ele>
        <time>2023-04-07T03:58:05.000Z</time>
        <extensions>
          <ns3:TrackPointExtension/>
        </extensions>
      </trkpt>
      <trkpt lat="32.00075908564031124114990234375" lon="118.744598329067230224609375">
        <ele>6.599999904632568359375</ele>
        <time>2023-04-07T03:58:06.000Z</time>
        <extensions>
          <ns3:TrackPointExtension>
            <ns3:hr>110</ns3:hr>
            <ns3:cad>56</ns3:cad>
          </ns3:TrackPointExtension>
        </extensions>
      </trkpt>
      <trkpt lat="32.000751458108425140380859375" lon="118.744598329067230224609375">
        <ele>6.599999904632568359375</ele>
        <time>2023-04-07T03:58:07.000Z</time>
        <extensions>
          <ns3:TrackPointExtension/>
        </extensions>
      </trkpt>
      <trkpt lat="32.00074383057653903961181640625" lon="118.74460595659911632537841796875">
        <ele>6.599999904632568359375</ele>
        <time>2023-04-07T03:58:08.000Z</time>
        <extensions>
          <ns3:TrackPointExtension/>
        </extensions>
      </trkpt>
      <trkpt lat="32.0007362030446529388427734375" lon="118.74460595659911632537841796875">
        <ele>6.599999904632568359375</ele>
        <time>2023-04-07T03:58:09.000Z</time>
        <extensions>
          <ns3:TrackPointExtension/>
        </extensions>
      </trkpt>
      <trkpt lat="32.00072857551276683807373046875" lon="118.7446135841310024261474609375">
        <ele>6.599999904632568359375</ele>
        <time>2023-04-07T03:58:10.000Z</time>
        <extensions>
          <ns3:TrackPointExtension/>
        </extensions>
      </trkpt>
      <trkpt lat="32.0007209479808807373046875" lon="118.74462121166288852691650390625">
        <ele>6.599999904632568359375</ele>
        <time>2023-04-07T03:58:11.000Z</time>
        <extensions>
          <ns3:TrackPointExtension>
            <ns3:hr>110</ns3:hr>
            <ns3:cad>54</ns3:cad>
          </ns3:TrackPointExtension>
        </extensions>
      </trkpt>
      <trkpt lat="32.00070946477353572845458984375" lon="118.74462121166288852691650390625">
        <ele>6.599999904632568359375</ele>
        <time>2023-04-07T03:58:12.000Z</time>
        <extensions>
          <ns3:TrackPointExtension/>
        </extensions>
      </trkpt>
      <trkpt lat="32.000701837241649627685546875" lon="118.744628839194774627685546875">
        <ele>6.599999904632568359375</ele>
        <time>2023-04-07T03:58:13.000Z</time>
        <extensions>
          <ns3:TrackPointExtension/>
        </extensions>
      </trkpt>
      <trkpt lat="32.00069420970976352691650390625" lon="118.74463646672666072845458984375">
        <ele>6.599999904632568359375</ele>
        <time>2023-04-07T03:58:14.000Z</time>
        <extensions>
          <ns3:TrackPointExtension/>
        </extensions>
      </trkpt>
      <trkpt lat="32.00068281032145023345947265625" lon="118.74463646672666072845458984375">
        <ele>6.599999904632568359375</ele>
        <time>2023-04-07T03:58:15.000Z</time>
        <extensions>
          <ns3:TrackPointExtension/>
        </extensions>
      </trkpt>
      <trkpt lat="32.0006751827895641326904296875" lon="118.74463646672666072845458984375">
        <ele>6.599999904632568359375</ele>
        <time>2023-04-07T03:58:16.000Z</time>
        <extensions>
          <ns3:TrackPointExtension>
            <ns3:hr>110</ns3:hr>
            <ns3:cad>55</ns3:cad>
          </ns3:TrackPointExtension>
        </extensions>
      </trkpt>
      <trkpt lat="32.00066369958221912384033203125" lon="118.74463646672666072845458984375">
        <ele>6.599999904632568359375</ele>
        <time>2023-04-07T03:58:17.000Z</time>
        <extensions>
          <ns3:TrackPointExtension/>
        </extensions>
      </trkpt>
      <trkpt lat="32.0006560720503330230712890625" lon="118.74463646672666072845458984375">
        <ele>6.599999904632568359375</ele>
        <time>2023-04-07T03:58:18.000Z</time>
        <extensions>
          <ns3:TrackPointExtension/>
        </extensions>
      </trkpt>
      <trkpt lat="32.00064844451844692230224609375" lon="118.74463646672666072845458984375">
        <ele>6.599999904632568359375</ele>
        <time>2023-04-07T03:58:19.000Z</time>
        <extensions>
          <ns3:TrackPointExtension/>
        </extensions>
      </trkpt>
      <trkpt lat="32.000640816986560821533203125" lon="118.74463646672666072845458984375">
        <ele>6.599999904632568359375</ele>
        <time>2023-04-07T03:58:20.000Z</time>
        <extensions>
          <ns3:TrackPointExtension/>
        </extensions>
      </trkpt>
      <trkpt lat="32.00063318945467472076416015625" lon="118.74463646672666072845458984375">
        <ele>6.599999904632568359375</ele>
        <time>2023-04-07T03:58:21.000Z</time>
        <extensions>
          <ns3:TrackPointExtension>
            <ns3:hr>111</ns3:hr>
            <ns3:cad>55</ns3:cad>
          </ns3:TrackPointExtension>
        </extensions>
      </trkpt>
      <trkpt lat="32.0006255619227886199951171875" lon="118.744628839194774627685546875">
        <ele>6.599999904632568359375</ele>
        <time>2023-04-07T03:58:22.000Z</time>
        <extensions>
          <ns3:TrackPointExtension/>
        </extensions>
      </trkpt>
      <trkpt lat="32.00061793439090251922607421875" lon="118.744628839194774627685546875">
        <ele>6.599999904632568359375</ele>
        <time>2023-04-07T03:58:23.000Z</time>
        <extensions>
          <ns3:TrackPointExtension/>
        </extensions>
      </trkpt>
      <trkpt lat="32.00061030685901641845703125" lon="118.74462121166288852691650390625">
        <ele>6.599999904632568359375</ele>
        <time>2023-04-07T03:58:24.000Z</time>
        <extensions>
          <ns3:TrackPointExtension/>
        </extensions>
      </trkpt>
      <trkpt lat="32.00060267932713031768798828125" lon="118.7446135841310024261474609375">
        <ele>6.599999904632568359375</ele>
        <time>2023-04-07T03:58:25.000Z</time>
        <extensions>
          <ns3:TrackPointExtension/>
        </extensions>
      </trkpt>
      <trkpt lat="32.0005950517952442169189453125" lon="118.7446135841310024261474609375">
        <ele>6.599999904632568359375</ele>
        <time>2023-04-07T03:58:26.000Z</time>
        <extensions>
          <ns3:TrackPointExtension>
            <ns3:hr>111</ns3:hr>
            <ns3:cad>54</ns3:cad>
          </ns3:TrackPointExtension>
        </extensions>
      </trkpt>
      <trkpt lat="32.000591196119785308837890625" lon="118.74460595659911632537841796875">
        <ele>6.599999904632568359375</ele>
        <time>2023-04-07T03:58:27.000Z</time>
        <extensions>
          <ns3:TrackPointExtension/>
        </extensions>
      </trkpt>
      <trkpt lat="32.00058356858789920806884765625" lon="118.744598329067230224609375">
        <ele>6.599999904632568359375</ele>
        <time>2023-04-07T03:58:28.000Z</time>
        <extensions>
          <ns3:TrackPointExtension/>
        </extensions>
      </trkpt>
      <trkpt lat="32.0005759410560131072998046875" lon="118.74459070153534412384033203125">
        <ele>6.80000019073486328125</ele>
        <time>2023-04-07T03:58:29.000Z</time>
        <extensions>
          <ns3:TrackPointExtension/>
        </extensions>
      </trkpt>
      <trkpt lat="32.00057216919958591461181640625" lon="118.7445830740034580230712890625">
        <ele>6.80000019073486328125</ele>
        <time>2023-04-07T03:58:30.000Z</time>
        <extensions>
          <ns3:TrackPointExtension/>
        </extensions>
      </trkpt>
      <trkpt lat="32.0005645416676998138427734375" lon="118.74457544647157192230224609375">
        <ele>6.80000019073486328125</ele>
        <time>2023-04-07T03:58:31.000Z</time>
        <extensions>
          <ns3:TrackPointExtension>
            <ns3:hr>112</ns3:hr>
            <ns3:cad>54</ns3:cad>
          </ns3:TrackPointExtension>
        </extensions>
      </trkpt>
      <trkpt lat="32.00055691413581371307373046875" lon="118.744567818939685821533203125">
        <ele>6.80000019073486328125</ele>
        <time>2023-04-07T03:58:32.000Z</time>
        <extensions>
          <ns3:TrackPointExtension/>
        </extensions>
      </trkpt>
      <trkpt lat="32.00055305846035480499267578125" lon="118.74456019140779972076416015625">
        <ele>6.80000019073486328125</ele>
        <time>2023-04-07T03:58:33.000Z</time>
        <extensions>
          <ns3:TrackPointExtension/>
        </extensions>
      </trkpt>
      <trkpt lat="32.0005454309284687042236328125" lon="118.74454493634402751922607421875">
        <ele>6.80000019073486328125</ele>
        <time>2023-04-07T03:58:34.000Z</time>
        <extensions>
          <ns3:TrackPointExtension/>
        </extensions>
      </trkpt>
      <trkpt lat="32.00053780339658260345458984375" lon="118.74453730881214141845703125">
        <ele>7</ele>
        <time>2023-04-07T03:58:35.000Z</time>
        <extensions>
          <ns3:TrackPointExtension/>
        </extensions>
      </trkpt>
      <trkpt lat="32.0005340315401554107666015625" lon="118.74452968128025531768798828125">
        <ele>7</ele>
        <time>2023-04-07T03:58:36.000Z</time>
        <extensions>
          <ns3:TrackPointExtension>
            <ns3:hr>112</ns3:hr>
            <ns3:cad>55</ns3:cad>
          </ns3:TrackPointExtension>
        </extensions>
      </trkpt>
      <trkpt lat="32.00052640400826930999755859375" lon="118.74451442621648311614990234375">
        <ele>7</ele>
        <time>2023-04-07T03:58:37.000Z</time>
        <extensions>
          <ns3:TrackPointExtension/>
        </extensions>
      </trkpt>
      <trkpt lat="32.000518776476383209228515625" lon="118.744506798684597015380859375">
        <ele>7</ele>
        <time>2023-04-07T03:58:38.000Z</time>
        <extensions>
          <ns3:TrackPointExtension/>
        </extensions>
      </trkpt>
      <trkpt lat="32.0005149208009243011474609375" lon="118.74449917115271091461181640625">
        <ele>7</ele>
        <time>2023-04-07T03:58:39.000Z</time>
        <extensions>
          <ns3:TrackPointExtension/>
        </extensions>
      </trkpt>
      <trkpt lat="32.00050729326903820037841796875" lon="118.74448391608893871307373046875">
        <ele>7.19999980926513671875</ele>
        <time>2023-04-07T03:58:40.000Z</time>
        <extensions>
          <ns3:TrackPointExtension/>
        </extensions>
      </trkpt>
      <trkpt lat="32.000499665737152099609375" lon="118.7444762885570526123046875">
        <ele>7.19999980926513671875</ele>
        <time>2023-04-07T03:58:41.000Z</time>
        <extensions>
          <ns3:TrackPointExtension>
            <ns3:hr>112</ns3:hr>
            <ns3:cad>55</ns3:cad>
          </ns3:TrackPointExtension>
        </extensions>
      </trkpt>
      <trkpt lat="32.00049203820526599884033203125" lon="118.74446866102516651153564453125">
        <ele>7.400000095367431640625</ele>
        <time>2023-04-07T03:58:42.000Z</time>
        <extensions>
          <ns3:TrackPointExtension/>
        </extensions>
      </trkpt>
      <trkpt lat="32.0004844106733798980712890625" lon="118.74445340596139430999755859375">
        <ele>7.400000095367431640625</ele>
        <time>2023-04-07T03:58:43.000Z</time>
        <extensions>
          <ns3:TrackPointExtension/>
        </extensions>
      </trkpt>
      <trkpt lat="32.0004730112850666046142578125" lon="118.744445778429508209228515625">
        <ele>7.400000095367431640625</ele>
        <time>2023-04-07T03:58:44.000Z</time>
        <extensions>
          <ns3:TrackPointExtension/>
        </extensions>
      </trkpt>
      <trkpt lat="32.00046538375318050384521484375" lon="118.74443815089762210845947265625">
        <ele>7.599999904632568359375</ele>
        <time>2023-04-07T03:58:45.000Z</time>
        <extensions>
          <ns3:TrackPointExtension/>
        </extensions>
      </trkpt>
      <trkpt lat="32.000457756221294403076171875" lon="118.7444305233657360076904296875">
        <ele>7.599999904632568359375</ele>
        <time>2023-04-07T03:58:46.000Z</time>
        <extensions>
          <ns3:TrackPointExtension>
            <ns3:hr>110</ns3:hr>
            <ns3:cad>55</ns3:cad>
          </ns3:TrackPointExtension>
        </extensions>
      </trkpt>
      <trkpt lat="32.00044627301394939422607421875" lon="118.74441526830196380615234375">
        <ele>7.599999904632568359375</ele>
        <time>2023-04-07T03:58:47.000Z</time>
        <extensions>
          <ns3:TrackPointExtension/>
        </extensions>
      </trkpt>
      <trkpt lat="32.00043864548206329345703125" lon="118.74440764077007770538330078125">
        <ele>7.80000019073486328125</ele>
        <time>2023-04-07T03:58:48.000Z</time>
        <extensions>
          <ns3:TrackPointExtension/>
        </extensions>
      </trkpt>
      <trkpt lat="32.00043101795017719268798828125" lon="118.7444000132381916046142578125">
        <ele>7.80000019073486328125</ele>
        <time>2023-04-07T03:58:49.000Z</time>
        <extensions>
          <ns3:TrackPointExtension/>
        </extensions>
      </trkpt>
      <trkpt lat="32.0004233904182910919189453125" lon="118.74439238570630550384521484375">
        <ele>7.80000019073486328125</ele>
        <time>2023-04-07T03:58:50.000Z</time>
        <extensions>
          <ns3:TrackPointExtension/>
        </extensions>
      </trkpt>
      <trkpt lat="32.00041190721094608306884765625" lon="118.74437713064253330230712890625">
        <ele>8</ele>
        <time>2023-04-07T03:58:51.000Z</time>
        <extensions>
          <ns3:TrackPointExtension>
            <ns3:hr>112</ns3:hr>
            <ns3:cad>55</ns3:cad>
          </ns3:TrackPointExtension>
        </extensions>
      </trkpt>
      <trkpt lat="32.0004042796790599822998046875" lon="118.7443695031106472015380859375">
        <ele>8</ele>
        <time>2023-04-07T03:58:52.000Z</time>
        <extensions>
          <ns3:TrackPointExtension/>
        </extensions>
      </trkpt>
      <trkpt lat="32.00039665214717388153076171875" lon="118.744354248046875">
        <ele>8</ele>
        <time>2023-04-07T03:58:53.000Z</time>
        <extensions>
          <ns3:TrackPointExtension/>
        </extensions>
      </trkpt>
      <trkpt lat="32.00038902461528778076171875" lon="118.744346536695957183837890625">
        <ele>8</ele>
        <time>2023-04-07T03:58:54.000Z</time>
        <extensions>
          <ns3:TrackPointExtension/>
        </extensions>
      </trkpt>
      <trkpt lat="32.00038139708340167999267578125" lon="118.74433890916407108306884765625">
        <ele>8</ele>
        <time>2023-04-07T03:58:55.000Z</time>
        <extensions>
          <ns3:TrackPointExtension/>
        </extensions>
      </trkpt>
      <trkpt lat="32.0003737695515155792236328125" lon="118.7443312816321849822998046875">
        <ele>8</ele>
        <time>2023-04-07T03:58:56.000Z</time>
        <extensions>
          <ns3:TrackPointExtension>
            <ns3:hr>113</ns3:hr>
            <ns3:cad>55</ns3:cad>
          </ns3:TrackPointExtension>
        </extensions>
      </trkpt>
      <trkpt lat="32.0003623701632022857666015625" lon="118.74431602656841278076171875">
        <ele>8</ele>
        <time>2023-04-07T03:58:57.000Z</time>
        <extensions>
          <ns3:TrackPointExtension/>
        </extensions>
      </trkpt>
      <trkpt lat="32.00035474263131618499755859375" lon="118.74430839903652667999267578125">
        <ele>8</ele>
        <time>2023-04-07T03:58:58.000Z</time>
        <extensions>
          <ns3:TrackPointExtension/>
        </extensions>
      </trkpt>
      <trkpt lat="32.000347115099430084228515625" lon="118.7443007715046405792236328125">
        <ele>8</ele>
        <time>2023-04-07T03:58:59.000Z</time>
        <extensions>
          <ns3:TrackPointExtension/>
        </extensions>
      </trkpt>
      <trkpt lat="32.00033563189208507537841796875" lon="118.74429314397275447845458984375">
        <ele>8</ele>
        <time>2023-04-07T03:59:00.000Z</time>
        <extensions>
          <ns3:TrackPointExtension/>
        </extensions>
      </trkpt>
      <trkpt lat="32.00032423250377178192138671875" lon="118.744285516440868377685546875">
        <ele>8</ele>
        <time>2023-04-07T03:59:01.000Z</time>
        <extensions>
          <ns3:TrackPointExtension>
            <ns3:hr>113</ns3:hr>
            <ns3:cad>56</ns3:cad>
          </ns3:TrackPointExtension>
        </extensions>
      </trkpt>
      <trkpt lat="32.0003127492964267730712890625" lon="118.744285516440868377685546875">
        <ele>7.80000019073486328125</ele>
        <time>2023-04-07T03:59:02.000Z</time>
        <extensions>
          <ns3:TrackPointExtension/>
        </extensions>
      </trkpt>
      <trkpt lat="32.00030512176454067230224609375" lon="118.74427788890898227691650390625">
        <ele>7.80000019073486328125</ele>
        <time>2023-04-07T03:59:03.000Z</time>
        <extensions>
          <ns3:TrackPointExtension/>
        </extensions>
      </trkpt>
      <trkpt lat="32.00029372237622737884521484375" lon="118.74427788890898227691650390625">
        <ele>7.80000019073486328125</ele>
        <time>2023-04-07T03:59:04.000Z</time>
        <extensions>
          <ns3:TrackPointExtension/>
        </extensions>
      </trkpt>
      <trkpt lat="32.0002822391688823699951171875" lon="118.7442702613770961761474609375">
        <ele>7.80000019073486328125</ele>
        <time>2023-04-07T03:59:05.000Z</time>
        <extensions>
          <ns3:TrackPointExtension/>
        </extensions>
      </trkpt>
      <trkpt lat="32.0002708397805690765380859375" lon="118.7442702613770961761474609375">
        <ele>7.599999904632568359375</ele>
        <time>2023-04-07T03:59:06.000Z</time>
        <extensions>
          <ns3:TrackPointExtension>
            <ns3:hr>112</ns3:hr>
            <ns3:cad>56</ns3:cad>
          </ns3:TrackPointExtension>
        </extensions>
      </trkpt>
      <trkpt lat="32.00026321224868297576904296875" lon="118.74426263384521007537841796875">
        <ele>7.599999904632568359375</ele>
        <time>2023-04-07T03:59:07.000Z</time>
        <extensions>
          <ns3:TrackPointExtension/>
        </extensions>
      </trkpt>
      <trkpt lat="32.0002517290413379669189453125" lon="118.74426263384521007537841796875">
        <ele>7.599999904632568359375</ele>
        <time>2023-04-07T03:59:08.000Z</time>
        <extensions>
          <ns3:TrackPointExtension/>
        </extensions>
      </trkpt>
      <trkpt lat="32.00024024583399295806884765625" lon="118.74426263384521007537841796875">
        <ele>7.599999904632568359375</ele>
        <time>2023-04-07T03:59:09.000Z</time>
        <extensions>
          <ns3:TrackPointExtension/>
        </extensions>
      </trkpt>
      <trkpt lat="32.00022884644567966461181640625" lon="118.74426263384521007537841796875">
        <ele>7.400000095367431640625</ele>
        <time>2023-04-07T03:59:10.000Z</time>
        <extensions>
          <ns3:TrackPointExtension/>
        </extensions>
      </trkpt>
      <trkpt lat="32.0002212189137935638427734375" lon="118.744255006313323974609375">
        <ele>7.400000095367431640625</ele>
        <time>2023-04-07T03:59:11.000Z</time>
        <extensions>
          <ns3:TrackPointExtension>
            <ns3:hr>111</ns3:hr>
            <ns3:cad>57</ns3:cad>
          </ns3:TrackPointExtension>
        </extensions>
      </trkpt>
      <trkpt lat="32.00020973570644855499267578125" lon="118.744255006313323974609375">
        <ele>7.400000095367431640625</ele>
        <time>2023-04-07T03:59:12.000Z</time>
        <extensions>
          <ns3:TrackPointExtension/>
        </extensions>
      </trkpt>
      <trkpt lat="32.0002021081745624542236328125" lon="118.744255006313323974609375">
        <ele>7.400000095367431640625</ele>
        <time>2023-04-07T03:59:13.000Z</time>
        <extensions>
          <ns3:TrackPointExtension/>
        </extensions>
      </trkpt>
      <trkpt lat="32.0001907087862491607666015625" lon="118.744255006313323974609375">
        <ele>7.19999980926513671875</ele>
        <time>2023-04-07T03:59:14.000Z</time>
        <extensions>
          <ns3:TrackPointExtension/>
        </extensions>
      </trkpt>
      <trkpt lat="32.000186853110790252685546875" lon="118.744255006313323974609375">
        <ele>7.19999980926513671875</ele>
        <time>2023-04-07T03:59:15.000Z</time>
        <extensions>
          <ns3:TrackPointExtension/>
        </extensions>
      </trkpt>
      <trkpt lat="32.00017922557890415191650390625" lon="118.744255006313323974609375">
        <ele>7.19999980926513671875</ele>
        <time>2023-04-07T03:59:16.000Z</time>
        <extensions>
          <ns3:TrackPointExtension>
            <ns3:hr>111</ns3:hr>
            <ns3:cad>53</ns3:cad>
          </ns3:TrackPointExtension>
        </extensions>
      </trkpt>
      <trkpt lat="32.00016782619059085845947265625" lon="118.744255006313323974609375">
        <ele>7</ele>
        <time>2023-04-07T03:59:17.000Z</time>
        <extensions>
          <ns3:TrackPointExtension/>
        </extensions>
      </trkpt>
      <trkpt lat="32.0001601986587047576904296875" lon="118.744255006313323974609375">
        <ele>7</ele>
        <time>2023-04-07T03:59:18.000Z</time>
        <extensions>
          <ns3:TrackPointExtension/>
        </extensions>
      </trkpt>
      <trkpt lat="32.00010680593550205230712890625" lon="118.74436187557876110076904296875">
        <ele>6.19999980926513671875</ele>
        <time>2023-04-07T03:59:27.000Z</time>
        <extensions>
          <ns3:TrackPointExtension/>
        </extensions>
      </trkpt>
      <trkpt lat="32.00009155087172985076904296875" lon="118.74439238570630550384521484375">
        <ele>6.19999980926513671875</ele>
        <time>2023-04-07T03:59:28.000Z</time>
        <extensions>
          <ns3:TrackPointExtension/>
        </extensions>
      </trkpt>
      <trkpt lat="32.00009155087172985076904296875" lon="118.7444000132381916046142578125">
        <ele>6.19999980926513671875</ele>
        <time>2023-04-07T03:59:29.000Z</time>
        <extensions>
          <ns3:TrackPointExtension/>
        </extensions>
      </trkpt>
      <trkpt lat="32.00008769519627094268798828125" lon="118.74440764077007770538330078125">
        <ele>6.19999980926513671875</ele>
        <time>2023-04-07T03:59:30.000Z</time>
        <extensions>
          <ns3:TrackPointExtension/>
        </extensions>
      </trkpt>
      <trkpt lat="32.00008392333984375" lon="118.74441526830196380615234375">
        <ele>6.19999980926513671875</ele>
        <time>2023-04-07T03:59:31.000Z</time>
        <extensions>
          <ns3:TrackPointExtension/>
        </extensions>
      </trkpt>
      <trkpt lat="32.0000495575368404388427734375" lon="118.74446866102516651153564453125">
        <ele>6.19999980926513671875</ele>
        <time>2023-04-07T03:59:36.000Z</time>
        <extensions>
          <ns3:TrackPointExtension/>
        </extensions>
      </trkpt>
      <trkpt lat="32.0000343024730682373046875" lon="118.7444915436208248138427734375">
        <ele>6</ele>
        <time>2023-04-07T03:59:37.000Z</time>
        <extensions>
          <ns3:TrackPointExtension/>
        </extensions>
      </trkpt>
      <trkpt lat="32.0000304467976093292236328125" lon="118.7444915436208248138427734375">
        <ele>6</ele>
        <time>2023-04-07T03:59:38.000Z</time>
        <extensions>
          <ns3:TrackPointExtension/>
        </extensions>
      </trkpt>
      <trkpt lat="32.00002667494118213653564453125" lon="118.74449917115271091461181640625">
        <ele>6</ele>
        <time>2023-04-07T03:59:39.000Z</time>
        <extensions>
          <ns3:TrackPointExtension/>
        </extensions>
      </trkpt>
      <trkpt lat="32.0000190474092960357666015625" lon="118.74451442621648311614990234375">
        <ele>6</ele>
        <time>2023-04-07T03:59:40.000Z</time>
        <extensions>
          <ns3:TrackPointExtension/>
        </extensions>
      </trkpt>
      <trkpt lat="32.000015191733837127685546875" lon="118.7445220537483692169189453125">
        <ele>6</ele>
        <time>2023-04-07T03:59:41.000Z</time>
        <extensions>
          <ns3:TrackPointExtension/>
        </extensions>
      </trkpt>
      <trkpt lat="32.00000756420195102691650390625" lon="118.74452968128025531768798828125">
        <ele>6</ele>
        <time>2023-04-07T03:59:42.000Z</time>
        <extensions>
          <ns3:TrackPointExtension/>
        </extensions>
      </trkpt>
    </trkseg>
  </trk>
</gpx>
