<gpx xmlns:ns3="http://www.garmin.com/xmlschemas/TrackPointExtension/v1" xmlns="http://www.topografix.com/GPX/1/1" xmlns:xsi="http://www.w3.org/2001/XMLSchema-instance" xmlns:ns2="http://www.garmin.com/xmlschemas/GpxExtensions/v3" creator="Garmin Connect" version="1.1" xsi:schemaLocation="http://www.topografix.com/GPX/1/1 http://www.topografix.com/GPX/11.xsd">
  <extensions>
<distance>349.23</distance>
<average_hr>109.0</average_hr>
<average_speed>1.5169999599456787</average_speed>
<start_time>2024-06-23T09:07:50+00:00</start_time>
<end_time>2024-06-23T09:11:40.267000+00:00</end_time>
<moving_time>156.0</moving_time>
<elapsed_time>244.002</elapsed_time>
</extensions>
<metadata>
    <link href="connect.garmin.com">
      <text>Garmin Connect</text>
    </link>
    <time>2024-06-23T09:07:50.000Z</time>
  </metadata>
  <trk>
    <name>南京市 跑步</name>
    <type>running</type>
    <trkseg>
      <trkpt lat="31.95852686651051044464111328125" lon="118.7972257845103740692138671875">
        <ele>8.80000019073486328125</ele>
        <time>2024-06-23T09:07:50.000Z</time>
        <extensions>
          <ns3:TrackPointExtension>
            <ns3:hr>102</ns3:hr>
            <ns3:cad>0</ns3:cad>
          </ns3:TrackPointExtension>
        </extensions>
      </trkpt>
      <trkpt lat="31.9585222564637660980224609375" lon="118.79723877646028995513916015625">
        <ele>8.80000019073486328125</ele>
        <time>2024-06-23T09:07:51.000Z</time>
        <extensions>
          <ns3:TrackPointExtension>
            <ns3:hr>101</ns3:hr>
            <ns3:cad>0</ns3:cad>
          </ns3:TrackPointExtension>
        </extensions>
      </trkpt>
      <trkpt lat="31.95845997892320156097412109375" lon="118.79724866710603237152099609375">
        <ele>8.80000019073486328125</ele>
        <time>2024-06-23T09:07:52.000Z</time>
        <extensions>
          <ns3:TrackPointExtension>
            <ns3:hr>102</ns3:hr>
            <ns3:cad>0</ns3:cad>
          </ns3:TrackPointExtension>
        </extensions>
      </trkpt>
      <trkpt lat="31.958475820720195770263671875" lon="118.7972754053771495819091796875">
        <ele>8.80000019073486328125</ele>
        <time>2024-06-23T09:07:53.000Z</time>
        <extensions>
          <ns3:TrackPointExtension>
            <ns3:hr>102</ns3:hr>
            <ns3:cad>0</ns3:cad>
          </ns3:TrackPointExtension>
        </extensions>
      </trkpt>
      <trkpt lat="31.9584853760898113250732421875" lon="118.797300048172473907470703125">
        <ele>8.80000019073486328125</ele>
        <time>2024-06-23T09:07:54.000Z</time>
        <extensions>
          <ns3:TrackPointExtension>
            <ns3:hr>103</ns3:hr>
            <ns3:cad>0</ns3:cad>
          </ns3:TrackPointExtension>
        </extensions>
      </trkpt>
      <trkpt lat="31.95848076604306697845458984375" lon="118.79732846282422542572021484375">
        <ele>8.80000019073486328125</ele>
        <time>2024-06-23T09:07:55.000Z</time>
        <extensions>
          <ns3:TrackPointExtension>
            <ns3:hr>105</ns3:hr>
            <ns3:cad>0</ns3:cad>
          </ns3:TrackPointExtension>
        </extensions>
      </trkpt>
      <trkpt lat="31.95848076604306697845458984375" lon="118.79737540148198604583740234375">
        <ele>8.80000019073486328125</ele>
        <time>2024-06-23T09:07:56.000Z</time>
        <extensions>
          <ns3:TrackPointExtension>
            <ns3:hr>104</ns3:hr>
            <ns3:cad>0</ns3:cad>
          </ns3:TrackPointExtension>
        </extensions>
      </trkpt>
      <trkpt lat="31.9584930874407291412353515625" lon="118.7974115274846553802490234375">
        <ele>9</ele>
        <time>2024-06-23T09:07:57.000Z</time>
        <extensions>
          <ns3:TrackPointExtension>
            <ns3:hr>106</ns3:hr>
            <ns3:cad>0</ns3:cad>
          </ns3:TrackPointExtension>
        </extensions>
      </trkpt>
      <trkpt lat="31.95850230753421783447265625" lon="118.7974279560148715972900390625">
        <ele>9</ele>
        <time>2024-06-23T09:07:58.000Z</time>
        <extensions>
          <ns3:TrackPointExtension>
            <ns3:hr>108</ns3:hr>
            <ns3:cad>0</ns3:cad>
          </ns3:TrackPointExtension>
        </extensions>
      </trkpt>
      <trkpt lat="31.95850540883839130401611328125" lon="118.79746994934976100921630859375">
        <ele>9</ele>
        <time>2024-06-23T09:07:59.000Z</time>
        <extensions>
          <ns3:TrackPointExtension>
            <ns3:hr>108</ns3:hr>
            <ns3:cad>0</ns3:cad>
          </ns3:TrackPointExtension>
        </extensions>
      </trkpt>
      <trkpt lat="31.95851513184607028961181640625" lon="118.79751035012304782867431640625">
        <ele>9</ele>
        <time>2024-06-23T09:08:00.000Z</time>
        <extensions>
          <ns3:TrackPointExtension>
            <ns3:hr>108</ns3:hr>
            <ns3:cad>0</ns3:cad>
          </ns3:TrackPointExtension>
        </extensions>
      </trkpt>
      <trkpt lat="31.9585202448070049285888671875" lon="118.7975422851741313934326171875">
        <ele>9</ele>
        <time>2024-06-23T09:08:01.000Z</time>
        <extensions>
          <ns3:TrackPointExtension>
            <ns3:hr>107</ns3:hr>
            <ns3:cad>0</ns3:cad>
          </ns3:TrackPointExtension>
        </extensions>
      </trkpt>
      <trkpt lat="31.95851848460733890533447265625" lon="118.797543458640575408935546875">
        <ele>9.19999980926513671875</ele>
        <time>2024-06-23T09:08:03.000Z</time>
        <extensions>
          <ns3:TrackPointExtension>
            <ns3:hr>106</ns3:hr>
            <ns3:cad>0</ns3:cad>
          </ns3:TrackPointExtension>
        </extensions>
      </trkpt>
      <trkpt lat="31.9585095159709453582763671875" lon="118.7975600548088550567626953125">
        <ele>9</ele>
        <time>2024-06-23T09:08:04.000Z</time>
        <extensions>
          <ns3:TrackPointExtension>
            <ns3:hr>106</ns3:hr>
            <ns3:cad>0</ns3:cad>
          </ns3:TrackPointExtension>
        </extensions>
      </trkpt>
      <trkpt lat="31.958504654467105865478515625" lon="118.79755795933306217193603515625">
        <ele>9</ele>
        <time>2024-06-23T09:08:05.000Z</time>
        <extensions>
          <ns3:TrackPointExtension>
            <ns3:hr>106</ns3:hr>
            <ns3:cad>0</ns3:cad>
          </ns3:TrackPointExtension>
        </extensions>
      </trkpt>
      <trkpt lat="31.958501301705837249755859375" lon="118.7975593842566013336181640625">
        <ele>8.80000019073486328125</ele>
        <time>2024-06-23T09:08:06.000Z</time>
        <extensions>
          <ns3:TrackPointExtension>
            <ns3:hr>106</ns3:hr>
            <ns3:cad>0</ns3:cad>
          </ns3:TrackPointExtension>
        </extensions>
      </trkpt>
      <trkpt lat="31.9585024751722812652587890625" lon="118.79755192436277866363525390625">
        <ele>8.80000019073486328125</ele>
        <time>2024-06-23T09:08:07.000Z</time>
        <extensions>
          <ns3:TrackPointExtension>
            <ns3:hr>107</ns3:hr>
            <ns3:cad>0</ns3:cad>
          </ns3:TrackPointExtension>
        </extensions>
      </trkpt>
      <trkpt lat="31.95851982571184635162353515625" lon="118.79753650166094303131103515625">
        <ele>8.80000019073486328125</ele>
        <time>2024-06-23T09:08:08.000Z</time>
        <extensions>
          <ns3:TrackPointExtension>
            <ns3:hr>107</ns3:hr>
            <ns3:cad>0</ns3:cad>
          </ns3:TrackPointExtension>
        </extensions>
      </trkpt>
      <trkpt lat="31.95855863392353057861328125" lon="118.79752962850034236907958984375">
        <ele>8.80000019073486328125</ele>
        <time>2024-06-23T09:08:09.000Z</time>
        <extensions>
          <ns3:TrackPointExtension>
            <ns3:hr>108</ns3:hr>
            <ns3:cad>0</ns3:cad>
          </ns3:TrackPointExtension>
        </extensions>
      </trkpt>
      <trkpt lat="31.95858352817595005035400390625" lon="118.79753683693706989288330078125">
        <ele>8.80000019073486328125</ele>
        <time>2024-06-23T09:08:10.000Z</time>
        <extensions>
          <ns3:TrackPointExtension>
            <ns3:hr>108</ns3:hr>
            <ns3:cad>0</ns3:cad>
          </ns3:TrackPointExtension>
        </extensions>
      </trkpt>
      <trkpt lat="31.9586131162941455841064453125" lon="118.79751923494040966033935546875">
        <ele>8.80000019073486328125</ele>
        <time>2024-06-23T09:08:11.000Z</time>
        <extensions>
          <ns3:TrackPointExtension>
            <ns3:hr>108</ns3:hr>
            <ns3:cad>0</ns3:cad>
          </ns3:TrackPointExtension>
        </extensions>
      </trkpt>
      <trkpt lat="31.95864756591618061065673828125" lon="118.797498531639575958251953125">
        <ele>8.80000019073486328125</ele>
        <time>2024-06-23T09:08:12.000Z</time>
        <extensions>
          <ns3:TrackPointExtension>
            <ns3:hr>109</ns3:hr>
            <ns3:cad>0</ns3:cad>
          </ns3:TrackPointExtension>
        </extensions>
      </trkpt>
      <trkpt lat="31.9586731307208538055419921875" lon="118.79747531376779079437255859375">
        <ele>8.80000019073486328125</ele>
        <time>2024-06-23T09:08:13.000Z</time>
        <extensions>
          <ns3:TrackPointExtension>
            <ns3:hr>110</ns3:hr>
            <ns3:cad>0</ns3:cad>
          </ns3:TrackPointExtension>
        </extensions>
      </trkpt>
      <trkpt lat="31.95870389230549335479736328125" lon="118.79744254052639007568359375">
        <ele>8.80000019073486328125</ele>
        <time>2024-06-23T09:08:14.000Z</time>
        <extensions>
          <ns3:TrackPointExtension>
            <ns3:hr>111</ns3:hr>
            <ns3:cad>0</ns3:cad>
          </ns3:TrackPointExtension>
        </extensions>
      </trkpt>
      <trkpt lat="31.95872367359697818756103515625" lon="118.7974085099995136260986328125">
        <ele>8.80000019073486328125</ele>
        <time>2024-06-23T09:08:15.000Z</time>
        <extensions>
          <ns3:TrackPointExtension>
            <ns3:hr>112</ns3:hr>
            <ns3:cad>55</ns3:cad>
          </ns3:TrackPointExtension>
        </extensions>
      </trkpt>
      <trkpt lat="31.95874328725039958953857421875" lon="118.7973749823868274688720703125">
        <ele>8.80000019073486328125</ele>
        <time>2024-06-23T09:08:16.000Z</time>
        <extensions>
          <ns3:TrackPointExtension>
            <ns3:hr>113</ns3:hr>
            <ns3:cad>55</ns3:cad>
          </ns3:TrackPointExtension>
        </extensions>
      </trkpt>
      <trkpt lat="31.95876474492251873016357421875" lon="118.797330893576145172119140625">
        <ele>8.80000019073486328125</ele>
        <time>2024-06-23T09:08:17.000Z</time>
        <extensions>
          <ns3:TrackPointExtension>
            <ns3:hr>113</ns3:hr>
            <ns3:cad>104</ns3:cad>
          </ns3:TrackPointExtension>
        </extensions>
      </trkpt>
      <trkpt lat="31.95877430029213428497314453125" lon="118.79729007370769977569580078125">
        <ele>8.80000019073486328125</ele>
        <time>2024-06-23T09:08:18.000Z</time>
        <extensions>
          <ns3:TrackPointExtension>
            <ns3:hr>114</ns3:hr>
            <ns3:cad>104</ns3:cad>
          </ns3:TrackPointExtension>
        </extensions>
      </trkpt>
      <trkpt lat="31.95878125727176666259765625" lon="118.7972532771527767181396484375">
        <ele>8.80000019073486328125</ele>
        <time>2024-06-23T09:08:19.000Z</time>
        <extensions>
          <ns3:TrackPointExtension>
            <ns3:hr>115</ns3:hr>
            <ns3:cad>101</ns3:cad>
          </ns3:TrackPointExtension>
        </extensions>
      </trkpt>
      <trkpt lat="31.95878284983336925506591796875" lon="118.79722067154943943023681640625">
        <ele>8.80000019073486328125</ele>
        <time>2024-06-23T09:08:20.000Z</time>
        <extensions>
          <ns3:TrackPointExtension>
            <ns3:hr>115</ns3:hr>
            <ns3:cad>101</ns3:cad>
          </ns3:TrackPointExtension>
        </extensions>
      </trkpt>
      <trkpt lat="31.95878150872886180877685546875" lon="118.79718546755611896514892578125">
        <ele>8.6000003814697265625</ele>
        <time>2024-06-23T09:08:21.000Z</time>
        <extensions>
          <ns3:TrackPointExtension>
            <ns3:hr>116</ns3:hr>
            <ns3:cad>101</ns3:cad>
          </ns3:TrackPointExtension>
        </extensions>
      </trkpt>
      <trkpt lat="31.95877262391149997711181640625" lon="118.79715898074209690093994140625">
        <ele>8.3999996185302734375</ele>
        <time>2024-06-23T09:08:22.000Z</time>
        <extensions>
          <ns3:TrackPointExtension>
            <ns3:hr>117</ns3:hr>
            <ns3:cad>0</ns3:cad>
          </ns3:TrackPointExtension>
        </extensions>
      </trkpt>
      <trkpt lat="31.95876893587410449981689453125" lon="118.79712461493909358978271484375">
        <ele>8.3999996185302734375</ele>
        <time>2024-06-23T09:08:23.000Z</time>
        <extensions>
          <ns3:TrackPointExtension>
            <ns3:hr>117</ns3:hr>
            <ns3:cad>0</ns3:cad>
          </ns3:TrackPointExtension>
        </extensions>
      </trkpt>
      <trkpt lat="31.9587577879428863525390625" lon="118.797115646302700042724609375">
        <ele>8.3999996185302734375</ele>
        <time>2024-06-23T09:08:24.000Z</time>
        <extensions>
          <ns3:TrackPointExtension>
            <ns3:hr>118</ns3:hr>
            <ns3:cad>0</ns3:cad>
          </ns3:TrackPointExtension>
        </extensions>
      </trkpt>
      <trkpt lat="31.95873490534722805023193359375" lon="118.797113634645938873291015625">
        <ele>8.3999996185302734375</ele>
        <time>2024-06-23T09:08:25.000Z</time>
        <extensions>
          <ns3:TrackPointExtension>
            <ns3:hr>118</ns3:hr>
            <ns3:cad>0</ns3:cad>
          </ns3:TrackPointExtension>
        </extensions>
      </trkpt>
      <trkpt lat="31.9587150402367115020751953125" lon="118.797120340168476104736328125">
        <ele>8.3999996185302734375</ele>
        <time>2024-06-23T09:08:26.000Z</time>
        <extensions>
          <ns3:TrackPointExtension>
            <ns3:hr>118</ns3:hr>
            <ns3:cad>0</ns3:cad>
          </ns3:TrackPointExtension>
        </extensions>
      </trkpt>
      <trkpt lat="31.95868629030883312225341796875" lon="118.79711673595011234283447265625">
        <ele>8.6000003814697265625</ele>
        <time>2024-06-23T09:08:27.000Z</time>
        <extensions>
          <ns3:TrackPointExtension>
            <ns3:hr>118</ns3:hr>
            <ns3:cad>84</ns3:cad>
          </ns3:TrackPointExtension>
        </extensions>
      </trkpt>
      <trkpt lat="31.9586647488176822662353515625" lon="118.79710047505795955657958984375">
        <ele>8.6000003814697265625</ele>
        <time>2024-06-23T09:08:28.000Z</time>
        <extensions>
          <ns3:TrackPointExtension>
            <ns3:hr>118</ns3:hr>
            <ns3:cad>84</ns3:cad>
          </ns3:TrackPointExtension>
        </extensions>
      </trkpt>
      <trkpt lat="31.958644129335880279541015625" lon="118.79708622582256793975830078125">
        <ele>8.6000003814697265625</ele>
        <time>2024-06-23T09:08:29.000Z</time>
        <extensions>
          <ns3:TrackPointExtension>
            <ns3:hr>118</ns3:hr>
            <ns3:cad>84</ns3:cad>
          </ns3:TrackPointExtension>
        </extensions>
      </trkpt>
      <trkpt lat="31.958619654178619384765625" lon="118.79707038402557373046875">
        <ele>8.6000003814697265625</ele>
        <time>2024-06-23T09:08:30.000Z</time>
        <extensions>
          <ns3:TrackPointExtension>
            <ns3:hr>118</ns3:hr>
            <ns3:cad>82</ns3:cad>
          </ns3:TrackPointExtension>
        </extensions>
      </trkpt>
      <trkpt lat="31.9586010463535785675048828125" lon="118.79705823026597499847412109375">
        <ele>8.6000003814697265625</ele>
        <time>2024-06-23T09:08:31.000Z</time>
        <extensions>
          <ns3:TrackPointExtension>
            <ns3:hr>119</ns3:hr>
            <ns3:cad>82</ns3:cad>
          </ns3:TrackPointExtension>
        </extensions>
      </trkpt>
      <trkpt lat="31.95859174244105815887451171875" lon="118.79704297520220279693603515625">
        <ele>8.80000019073486328125</ele>
        <time>2024-06-23T09:08:32.000Z</time>
        <extensions>
          <ns3:TrackPointExtension>
            <ns3:hr>120</ns3:hr>
            <ns3:cad>82</ns3:cad>
          </ns3:TrackPointExtension>
        </extensions>
      </trkpt>
      <trkpt lat="31.95859643630683422088623046875" lon="118.79703442566096782684326171875">
        <ele>8.80000019073486328125</ele>
        <time>2024-06-23T09:08:33.000Z</time>
        <extensions>
          <ns3:TrackPointExtension>
            <ns3:hr>119</ns3:hr>
            <ns3:cad>82</ns3:cad>
          </ns3:TrackPointExtension>
        </extensions>
      </trkpt>
      <trkpt lat="31.95859593339264392852783203125" lon="118.79702554084360599517822265625">
        <ele>8.80000019073486328125</ele>
        <time>2024-06-23T09:08:34.000Z</time>
        <extensions>
          <ns3:TrackPointExtension>
            <ns3:hr>119</ns3:hr>
            <ns3:cad>82</ns3:cad>
          </ns3:TrackPointExtension>
        </extensions>
      </trkpt>
      <trkpt lat="31.958598196506500244140625" lon="118.79702772013843059539794921875">
        <ele>8.80000019073486328125</ele>
        <time>2024-06-23T09:08:35.000Z</time>
        <extensions>
          <ns3:TrackPointExtension>
            <ns3:hr>119</ns3:hr>
            <ns3:cad>82</ns3:cad>
          </ns3:TrackPointExtension>
        </extensions>
      </trkpt>
      <trkpt lat="31.9585997052490711212158203125" lon="118.7970341742038726806640625">
        <ele>8.80000019073486328125</ele>
        <time>2024-06-23T09:08:36.000Z</time>
        <extensions>
          <ns3:TrackPointExtension>
            <ns3:hr>119</ns3:hr>
            <ns3:cad>82</ns3:cad>
          </ns3:TrackPointExtension>
        </extensions>
      </trkpt>
      <trkpt lat="31.95859710685908794403076171875" lon="118.79704498685896396636962890625">
        <ele>9</ele>
        <time>2024-06-23T09:08:37.000Z</time>
        <extensions>
          <ns3:TrackPointExtension>
            <ns3:hr>120</ns3:hr>
            <ns3:cad>82</ns3:cad>
          </ns3:TrackPointExtension>
        </extensions>
      </trkpt>
      <trkpt lat="31.9585839472711086273193359375" lon="118.79705470986664295196533203125">
        <ele>9</ele>
        <time>2024-06-23T09:08:38.000Z</time>
        <extensions>
          <ns3:TrackPointExtension>
            <ns3:hr>120</ns3:hr>
            <ns3:cad>82</ns3:cad>
          </ns3:TrackPointExtension>
        </extensions>
      </trkpt>
      <trkpt lat="31.9585588015615940093994140625" lon="118.79706795327365398406982421875">
        <ele>9</ele>
        <time>2024-06-23T09:08:39.000Z</time>
        <extensions>
          <ns3:TrackPointExtension>
            <ns3:hr>120</ns3:hr>
            <ns3:cad>0</ns3:cad>
          </ns3:TrackPointExtension>
        </extensions>
      </trkpt>
      <trkpt lat="31.95853809826076030731201171875" lon="118.797078095376491546630859375">
        <ele>9</ele>
        <time>2024-06-23T09:08:40.000Z</time>
        <extensions>
          <ns3:TrackPointExtension>
            <ns3:hr>120</ns3:hr>
            <ns3:cad>0</ns3:cad>
          </ns3:TrackPointExtension>
        </extensions>
      </trkpt>
      <trkpt lat="31.9585162214934825897216796875" lon="118.79709829576313495635986328125">
        <ele>9</ele>
        <time>2024-06-23T09:08:41.000Z</time>
        <extensions>
          <ns3:TrackPointExtension>
            <ns3:hr>120</ns3:hr>
            <ns3:cad>0</ns3:cad>
          </ns3:TrackPointExtension>
        </extensions>
      </trkpt>
      <trkpt lat="31.95850633084774017333984375" lon="118.7971241958439350128173828125">
        <ele>9.19999980926513671875</ele>
        <time>2024-06-23T09:08:42.000Z</time>
        <extensions>
          <ns3:TrackPointExtension>
            <ns3:hr>120</ns3:hr>
            <ns3:cad>88</ns3:cad>
          </ns3:TrackPointExtension>
        </extensions>
      </trkpt>
      <trkpt lat="31.9585083425045013427734375" lon="118.79715688526630401611328125">
        <ele>9.3999996185302734375</ele>
        <time>2024-06-23T09:08:43.000Z</time>
        <extensions>
          <ns3:TrackPointExtension>
            <ns3:hr>119</ns3:hr>
            <ns3:cad>88</ns3:cad>
          </ns3:TrackPointExtension>
        </extensions>
      </trkpt>
      <trkpt lat="31.9585165567696094512939453125" lon="118.79720524884760379791259765625">
        <ele>9.3999996185302734375</ele>
        <time>2024-06-23T09:08:44.000Z</time>
        <extensions>
          <ns3:TrackPointExtension>
            <ns3:hr>118</ns3:hr>
            <ns3:cad>88</ns3:cad>
          </ns3:TrackPointExtension>
        </extensions>
      </trkpt>
      <trkpt lat="31.9585215859115123748779296875" lon="118.79724246449768543243408203125">
        <ele>9.3999996185302734375</ele>
        <time>2024-06-23T09:08:45.000Z</time>
        <extensions>
          <ns3:TrackPointExtension>
            <ns3:hr>118</ns3:hr>
            <ns3:cad>88</ns3:cad>
          </ns3:TrackPointExtension>
        </extensions>
      </trkpt>
      <trkpt lat="31.958523429930210113525390625" lon="118.7972836196422576904296875">
        <ele>9.3999996185302734375</ele>
        <time>2024-06-23T09:08:46.000Z</time>
        <extensions>
          <ns3:TrackPointExtension>
            <ns3:hr>118</ns3:hr>
            <ns3:cad>88</ns3:cad>
          </ns3:TrackPointExtension>
        </extensions>
      </trkpt>
      <trkpt lat="31.95853424258530139923095703125" lon="118.79731019027531147003173828125">
        <ele>9.6000003814697265625</ele>
        <time>2024-06-23T09:08:47.000Z</time>
        <extensions>
          <ns3:TrackPointExtension>
            <ns3:hr>119</ns3:hr>
            <ns3:cad>88</ns3:cad>
          </ns3:TrackPointExtension>
        </extensions>
      </trkpt>
      <trkpt lat="31.95855586789548397064208984375" lon="118.797330893576145172119140625">
        <ele>9.6000003814697265625</ele>
        <time>2024-06-23T09:08:48.000Z</time>
        <extensions>
          <ns3:TrackPointExtension>
            <ns3:hr>120</ns3:hr>
            <ns3:cad>98</ns3:cad>
          </ns3:TrackPointExtension>
        </extensions>
      </trkpt>
      <trkpt lat="31.9585725478827953338623046875" lon="118.7973655946552753448486328125">
        <ele>9.80000019073486328125</ele>
        <time>2024-06-23T09:08:49.000Z</time>
        <extensions>
          <ns3:TrackPointExtension>
            <ns3:hr>121</ns3:hr>
            <ns3:cad>98</ns3:cad>
          </ns3:TrackPointExtension>
        </extensions>
      </trkpt>
      <trkpt lat="31.95857296697795391082763671875" lon="118.79740356467664241790771484375">
        <ele>10</ele>
        <time>2024-06-23T09:08:50.000Z</time>
        <extensions>
          <ns3:TrackPointExtension>
            <ns3:hr>122</ns3:hr>
            <ns3:cad>98</ns3:cad>
          </ns3:TrackPointExtension>
        </extensions>
      </trkpt>
      <trkpt lat="31.95856391452252864837646484375" lon="118.797432817518711090087890625">
        <ele>10</ele>
        <time>2024-06-23T09:08:51.000Z</time>
        <extensions>
          <ns3:TrackPointExtension>
            <ns3:hr>123</ns3:hr>
            <ns3:cad>98</ns3:cad>
          </ns3:TrackPointExtension>
        </extensions>
      </trkpt>
      <trkpt lat="31.95854614488780498504638671875" lon="118.79746735095977783203125">
        <ele>10</ele>
        <time>2024-06-23T09:08:52.000Z</time>
        <extensions>
          <ns3:TrackPointExtension>
            <ns3:hr>124</ns3:hr>
            <ns3:cad>0</ns3:cad>
          </ns3:TrackPointExtension>
        </extensions>
      </trkpt>
      <trkpt lat="31.958534829318523406982421875" lon="118.79749710671603679656982421875">
        <ele>10</ele>
        <time>2024-06-23T09:08:53.000Z</time>
        <extensions>
          <ns3:TrackPointExtension>
            <ns3:hr>124</ns3:hr>
            <ns3:cad>0</ns3:cad>
          </ns3:TrackPointExtension>
        </extensions>
      </trkpt>
      <trkpt lat="31.95853189565241336822509765625" lon="118.79752174951136112213134765625">
        <ele>10</ele>
        <time>2024-06-23T09:08:54.000Z</time>
        <extensions>
          <ns3:TrackPointExtension>
            <ns3:hr>123</ns3:hr>
            <ns3:cad>0</ns3:cad>
          </ns3:TrackPointExtension>
        </extensions>
      </trkpt>
      <trkpt lat="31.95853776298463344573974609375" lon="118.79753029905259609222412109375">
        <ele>10</ele>
        <time>2024-06-23T09:08:55.000Z</time>
        <extensions>
          <ns3:TrackPointExtension>
            <ns3:hr>123</ns3:hr>
            <ns3:cad>0</ns3:cad>
          </ns3:TrackPointExtension>
        </extensions>
      </trkpt>
      <trkpt lat="31.95856039412319660186767578125" lon="118.79753029905259609222412109375">
        <ele>9.80000019073486328125</ele>
        <time>2024-06-23T09:08:56.000Z</time>
        <extensions>
          <ns3:TrackPointExtension>
            <ns3:hr>123</ns3:hr>
            <ns3:cad>0</ns3:cad>
          </ns3:TrackPointExtension>
        </extensions>
      </trkpt>
      <trkpt lat="31.9585849530994892120361328125" lon="118.7975282035768032073974609375">
        <ele>9.80000019073486328125</ele>
        <time>2024-06-23T09:08:57.000Z</time>
        <extensions>
          <ns3:TrackPointExtension>
            <ns3:hr>122</ns3:hr>
            <ns3:cad>0</ns3:cad>
          </ns3:TrackPointExtension>
        </extensions>
      </trkpt>
      <trkpt lat="31.95861487649381160736083984375" lon="118.79753432236611843109130859375">
        <ele>9.80000019073486328125</ele>
        <time>2024-06-23T09:08:58.000Z</time>
        <extensions>
          <ns3:TrackPointExtension>
            <ns3:hr>122</ns3:hr>
            <ns3:cad>0</ns3:cad>
          </ns3:TrackPointExtension>
        </extensions>
      </trkpt>
      <trkpt lat="31.95863650180399417877197265625" lon="118.7975543551146984100341796875">
        <ele>9.6000003814697265625</ele>
        <time>2024-06-23T09:08:59.000Z</time>
        <extensions>
          <ns3:TrackPointExtension>
            <ns3:hr>122</ns3:hr>
            <ns3:cad>0</ns3:cad>
          </ns3:TrackPointExtension>
        </extensions>
      </trkpt>
      <trkpt lat="31.9586570374667644500732421875" lon="118.79757505841553211212158203125">
        <ele>9.3999996185302734375</ele>
        <time>2024-06-23T09:09:00.000Z</time>
        <extensions>
          <ns3:TrackPointExtension>
            <ns3:hr>122</ns3:hr>
            <ns3:cad>0</ns3:cad>
          </ns3:TrackPointExtension>
        </extensions>
      </trkpt>
      <trkpt lat="31.95868293754756450653076171875" lon="118.79760171286761760711669921875">
        <ele>9.3999996185302734375</ele>
        <time>2024-06-23T09:09:01.000Z</time>
        <extensions>
          <ns3:TrackPointExtension>
            <ns3:hr>122</ns3:hr>
            <ns3:cad>83</ns3:cad>
          </ns3:TrackPointExtension>
        </extensions>
      </trkpt>
      <trkpt lat="31.95870959199965000152587890625" lon="118.7976220808923244476318359375">
        <ele>9.19999980926513671875</ele>
        <time>2024-06-23T09:09:02.000Z</time>
        <extensions>
          <ns3:TrackPointExtension>
            <ns3:hr>121</ns3:hr>
            <ns3:cad>83</ns3:cad>
          </ns3:TrackPointExtension>
        </extensions>
      </trkpt>
      <trkpt lat="31.958743371069431304931640625" lon="118.79763373173773288726806640625">
        <ele>9.19999980926513671875</ele>
        <time>2024-06-23T09:09:03.000Z</time>
        <extensions>
          <ns3:TrackPointExtension>
            <ns3:hr>121</ns3:hr>
            <ns3:cad>83</ns3:cad>
          </ns3:TrackPointExtension>
        </extensions>
      </trkpt>
      <trkpt lat="31.95876005105674266815185546875" lon="118.79762467928230762481689453125">
        <ele>9</ele>
        <time>2024-06-23T09:09:04.000Z</time>
        <extensions>
          <ns3:TrackPointExtension>
            <ns3:hr>121</ns3:hr>
            <ns3:cad>83</ns3:cad>
          </ns3:TrackPointExtension>
        </extensions>
      </trkpt>
      <trkpt lat="31.95877723395824432373046875" lon="118.797595091164112091064453125">
        <ele>8.80000019073486328125</ele>
        <time>2024-06-23T09:09:05.000Z</time>
        <extensions>
          <ns3:TrackPointExtension>
            <ns3:hr>121</ns3:hr>
            <ns3:cad>0</ns3:cad>
          </ns3:TrackPointExtension>
        </extensions>
      </trkpt>
      <trkpt lat="31.95878117345273494720458984375" lon="118.7975607253611087799072265625">
        <ele>8.6000003814697265625</ele>
        <time>2024-06-23T09:09:06.000Z</time>
        <extensions>
          <ns3:TrackPointExtension>
            <ns3:hr>121</ns3:hr>
            <ns3:cad>0</ns3:cad>
          </ns3:TrackPointExtension>
        </extensions>
      </trkpt>
      <trkpt lat="31.9587877951562404632568359375" lon="118.79751839675009250640869140625">
        <ele>8.3999996185302734375</ele>
        <time>2024-06-23T09:09:07.000Z</time>
        <extensions>
          <ns3:TrackPointExtension>
            <ns3:hr>121</ns3:hr>
            <ns3:cad>0</ns3:cad>
          </ns3:TrackPointExtension>
        </extensions>
      </trkpt>
      <trkpt lat="31.95879039354622364044189453125" lon="118.79747682251036167144775390625">
        <ele>8.19999980926513671875</ele>
        <time>2024-06-23T09:09:08.000Z</time>
        <extensions>
          <ns3:TrackPointExtension>
            <ns3:hr>122</ns3:hr>
            <ns3:cad>90</ns3:cad>
          </ns3:TrackPointExtension>
        </extensions>
      </trkpt>
      <trkpt lat="31.95879693143069744110107421875" lon="118.7974336557090282440185546875">
        <ele>8.19999980926513671875</ele>
        <time>2024-06-23T09:09:09.000Z</time>
        <extensions>
          <ns3:TrackPointExtension>
            <ns3:hr>122</ns3:hr>
            <ns3:cad>90</ns3:cad>
          </ns3:TrackPointExtension>
        </extensions>
      </trkpt>
      <trkpt lat="31.95880011655390262603759765625" lon="118.79740775562822818756103515625">
        <ele>8.19999980926513671875</ele>
        <time>2024-06-23T09:09:10.000Z</time>
        <extensions>
          <ns3:TrackPointExtension>
            <ns3:hr>122</ns3:hr>
            <ns3:cad>90</ns3:cad>
          </ns3:TrackPointExtension>
        </extensions>
      </trkpt>
      <trkpt lat="31.9587854482233524322509765625" lon="118.79739484749734401702880859375">
        <ele>8.3999996185302734375</ele>
        <time>2024-06-23T09:09:11.000Z</time>
        <extensions>
          <ns3:TrackPointExtension>
            <ns3:hr>122</ns3:hr>
            <ns3:cad>90</ns3:cad>
          </ns3:TrackPointExtension>
        </extensions>
      </trkpt>
      <trkpt lat="31.95877379737794399261474609375" lon="118.79741747863590717315673828125">
        <ele>8.3999996185302734375</ele>
        <time>2024-06-23T09:09:12.000Z</time>
        <extensions>
          <ns3:TrackPointExtension>
            <ns3:hr>122</ns3:hr>
            <ns3:cad>90</ns3:cad>
          </ns3:TrackPointExtension>
        </extensions>
      </trkpt>
      <trkpt lat="31.95876474492251873016357421875" lon="118.7974534370005130767822265625">
        <ele>8.3999996185302734375</ele>
        <time>2024-06-23T09:09:13.000Z</time>
        <extensions>
          <ns3:TrackPointExtension>
            <ns3:hr>123</ns3:hr>
            <ns3:cad>90</ns3:cad>
          </ns3:TrackPointExtension>
        </extensions>
      </trkpt>
      <trkpt lat="31.9587606377899646759033203125" lon="118.79748419858515262603759765625">
        <ele>8.3999996185302734375</ele>
        <time>2024-06-23T09:09:14.000Z</time>
        <extensions>
          <ns3:TrackPointExtension>
            <ns3:hr>124</ns3:hr>
            <ns3:cad>90</ns3:cad>
          </ns3:TrackPointExtension>
        </extensions>
      </trkpt>
      <trkpt lat="31.95875518955290317535400390625" lon="118.7975111044943332672119140625">
        <ele>8.3999996185302734375</ele>
        <time>2024-06-23T09:09:15.000Z</time>
        <extensions>
          <ns3:TrackPointExtension>
            <ns3:hr>125</ns3:hr>
            <ns3:cad>90</ns3:cad>
          </ns3:TrackPointExtension>
        </extensions>
      </trkpt>
      <trkpt lat="31.958747394382953643798828125" lon="118.79753532819449901580810546875">
        <ele>8.6000003814697265625</ele>
        <time>2024-06-23T09:09:16.000Z</time>
        <extensions>
          <ns3:TrackPointExtension>
            <ns3:hr>126</ns3:hr>
            <ns3:cad>90</ns3:cad>
          </ns3:TrackPointExtension>
        </extensions>
      </trkpt>
      <trkpt lat="31.9587398506700992584228515625" lon="118.7975580431520938873291015625">
        <ele>8.6000003814697265625</ele>
        <time>2024-06-23T09:09:17.000Z</time>
        <extensions>
          <ns3:TrackPointExtension>
            <ns3:hr>126</ns3:hr>
            <ns3:cad>90</ns3:cad>
          </ns3:TrackPointExtension>
        </extensions>
      </trkpt>
      <trkpt lat="31.95872501470148563385009765625" lon="118.79757489077746868133544921875">
        <ele>8.6000003814697265625</ele>
        <time>2024-06-23T09:09:18.000Z</time>
        <extensions>
          <ns3:TrackPointExtension>
            <ns3:hr>127</ns3:hr>
            <ns3:cad>90</ns3:cad>
          </ns3:TrackPointExtension>
        </extensions>
      </trkpt>
      <trkpt lat="31.95871043018996715545654296875" lon="118.7975862063467502593994140625">
        <ele>8.80000019073486328125</ele>
        <time>2024-06-23T09:09:19.000Z</time>
        <extensions>
          <ns3:TrackPointExtension>
            <ns3:hr>127</ns3:hr>
            <ns3:cad>90</ns3:cad>
          </ns3:TrackPointExtension>
        </extensions>
      </trkpt>
      <trkpt lat="31.95869685150682926177978515625" lon="118.7975989468395709991455078125">
        <ele>9</ele>
        <time>2024-06-23T09:09:20.000Z</time>
        <extensions>
          <ns3:TrackPointExtension>
            <ns3:hr>128</ns3:hr>
            <ns3:cad>90</ns3:cad>
          </ns3:TrackPointExtension>
        </extensions>
      </trkpt>
      <trkpt lat="31.9586801715195178985595703125" lon="118.797607161104679107666015625">
        <ele>9</ele>
        <time>2024-06-23T09:09:21.000Z</time>
        <extensions>
          <ns3:TrackPointExtension>
            <ns3:hr>128</ns3:hr>
            <ns3:cad>90</ns3:cad>
          </ns3:TrackPointExtension>
        </extensions>
      </trkpt>
      <trkpt lat="31.95866189897060394287109375" lon="118.797605820000171661376953125">
        <ele>9</ele>
        <time>2024-06-23T09:09:22.000Z</time>
        <extensions>
          <ns3:TrackPointExtension>
            <ns3:hr>127</ns3:hr>
            <ns3:cad>90</ns3:cad>
          </ns3:TrackPointExtension>
        </extensions>
      </trkpt>
      <trkpt lat="31.95864689536392688751220703125" lon="118.79760556854307651519775390625">
        <ele>9</ele>
        <time>2024-06-23T09:09:23.000Z</time>
        <extensions>
          <ns3:TrackPointExtension>
            <ns3:hr>127</ns3:hr>
            <ns3:cad>90</ns3:cad>
          </ns3:TrackPointExtension>
        </extensions>
      </trkpt>
      <trkpt lat="31.95863700471818447113037109375" lon="118.79761017858982086181640625">
        <ele>9</ele>
        <time>2024-06-23T09:09:24.000Z</time>
        <extensions>
          <ns3:TrackPointExtension>
            <ns3:hr>126</ns3:hr>
            <ns3:cad>80</ns3:cad>
          </ns3:TrackPointExtension>
        </extensions>
      </trkpt>
      <trkpt lat="31.95863080210983753204345703125" lon="118.79761545918881893157958984375">
        <ele>9.19999980926513671875</ele>
        <time>2024-06-23T09:09:25.000Z</time>
        <extensions>
          <ns3:TrackPointExtension>
            <ns3:hr>126</ns3:hr>
            <ns3:cad>78</ns3:cad>
          </ns3:TrackPointExtension>
        </extensions>
      </trkpt>
      <trkpt lat="31.95861739106476306915283203125" lon="118.797603808343410491943359375">
        <ele>9.19999980926513671875</ele>
        <time>2024-06-23T09:09:26.000Z</time>
        <extensions>
          <ns3:TrackPointExtension>
            <ns3:hr>125</ns3:hr>
            <ns3:cad>78</ns3:cad>
          </ns3:TrackPointExtension>
        </extensions>
      </trkpt>
      <trkpt lat="31.9586030580103397369384765625" lon="118.79759408533573150634765625">
        <ele>9.19999980926513671875</ele>
        <time>2024-06-23T09:09:27.000Z</time>
        <extensions>
          <ns3:TrackPointExtension>
            <ns3:hr>125</ns3:hr>
            <ns3:cad>78</ns3:cad>
          </ns3:TrackPointExtension>
        </extensions>
      </trkpt>
      <trkpt lat="31.95858822204172611236572265625" lon="118.797581680119037628173828125">
        <ele>9.6000003814697265625</ele>
        <time>2024-06-23T09:09:28.000Z</time>
        <extensions>
          <ns3:TrackPointExtension>
            <ns3:hr>125</ns3:hr>
            <ns3:cad>78</ns3:cad>
          </ns3:TrackPointExtension>
        </extensions>
      </trkpt>
      <trkpt lat="31.95857472717761993408203125" lon="118.79757170565426349639892578125">
        <ele>9.80000019073486328125</ele>
        <time>2024-06-23T09:09:29.000Z</time>
        <extensions>
          <ns3:TrackPointExtension>
            <ns3:hr>125</ns3:hr>
            <ns3:cad>78</ns3:cad>
          </ns3:TrackPointExtension>
        </extensions>
      </trkpt>
      <trkpt lat="31.9585648365318775177001953125" lon="118.7975610606372356414794921875">
        <ele>10</ele>
        <time>2024-06-23T09:09:30.000Z</time>
        <extensions>
          <ns3:TrackPointExtension>
            <ns3:hr>125</ns3:hr>
            <ns3:cad>78</ns3:cad>
          </ns3:TrackPointExtension>
        </extensions>
      </trkpt>
      <trkpt lat="31.958559639751911163330078125" lon="118.797555863857269287109375">
        <ele>10</ele>
        <time>2024-06-23T09:09:31.000Z</time>
        <extensions>
          <ns3:TrackPointExtension>
            <ns3:hr>125</ns3:hr>
            <ns3:cad>78</ns3:cad>
          </ns3:TrackPointExtension>
        </extensions>
      </trkpt>
      <trkpt lat="31.958559639751911163330078125" lon="118.797555863857269287109375">
        <ele>10</ele>
        <time>2024-06-23T09:09:32.000Z</time>
        <extensions>
          <ns3:TrackPointExtension>
            <ns3:hr>125</ns3:hr>
            <ns3:cad>53</ns3:cad>
          </ns3:TrackPointExtension>
        </extensions>
      </trkpt>
      <trkpt lat="31.95853943936526775360107421875" lon="118.797545135021209716796875">
        <ele>10</ele>
        <time>2024-06-23T09:09:33.000Z</time>
        <extensions>
          <ns3:TrackPointExtension>
            <ns3:hr>125</ns3:hr>
            <ns3:cad>53</ns3:cad>
          </ns3:TrackPointExtension>
        </extensions>
      </trkpt>
      <trkpt lat="31.9585246033966541290283203125" lon="118.79753717221319675445556640625">
        <ele>10</ele>
        <time>2024-06-23T09:09:34.000Z</time>
        <extensions>
          <ns3:TrackPointExtension>
            <ns3:hr>125</ns3:hr>
            <ns3:cad>53</ns3:cad>
          </ns3:TrackPointExtension>
        </extensions>
      </trkpt>
      <trkpt lat="31.95850976742804050445556640625" lon="118.79753147251904010772705078125">
        <ele>10</ele>
        <time>2024-06-23T09:09:35.000Z</time>
        <extensions>
          <ns3:TrackPointExtension>
            <ns3:hr>126</ns3:hr>
            <ns3:cad>53</ns3:cad>
          </ns3:TrackPointExtension>
        </extensions>
      </trkpt>
      <trkpt lat="31.9584981165826320648193359375" lon="118.79752811975777149200439453125">
        <ele>10</ele>
        <time>2024-06-23T09:09:36.000Z</time>
        <extensions>
          <ns3:TrackPointExtension>
            <ns3:hr>125</ns3:hr>
            <ns3:cad>77</ns3:cad>
          </ns3:TrackPointExtension>
        </extensions>
      </trkpt>
      <trkpt lat="31.95849434472620487213134765625" lon="118.797528706490993499755859375">
        <ele>10</ele>
        <time>2024-06-23T09:09:37.000Z</time>
        <extensions>
          <ns3:TrackPointExtension>
            <ns3:hr>125</ns3:hr>
            <ns3:cad>77</ns3:cad>
          </ns3:TrackPointExtension>
        </extensions>
      </trkpt>
      <trkpt lat="31.95848965086042881011962890625" lon="118.79752568900585174560546875">
        <ele>10.19999980926513671875</ele>
        <time>2024-06-23T09:09:38.000Z</time>
        <extensions>
          <ns3:TrackPointExtension>
            <ns3:hr>125</ns3:hr>
            <ns3:cad>77</ns3:cad>
          </ns3:TrackPointExtension>
        </extensions>
      </trkpt>
      <trkpt lat="31.9584870524704456329345703125" lon="118.79752376116812229156494140625">
        <ele>10.19999980926513671875</ele>
        <time>2024-06-23T09:09:39.000Z</time>
        <extensions>
          <ns3:TrackPointExtension>
            <ns3:hr>124</ns3:hr>
            <ns3:cad>0</ns3:cad>
          </ns3:TrackPointExtension>
        </extensions>
      </trkpt>
      <trkpt lat="31.958487890660762786865234375" lon="118.797523342072963714599609375">
        <ele>10.19999980926513671875</ele>
        <time>2024-06-23T09:09:40.000Z</time>
        <extensions>
          <ns3:TrackPointExtension>
            <ns3:hr>124</ns3:hr>
            <ns3:cad>0</ns3:cad>
          </ns3:TrackPointExtension>
        </extensions>
      </trkpt>
      <trkpt lat="31.95848797447979450225830078125" lon="118.7975241802632808685302734375">
        <ele>10</ele>
        <time>2024-06-23T09:09:41.000Z</time>
        <extensions>
          <ns3:TrackPointExtension>
            <ns3:hr>124</ns3:hr>
            <ns3:cad>0</ns3:cad>
          </ns3:TrackPointExtension>
        </extensions>
      </trkpt>
      <trkpt lat="31.95848914794623851776123046875" lon="118.7975250184535980224609375">
        <ele>10</ele>
        <time>2024-06-23T09:09:42.000Z</time>
        <extensions>
          <ns3:TrackPointExtension>
            <ns3:hr>124</ns3:hr>
            <ns3:cad>0</ns3:cad>
          </ns3:TrackPointExtension>
        </extensions>
      </trkpt>
      <trkpt lat="31.9584964402019977569580078125" lon="118.797526024281978607177734375">
        <ele>10</ele>
        <time>2024-06-23T09:09:43.000Z</time>
        <extensions>
          <ns3:TrackPointExtension>
            <ns3:hr>124</ns3:hr>
            <ns3:cad>0</ns3:cad>
          </ns3:TrackPointExtension>
        </extensions>
      </trkpt>
      <trkpt lat="31.9584964402019977569580078125" lon="118.797526024281978607177734375">
        <ele>10</ele>
        <time>2024-06-23T09:09:44.000Z</time>
        <extensions>
          <ns3:TrackPointExtension>
            <ns3:hr>123</ns3:hr>
            <ns3:cad>0</ns3:cad>
          </ns3:TrackPointExtension>
        </extensions>
      </trkpt>
      <trkpt lat="31.9584964402019977569580078125" lon="118.797526024281978607177734375">
        <ele>10</ele>
        <time>2024-06-23T09:09:45.000Z</time>
        <extensions>
          <ns3:TrackPointExtension>
            <ns3:hr>123</ns3:hr>
            <ns3:cad>0</ns3:cad>
          </ns3:TrackPointExtension>
        </extensions>
      </trkpt>
      <trkpt lat="31.9584964402019977569580078125" lon="118.797526024281978607177734375">
        <ele>10</ele>
        <time>2024-06-23T09:09:46.000Z</time>
        <extensions>
          <ns3:TrackPointExtension>
            <ns3:hr>122</ns3:hr>
            <ns3:cad>0</ns3:cad>
          </ns3:TrackPointExtension>
        </extensions>
      </trkpt>
      <trkpt lat="31.9584964402019977569580078125" lon="118.797526024281978607177734375">
        <ele>10</ele>
        <time>2024-06-23T09:09:47.000Z</time>
        <extensions>
          <ns3:TrackPointExtension>
            <ns3:hr>122</ns3:hr>
            <ns3:cad>0</ns3:cad>
          </ns3:TrackPointExtension>
        </extensions>
      </trkpt>
      <trkpt lat="31.9585024751722812652587890625" lon="118.79752661101520061492919921875">
        <ele>10</ele>
        <time>2024-06-23T09:09:48.000Z</time>
        <extensions>
          <ns3:TrackPointExtension>
            <ns3:hr>121</ns3:hr>
            <ns3:cad>0</ns3:cad>
          </ns3:TrackPointExtension>
        </extensions>
      </trkpt>
      <trkpt lat="31.95850390009582042694091796875" lon="118.7975250184535980224609375">
        <ele>10</ele>
        <time>2024-06-23T09:09:49.000Z</time>
        <extensions>
          <ns3:TrackPointExtension>
            <ns3:hr>120</ns3:hr>
            <ns3:cad>0</ns3:cad>
          </ns3:TrackPointExtension>
        </extensions>
      </trkpt>
      <trkpt lat="31.958520412445068359375" lon="118.7975456379354000091552734375">
        <ele>10</ele>
        <time>2024-06-23T09:10:03.000Z</time>
        <extensions>
          <ns3:TrackPointExtension>
            <ns3:hr>133</ns3:hr>
            <ns3:cad>0</ns3:cad>
          </ns3:TrackPointExtension>
        </extensions>
      </trkpt>
      <trkpt lat="31.95852502249181270599365234375" lon="118.79755091853439807891845703125">
        <ele>10</ele>
        <time>2024-06-23T09:10:04.000Z</time>
        <extensions>
          <ns3:TrackPointExtension>
            <ns3:hr>132</ns3:hr>
            <ns3:cad>0</ns3:cad>
          </ns3:TrackPointExtension>
        </extensions>
      </trkpt>
      <trkpt lat="31.95852644741535186767578125" lon="118.797553516924381256103515625">
        <ele>10</ele>
        <time>2024-06-23T09:10:05.000Z</time>
        <extensions>
          <ns3:TrackPointExtension>
            <ns3:hr>132</ns3:hr>
            <ns3:cad>0</ns3:cad>
          </ns3:TrackPointExtension>
        </extensions>
      </trkpt>
      <trkpt lat="31.95852535776793956756591796875" lon="118.79755376838147640228271484375">
        <ele>10</ele>
        <time>2024-06-23T09:10:06.000Z</time>
        <extensions>
          <ns3:TrackPointExtension>
            <ns3:hr>131</ns3:hr>
            <ns3:cad>0</ns3:cad>
          </ns3:TrackPointExtension>
        </extensions>
      </trkpt>
      <trkpt lat="31.95852552540600299835205078125" lon="118.79755376838147640228271484375">
        <ele>10</ele>
        <time>2024-06-23T09:10:07.000Z</time>
        <extensions>
          <ns3:TrackPointExtension>
            <ns3:hr>131</ns3:hr>
            <ns3:cad>0</ns3:cad>
          </ns3:TrackPointExtension>
        </extensions>
      </trkpt>
      <trkpt lat="31.958520412445068359375" lon="118.7975456379354000091552734375">
        <ele>10</ele>
        <time>2024-06-23T09:10:08.000Z</time>
        <extensions>
          <ns3:TrackPointExtension>
            <ns3:hr>130</ns3:hr>
            <ns3:cad>0</ns3:cad>
          </ns3:TrackPointExtension>
        </extensions>
      </trkpt>
      <trkpt lat="31.958520412445068359375" lon="118.7975456379354000091552734375">
        <ele>10</ele>
        <time>2024-06-23T09:10:09.000Z</time>
        <extensions>
          <ns3:TrackPointExtension>
            <ns3:hr>128</ns3:hr>
            <ns3:cad>0</ns3:cad>
          </ns3:TrackPointExtension>
        </extensions>
      </trkpt>
      <trkpt lat="31.958520412445068359375" lon="118.7975456379354000091552734375">
        <ele>10</ele>
        <time>2024-06-23T09:10:10.000Z</time>
        <extensions>
          <ns3:TrackPointExtension>
            <ns3:hr>126</ns3:hr>
            <ns3:cad>0</ns3:cad>
          </ns3:TrackPointExtension>
        </extensions>
      </trkpt>
      <trkpt lat="31.958520412445068359375" lon="118.7975456379354000091552734375">
        <ele>10</ele>
        <time>2024-06-23T09:10:11.000Z</time>
        <extensions>
          <ns3:TrackPointExtension>
            <ns3:hr>125</ns3:hr>
            <ns3:cad>0</ns3:cad>
          </ns3:TrackPointExtension>
        </extensions>
      </trkpt>
      <trkpt lat="31.958520412445068359375" lon="118.7975456379354000091552734375">
        <ele>10</ele>
        <time>2024-06-23T09:10:12.000Z</time>
        <extensions>
          <ns3:TrackPointExtension>
            <ns3:hr>125</ns3:hr>
            <ns3:cad>0</ns3:cad>
          </ns3:TrackPointExtension>
        </extensions>
      </trkpt>
      <trkpt lat="31.9585145451128482818603515625" lon="118.7975570373237133026123046875">
        <ele>10</ele>
        <time>2024-06-23T09:10:13.000Z</time>
        <extensions>
          <ns3:TrackPointExtension>
            <ns3:hr>125</ns3:hr>
            <ns3:cad>0</ns3:cad>
          </ns3:TrackPointExtension>
        </extensions>
      </trkpt>
      <trkpt lat="31.95851362310349941253662109375" lon="118.79755443893373012542724609375">
        <ele>10</ele>
        <time>2024-06-23T09:10:14.000Z</time>
        <extensions>
          <ns3:TrackPointExtension>
            <ns3:hr>124</ns3:hr>
            <ns3:cad>0</ns3:cad>
          </ns3:TrackPointExtension>
        </extensions>
      </trkpt>
      <trkpt lat="31.95851303637027740478515625" lon="118.7975530140101909637451171875">
        <ele>10</ele>
        <time>2024-06-23T09:10:15.000Z</time>
        <extensions>
          <ns3:TrackPointExtension>
            <ns3:hr>124</ns3:hr>
            <ns3:cad>0</ns3:cad>
          </ns3:TrackPointExtension>
        </extensions>
      </trkpt>
      <trkpt lat="31.958512365818023681640625" lon="118.797551505267620086669921875">
        <ele>10</ele>
        <time>2024-06-23T09:10:16.000Z</time>
        <extensions>
          <ns3:TrackPointExtension>
            <ns3:hr>122</ns3:hr>
            <ns3:cad>0</ns3:cad>
          </ns3:TrackPointExtension>
        </extensions>
      </trkpt>
      <trkpt lat="31.958520412445068359375" lon="118.7975456379354000091552734375">
        <ele>10</ele>
        <time>2024-06-23T09:10:17.000Z</time>
        <extensions>
          <ns3:TrackPointExtension>
            <ns3:hr>119</ns3:hr>
            <ns3:cad>0</ns3:cad>
          </ns3:TrackPointExtension>
        </extensions>
      </trkpt>
      <trkpt lat="31.958520412445068359375" lon="118.7975456379354000091552734375">
        <ele>10</ele>
        <time>2024-06-23T09:10:18.000Z</time>
        <extensions>
          <ns3:TrackPointExtension>
            <ns3:hr>117</ns3:hr>
            <ns3:cad>0</ns3:cad>
          </ns3:TrackPointExtension>
        </extensions>
      </trkpt>
      <trkpt lat="31.95850498974323272705078125" lon="118.79755225963890552520751953125">
        <ele>10</ele>
        <time>2024-06-23T09:10:19.000Z</time>
        <extensions>
          <ns3:TrackPointExtension>
            <ns3:hr>116</ns3:hr>
            <ns3:cad>0</ns3:cad>
          </ns3:TrackPointExtension>
        </extensions>
      </trkpt>
      <trkpt lat="31.95850322954356670379638671875" lon="118.79755326546728610992431640625">
        <ele>10</ele>
        <time>2024-06-23T09:10:20.000Z</time>
        <extensions>
          <ns3:TrackPointExtension>
            <ns3:hr>113</ns3:hr>
            <ns3:cad>0</ns3:cad>
          </ns3:TrackPointExtension>
        </extensions>
      </trkpt>
      <trkpt lat="31.9585021398961544036865234375" lon="118.7975543551146984100341796875">
        <ele>10</ele>
        <time>2024-06-23T09:10:21.000Z</time>
        <extensions>
          <ns3:TrackPointExtension>
            <ns3:hr>111</ns3:hr>
            <ns3:cad>0</ns3:cad>
          </ns3:TrackPointExtension>
        </extensions>
      </trkpt>
      <trkpt lat="31.95850037969648838043212890625" lon="118.79755225963890552520751953125">
        <ele>10</ele>
        <time>2024-06-23T09:10:22.000Z</time>
        <extensions>
          <ns3:TrackPointExtension>
            <ns3:hr>110</ns3:hr>
            <ns3:cad>0</ns3:cad>
          </ns3:TrackPointExtension>
        </extensions>
      </trkpt>
      <trkpt lat="31.958499960601329803466796875" lon="118.797550499439239501953125">
        <ele>10</ele>
        <time>2024-06-23T09:10:23.000Z</time>
        <extensions>
          <ns3:TrackPointExtension>
            <ns3:hr>109</ns3:hr>
            <ns3:cad>0</ns3:cad>
          </ns3:TrackPointExtension>
        </extensions>
      </trkpt>
      <trkpt lat="31.95849987678229808807373046875" lon="118.79754991270601749420166015625">
        <ele>10</ele>
        <time>2024-06-23T09:10:24.000Z</time>
        <extensions>
          <ns3:TrackPointExtension>
            <ns3:hr>109</ns3:hr>
            <ns3:cad>0</ns3:cad>
          </ns3:TrackPointExtension>
        </extensions>
      </trkpt>
      <trkpt lat="31.95849970914423465728759765625" lon="118.79754823632538318634033203125">
        <ele>10</ele>
        <time>2024-06-23T09:10:25.000Z</time>
        <extensions>
          <ns3:TrackPointExtension>
            <ns3:hr>109</ns3:hr>
            <ns3:cad>0</ns3:cad>
          </ns3:TrackPointExtension>
        </extensions>
      </trkpt>
      <trkpt lat="31.9584987871348857879638671875" lon="118.79754580557346343994140625">
        <ele>10</ele>
        <time>2024-06-23T09:10:26.000Z</time>
        <extensions>
          <ns3:TrackPointExtension>
            <ns3:hr>108</ns3:hr>
            <ns3:cad>0</ns3:cad>
          </ns3:TrackPointExtension>
        </extensions>
      </trkpt>
      <trkpt lat="31.95849769748747348785400390625" lon="118.7975456379354000091552734375">
        <ele>10</ele>
        <time>2024-06-23T09:10:27.000Z</time>
        <extensions>
          <ns3:TrackPointExtension>
            <ns3:hr>105</ns3:hr>
            <ns3:cad>0</ns3:cad>
          </ns3:TrackPointExtension>
        </extensions>
      </trkpt>
      <trkpt lat="31.958499960601329803466796875" lon="118.79754354245960712432861328125">
        <ele>10</ele>
        <time>2024-06-23T09:10:28.000Z</time>
        <extensions>
          <ns3:TrackPointExtension>
            <ns3:hr>97</ns3:hr>
            <ns3:cad>0</ns3:cad>
          </ns3:TrackPointExtension>
        </extensions>
      </trkpt>
      <trkpt lat="31.95849769748747348785400390625" lon="118.7975456379354000091552734375">
        <ele>10</ele>
        <time>2024-06-23T09:10:29.000Z</time>
        <extensions>
          <ns3:TrackPointExtension>
            <ns3:hr>90</ns3:hr>
            <ns3:cad>0</ns3:cad>
          </ns3:TrackPointExtension>
        </extensions>
      </trkpt>
      <trkpt lat="31.9585018046200275421142578125" lon="118.79754236899316310882568359375">
        <ele>10</ele>
        <time>2024-06-23T09:10:30.000Z</time>
        <extensions>
          <ns3:TrackPointExtension>
            <ns3:hr>88</ns3:hr>
            <ns3:cad>0</ns3:cad>
          </ns3:TrackPointExtension>
        </extensions>
      </trkpt>
      <trkpt lat="31.9585024751722812652587890625" lon="118.79754312336444854736328125">
        <ele>10</ele>
        <time>2024-06-23T09:10:31.000Z</time>
        <extensions>
          <ns3:TrackPointExtension>
            <ns3:hr>86</ns3:hr>
            <ns3:cad>0</ns3:cad>
          </ns3:TrackPointExtension>
        </extensions>
      </trkpt>
      <trkpt lat="31.95849769748747348785400390625" lon="118.7975456379354000091552734375">
        <ele>10</ele>
        <time>2024-06-23T09:10:32.000Z</time>
        <extensions>
          <ns3:TrackPointExtension>
            <ns3:hr>85</ns3:hr>
            <ns3:cad>0</ns3:cad>
          </ns3:TrackPointExtension>
        </extensions>
      </trkpt>
      <trkpt lat="31.95849769748747348785400390625" lon="118.7975456379354000091552734375">
        <ele>10</ele>
        <time>2024-06-23T09:10:33.000Z</time>
        <extensions>
          <ns3:TrackPointExtension>
            <ns3:hr>84</ns3:hr>
            <ns3:cad>0</ns3:cad>
          </ns3:TrackPointExtension>
        </extensions>
      </trkpt>
      <trkpt lat="31.95850205607712268829345703125" lon="118.79754102788865566253662109375">
        <ele>10</ele>
        <time>2024-06-23T09:10:34.000Z</time>
        <extensions>
          <ns3:TrackPointExtension>
            <ns3:hr>84</ns3:hr>
            <ns3:cad>0</ns3:cad>
          </ns3:TrackPointExtension>
        </extensions>
      </trkpt>
      <trkpt lat="31.9585178978741168975830078125" lon="118.7975536845624446868896484375">
        <ele>10</ele>
        <time>2024-06-23T09:10:35.000Z</time>
        <extensions>
          <ns3:TrackPointExtension>
            <ns3:hr>83</ns3:hr>
            <ns3:cad>0</ns3:cad>
          </ns3:TrackPointExtension>
        </extensions>
      </trkpt>
      <trkpt lat="31.95851479656994342803955078125" lon="118.79754848778247833251953125">
        <ele>10</ele>
        <time>2024-06-23T09:10:36.000Z</time>
        <extensions>
          <ns3:TrackPointExtension>
            <ns3:hr>83</ns3:hr>
            <ns3:cad>0</ns3:cad>
          </ns3:TrackPointExtension>
        </extensions>
      </trkpt>
      <trkpt lat="31.95851278491318225860595703125" lon="118.7975439615547657012939453125">
        <ele>10</ele>
        <time>2024-06-23T09:10:37.000Z</time>
        <extensions>
          <ns3:TrackPointExtension>
            <ns3:hr>83</ns3:hr>
            <ns3:cad>0</ns3:cad>
          </ns3:TrackPointExtension>
        </extensions>
      </trkpt>
      <trkpt lat="31.95850742049515247344970703125" lon="118.79754245281219482421875">
        <ele>10</ele>
        <time>2024-06-23T09:10:38.000Z</time>
        <extensions>
          <ns3:TrackPointExtension>
            <ns3:hr>83</ns3:hr>
            <ns3:cad>0</ns3:cad>
          </ns3:TrackPointExtension>
        </extensions>
      </trkpt>
      <trkpt lat="31.95850775577127933502197265625" lon="118.7975379265844821929931640625">
        <ele>9.80000019073486328125</ele>
        <time>2024-06-23T09:10:39.000Z</time>
        <extensions>
          <ns3:TrackPointExtension>
            <ns3:hr>83</ns3:hr>
            <ns3:cad>0</ns3:cad>
          </ns3:TrackPointExtension>
        </extensions>
      </trkpt>
      <trkpt lat="31.95850691758096218109130859375" lon="118.79753507673740386962890625">
        <ele>9.80000019073486328125</ele>
        <time>2024-06-23T09:10:40.000Z</time>
        <extensions>
          <ns3:TrackPointExtension>
            <ns3:hr>84</ns3:hr>
            <ns3:cad>0</ns3:cad>
          </ns3:TrackPointExtension>
        </extensions>
      </trkpt>
      <trkpt lat="31.9585068337619304656982421875" lon="118.79753432236611843109130859375">
        <ele>9.80000019073486328125</ele>
        <time>2024-06-23T09:10:41.000Z</time>
        <extensions>
          <ns3:TrackPointExtension>
            <ns3:hr>85</ns3:hr>
            <ns3:cad>0</ns3:cad>
          </ns3:TrackPointExtension>
        </extensions>
      </trkpt>
      <trkpt lat="31.9585081748664379119873046875" lon="118.7975345738232135772705078125">
        <ele>9.80000019073486328125</ele>
        <time>2024-06-23T09:10:42.000Z</time>
        <extensions>
          <ns3:TrackPointExtension>
            <ns3:hr>86</ns3:hr>
            <ns3:cad>0</ns3:cad>
          </ns3:TrackPointExtension>
        </extensions>
      </trkpt>
      <trkpt lat="31.95851261727511882781982421875" lon="118.79752635955810546875">
        <ele>9.80000019073486328125</ele>
        <time>2024-06-23T09:10:43.000Z</time>
        <extensions>
          <ns3:TrackPointExtension>
            <ns3:hr>86</ns3:hr>
            <ns3:cad>0</ns3:cad>
          </ns3:TrackPointExtension>
        </extensions>
      </trkpt>
      <trkpt lat="31.9585142098367214202880859375" lon="118.79752677865326404571533203125">
        <ele>9.80000019073486328125</ele>
        <time>2024-06-23T09:10:44.000Z</time>
        <extensions>
          <ns3:TrackPointExtension>
            <ns3:hr>85</ns3:hr>
            <ns3:cad>0</ns3:cad>
          </ns3:TrackPointExtension>
        </extensions>
      </trkpt>
      <trkpt lat="31.958513371646404266357421875" lon="118.79752577282488346099853515625">
        <ele>9.80000019073486328125</ele>
        <time>2024-06-23T09:10:45.000Z</time>
        <extensions>
          <ns3:TrackPointExtension>
            <ns3:hr>85</ns3:hr>
            <ns3:cad>0</ns3:cad>
          </ns3:TrackPointExtension>
        </extensions>
      </trkpt>
      <trkpt lat="31.9585105217993259429931640625" lon="118.79752309061586856842041015625">
        <ele>9.80000019073486328125</ele>
        <time>2024-06-23T09:10:46.000Z</time>
        <extensions>
          <ns3:TrackPointExtension>
            <ns3:hr>85</ns3:hr>
            <ns3:cad>0</ns3:cad>
          </ns3:TrackPointExtension>
        </extensions>
      </trkpt>
      <trkpt lat="31.95851110853254795074462890625" lon="118.797523342072963714599609375">
        <ele>9.80000019073486328125</ele>
        <time>2024-06-23T09:10:47.000Z</time>
        <extensions>
          <ns3:TrackPointExtension>
            <ns3:hr>84</ns3:hr>
            <ns3:cad>0</ns3:cad>
          </ns3:TrackPointExtension>
        </extensions>
      </trkpt>
      <trkpt lat="31.95851379074156284332275390625" lon="118.797526694834232330322265625">
        <ele>9.6000003814697265625</ele>
        <time>2024-06-23T09:10:48.000Z</time>
        <extensions>
          <ns3:TrackPointExtension>
            <ns3:hr>83</ns3:hr>
            <ns3:cad>0</ns3:cad>
          </ns3:TrackPointExtension>
        </extensions>
      </trkpt>
      <trkpt lat="31.9585229270160198211669921875" lon="118.79753096960484981536865234375">
        <ele>9.6000003814697265625</ele>
        <time>2024-06-23T09:10:49.000Z</time>
        <extensions>
          <ns3:TrackPointExtension>
            <ns3:hr>82</ns3:hr>
            <ns3:cad>0</ns3:cad>
          </ns3:TrackPointExtension>
        </extensions>
      </trkpt>
      <trkpt lat="31.9585178978741168975830078125" lon="118.797517307102680206298828125">
        <ele>9.6000003814697265625</ele>
        <time>2024-06-23T09:10:50.000Z</time>
        <extensions>
          <ns3:TrackPointExtension>
            <ns3:hr>82</ns3:hr>
            <ns3:cad>0</ns3:cad>
          </ns3:TrackPointExtension>
        </extensions>
      </trkpt>
      <trkpt lat="31.95850339718163013458251953125" lon="118.7974574603140354156494140625">
        <ele>9.6000003814697265625</ele>
        <time>2024-06-23T09:10:51.000Z</time>
        <extensions>
          <ns3:TrackPointExtension>
            <ns3:hr>82</ns3:hr>
            <ns3:cad>0</ns3:cad>
          </ns3:TrackPointExtension>
        </extensions>
      </trkpt>
      <trkpt lat="31.95848579518496990203857421875" lon="118.797403313219547271728515625">
        <ele>9.6000003814697265625</ele>
        <time>2024-06-23T09:10:52.000Z</time>
        <extensions>
          <ns3:TrackPointExtension>
            <ns3:hr>82</ns3:hr>
            <ns3:cad>0</ns3:cad>
          </ns3:TrackPointExtension>
        </extensions>
      </trkpt>
      <trkpt lat="31.95846651680767536163330078125" lon="118.7973451428115367889404296875">
        <ele>9.6000003814697265625</ele>
        <time>2024-06-23T09:10:53.000Z</time>
        <extensions>
          <ns3:TrackPointExtension>
            <ns3:hr>83</ns3:hr>
            <ns3:cad>0</ns3:cad>
          </ns3:TrackPointExtension>
        </extensions>
      </trkpt>
      <trkpt lat="31.9584474898874759674072265625" lon="118.79730130545794963836669921875">
        <ele>9.80000019073486328125</ele>
        <time>2024-06-23T09:10:54.000Z</time>
        <extensions>
          <ns3:TrackPointExtension>
            <ns3:hr>83</ns3:hr>
            <ns3:cad>0</ns3:cad>
          </ns3:TrackPointExtension>
        </extensions>
      </trkpt>
      <trkpt lat="31.95842242799699306488037109375" lon="118.79725269041955471038818359375">
        <ele>10</ele>
        <time>2024-06-23T09:10:55.000Z</time>
        <extensions>
          <ns3:TrackPointExtension>
            <ns3:hr>83</ns3:hr>
            <ns3:cad>0</ns3:cad>
          </ns3:TrackPointExtension>
        </extensions>
      </trkpt>
      <trkpt lat="31.95841354317963123321533203125" lon="118.797216899693012237548828125">
        <ele>10.19999980926513671875</ele>
        <time>2024-06-23T09:10:56.000Z</time>
        <extensions>
          <ns3:TrackPointExtension>
            <ns3:hr>84</ns3:hr>
            <ns3:cad>0</ns3:cad>
          </ns3:TrackPointExtension>
        </extensions>
      </trkpt>
      <trkpt lat="31.95840750820934772491455078125" lon="118.79718697629868984222412109375">
        <ele>10.3999996185302734375</ele>
        <time>2024-06-23T09:10:57.000Z</time>
        <extensions>
          <ns3:TrackPointExtension>
            <ns3:hr>85</ns3:hr>
            <ns3:cad>0</ns3:cad>
          </ns3:TrackPointExtension>
        </extensions>
      </trkpt>
      <trkpt lat="31.9584126211702823638916015625" lon="118.7971567176282405853271484375">
        <ele>10.19999980926513671875</ele>
        <time>2024-06-23T09:10:58.000Z</time>
        <extensions>
          <ns3:TrackPointExtension>
            <ns3:hr>85</ns3:hr>
            <ns3:cad>0</ns3:cad>
          </ns3:TrackPointExtension>
        </extensions>
      </trkpt>
      <trkpt lat="31.95843248628079891204833984375" lon="118.79714959301054477691650390625">
        <ele>9.80000019073486328125</ele>
        <time>2024-06-23T09:10:59.000Z</time>
        <extensions>
          <ns3:TrackPointExtension>
            <ns3:hr>86</ns3:hr>
            <ns3:cad>0</ns3:cad>
          </ns3:TrackPointExtension>
        </extensions>
      </trkpt>
      <trkpt lat="31.958461068570613861083984375" lon="118.7971416302025318145751953125">
        <ele>9.80000019073486328125</ele>
        <time>2024-06-23T09:11:00.000Z</time>
        <extensions>
          <ns3:TrackPointExtension>
            <ns3:hr>87</ns3:hr>
            <ns3:cad>83</ns3:cad>
          </ns3:TrackPointExtension>
        </extensions>
      </trkpt>
      <trkpt lat="31.95849233306944370269775390625" lon="118.7971567176282405853271484375">
        <ele>9.80000019073486328125</ele>
        <time>2024-06-23T09:11:01.000Z</time>
        <extensions>
          <ns3:TrackPointExtension>
            <ns3:hr>87</ns3:hr>
            <ns3:cad>83</ns3:cad>
          </ns3:TrackPointExtension>
        </extensions>
      </trkpt>
      <trkpt lat="31.9585118629038333892822265625" lon="118.79717926494777202606201171875">
        <ele>9.80000019073486328125</ele>
        <time>2024-06-23T09:11:02.000Z</time>
        <extensions>
          <ns3:TrackPointExtension>
            <ns3:hr>87</ns3:hr>
            <ns3:cad>83</ns3:cad>
          </ns3:TrackPointExtension>
        </extensions>
      </trkpt>
      <trkpt lat="31.95851613767445087432861328125" lon="118.79721296019852161407470703125">
        <ele>9.80000019073486328125</ele>
        <time>2024-06-23T09:11:03.000Z</time>
        <extensions>
          <ns3:TrackPointExtension>
            <ns3:hr>87</ns3:hr>
            <ns3:cad>83</ns3:cad>
          </ns3:TrackPointExtension>
        </extensions>
      </trkpt>
      <trkpt lat="31.958511359989643096923828125" lon="118.79723978228867053985595703125">
        <ele>9.80000019073486328125</ele>
        <time>2024-06-23T09:11:04.000Z</time>
        <extensions>
          <ns3:TrackPointExtension>
            <ns3:hr>87</ns3:hr>
            <ns3:cad>83</ns3:cad>
          </ns3:TrackPointExtension>
        </extensions>
      </trkpt>
      <trkpt lat="31.95850641466677188873291015625" lon="118.79725839011371135711669921875">
        <ele>10</ele>
        <time>2024-06-23T09:11:05.000Z</time>
        <extensions>
          <ns3:TrackPointExtension>
            <ns3:hr>87</ns3:hr>
            <ns3:cad>83</ns3:cad>
          </ns3:TrackPointExtension>
        </extensions>
      </trkpt>
      <trkpt lat="31.9584981165826320648193359375" lon="118.7972621619701385498046875">
        <ele>10</ele>
        <time>2024-06-23T09:11:06.000Z</time>
        <extensions>
          <ns3:TrackPointExtension>
            <ns3:hr>88</ns3:hr>
            <ns3:cad>81</ns3:cad>
          </ns3:TrackPointExtension>
        </extensions>
      </trkpt>
      <trkpt lat="31.9584981165826320648193359375" lon="118.7972621619701385498046875">
        <ele>10.19999980926513671875</ele>
        <time>2024-06-23T09:11:07.000Z</time>
        <extensions>
          <ns3:TrackPointExtension>
            <ns3:hr>89</ns3:hr>
            <ns3:cad>81</ns3:cad>
          </ns3:TrackPointExtension>
        </extensions>
      </trkpt>
      <trkpt lat="31.95847976021468639373779296875" lon="118.79725201986730098724365234375">
        <ele>10.19999980926513671875</ele>
        <time>2024-06-23T09:11:08.000Z</time>
        <extensions>
          <ns3:TrackPointExtension>
            <ns3:hr>90</ns3:hr>
            <ns3:cad>81</ns3:cad>
          </ns3:TrackPointExtension>
        </extensions>
      </trkpt>
      <trkpt lat="31.9584669359028339385986328125" lon="118.79724162630736827850341796875">
        <ele>10.19999980926513671875</ele>
        <time>2024-06-23T09:11:09.000Z</time>
        <extensions>
          <ns3:TrackPointExtension>
            <ns3:hr>91</ns3:hr>
            <ns3:cad>81</ns3:cad>
          </ns3:TrackPointExtension>
        </extensions>
      </trkpt>
      <trkpt lat="31.958455704152584075927734375" lon="118.79723056219518184661865234375">
        <ele>10.19999980926513671875</ele>
        <time>2024-06-23T09:11:10.000Z</time>
        <extensions>
          <ns3:TrackPointExtension>
            <ns3:hr>91</ns3:hr>
            <ns3:cad>81</ns3:cad>
          </ns3:TrackPointExtension>
        </extensions>
      </trkpt>
      <trkpt lat="31.9584471546113491058349609375" lon="118.79721782170236110687255859375">
        <ele>10.19999980926513671875</ele>
        <time>2024-06-23T09:11:11.000Z</time>
        <extensions>
          <ns3:TrackPointExtension>
            <ns3:hr>92</ns3:hr>
            <ns3:cad>81</ns3:cad>
          </ns3:TrackPointExtension>
        </extensions>
      </trkpt>
      <trkpt lat="31.958443634212017059326171875" lon="118.79721052944660186767578125">
        <ele>10.19999980926513671875</ele>
        <time>2024-06-23T09:11:12.000Z</time>
        <extensions>
          <ns3:TrackPointExtension>
            <ns3:hr>93</ns3:hr>
            <ns3:cad>81</ns3:cad>
          </ns3:TrackPointExtension>
        </extensions>
      </trkpt>
      <trkpt lat="31.95844422094523906707763671875" lon="118.79720784723758697509765625">
        <ele>10.19999980926513671875</ele>
        <time>2024-06-23T09:11:13.000Z</time>
        <extensions>
          <ns3:TrackPointExtension>
            <ns3:hr>93</ns3:hr>
            <ns3:cad>81</ns3:cad>
          </ns3:TrackPointExtension>
        </extensions>
      </trkpt>
      <trkpt lat="31.9584411196410655975341796875" lon="118.79719938151538372039794921875">
        <ele>10.19999980926513671875</ele>
        <time>2024-06-23T09:11:14.000Z</time>
        <extensions>
          <ns3:TrackPointExtension>
            <ns3:hr>94</ns3:hr>
            <ns3:cad>51</ns3:cad>
          </ns3:TrackPointExtension>
        </extensions>
      </trkpt>
      <trkpt lat="31.9584411196410655975341796875" lon="118.79719938151538372039794921875">
        <ele>10.19999980926513671875</ele>
        <time>2024-06-23T09:11:15.000Z</time>
        <extensions>
          <ns3:TrackPointExtension>
            <ns3:hr>94</ns3:hr>
            <ns3:cad>51</ns3:cad>
          </ns3:TrackPointExtension>
        </extensions>
      </trkpt>
      <trkpt lat="31.95844137109816074371337890625" lon="118.797178678214550018310546875">
        <ele>10.19999980926513671875</ele>
        <time>2024-06-23T09:11:16.000Z</time>
        <extensions>
          <ns3:TrackPointExtension>
            <ns3:hr>94</ns3:hr>
            <ns3:cad>51</ns3:cad>
          </ns3:TrackPointExtension>
        </extensions>
      </trkpt>
      <trkpt lat="31.958438940346240997314453125" lon="118.79716970957815647125244140625">
        <ele>10</ele>
        <time>2024-06-23T09:11:17.000Z</time>
        <extensions>
          <ns3:TrackPointExtension>
            <ns3:hr>94</ns3:hr>
            <ns3:cad>51</ns3:cad>
          </ns3:TrackPointExtension>
        </extensions>
      </trkpt>
      <trkpt lat="31.958438940346240997314453125" lon="118.79716970957815647125244140625">
        <ele>10</ele>
        <time>2024-06-23T09:11:18.000Z</time>
        <extensions>
          <ns3:TrackPointExtension>
            <ns3:hr>94</ns3:hr>
            <ns3:cad>0</ns3:cad>
          </ns3:TrackPointExtension>
        </extensions>
      </trkpt>
      <trkpt lat="31.95844287984073162078857421875" lon="118.797154538333415985107421875">
        <ele>10</ele>
        <time>2024-06-23T09:11:19.000Z</time>
        <extensions>
          <ns3:TrackPointExtension>
            <ns3:hr>94</ns3:hr>
            <ns3:cad>0</ns3:cad>
          </ns3:TrackPointExtension>
        </extensions>
      </trkpt>
      <trkpt lat="31.95843868888914585113525390625" lon="118.79716199822723865509033203125">
        <ele>10</ele>
        <time>2024-06-23T09:11:20.000Z</time>
        <extensions>
          <ns3:TrackPointExtension>
            <ns3:hr>93</ns3:hr>
            <ns3:cad>0</ns3:cad>
          </ns3:TrackPointExtension>
        </extensions>
      </trkpt>
      <trkpt lat="31.95843868888914585113525390625" lon="118.79716199822723865509033203125">
        <ele>10</ele>
        <time>2024-06-23T09:11:21.000Z</time>
        <extensions>
          <ns3:TrackPointExtension>
            <ns3:hr>93</ns3:hr>
            <ns3:cad>0</ns3:cad>
          </ns3:TrackPointExtension>
        </extensions>
      </trkpt>
      <trkpt lat="31.95843868888914585113525390625" lon="118.79716199822723865509033203125">
        <ele>10</ele>
        <time>2024-06-23T09:11:22.000Z</time>
        <extensions>
          <ns3:TrackPointExtension>
            <ns3:hr>93</ns3:hr>
            <ns3:cad>0</ns3:cad>
          </ns3:TrackPointExtension>
        </extensions>
      </trkpt>
      <trkpt lat="31.95843868888914585113525390625" lon="118.79716199822723865509033203125">
        <ele>10</ele>
        <time>2024-06-23T09:11:23.000Z</time>
        <extensions>
          <ns3:TrackPointExtension>
            <ns3:hr>92</ns3:hr>
            <ns3:cad>0</ns3:cad>
          </ns3:TrackPointExtension>
        </extensions>
      </trkpt>
      <trkpt lat="31.95843868888914585113525390625" lon="118.79716199822723865509033203125">
        <ele>10</ele>
        <time>2024-06-23T09:11:24.000Z</time>
        <extensions>
          <ns3:TrackPointExtension>
            <ns3:hr>92</ns3:hr>
            <ns3:cad>0</ns3:cad>
          </ns3:TrackPointExtension>
        </extensions>
      </trkpt>
      <trkpt lat="31.95843868888914585113525390625" lon="118.79716199822723865509033203125">
        <ele>10</ele>
        <time>2024-06-23T09:11:25.000Z</time>
        <extensions>
          <ns3:TrackPointExtension>
            <ns3:hr>92</ns3:hr>
            <ns3:cad>0</ns3:cad>
          </ns3:TrackPointExtension>
        </extensions>
      </trkpt>
      <trkpt lat="31.95843868888914585113525390625" lon="118.79716199822723865509033203125">
        <ele>10</ele>
        <time>2024-06-23T09:11:26.000Z</time>
        <extensions>
          <ns3:TrackPointExtension>
            <ns3:hr>91</ns3:hr>
            <ns3:cad>0</ns3:cad>
          </ns3:TrackPointExtension>
        </extensions>
      </trkpt>
      <trkpt lat="31.95843868888914585113525390625" lon="118.79716199822723865509033203125">
        <ele>10</ele>
        <time>2024-06-23T09:11:27.000Z</time>
        <extensions>
          <ns3:TrackPointExtension>
            <ns3:hr>91</ns3:hr>
            <ns3:cad>0</ns3:cad>
          </ns3:TrackPointExtension>
        </extensions>
      </trkpt>
      <trkpt lat="31.95843868888914585113525390625" lon="118.79716199822723865509033203125">
        <ele>10</ele>
        <time>2024-06-23T09:11:28.000Z</time>
        <extensions>
          <ns3:TrackPointExtension>
            <ns3:hr>91</ns3:hr>
            <ns3:cad>0</ns3:cad>
          </ns3:TrackPointExtension>
        </extensions>
      </trkpt>
      <trkpt lat="31.9584451429545879364013671875" lon="118.797162584960460662841796875">
        <ele>10</ele>
        <time>2024-06-23T09:11:29.000Z</time>
        <extensions>
          <ns3:TrackPointExtension>
            <ns3:hr>91</ns3:hr>
            <ns3:cad>0</ns3:cad>
          </ns3:TrackPointExtension>
        </extensions>
      </trkpt>
      <trkpt lat="31.9584458135068416595458984375" lon="118.7971656024456024169921875">
        <ele>10</ele>
        <time>2024-06-23T09:11:30.000Z</time>
        <extensions>
          <ns3:TrackPointExtension>
            <ns3:hr>90</ns3:hr>
            <ns3:cad>0</ns3:cad>
          </ns3:TrackPointExtension>
        </extensions>
      </trkpt>
      <trkpt lat="31.95843868888914585113525390625" lon="118.79716199822723865509033203125">
        <ele>10</ele>
        <time>2024-06-23T09:11:31.000Z</time>
        <extensions>
          <ns3:TrackPointExtension>
            <ns3:hr>90</ns3:hr>
            <ns3:cad>0</ns3:cad>
          </ns3:TrackPointExtension>
        </extensions>
      </trkpt>
      <trkpt lat="31.95843868888914585113525390625" lon="118.79716199822723865509033203125">
        <ele>10</ele>
        <time>2024-06-23T09:11:32.000Z</time>
        <extensions>
          <ns3:TrackPointExtension>
            <ns3:hr>90</ns3:hr>
            <ns3:cad>0</ns3:cad>
          </ns3:TrackPointExtension>
        </extensions>
      </trkpt>
      <trkpt lat="31.95843868888914585113525390625" lon="118.79716199822723865509033203125">
        <ele>10</ele>
        <time>2024-06-23T09:11:33.000Z</time>
        <extensions>
          <ns3:TrackPointExtension>
            <ns3:hr>90</ns3:hr>
            <ns3:cad>0</ns3:cad>
          </ns3:TrackPointExtension>
        </extensions>
      </trkpt>
      <trkpt lat="31.95843868888914585113525390625" lon="118.79716199822723865509033203125">
        <ele>10</ele>
        <time>2024-06-23T09:11:34.000Z</time>
        <extensions>
          <ns3:TrackPointExtension>
            <ns3:hr>90</ns3:hr>
            <ns3:cad>0</ns3:cad>
          </ns3:TrackPointExtension>
        </extensions>
      </trkpt>
      <trkpt lat="31.95843868888914585113525390625" lon="118.79716199822723865509033203125">
        <ele>10</ele>
        <time>2024-06-23T09:11:35.000Z</time>
        <extensions>
          <ns3:TrackPointExtension>
            <ns3:hr>90</ns3:hr>
            <ns3:cad>0</ns3:cad>
          </ns3:TrackPointExtension>
        </extensions>
      </trkpt>
      <trkpt lat="31.95843868888914585113525390625" lon="118.79716199822723865509033203125">
        <ele>10</ele>
        <time>2024-06-23T09:11:36.000Z</time>
        <extensions>
          <ns3:TrackPointExtension>
            <ns3:hr>90</ns3:hr>
            <ns3:cad>0</ns3:cad>
          </ns3:TrackPointExtension>
        </extensions>
      </trkpt>
      <trkpt lat="31.9584468193352222442626953125" lon="118.79716786555945873260498046875">
        <ele>10</ele>
        <time>2024-06-23T09:11:37.000Z</time>
        <extensions>
          <ns3:TrackPointExtension>
            <ns3:hr>91</ns3:hr>
            <ns3:cad>0</ns3:cad>
          </ns3:TrackPointExtension>
        </extensions>
      </trkpt>
      <trkpt lat="31.95843868888914585113525390625" lon="118.79716199822723865509033203125">
        <ele>10</ele>
        <time>2024-06-23T09:11:38.000Z</time>
        <extensions>
          <ns3:TrackPointExtension>
            <ns3:hr>111</ns3:hr>
            <ns3:cad>0</ns3:cad>
          </ns3:TrackPointExtension>
        </extensions>
      </trkpt>
      <trkpt lat="31.95843868888914585113525390625" lon="118.79716199822723865509033203125">
        <ele>10</ele>
        <time>2024-06-23T09:11:39.000Z</time>
        <extensions>
          <ns3:TrackPointExtension>
            <ns3:hr>113</ns3:hr>
            <ns3:cad>0</ns3:cad>
          </ns3:TrackPointExtension>
        </extensions>
      </trkpt>
      <trkpt lat="31.958446986973285675048828125" lon="118.79716836847364902496337890625">
        <ele>10</ele>
        <time>2024-06-23T09:11:40.000Z</time>
        <extensions>
          <ns3:TrackPointExtension>
            <ns3:hr>112</ns3:hr>
            <ns3:cad>0</ns3:cad>
          </ns3:TrackPointExtension>
        </extensions>
      </trkpt>
      <trkpt lat="31.9584471546113491058349609375" lon="118.79716853611171245574951171875">
        <ele>10</ele>
        <time>2024-06-23T09:11:41.000Z</time>
        <extensions>
          <ns3:TrackPointExtension>
            <ns3:hr>111</ns3:hr>
            <ns3:cad>0</ns3:cad>
          </ns3:TrackPointExtension>
        </extensions>
      </trkpt>
      <trkpt lat="31.95844723843038082122802734375" lon="118.79716920666396617889404296875">
        <ele>10</ele>
        <time>2024-06-23T09:11:42.000Z</time>
        <extensions>
          <ns3:TrackPointExtension>
            <ns3:hr>111</ns3:hr>
            <ns3:cad>0</ns3:cad>
          </ns3:TrackPointExtension>
        </extensions>
      </trkpt>
      <trkpt lat="31.958447657525539398193359375" lon="118.79716903902590274810791015625">
        <ele>10</ele>
        <time>2024-06-23T09:11:43.000Z</time>
        <extensions>
          <ns3:TrackPointExtension>
            <ns3:hr>110</ns3:hr>
            <ns3:cad>0</ns3:cad>
          </ns3:TrackPointExtension>
        </extensions>
      </trkpt>
      <trkpt lat="31.95844891481101512908935546875" lon="118.7971758283674716949462890625">
        <ele>10.19999980926513671875</ele>
        <time>2024-06-23T09:11:44.000Z</time>
        <extensions>
          <ns3:TrackPointExtension>
            <ns3:hr>110</ns3:hr>
            <ns3:cad>0</ns3:cad>
          </ns3:TrackPointExtension>
        </extensions>
      </trkpt>
      <trkpt lat="31.95845042355358600616455078125" lon="118.797178007662296295166015625">
        <ele>10.19999980926513671875</ele>
        <time>2024-06-23T09:11:45.000Z</time>
        <extensions>
          <ns3:TrackPointExtension>
            <ns3:hr>109</ns3:hr>
            <ns3:cad>0</ns3:cad>
          </ns3:TrackPointExtension>
        </extensions>
      </trkpt>
      <trkpt lat="31.95844975300133228302001953125" lon="118.79717767238616943359375">
        <ele>10.19999980926513671875</ele>
        <time>2024-06-23T09:11:46.000Z</time>
        <extensions>
          <ns3:TrackPointExtension>
            <ns3:hr>108</ns3:hr>
            <ns3:cad>0</ns3:cad>
          </ns3:TrackPointExtension>
        </extensions>
      </trkpt>
      <trkpt lat="31.95844958536326885223388671875" lon="118.79717758856713771820068359375">
        <ele>10.19999980926513671875</ele>
        <time>2024-06-23T09:11:47.000Z</time>
        <extensions>
          <ns3:TrackPointExtension>
            <ns3:hr>106</ns3:hr>
            <ns3:cad>0</ns3:cad>
          </ns3:TrackPointExtension>
        </extensions>
      </trkpt>
      <trkpt lat="31.9584493339061737060546875" lon="118.79717767238616943359375">
        <ele>10.19999980926513671875</ele>
        <time>2024-06-23T09:11:48.000Z</time>
        <extensions>
          <ns3:TrackPointExtension>
            <ns3:hr>105</ns3:hr>
            <ns3:cad>0</ns3:cad>
          </ns3:TrackPointExtension>
        </extensions>
      </trkpt>
      <trkpt lat="31.95844874717295169830322265625" lon="118.797177337110042572021484375">
        <ele>10.19999980926513671875</ele>
        <time>2024-06-23T09:11:49.000Z</time>
        <extensions>
          <ns3:TrackPointExtension>
            <ns3:hr>105</ns3:hr>
            <ns3:cad>0</ns3:cad>
          </ns3:TrackPointExtension>
        </extensions>
      </trkpt>
      <trkpt lat="31.9584478251636028289794921875" lon="118.79717767238616943359375">
        <ele>10.19999980926513671875</ele>
        <time>2024-06-23T09:11:50.000Z</time>
        <extensions>
          <ns3:TrackPointExtension>
            <ns3:hr>103</ns3:hr>
            <ns3:cad>0</ns3:cad>
          </ns3:TrackPointExtension>
        </extensions>
      </trkpt>
      <trkpt lat="31.9584501720964908599853515625" lon="118.79717624746263027191162109375">
        <ele>10</ele>
        <time>2024-06-23T09:11:51.000Z</time>
        <extensions>
          <ns3:TrackPointExtension>
            <ns3:hr>102</ns3:hr>
            <ns3:cad>0</ns3:cad>
          </ns3:TrackPointExtension>
        </extensions>
      </trkpt>
      <trkpt lat="31.95844019763171672821044921875" lon="118.79717976786196231842041015625">
        <ele>10</ele>
        <time>2024-06-23T09:11:52.000Z</time>
        <extensions>
          <ns3:TrackPointExtension>
            <ns3:hr>101</ns3:hr>
            <ns3:cad>0</ns3:cad>
          </ns3:TrackPointExtension>
        </extensions>
      </trkpt>
      <trkpt lat="31.95844103582203388214111328125" lon="118.7971795164048671722412109375">
        <ele>10</ele>
        <time>2024-06-23T09:11:53.000Z</time>
        <extensions>
          <ns3:TrackPointExtension>
            <ns3:hr>100</ns3:hr>
            <ns3:cad>0</ns3:cad>
          </ns3:TrackPointExtension>
        </extensions>
      </trkpt>
      <trkpt lat="31.95844120346009731292724609375" lon="118.797180689871311187744140625">
        <ele>10</ele>
        <time>2024-06-23T09:11:54.000Z</time>
        <extensions>
          <ns3:TrackPointExtension>
            <ns3:hr>99</ns3:hr>
            <ns3:cad>0</ns3:cad>
          </ns3:TrackPointExtension>
        </extensions>
      </trkpt>
    </trkseg>
  </trk>
</gpx>
