<gpx xmlns:ns3="http://www.garmin.com/xmlschemas/TrackPointExtension/v1" xmlns="http://www.topografix.com/GPX/1/1" xmlns:xsi="http://www.w3.org/2001/XMLSchema-instance" xmlns:ns2="http://www.garmin.com/xmlschemas/GpxExtensions/v3" creator="Garmin Connect" version="1.1" xsi:schemaLocation="http://www.topografix.com/GPX/1/1 http://www.topografix.com/GPX/11.xsd">
  <extensions>
<distance>95.85</distance>
<average_hr>92.0</average_hr>
<average_speed>0.4650000035762787</average_speed>
<start_time>2024-06-23T09:13:15+00:00</start_time>
<end_time>2024-06-23T09:16:41.289000+00:00</end_time>
<moving_time>50.0</moving_time>
<elapsed_time>206.289</elapsed_time>
</extensions>
<metadata>
    <link href="connect.garmin.com">
      <text>Garmin Connect</text>
    </link>
    <time>2024-06-23T09:13:15.000Z</time>
  </metadata>
  <trk>
    <name>南京市 追踪活动</name>
    <type>other</type>
    <trkseg>
      <trkpt lat="31.95845377631485462188720703125" lon="118.7971707992255687713623046875">
        <ele>8.80000019073486328125</ele>
        <time>2024-06-23T09:13:15.000Z</time>
        <extensions>
          <ns3:TrackPointExtension>
            <ns3:hr>79</ns3:hr>
          </ns3:TrackPointExtension>
        </extensions>
      </trkpt>
      <trkpt lat="31.9584505073726177215576171875" lon="118.7971790134906768798828125">
        <ele>8.80000019073486328125</ele>
        <time>2024-06-23T09:13:16.000Z</time>
        <extensions>
          <ns3:TrackPointExtension>
            <ns3:hr>79</ns3:hr>
          </ns3:TrackPointExtension>
        </extensions>
      </trkpt>
      <trkpt lat="31.95844732224941253662109375" lon="118.7971791811287403106689453125">
        <ele>9</ele>
        <time>2024-06-23T09:13:20.000Z</time>
        <extensions>
          <ns3:TrackPointExtension>
            <ns3:hr>82</ns3:hr>
          </ns3:TrackPointExtension>
        </extensions>
      </trkpt>
      <trkpt lat="31.958447657525539398193359375" lon="118.79717876203358173370361328125">
        <ele>9</ele>
        <time>2024-06-23T09:13:21.000Z</time>
        <extensions>
          <ns3:TrackPointExtension>
            <ns3:hr>83</ns3:hr>
          </ns3:TrackPointExtension>
        </extensions>
      </trkpt>
      <trkpt lat="31.958447992801666259765625" lon="118.79717675037682056427001953125">
        <ele>9.19999980926513671875</ele>
        <time>2024-06-23T09:13:22.000Z</time>
        <extensions>
          <ns3:TrackPointExtension>
            <ns3:hr>86</ns3:hr>
          </ns3:TrackPointExtension>
        </extensions>
      </trkpt>
      <trkpt lat="31.95844464004039764404296875" lon="118.79717490635812282562255859375">
        <ele>9.19999980926513671875</ele>
        <time>2024-06-23T09:13:26.000Z</time>
        <extensions>
          <ns3:TrackPointExtension>
            <ns3:hr>82</ns3:hr>
          </ns3:TrackPointExtension>
        </extensions>
      </trkpt>
      <trkpt lat="31.9584493339061737060546875" lon="118.797178678214550018310546875">
        <ele>9.19999980926513671875</ele>
        <time>2024-06-23T09:13:28.000Z</time>
        <extensions>
          <ns3:TrackPointExtension>
            <ns3:hr>77</ns3:hr>
          </ns3:TrackPointExtension>
        </extensions>
      </trkpt>
      <trkpt lat="31.958449669182300567626953125" lon="118.79718395881354808807373046875">
        <ele>9.19999980926513671875</ele>
        <time>2024-06-23T09:13:29.000Z</time>
        <extensions>
          <ns3:TrackPointExtension>
            <ns3:hr>76</ns3:hr>
          </ns3:TrackPointExtension>
        </extensions>
      </trkpt>
      <trkpt lat="31.95844572968780994415283203125" lon="118.7972016446292400360107421875">
        <ele>9.19999980926513671875</ele>
        <time>2024-06-23T09:13:33.000Z</time>
        <extensions>
          <ns3:TrackPointExtension>
            <ns3:hr>75</ns3:hr>
          </ns3:TrackPointExtension>
        </extensions>
      </trkpt>
      <trkpt lat="31.95843617431819438934326171875" lon="118.79723911173641681671142578125">
        <ele>9.3999996185302734375</ele>
        <time>2024-06-23T09:13:37.000Z</time>
        <extensions>
          <ns3:TrackPointExtension>
            <ns3:hr>75</ns3:hr>
          </ns3:TrackPointExtension>
        </extensions>
      </trkpt>
      <trkpt lat="31.9584453105926513671875" lon="118.7972851283848285675048828125">
        <ele>9.3999996185302734375</ele>
        <time>2024-06-23T09:13:39.000Z</time>
        <extensions>
          <ns3:TrackPointExtension>
            <ns3:hr>78</ns3:hr>
          </ns3:TrackPointExtension>
        </extensions>
      </trkpt>
      <trkpt lat="31.95844371803104877471923828125" lon="118.79728236235678195953369140625">
        <ele>9.3999996185302734375</ele>
        <time>2024-06-23T09:13:41.000Z</time>
        <extensions>
          <ns3:TrackPointExtension>
            <ns3:hr>81</ns3:hr>
          </ns3:TrackPointExtension>
        </extensions>
      </trkpt>
      <trkpt lat="31.95844170637428760528564453125" lon="118.7972797639667987823486328125">
        <ele>8.80000019073486328125</ele>
        <time>2024-06-23T09:13:44.000Z</time>
        <extensions>
          <ns3:TrackPointExtension>
            <ns3:hr>84</ns3:hr>
          </ns3:TrackPointExtension>
        </extensions>
      </trkpt>
      <trkpt lat="31.95844103582203388214111328125" lon="118.79727934487164020538330078125">
        <ele>8.80000019073486328125</ele>
        <time>2024-06-23T09:13:45.000Z</time>
        <extensions>
          <ns3:TrackPointExtension>
            <ns3:hr>84</ns3:hr>
          </ns3:TrackPointExtension>
        </extensions>
      </trkpt>
      <trkpt lat="31.95844053290784358978271484375" lon="118.79727833904325962066650390625">
        <ele>9</ele>
        <time>2024-06-23T09:13:47.000Z</time>
        <extensions>
          <ns3:TrackPointExtension>
            <ns3:hr>87</ns3:hr>
          </ns3:TrackPointExtension>
        </extensions>
      </trkpt>
      <trkpt lat="31.958440281450748443603515625" lon="118.79727766849100589752197265625">
        <ele>9</ele>
        <time>2024-06-23T09:13:48.000Z</time>
        <extensions>
          <ns3:TrackPointExtension>
            <ns3:hr>94</ns3:hr>
          </ns3:TrackPointExtension>
        </extensions>
      </trkpt>
      <trkpt lat="31.95843952707946300506591796875" lon="118.79727783612906932830810546875">
        <ele>9</ele>
        <time>2024-06-23T09:13:49.000Z</time>
        <extensions>
          <ns3:TrackPointExtension>
            <ns3:hr>98</ns3:hr>
          </ns3:TrackPointExtension>
        </extensions>
      </trkpt>
      <trkpt lat="31.95847456343472003936767578125" lon="118.797324188053607940673828125">
        <ele>9.19999980926513671875</ele>
        <time>2024-06-23T09:13:51.000Z</time>
        <extensions>
          <ns3:TrackPointExtension>
            <ns3:hr>97</ns3:hr>
          </ns3:TrackPointExtension>
        </extensions>
      </trkpt>
      <trkpt lat="31.958514042198657989501953125" lon="118.79742217250168323516845703125">
        <ele>9.80000019073486328125</ele>
        <time>2024-06-23T09:13:53.000Z</time>
        <extensions>
          <ns3:TrackPointExtension>
            <ns3:hr>93</ns3:hr>
          </ns3:TrackPointExtension>
        </extensions>
      </trkpt>
      <trkpt lat="31.958532817661762237548828125" lon="118.7974660098552703857421875">
        <ele>10</ele>
        <time>2024-06-23T09:13:54.000Z</time>
        <extensions>
          <ns3:TrackPointExtension>
            <ns3:hr>93</ns3:hr>
          </ns3:TrackPointExtension>
        </extensions>
      </trkpt>
      <trkpt lat="31.95854513905942440032958984375" lon="118.79756885580718517303466796875">
        <ele>10.3999996185302734375</ele>
        <time>2024-06-23T09:13:57.000Z</time>
        <extensions>
          <ns3:TrackPointExtension>
            <ns3:hr>92</ns3:hr>
          </ns3:TrackPointExtension>
        </extensions>
      </trkpt>
      <trkpt lat="31.95854119956493377685546875" lon="118.79760305397212505340576171875">
        <ele>10</ele>
        <time>2024-06-23T09:14:01.000Z</time>
        <extensions>
          <ns3:TrackPointExtension>
            <ns3:hr>91</ns3:hr>
          </ns3:TrackPointExtension>
        </extensions>
      </trkpt>
      <trkpt lat="31.95848143659532070159912109375" lon="118.797609843313694000244140625">
        <ele>10.19999980926513671875</ele>
        <time>2024-06-23T09:14:07.000Z</time>
        <extensions>
          <ns3:TrackPointExtension>
            <ns3:hr>91</ns3:hr>
          </ns3:TrackPointExtension>
        </extensions>
      </trkpt>
      <trkpt lat="31.95847950875759124755859375" lon="118.79761017858982086181640625">
        <ele>10.19999980926513671875</ele>
        <time>2024-06-23T09:14:08.000Z</time>
        <extensions>
          <ns3:TrackPointExtension>
            <ns3:hr>103</ns3:hr>
          </ns3:TrackPointExtension>
        </extensions>
      </trkpt>
      <trkpt lat="31.9584793411195278167724609375" lon="118.7976123578846454620361328125">
        <ele>10.19999980926513671875</ele>
        <time>2024-06-23T09:14:09.000Z</time>
        <extensions>
          <ns3:TrackPointExtension>
            <ns3:hr>110</ns3:hr>
          </ns3:TrackPointExtension>
        </extensions>
      </trkpt>
      <trkpt lat="31.95847950875759124755859375" lon="118.7976153753697872161865234375">
        <ele>10.19999980926513671875</ele>
        <time>2024-06-23T09:14:10.000Z</time>
        <extensions>
          <ns3:TrackPointExtension>
            <ns3:hr>121</ns3:hr>
          </ns3:TrackPointExtension>
        </extensions>
      </trkpt>
      <trkpt lat="31.95846919901669025421142578125" lon="118.7976093403995037078857421875">
        <ele>10.19999980926513671875</ele>
        <time>2024-06-23T09:14:15.000Z</time>
        <extensions>
          <ns3:TrackPointExtension>
            <ns3:hr>119</ns3:hr>
          </ns3:TrackPointExtension>
        </extensions>
      </trkpt>
      <trkpt lat="31.95847003720700740814208984375" lon="118.79759249277412891387939453125">
        <ele>9.6000003814697265625</ele>
        <time>2024-06-23T09:14:21.000Z</time>
        <extensions>
          <ns3:TrackPointExtension>
            <ns3:hr>116</ns3:hr>
          </ns3:TrackPointExtension>
        </extensions>
      </trkpt>
      <trkpt lat="31.9584666006267070770263671875" lon="118.79760087467730045318603515625">
        <ele>9.80000019073486328125</ele>
        <time>2024-06-23T09:14:28.000Z</time>
        <extensions>
          <ns3:TrackPointExtension>
            <ns3:hr>110</ns3:hr>
          </ns3:TrackPointExtension>
        </extensions>
      </trkpt>
      <trkpt lat="31.95845796726644039154052734375" lon="118.79760389216244220733642578125">
        <ele>10</ele>
        <time>2024-06-23T09:14:29.000Z</time>
        <extensions>
          <ns3:TrackPointExtension>
            <ns3:hr>97</ns3:hr>
          </ns3:TrackPointExtension>
        </extensions>
      </trkpt>
      <trkpt lat="31.95845260284841060638427734375" lon="118.79760841839015483856201171875">
        <ele>10.19999980926513671875</ele>
        <time>2024-06-23T09:14:30.000Z</time>
        <extensions>
          <ns3:TrackPointExtension>
            <ns3:hr>90</ns3:hr>
          </ns3:TrackPointExtension>
        </extensions>
      </trkpt>
      <trkpt lat="31.95844690315425395965576171875" lon="118.797615878283977508544921875">
        <ele>10.3999996185302734375</ele>
        <time>2024-06-23T09:14:32.000Z</time>
        <extensions>
          <ns3:TrackPointExtension>
            <ns3:hr>85</ns3:hr>
          </ns3:TrackPointExtension>
        </extensions>
      </trkpt>
      <trkpt lat="31.95844489149749279022216796875" lon="118.79761696793138980865478515625">
        <ele>10.3999996185302734375</ele>
        <time>2024-06-23T09:14:34.000Z</time>
        <extensions>
          <ns3:TrackPointExtension>
            <ns3:hr>84</ns3:hr>
          </ns3:TrackPointExtension>
        </extensions>
      </trkpt>
      <trkpt lat="31.95844371803104877471923828125" lon="118.797613866627216339111328125">
        <ele>10.3999996185302734375</ele>
        <time>2024-06-23T09:14:38.000Z</time>
        <extensions>
          <ns3:TrackPointExtension>
            <ns3:hr>87</ns3:hr>
          </ns3:TrackPointExtension>
        </extensions>
      </trkpt>
      <trkpt lat="31.9584427960216999053955078125" lon="118.797615878283977508544921875">
        <ele>10.6000003814697265625</ele>
        <time>2024-06-23T09:14:40.000Z</time>
        <extensions>
          <ns3:TrackPointExtension>
            <ns3:hr>93</ns3:hr>
          </ns3:TrackPointExtension>
        </extensions>
      </trkpt>
      <trkpt lat="31.958444975316524505615234375" lon="118.7976162135601043701171875">
        <ele>10.6000003814697265625</ele>
        <time>2024-06-23T09:14:41.000Z</time>
        <extensions>
          <ns3:TrackPointExtension>
            <ns3:hr>98</ns3:hr>
          </ns3:TrackPointExtension>
        </extensions>
      </trkpt>
      <trkpt lat="31.95844472385942935943603515625" lon="118.79761529155075550079345703125">
        <ele>10.6000003814697265625</ele>
        <time>2024-06-23T09:14:42.000Z</time>
        <extensions>
          <ns3:TrackPointExtension>
            <ns3:hr>102</ns3:hr>
          </ns3:TrackPointExtension>
        </extensions>
      </trkpt>
      <trkpt lat="31.95844464004039764404296875" lon="118.797615207731723785400390625">
        <ele>10.6000003814697265625</ele>
        <time>2024-06-23T09:14:43.000Z</time>
        <extensions>
          <ns3:TrackPointExtension>
            <ns3:hr>105</ns3:hr>
          </ns3:TrackPointExtension>
        </extensions>
      </trkpt>
      <trkpt lat="31.95846752263605594635009765625" lon="118.79759919829666614532470703125">
        <ele>10.6000003814697265625</ele>
        <time>2024-06-23T09:14:48.000Z</time>
        <extensions>
          <ns3:TrackPointExtension>
            <ns3:hr>106</ns3:hr>
          </ns3:TrackPointExtension>
        </extensions>
      </trkpt>
      <trkpt lat="31.95848814211785793304443359375" lon="118.797560892999172210693359375">
        <ele>10.80000019073486328125</ele>
        <time>2024-06-23T09:14:55.000Z</time>
        <extensions>
          <ns3:TrackPointExtension>
            <ns3:hr>105</ns3:hr>
          </ns3:TrackPointExtension>
        </extensions>
      </trkpt>
      <trkpt lat="31.9584890641272068023681640625" lon="118.797552175819873809814453125">
        <ele>11</ele>
        <time>2024-06-23T09:14:56.000Z</time>
        <extensions>
          <ns3:TrackPointExtension>
            <ns3:hr>106</ns3:hr>
          </ns3:TrackPointExtension>
        </extensions>
      </trkpt>
      <trkpt lat="31.95849518291652202606201171875" lon="118.7975372560322284698486328125">
        <ele>11.19999980926513671875</ele>
        <time>2024-06-23T09:15:02.000Z</time>
        <extensions>
          <ns3:TrackPointExtension>
            <ns3:hr>106</ns3:hr>
          </ns3:TrackPointExtension>
        </extensions>
      </trkpt>
      <trkpt lat="31.958496272563934326171875" lon="118.79753449000418186187744140625">
        <ele>11</ele>
        <time>2024-06-23T09:15:10.000Z</time>
        <extensions>
          <ns3:TrackPointExtension>
            <ns3:hr>108</ns3:hr>
          </ns3:TrackPointExtension>
        </extensions>
      </trkpt>
      <trkpt lat="31.95849635638296604156494140625" lon="118.797537423670291900634765625">
        <ele>10.80000019073486328125</ele>
        <time>2024-06-23T09:15:12.000Z</time>
        <extensions>
          <ns3:TrackPointExtension>
            <ns3:hr>105</ns3:hr>
          </ns3:TrackPointExtension>
        </extensions>
      </trkpt>
      <trkpt lat="31.95849635638296604156494140625" lon="118.7975379265844821929931640625">
        <ele>10.80000019073486328125</ele>
        <time>2024-06-23T09:15:13.000Z</time>
        <extensions>
          <ns3:TrackPointExtension>
            <ns3:hr>101</ns3:hr>
          </ns3:TrackPointExtension>
        </extensions>
      </trkpt>
      <trkpt lat="31.95849635638296604156494140625" lon="118.7975382618606090545654296875">
        <ele>10.80000019073486328125</ele>
        <time>2024-06-23T09:15:14.000Z</time>
        <extensions>
          <ns3:TrackPointExtension>
            <ns3:hr>96</ns3:hr>
          </ns3:TrackPointExtension>
        </extensions>
      </trkpt>
      <trkpt lat="31.95849602110683917999267578125" lon="118.797538094222545623779296875">
        <ele>10.80000019073486328125</ele>
        <time>2024-06-23T09:15:15.000Z</time>
        <extensions>
          <ns3:TrackPointExtension>
            <ns3:hr>92</ns3:hr>
          </ns3:TrackPointExtension>
        </extensions>
      </trkpt>
      <trkpt lat="31.95849384181201457977294921875" lon="118.79753851331770420074462890625">
        <ele>10.80000019073486328125</ele>
        <time>2024-06-23T09:15:16.000Z</time>
        <extensions>
          <ns3:TrackPointExtension>
            <ns3:hr>88</ns3:hr>
          </ns3:TrackPointExtension>
        </extensions>
      </trkpt>
      <trkpt lat="31.9584930874407291412353515625" lon="118.79753507673740386962890625">
        <ele>10.80000019073486328125</ele>
        <time>2024-06-23T09:15:17.000Z</time>
        <extensions>
          <ns3:TrackPointExtension>
            <ns3:hr>85</ns3:hr>
          </ns3:TrackPointExtension>
        </extensions>
      </trkpt>
      <trkpt lat="31.958485543727874755859375" lon="118.7975365854799747467041015625">
        <ele>11</ele>
        <time>2024-06-23T09:15:21.000Z</time>
        <extensions>
          <ns3:TrackPointExtension>
            <ns3:hr>83</ns3:hr>
          </ns3:TrackPointExtension>
        </extensions>
      </trkpt>
      <trkpt lat="31.9584842026233673095703125" lon="118.79753633402287960052490234375">
        <ele>10.80000019073486328125</ele>
        <time>2024-06-23T09:15:29.000Z</time>
        <extensions>
          <ns3:TrackPointExtension>
            <ns3:hr>82</ns3:hr>
          </ns3:TrackPointExtension>
        </extensions>
      </trkpt>
      <trkpt lat="31.9584857113659381866455078125" lon="118.79753365181386470794677734375">
        <ele>11</ele>
        <time>2024-06-23T09:15:37.000Z</time>
        <extensions>
          <ns3:TrackPointExtension>
            <ns3:hr>81</ns3:hr>
          </ns3:TrackPointExtension>
        </extensions>
      </trkpt>
      <trkpt lat="31.95848529227077960968017578125" lon="118.79753398708999156951904296875">
        <ele>11.19999980926513671875</ele>
        <time>2024-06-23T09:15:40.000Z</time>
        <extensions>
          <ns3:TrackPointExtension>
            <ns3:hr>87</ns3:hr>
          </ns3:TrackPointExtension>
        </extensions>
      </trkpt>
      <trkpt lat="31.95848562754690647125244140625" lon="118.7975339032709598541259765625">
        <ele>11.19999980926513671875</ele>
        <time>2024-06-23T09:15:42.000Z</time>
        <extensions>
          <ns3:TrackPointExtension>
            <ns3:hr>90</ns3:hr>
          </ns3:TrackPointExtension>
        </extensions>
      </trkpt>
      <trkpt lat="31.958486549556255340576171875" lon="118.79753331653773784637451171875">
        <ele>11.19999980926513671875</ele>
        <time>2024-06-23T09:15:48.000Z</time>
        <extensions>
          <ns3:TrackPointExtension>
            <ns3:hr>90</ns3:hr>
          </ns3:TrackPointExtension>
        </extensions>
      </trkpt>
      <trkpt lat="31.958491243422031402587890625" lon="118.79753784276545047760009765625">
        <ele>11</ele>
        <time>2024-06-23T09:15:57.000Z</time>
        <extensions>
          <ns3:TrackPointExtension>
            <ns3:hr>92</ns3:hr>
          </ns3:TrackPointExtension>
        </extensions>
      </trkpt>
      <trkpt lat="31.95848747156560420989990234375" lon="118.7975345738232135772705078125">
        <ele>11</ele>
        <time>2024-06-23T09:15:58.000Z</time>
        <extensions>
          <ns3:TrackPointExtension>
            <ns3:hr>95</ns3:hr>
          </ns3:TrackPointExtension>
        </extensions>
      </trkpt>
      <trkpt lat="31.958501301705837249755859375" lon="118.79749325104057788848876953125">
        <ele>11</ele>
        <time>2024-06-23T09:16:03.000Z</time>
        <extensions>
          <ns3:TrackPointExtension>
            <ns3:hr>92</ns3:hr>
          </ns3:TrackPointExtension>
        </extensions>
      </trkpt>
      <trkpt lat="31.95850423537194728851318359375" lon="118.79749291576445102691650390625">
        <ele>11.19999980926513671875</ele>
        <time>2024-06-23T09:16:07.000Z</time>
        <extensions>
          <ns3:TrackPointExtension>
            <ns3:hr>89</ns3:hr>
          </ns3:TrackPointExtension>
        </extensions>
      </trkpt>
      <trkpt lat="31.9585068337619304656982421875" lon="118.7974936701357364654541015625">
        <ele>11.19999980926513671875</ele>
        <time>2024-06-23T09:16:10.000Z</time>
        <extensions>
          <ns3:TrackPointExtension>
            <ns3:hr>87</ns3:hr>
          </ns3:TrackPointExtension>
        </extensions>
      </trkpt>
      <trkpt lat="31.95850767195224761962890625" lon="118.797493167221546173095703125">
        <ele>11.19999980926513671875</ele>
        <time>2024-06-23T09:16:15.000Z</time>
        <extensions>
          <ns3:TrackPointExtension>
            <ns3:hr>84</ns3:hr>
          </ns3:TrackPointExtension>
        </extensions>
      </trkpt>
      <trkpt lat="31.95850767195224761962890625" lon="118.79749006591737270355224609375">
        <ele>11.3999996185302734375</ele>
        <time>2024-06-23T09:16:20.000Z</time>
        <extensions>
          <ns3:TrackPointExtension>
            <ns3:hr>86</ns3:hr>
          </ns3:TrackPointExtension>
        </extensions>
      </trkpt>
      <trkpt lat="31.95851932279765605926513671875" lon="118.79749978892505168914794921875">
        <ele>11.3999996185302734375</ele>
        <time>2024-06-23T09:16:24.000Z</time>
        <extensions>
          <ns3:TrackPointExtension>
            <ns3:hr>87</ns3:hr>
          </ns3:TrackPointExtension>
        </extensions>
      </trkpt>
      <trkpt lat="31.9585178978741168975830078125" lon="118.7974929995834827423095703125">
        <ele>11.6000003814697265625</ele>
        <time>2024-06-23T09:16:26.000Z</time>
        <extensions>
          <ns3:TrackPointExtension>
            <ns3:hr>90</ns3:hr>
          </ns3:TrackPointExtension>
        </extensions>
      </trkpt>
      <trkpt lat="31.95853851735591888427734375" lon="118.7974943406879901885986328125">
        <ele>11.6000003814697265625</ele>
        <time>2024-06-23T09:16:29.000Z</time>
        <extensions>
          <ns3:TrackPointExtension>
            <ns3:hr>89</ns3:hr>
          </ns3:TrackPointExtension>
        </extensions>
      </trkpt>
      <trkpt lat="31.95854396559298038482666015625" lon="118.79751118831336498260498046875">
        <ele>11.3999996185302734375</ele>
        <time>2024-06-23T09:16:31.000Z</time>
        <extensions>
          <ns3:TrackPointExtension>
            <ns3:hr>86</ns3:hr>
          </ns3:TrackPointExtension>
        </extensions>
      </trkpt>
      <trkpt lat="31.9585346616804599761962890625" lon="118.797510601580142974853515625">
        <ele>11.3999996185302734375</ele>
        <time>2024-06-23T09:16:32.000Z</time>
        <extensions>
          <ns3:TrackPointExtension>
            <ns3:hr>86</ns3:hr>
          </ns3:TrackPointExtension>
        </extensions>
      </trkpt>
      <trkpt lat="31.95851312018930912017822265625" lon="118.79751169122755527496337890625">
        <ele>11</ele>
        <time>2024-06-23T09:16:37.000Z</time>
        <extensions>
          <ns3:TrackPointExtension>
            <ns3:hr>87</ns3:hr>
          </ns3:TrackPointExtension>
        </extensions>
      </trkpt>
      <trkpt lat="31.95850708521902561187744140625" lon="118.79751135595142841339111328125">
        <ele>11</ele>
        <time>2024-06-23T09:16:41.000Z</time>
        <extensions>
          <ns3:TrackPointExtension>
            <ns3:hr>88</ns3:hr>
          </ns3:TrackPointExtension>
        </extensions>
      </trkpt>
    </trkseg>
  </trk>
</gpx>
