<gpx xmlns:ns3="http://www.garmin.com/xmlschemas/TrackPointExtension/v1" xmlns="http://www.topografix.com/GPX/1/1" xmlns:xsi="http://www.w3.org/2001/XMLSchema-instance" xmlns:ns2="http://www.garmin.com/xmlschemas/GpxExtensions/v3" creator="Garmin Connect" version="1.1" xsi:schemaLocation="http://www.topografix.com/GPX/1/1 http://www.topografix.com/GPX/11.xsd">
  <extensions>
<distance>57.75</distance>
<average_hr>0.0</average_hr>
<average_speed>2.6251151452241044</average_speed>
<start_time>2024-05-09T10:49:18+00:00</start_time>
<end_time>2024-05-09T10:49:40+00:00</end_time>
<moving_time>22.0</moving_time>
<elapsed_time>22.0</elapsed_time>
</extensions>
<metadata>
    <link href="connect.garmin.com">
      <text>Garmin Connect</text>
    </link>
    <time>2024-05-09T10:49:18.000Z</time>
  </metadata>
  <trk>
    <name>南京市 其他</name>
    <type>other</type>
    <trkseg>
      <trkpt lat="32.00849139131605625152587890625" lon="118.72389377094805240631103515625">
        <ele>2.400000095367431640625</ele>
        <time>2024-05-09T10:49:18.000Z</time>
        <extensions>
          <ns3:TrackPointExtension/>
        </extensions>
      </trkpt>
      <trkpt lat="32.0085100829601287841796875" lon="118.7238955311477184295654296875">
        <ele>2.400000095367431640625</ele>
        <time>2024-05-09T10:49:19.000Z</time>
        <extensions>
          <ns3:TrackPointExtension/>
        </extensions>
      </trkpt>
      <trkpt lat="32.00854486785829067230224609375" lon="118.723898045718669891357421875">
        <ele>2.400000095367431640625</ele>
        <time>2024-05-09T10:49:20.000Z</time>
        <extensions>
          <ns3:TrackPointExtension/>
        </extensions>
      </trkpt>
      <trkpt lat="32.0085746236145496368408203125" lon="118.72390483506023883819580078125">
        <ele>2.599999904632568359375</ele>
        <time>2024-05-09T10:49:21.000Z</time>
        <extensions>
          <ns3:TrackPointExtension/>
        </extensions>
      </trkpt>
      <trkpt lat="32.008601613342761993408203125" lon="118.72391112148761749267578125">
        <ele>2.599999904632568359375</ele>
        <time>2024-05-09T10:49:22.000Z</time>
        <extensions>
          <ns3:TrackPointExtension/>
        </extensions>
      </trkpt>
      <trkpt lat="32.0086279325187206268310546875" lon="118.72391757555305957794189453125">
        <ele>2.599999904632568359375</ele>
        <time>2024-05-09T10:49:23.000Z</time>
        <extensions>
          <ns3:TrackPointExtension/>
        </extensions>
      </trkpt>
      <trkpt lat="32.008653916418552398681640625" lon="118.7239236943423748016357421875">
        <ele>2.7999999523162841796875</ele>
        <time>2024-05-09T10:49:24.000Z</time>
        <extensions>
          <ns3:TrackPointExtension/>
        </extensions>
      </trkpt>
      <trkpt lat="32.00867897830903530120849609375" lon="118.7239287234842777252197265625">
        <ele>2.7999999523162841796875</ele>
        <time>2024-05-09T10:49:25.000Z</time>
        <extensions>
          <ns3:TrackPointExtension/>
        </extensions>
      </trkpt>
      <trkpt lat="32.00870580039918422698974609375" lon="118.7239332497119903564453125">
        <ele>2.7999999523162841796875</ele>
        <time>2024-05-09T10:49:26.000Z</time>
        <extensions>
          <ns3:TrackPointExtension/>
        </extensions>
      </trkpt>
      <trkpt lat="32.00872960500419139862060546875" lon="118.7239359319210052490234375">
        <ele>2.7999999523162841796875</ele>
        <time>2024-05-09T10:49:27.000Z</time>
        <extensions>
          <ns3:TrackPointExtension/>
        </extensions>
      </trkpt>
      <trkpt lat="32.00875542126595973968505859375" lon="118.7239381112158298492431640625">
        <ele>3</ele>
        <time>2024-05-09T10:49:28.000Z</time>
        <extensions>
          <ns3:TrackPointExtension/>
        </extensions>
      </trkpt>
      <trkpt lat="32.0087783038616180419921875" lon="118.72393936850130558013916015625">
        <ele>3</ele>
        <time>2024-05-09T10:49:29.000Z</time>
        <extensions>
          <ns3:TrackPointExtension/>
        </extensions>
      </trkpt>
      <trkpt lat="32.00880219228565692901611328125" lon="118.72394020669162273406982421875">
        <ele>3</ele>
        <time>2024-05-09T10:49:30.000Z</time>
        <extensions>
          <ns3:TrackPointExtension/>
        </extensions>
      </trkpt>
      <trkpt lat="32.008823566138744354248046875" lon="118.7239414639770984649658203125">
        <ele>3</ele>
        <time>2024-05-09T10:49:31.000Z</time>
        <extensions>
          <ns3:TrackPointExtension/>
        </extensions>
      </trkpt>
      <trkpt lat="32.0088448561728000640869140625" lon="118.72394221834838390350341796875">
        <ele>3</ele>
        <time>2024-05-09T10:49:32.000Z</time>
        <extensions>
          <ns3:TrackPointExtension/>
        </extensions>
      </trkpt>
      <trkpt lat="32.008865810930728912353515625" lon="118.72394238598644733428955078125">
        <ele>3</ele>
        <time>2024-05-09T10:49:33.000Z</time>
        <extensions>
          <ns3:TrackPointExtension/>
        </extensions>
      </trkpt>
      <trkpt lat="32.008887939155101776123046875" lon="118.72394221834838390350341796875">
        <ele>3</ele>
        <time>2024-05-09T10:49:34.000Z</time>
        <extensions>
          <ns3:TrackPointExtension/>
        </extensions>
      </trkpt>
      <trkpt lat="32.00891082175076007843017578125" lon="118.72394221834838390350341796875">
        <ele>3</ele>
        <time>2024-05-09T10:49:35.000Z</time>
        <extensions>
          <ns3:TrackPointExtension/>
        </extensions>
      </trkpt>
      <trkpt lat="32.00893445871770381927490234375" lon="118.72394196689128875732421875">
        <ele>3</ele>
        <time>2024-05-09T10:49:36.000Z</time>
        <extensions>
          <ns3:TrackPointExtension/>
        </extensions>
      </trkpt>
      <trkpt lat="32.00896161608397960662841796875" lon="118.7239401228725910186767578125">
        <ele>3</ele>
        <time>2024-05-09T10:49:37.000Z</time>
        <extensions>
          <ns3:TrackPointExtension/>
        </extensions>
      </trkpt>
      <trkpt lat="32.00898684561252593994140625" lon="118.723936267197132110595703125">
        <ele>3</ele>
        <time>2024-05-09T10:49:38.000Z</time>
        <extensions>
          <ns3:TrackPointExtension/>
        </extensions>
      </trkpt>
      <trkpt lat="32.00900117866694927215576171875" lon="118.723933584988117218017578125">
        <ele>3</ele>
        <time>2024-05-09T10:49:39.000Z</time>
        <extensions>
          <ns3:TrackPointExtension/>
        </extensions>
      </trkpt>
      <trkpt lat="32.0090084709227085113525390625" lon="118.7239317409694194793701171875">
        <ele>3</ele>
        <time>2024-05-09T10:49:40.000Z</time>
        <extensions>
          <ns3:TrackPointExtension/>
        </extensions>
      </trkpt>
    </trkseg>
  </trk>
</gpx>
