<gpx xmlns:ns3="http://www.garmin.com/xmlschemas/TrackPointExtension/v1" xmlns="http://www.topografix.com/GPX/1/1" xmlns:xsi="http://www.w3.org/2001/XMLSchema-instance" xmlns:ns2="http://www.garmin.com/xmlschemas/GpxExtensions/v3" creator="Garmin Connect" version="1.1" xsi:schemaLocation="http://www.topografix.com/GPX/1/1 http://www.topografix.com/GPX/11.xsd">
  <extensions>
<distance>740.0</distance>
<average_hr>149.0</average_hr>
<average_speed>2.6241134751773045</average_speed>
<start_time>2024-04-07T11:55:26+00:00</start_time>
<end_time>2024-04-07T12:00:08+00:00</end_time>
<moving_time>262.0</moving_time>
<elapsed_time>288.0</elapsed_time>
</extensions>
<metadata>
    <link href="connect.garmin.com">
      <text>Garmin Connect</text>
    </link>
    <time>2024-04-07T11:55:26.000Z</time>
  </metadata>
  <trk>
    <name>南京市 跑步</name>
    <type>running</type>
    <trkseg>
      <trkpt lat="32.00247184373438358306884765625" lon="118.74332427978515625">
        <ele>7.599999904632568359375</ele>
        <time>2024-04-07T11:55:31.000Z</time>
        <extensions>
          <ns3:TrackPointExtension>
            <ns3:hr>106</ns3:hr>
            <ns3:cad>84</ns3:cad>
          </ns3:TrackPointExtension>
        </extensions>
      </trkpt>
      <trkpt lat="32.00245658867061138153076171875" lon="118.74337767250835895538330078125">
        <ele>7.599999904632568359375</ele>
        <time>2024-04-07T11:55:32.000Z</time>
        <extensions>
          <ns3:TrackPointExtension/>
        </extensions>
      </trkpt>
      <trkpt lat="32.00244896113872528076171875" lon="118.74339292757213115692138671875">
        <ele>7.599999904632568359375</ele>
        <time>2024-04-07T11:55:33.000Z</time>
        <extensions>
          <ns3:TrackPointExtension/>
        </extensions>
      </trkpt>
      <trkpt lat="32.0024337060749530792236328125" lon="118.74342343769967555999755859375">
        <ele>7.80000019073486328125</ele>
        <time>2024-04-07T11:55:34.000Z</time>
        <extensions>
          <ns3:TrackPointExtension/>
        </extensions>
      </trkpt>
      <trkpt lat="32.002418451011180877685546875" lon="118.74345394782721996307373046875">
        <ele>7.80000019073486328125</ele>
        <time>2024-04-07T11:55:35.000Z</time>
        <extensions>
          <ns3:TrackPointExtension/>
        </extensions>
      </trkpt>
      <trkpt lat="32.0024031959474086761474609375" lon="118.743476830422878265380859375">
        <ele>7.80000019073486328125</ele>
        <time>2024-04-07T11:55:36.000Z</time>
        <extensions>
          <ns3:TrackPointExtension>
            <ns3:hr>114</ns3:hr>
            <ns3:cad>89</ns3:cad>
          </ns3:TrackPointExtension>
        </extensions>
      </trkpt>
      <trkpt lat="32.002387940883636474609375" lon="118.74350734055042266845703125">
        <ele>7.599999904632568359375</ele>
        <time>2024-04-07T11:55:37.000Z</time>
        <extensions>
          <ns3:TrackPointExtension/>
        </extensions>
      </trkpt>
      <trkpt lat="32.00236891396343708038330078125" lon="118.743537850677967071533203125">
        <ele>7.599999904632568359375</ele>
        <time>2024-04-07T11:55:38.000Z</time>
        <extensions>
          <ns3:TrackPointExtension/>
        </extensions>
      </trkpt>
      <trkpt lat="32.002346031367778778076171875" lon="118.74356073327362537384033203125">
        <ele>7.400000095367431640625</ele>
        <time>2024-04-07T11:55:39.000Z</time>
        <extensions>
          <ns3:TrackPointExtension/>
        </extensions>
      </trkpt>
      <trkpt lat="32.00232314877212047576904296875" lon="118.74359124340116977691650390625">
        <ele>7.19999980926513671875</ele>
        <time>2024-04-07T11:55:40.000Z</time>
        <extensions>
          <ns3:TrackPointExtension/>
        </extensions>
      </trkpt>
      <trkpt lat="32.00230403803288936614990234375" lon="118.7436141259968280792236328125">
        <ele>7</ele>
        <time>2024-04-07T11:55:41.000Z</time>
        <extensions>
          <ns3:TrackPointExtension>
            <ns3:hr>120</ns3:hr>
            <ns3:cad>93</ns3:cad>
          </ns3:TrackPointExtension>
        </extensions>
      </trkpt>
      <trkpt lat="32.00228492729365825653076171875" lon="118.74363700859248638153076171875">
        <ele>6.80000019073486328125</ele>
        <time>2024-04-07T11:55:42.000Z</time>
        <extensions>
          <ns3:TrackPointExtension/>
        </extensions>
      </trkpt>
      <trkpt lat="32.0022659003734588623046875" lon="118.7436676025390625">
        <ele>6.599999904632568359375</ele>
        <time>2024-04-07T11:55:43.000Z</time>
        <extensions>
          <ns3:TrackPointExtension/>
        </extensions>
      </trkpt>
      <trkpt lat="32.002246789634227752685546875" lon="118.743698112666606903076171875">
        <ele>6.599999904632568359375</ele>
        <time>2024-04-07T11:55:44.000Z</time>
        <extensions>
          <ns3:TrackPointExtension/>
        </extensions>
      </trkpt>
      <trkpt lat="32.00222776271402835845947265625" lon="118.74372862279415130615234375">
        <ele>6.599999904632568359375</ele>
        <time>2024-04-07T11:55:45.000Z</time>
        <extensions>
          <ns3:TrackPointExtension/>
        </extensions>
      </trkpt>
      <trkpt lat="32.00221250765025615692138671875" lon="118.743759132921695709228515625">
        <ele>6.400000095367431640625</ele>
        <time>2024-04-07T11:55:46.000Z</time>
        <extensions>
          <ns3:TrackPointExtension>
            <ns3:hr>126</ns3:hr>
            <ns3:cad>96</ns3:cad>
          </ns3:TrackPointExtension>
        </extensions>
      </trkpt>
      <trkpt lat="32.00219339691102504730224609375" lon="118.74378201551735401153564453125">
        <ele>6.400000095367431640625</ele>
        <time>2024-04-07T11:55:47.000Z</time>
        <extensions>
          <ns3:TrackPointExtension/>
        </extensions>
      </trkpt>
      <trkpt lat="32.00218199752271175384521484375" lon="118.74381252564489841461181640625">
        <ele>6.19999980926513671875</ele>
        <time>2024-04-07T11:55:48.000Z</time>
        <extensions>
          <ns3:TrackPointExtension/>
        </extensions>
      </trkpt>
      <trkpt lat="32.0021705143153667449951171875" lon="118.74384303577244281768798828125">
        <ele>6</ele>
        <time>2024-04-07T11:55:49.000Z</time>
        <extensions>
          <ns3:TrackPointExtension/>
        </extensions>
      </trkpt>
      <trkpt lat="32.0021591149270534515380859375" lon="118.7438659183681011199951171875">
        <ele>5.80000019073486328125</ele>
        <time>2024-04-07T11:55:50.000Z</time>
        <extensions>
          <ns3:TrackPointExtension/>
        </extensions>
      </trkpt>
      <trkpt lat="32.00214763171970844268798828125" lon="118.7438964284956455230712890625">
        <ele>5.599999904632568359375</ele>
        <time>2024-04-07T11:55:51.000Z</time>
        <extensions>
          <ns3:TrackPointExtension>
            <ns3:hr>132</ns3:hr>
            <ns3:cad>97</ns3:cad>
          </ns3:TrackPointExtension>
        </extensions>
      </trkpt>
      <trkpt lat="32.002136148512363433837890625" lon="118.7439269386231899261474609375">
        <ele>5.400000095367431640625</ele>
        <time>2024-04-07T11:55:52.000Z</time>
        <extensions>
          <ns3:TrackPointExtension/>
        </extensions>
      </trkpt>
      <trkpt lat="32.0021208934485912322998046875" lon="118.74394982121884822845458984375">
        <ele>5.19999980926513671875</ele>
        <time>2024-04-07T11:55:53.000Z</time>
        <extensions>
          <ns3:TrackPointExtension/>
        </extensions>
      </trkpt>
      <trkpt lat="32.0021094940602779388427734375" lon="118.74398033134639263153076171875">
        <ele>5.19999980926513671875</ele>
        <time>2024-04-07T11:55:54.000Z</time>
        <extensions>
          <ns3:TrackPointExtension/>
        </extensions>
      </trkpt>
      <trkpt lat="32.00210186652839183807373046875" lon="118.744003213942050933837890625">
        <ele>5.19999980926513671875</ele>
        <time>2024-04-07T11:55:55.000Z</time>
        <extensions>
          <ns3:TrackPointExtension/>
        </extensions>
      </trkpt>
      <trkpt lat="32.0020942389965057373046875" lon="118.74403380788862705230712890625">
        <ele>5</ele>
        <time>2024-04-07T11:55:56.000Z</time>
        <extensions>
          <ns3:TrackPointExtension>
            <ns3:hr>138</ns3:hr>
            <ns3:cad>97</ns3:cad>
          </ns3:TrackPointExtension>
        </extensions>
      </trkpt>
      <trkpt lat="32.0020942389965057373046875" lon="118.74404906295239925384521484375">
        <ele>5</ele>
        <time>2024-04-07T11:55:57.000Z</time>
        <extensions>
          <ns3:TrackPointExtension/>
        </extensions>
      </trkpt>
      <trkpt lat="32.00210563838481903076171875" lon="118.74406431801617145538330078125">
        <ele>5.19999980926513671875</ele>
        <time>2024-04-07T11:55:58.000Z</time>
        <extensions>
          <ns3:TrackPointExtension/>
        </extensions>
      </trkpt>
      <trkpt lat="32.0021208934485912322998046875" lon="118.74407957307994365692138671875">
        <ele>5.19999980926513671875</ele>
        <time>2024-04-07T11:55:59.000Z</time>
        <extensions>
          <ns3:TrackPointExtension/>
        </extensions>
      </trkpt>
      <trkpt lat="32.0021400041878223419189453125" lon="118.74409482814371585845947265625">
        <ele>5.400000095367431640625</ele>
        <time>2024-04-07T11:56:00.000Z</time>
        <extensions>
          <ns3:TrackPointExtension/>
        </extensions>
      </trkpt>
      <trkpt lat="32.0021591149270534515380859375" lon="118.7441177107393741607666015625">
        <ele>5.599999904632568359375</ele>
        <time>2024-04-07T11:56:01.000Z</time>
        <extensions>
          <ns3:TrackPointExtension>
            <ns3:hr>142</ns3:hr>
            <ns3:cad>93</ns3:cad>
          </ns3:TrackPointExtension>
        </extensions>
      </trkpt>
      <trkpt lat="32.0021705143153667449951171875" lon="118.7441329658031463623046875">
        <ele>5.599999904632568359375</ele>
        <time>2024-04-07T11:56:02.000Z</time>
        <extensions>
          <ns3:TrackPointExtension/>
        </extensions>
      </trkpt>
      <trkpt lat="32.00218199752271175384521484375" lon="118.74415584839880466461181640625">
        <ele>5.80000019073486328125</ele>
        <time>2024-04-07T11:56:03.000Z</time>
        <extensions>
          <ns3:TrackPointExtension/>
        </extensions>
      </trkpt>
      <trkpt lat="32.00218199752271175384521484375" lon="118.7441787309944629669189453125">
        <ele>5.80000019073486328125</ele>
        <time>2024-04-07T11:56:04.000Z</time>
        <extensions>
          <ns3:TrackPointExtension/>
        </extensions>
      </trkpt>
      <trkpt lat="32.00217814184725284576416015625" lon="118.74420161359012126922607421875">
        <ele>5.599999904632568359375</ele>
        <time>2024-04-07T11:56:05.000Z</time>
        <extensions>
          <ns3:TrackPointExtension/>
        </extensions>
      </trkpt>
      <trkpt lat="32.002174369990825653076171875" lon="118.74423212371766567230224609375">
        <ele>5.599999904632568359375</ele>
        <time>2024-04-07T11:56:06.000Z</time>
        <extensions>
          <ns3:TrackPointExtension>
            <ns3:hr>146</ns3:hr>
            <ns3:cad>93</ns3:cad>
          </ns3:TrackPointExtension>
        </extensions>
      </trkpt>
      <trkpt lat="32.0021705143153667449951171875" lon="118.7442702613770961761474609375">
        <ele>5.599999904632568359375</ele>
        <time>2024-04-07T11:56:07.000Z</time>
        <extensions>
          <ns3:TrackPointExtension/>
        </extensions>
      </trkpt>
      <trkpt lat="32.00216674245893955230712890625" lon="118.7443007715046405792236328125">
        <ele>5.599999904632568359375</ele>
        <time>2024-04-07T11:56:08.000Z</time>
        <extensions>
          <ns3:TrackPointExtension/>
        </extensions>
      </trkpt>
      <trkpt lat="32.00216288678348064422607421875" lon="118.74433890916407108306884765625">
        <ele>5.599999904632568359375</ele>
        <time>2024-04-07T11:56:09.000Z</time>
        <extensions>
          <ns3:TrackPointExtension/>
        </extensions>
      </trkpt>
      <trkpt lat="32.0021591149270534515380859375" lon="118.7443695031106472015380859375">
        <ele>5.599999904632568359375</ele>
        <time>2024-04-07T11:56:10.000Z</time>
        <extensions>
          <ns3:TrackPointExtension/>
        </extensions>
      </trkpt>
      <trkpt lat="32.00215148739516735076904296875" lon="118.74440764077007770538330078125">
        <ele>5.400000095367431640625</ele>
        <time>2024-04-07T11:56:12.000Z</time>
        <extensions>
          <ns3:TrackPointExtension/>
        </extensions>
      </trkpt>
      <trkpt lat="32.00214385986328125" lon="118.744445778429508209228515625">
        <ele>5.400000095367431640625</ele>
        <time>2024-04-07T11:56:13.000Z</time>
        <extensions>
          <ns3:TrackPointExtension/>
        </extensions>
      </trkpt>
      <trkpt lat="32.002136148512363433837890625" lon="118.74448391608893871307373046875">
        <ele>5.400000095367431640625</ele>
        <time>2024-04-07T11:56:14.000Z</time>
        <extensions>
          <ns3:TrackPointExtension/>
        </extensions>
      </trkpt>
      <trkpt lat="32.00212852098047733306884765625" lon="118.744506798684597015380859375">
        <ele>5.400000095367431640625</ele>
        <time>2024-04-07T11:56:15.000Z</time>
        <extensions>
          <ns3:TrackPointExtension/>
        </extensions>
      </trkpt>
      <trkpt lat="32.0021208934485912322998046875" lon="118.74453730881214141845703125">
        <ele>5.19999980926513671875</ele>
        <time>2024-04-07T11:56:16.000Z</time>
        <extensions>
          <ns3:TrackPointExtension>
            <ns3:hr>153</ns3:hr>
            <ns3:cad>90</ns3:cad>
          </ns3:TrackPointExtension>
        </extensions>
      </trkpt>
      <trkpt lat="32.00211326591670513153076171875" lon="118.744567818939685821533203125">
        <ele>5.19999980926513671875</ele>
        <time>2024-04-07T11:56:17.000Z</time>
        <extensions>
          <ns3:TrackPointExtension/>
        </extensions>
      </trkpt>
      <trkpt lat="32.00210563838481903076171875" lon="118.744598329067230224609375">
        <ele>5</ele>
        <time>2024-04-07T11:56:18.000Z</time>
        <extensions>
          <ns3:TrackPointExtension/>
        </extensions>
      </trkpt>
      <trkpt lat="32.0020942389965057373046875" lon="118.744628839194774627685546875">
        <ele>5</ele>
        <time>2024-04-07T11:56:19.000Z</time>
        <extensions>
          <ns3:TrackPointExtension/>
        </extensions>
      </trkpt>
      <trkpt lat="32.00208661146461963653564453125" lon="118.74465934932231903076171875">
        <ele>5</ele>
        <time>2024-04-07T11:56:20.000Z</time>
        <extensions>
          <ns3:TrackPointExtension/>
        </extensions>
      </trkpt>
      <trkpt lat="32.002075128257274627685546875" lon="118.744689859449863433837890625">
        <ele>5</ele>
        <time>2024-04-07T11:56:21.000Z</time>
        <extensions>
          <ns3:TrackPointExtension>
            <ns3:hr>157</ns3:hr>
            <ns3:cad>92</ns3:cad>
          </ns3:TrackPointExtension>
        </extensions>
      </trkpt>
      <trkpt lat="32.00206750072538852691650390625" lon="118.74472045339643955230712890625">
        <ele>5</ele>
        <time>2024-04-07T11:56:22.000Z</time>
        <extensions>
          <ns3:TrackPointExtension/>
        </extensions>
      </trkpt>
      <trkpt lat="32.00205610133707523345947265625" lon="118.74475096352398395538330078125">
        <ele>4.80000019073486328125</ele>
        <time>2024-04-07T11:56:23.000Z</time>
        <extensions>
          <ns3:TrackPointExtension/>
        </extensions>
      </trkpt>
      <trkpt lat="32.002044618129730224609375" lon="118.74478147365152835845947265625">
        <ele>5</ele>
        <time>2024-04-07T11:56:24.000Z</time>
        <extensions>
          <ns3:TrackPointExtension/>
        </extensions>
      </trkpt>
      <trkpt lat="32.00203321874141693115234375" lon="118.74481198377907276153564453125">
        <ele>5</ele>
        <time>2024-04-07T11:56:25.000Z</time>
        <extensions>
          <ns3:TrackPointExtension/>
        </extensions>
      </trkpt>
      <trkpt lat="32.00202173553407192230224609375" lon="118.74484249390661716461181640625">
        <ele>5.19999980926513671875</ele>
        <time>2024-04-07T11:56:26.000Z</time>
        <extensions>
          <ns3:TrackPointExtension>
            <ns3:hr>158</ns3:hr>
            <ns3:cad>91</ns3:cad>
          </ns3:TrackPointExtension>
        </extensions>
      </trkpt>
      <trkpt lat="32.002014108002185821533203125" lon="118.74487300403416156768798828125">
        <ele>5.19999980926513671875</ele>
        <time>2024-04-07T11:56:27.000Z</time>
        <extensions>
          <ns3:TrackPointExtension/>
        </extensions>
      </trkpt>
      <trkpt lat="32.002002708613872528076171875" lon="118.74490351416170597076416015625">
        <ele>5.400000095367431640625</ele>
        <time>2024-04-07T11:56:28.000Z</time>
        <extensions>
          <ns3:TrackPointExtension/>
        </extensions>
      </trkpt>
      <trkpt lat="32.00199508108198642730712890625" lon="118.74493402428925037384033203125">
        <ele>5.599999904632568359375</ele>
        <time>2024-04-07T11:56:29.000Z</time>
        <extensions>
          <ns3:TrackPointExtension/>
        </extensions>
      </trkpt>
      <trkpt lat="32.00198359787464141845703125" lon="118.74496453441679477691650390625">
        <ele>5.599999904632568359375</ele>
        <time>2024-04-07T11:56:30.000Z</time>
        <extensions>
          <ns3:TrackPointExtension/>
        </extensions>
      </trkpt>
      <trkpt lat="32.00197982601821422576904296875" lon="118.7449874170124530792236328125">
        <ele>5.599999904632568359375</ele>
        <time>2024-04-07T11:56:31.000Z</time>
        <extensions>
          <ns3:TrackPointExtension>
            <ns3:hr>158</ns3:hr>
            <ns3:cad>89</ns3:cad>
          </ns3:TrackPointExtension>
        </extensions>
      </trkpt>
      <trkpt lat="32.001972198486328125" lon="118.7450179271399974822998046875">
        <ele>5.599999904632568359375</ele>
        <time>2024-04-07T11:56:32.000Z</time>
        <extensions>
          <ns3:TrackPointExtension/>
        </extensions>
      </trkpt>
      <trkpt lat="32.00196071527898311614990234375" lon="118.7450408935546875">
        <ele>5.599999904632568359375</ele>
        <time>2024-04-07T11:56:33.000Z</time>
        <extensions>
          <ns3:TrackPointExtension/>
        </extensions>
      </trkpt>
      <trkpt lat="32.0019492320716381072998046875" lon="118.745071403682231903076171875">
        <ele>5.599999904632568359375</ele>
        <time>2024-04-07T11:56:34.000Z</time>
        <extensions>
          <ns3:TrackPointExtension/>
        </extensions>
      </trkpt>
      <trkpt lat="32.00193397700786590576171875" lon="118.7450866587460041046142578125">
        <ele>5.400000095367431640625</ele>
        <time>2024-04-07T11:56:35.000Z</time>
        <extensions>
          <ns3:TrackPointExtension/>
        </extensions>
      </trkpt>
      <trkpt lat="32.00191495008766651153564453125" lon="118.74510954134166240692138671875">
        <ele>5.19999980926513671875</ele>
        <time>2024-04-07T11:56:36.000Z</time>
        <extensions>
          <ns3:TrackPointExtension>
            <ns3:hr>158</ns3:hr>
            <ns3:cad>88</ns3:cad>
          </ns3:TrackPointExtension>
        </extensions>
      </trkpt>
      <trkpt lat="32.001892067492008209228515625" lon="118.74512479640543460845947265625">
        <ele>5.19999980926513671875</ele>
        <time>2024-04-07T11:56:37.000Z</time>
        <extensions>
          <ns3:TrackPointExtension/>
        </extensions>
      </trkpt>
      <trkpt lat="32.001872956752777099609375" lon="118.74514005146920680999755859375">
        <ele>5</ele>
        <time>2024-04-07T11:56:38.000Z</time>
        <extensions>
          <ns3:TrackPointExtension/>
        </extensions>
      </trkpt>
      <trkpt lat="32.0018577016890048980712890625" lon="118.74515530653297901153564453125">
        <ele>5</ele>
        <time>2024-04-07T11:56:39.000Z</time>
        <extensions>
          <ns3:TrackPointExtension/>
        </extensions>
      </trkpt>
      <trkpt lat="32.00183867476880550384521484375" lon="118.7451781891286373138427734375">
        <ele>5</ele>
        <time>2024-04-07T11:56:40.000Z</time>
        <extensions>
          <ns3:TrackPointExtension/>
        </extensions>
      </trkpt>
      <trkpt lat="32.00181956402957439422607421875" lon="118.745193444192409515380859375">
        <ele>5</ele>
        <time>2024-04-07T11:56:41.000Z</time>
        <extensions>
          <ns3:TrackPointExtension>
            <ns3:hr>158</ns3:hr>
            <ns3:cad>88</ns3:cad>
          </ns3:TrackPointExtension>
        </extensions>
      </trkpt>
      <trkpt lat="32.001800537109375" lon="118.74521632678806781768798828125">
        <ele>5</ele>
        <time>2024-04-07T11:56:42.000Z</time>
        <extensions>
          <ns3:TrackPointExtension/>
        </extensions>
      </trkpt>
      <trkpt lat="32.001781426370143890380859375" lon="118.7452392093837261199951171875">
        <ele>5</ele>
        <time>2024-04-07T11:56:43.000Z</time>
        <extensions>
          <ns3:TrackPointExtension/>
        </extensions>
      </trkpt>
      <trkpt lat="32.00175854377448558807373046875" lon="118.74526209197938442230224609375">
        <ele>5</ele>
        <time>2024-04-07T11:56:44.000Z</time>
        <extensions>
          <ns3:TrackPointExtension/>
        </extensions>
      </trkpt>
      <trkpt lat="32.0017356611788272857666015625" lon="118.745284974575042724609375">
        <ele>5</ele>
        <time>2024-04-07T11:56:45.000Z</time>
        <extensions>
          <ns3:TrackPointExtension/>
        </extensions>
      </trkpt>
      <trkpt lat="32.00170892290771007537841796875" lon="118.74530785717070102691650390625">
        <ele>5.19999980926513671875</ele>
        <time>2024-04-07T11:56:46.000Z</time>
        <extensions>
          <ns3:TrackPointExtension>
            <ns3:hr>158</ns3:hr>
            <ns3:cad>89</ns3:cad>
          </ns3:TrackPointExtension>
        </extensions>
      </trkpt>
      <trkpt lat="32.0016860403120517730712890625" lon="118.7453307397663593292236328125">
        <ele>5.400000095367431640625</ele>
        <time>2024-04-07T11:56:47.000Z</time>
        <extensions>
          <ns3:TrackPointExtension/>
        </extensions>
      </trkpt>
      <trkpt lat="32.00166701339185237884521484375" lon="118.74535362236201763153076171875">
        <ele>5.599999904632568359375</ele>
        <time>2024-04-07T11:56:48.000Z</time>
        <extensions>
          <ns3:TrackPointExtension/>
        </extensions>
      </trkpt>
      <trkpt lat="32.0016441307961940765380859375" lon="118.745376504957675933837890625">
        <ele>5.599999904632568359375</ele>
        <time>2024-04-07T11:56:49.000Z</time>
        <extensions>
          <ns3:TrackPointExtension/>
        </extensions>
      </trkpt>
      <trkpt lat="32.001628875732421875" lon="118.7453994713723659515380859375">
        <ele>5.599999904632568359375</ele>
        <time>2024-04-07T11:56:50.000Z</time>
        <extensions>
          <ns3:TrackPointExtension/>
        </extensions>
      </trkpt>
      <trkpt lat="32.001609764993190765380859375" lon="118.74542235396802425384521484375">
        <ele>5.80000019073486328125</ele>
        <time>2024-04-07T11:56:51.000Z</time>
        <extensions>
          <ns3:TrackPointExtension>
            <ns3:hr>158</ns3:hr>
            <ns3:cad>89</ns3:cad>
          </ns3:TrackPointExtension>
        </extensions>
      </trkpt>
      <trkpt lat="32.0015945099294185638427734375" lon="118.74544523656368255615234375">
        <ele>5.80000019073486328125</ele>
        <time>2024-04-07T11:56:52.000Z</time>
        <extensions>
          <ns3:TrackPointExtension/>
        </extensions>
      </trkpt>
      <trkpt lat="32.0015792548656463623046875" lon="118.74546811915934085845947265625">
        <ele>5.80000019073486328125</ele>
        <time>2024-04-07T11:56:53.000Z</time>
        <extensions>
          <ns3:TrackPointExtension/>
        </extensions>
      </trkpt>
      <trkpt lat="32.0015639998018741607666015625" lon="118.74549862928688526153564453125">
        <ele>5.80000019073486328125</ele>
        <time>2024-04-07T11:56:54.000Z</time>
        <extensions>
          <ns3:TrackPointExtension/>
        </extensions>
      </trkpt>
      <trkpt lat="32.00155251659452915191650390625" lon="118.7455215118825435638427734375">
        <ele>6</ele>
        <time>2024-04-07T11:56:55.000Z</time>
        <extensions>
          <ns3:TrackPointExtension/>
        </extensions>
      </trkpt>
      <trkpt lat="32.00153726153075695037841796875" lon="118.74555964954197406768798828125">
        <ele>6</ele>
        <time>2024-04-07T11:56:56.000Z</time>
        <extensions>
          <ns3:TrackPointExtension>
            <ns3:hr>159</ns3:hr>
            <ns3:cad>90</ns3:cad>
          </ns3:TrackPointExtension>
        </extensions>
      </trkpt>
      <trkpt lat="32.00152586214244365692138671875" lon="118.74559015966951847076416015625">
        <ele>6</ele>
        <time>2024-04-07T11:56:57.000Z</time>
        <extensions>
          <ns3:TrackPointExtension/>
        </extensions>
      </trkpt>
      <trkpt lat="32.0015143789350986480712890625" lon="118.74562066979706287384033203125">
        <ele>6</ele>
        <time>2024-04-07T11:56:58.000Z</time>
        <extensions>
          <ns3:TrackPointExtension/>
        </extensions>
      </trkpt>
      <trkpt lat="32.001499123871326446533203125" lon="118.74565117992460727691650390625">
        <ele>6.19999980926513671875</ele>
        <time>2024-04-07T11:56:59.000Z</time>
        <extensions>
          <ns3:TrackPointExtension/>
        </extensions>
      </trkpt>
      <trkpt lat="32.0014838688075542449951171875" lon="118.74568169005215167999267578125">
        <ele>6.19999980926513671875</ele>
        <time>2024-04-07T11:57:00.000Z</time>
        <extensions>
          <ns3:TrackPointExtension/>
        </extensions>
      </trkpt>
      <trkpt lat="32.00146861374378204345703125" lon="118.74571220017969608306884765625">
        <ele>6.19999980926513671875</ele>
        <time>2024-04-07T11:57:01.000Z</time>
        <extensions>
          <ns3:TrackPointExtension>
            <ns3:hr>158</ns3:hr>
            <ns3:cad>90</ns3:cad>
          </ns3:TrackPointExtension>
        </extensions>
      </trkpt>
      <trkpt lat="32.0014533586800098419189453125" lon="118.74575042165815830230712890625">
        <ele>6.19999980926513671875</ele>
        <time>2024-04-07T11:57:02.000Z</time>
        <extensions>
          <ns3:TrackPointExtension/>
        </extensions>
      </trkpt>
      <trkpt lat="32.0014342479407787322998046875" lon="118.74578093178570270538330078125">
        <ele>6.400000095367431640625</ele>
        <time>2024-04-07T11:57:03.000Z</time>
        <extensions>
          <ns3:TrackPointExtension/>
        </extensions>
      </trkpt>
      <trkpt lat="32.00141899287700653076171875" lon="118.74581144191324710845947265625">
        <ele>6.400000095367431640625</ele>
        <time>2024-04-07T11:57:04.000Z</time>
        <extensions>
          <ns3:TrackPointExtension/>
        </extensions>
      </trkpt>
      <trkpt lat="32.0014037378132343292236328125" lon="118.74584195204079151153564453125">
        <ele>6.400000095367431640625</ele>
        <time>2024-04-07T11:57:05.000Z</time>
        <extensions>
          <ns3:TrackPointExtension/>
        </extensions>
      </trkpt>
      <trkpt lat="32.0013923384249210357666015625" lon="118.745880089700222015380859375">
        <ele>6.400000095367431640625</ele>
        <time>2024-04-07T11:57:06.000Z</time>
        <extensions>
          <ns3:TrackPointExtension>
            <ns3:hr>157</ns3:hr>
            <ns3:cad>89</ns3:cad>
          </ns3:TrackPointExtension>
        </extensions>
      </trkpt>
      <trkpt lat="32.001377083361148834228515625" lon="118.74590297229588031768798828125">
        <ele>6.599999904632568359375</ele>
        <time>2024-04-07T11:57:07.000Z</time>
        <extensions>
          <ns3:TrackPointExtension/>
        </extensions>
      </trkpt>
      <trkpt lat="32.00136560015380382537841796875" lon="118.74593348242342472076416015625">
        <ele>6.599999904632568359375</ele>
        <time>2024-04-07T11:57:08.000Z</time>
        <extensions>
          <ns3:TrackPointExtension/>
        </extensions>
      </trkpt>
      <trkpt lat="32.00135034509003162384033203125" lon="118.7459563650190830230712890625">
        <ele>6.599999904632568359375</ele>
        <time>2024-04-07T11:57:09.000Z</time>
        <extensions>
          <ns3:TrackPointExtension/>
        </extensions>
      </trkpt>
      <trkpt lat="32.00133894570171833038330078125" lon="118.7459868751466274261474609375">
        <ele>6.599999904632568359375</ele>
        <time>2024-04-07T11:57:10.000Z</time>
        <extensions>
          <ns3:TrackPointExtension/>
        </extensions>
      </trkpt>
      <trkpt lat="32.00132369063794612884521484375" lon="118.74600975774228572845458984375">
        <ele>6.599999904632568359375</ele>
        <time>2024-04-07T11:57:11.000Z</time>
        <extensions>
          <ns3:TrackPointExtension>
            <ns3:hr>157</ns3:hr>
            <ns3:cad>89</ns3:cad>
          </ns3:TrackPointExtension>
        </extensions>
      </trkpt>
      <trkpt lat="32.0013122074306011199951171875" lon="118.74603264033794403076171875">
        <ele>6.599999904632568359375</ele>
        <time>2024-04-07T11:57:12.000Z</time>
        <extensions>
          <ns3:TrackPointExtension/>
        </extensions>
      </trkpt>
      <trkpt lat="32.00129318051040172576904296875" lon="118.74605552293360233306884765625">
        <ele>6.400000095367431640625</ele>
        <time>2024-04-07T11:57:13.000Z</time>
        <extensions>
          <ns3:TrackPointExtension/>
        </extensions>
      </trkpt>
      <trkpt lat="32.001277841627597808837890625" lon="118.7460861168801784515380859375">
        <ele>6.400000095367431640625</ele>
        <time>2024-04-07T11:57:14.000Z</time>
        <extensions>
          <ns3:TrackPointExtension/>
        </extensions>
      </trkpt>
      <trkpt lat="32.00125881470739841461181640625" lon="118.74610899947583675384521484375">
        <ele>6.19999980926513671875</ele>
        <time>2024-04-07T11:57:15.000Z</time>
        <extensions>
          <ns3:TrackPointExtension/>
        </extensions>
      </trkpt>
      <trkpt lat="32.00123970396816730499267578125" lon="118.74613950960338115692138671875">
        <ele>6.19999980926513671875</ele>
        <time>2024-04-07T11:57:16.000Z</time>
        <extensions>
          <ns3:TrackPointExtension>
            <ns3:hr>157</ns3:hr>
            <ns3:cad>89</ns3:cad>
          </ns3:TrackPointExtension>
        </extensions>
      </trkpt>
      <trkpt lat="32.001216821372509002685546875" lon="118.746162392199039459228515625">
        <ele>6.19999980926513671875</ele>
        <time>2024-04-07T11:57:17.000Z</time>
        <extensions>
          <ns3:TrackPointExtension/>
        </extensions>
      </trkpt>
      <trkpt lat="32.00119779445230960845947265625" lon="118.7461929023265838623046875">
        <ele>6.19999980926513671875</ele>
        <time>2024-04-07T11:57:18.000Z</time>
        <extensions>
          <ns3:TrackPointExtension/>
        </extensions>
      </trkpt>
      <trkpt lat="32.00117491185665130615234375" lon="118.746223412454128265380859375">
        <ele>6.19999980926513671875</ele>
        <time>2024-04-07T11:57:19.000Z</time>
        <extensions>
          <ns3:TrackPointExtension/>
        </extensions>
      </trkpt>
      <trkpt lat="32.001155801117420196533203125" lon="118.74625392258167266845703125">
        <ele>6</ele>
        <time>2024-04-07T11:57:20.000Z</time>
        <extensions>
          <ns3:TrackPointExtension/>
        </extensions>
      </trkpt>
      <trkpt lat="32.00113291852176189422607421875" lon="118.74629206024110317230224609375">
        <ele>6</ele>
        <time>2024-04-07T11:57:21.000Z</time>
        <extensions>
          <ns3:TrackPointExtension>
            <ns3:hr>157</ns3:hr>
            <ns3:cad>89</ns3:cad>
          </ns3:TrackPointExtension>
        </extensions>
      </trkpt>
      <trkpt lat="32.00111766345798969268798828125" lon="118.74632257036864757537841796875">
        <ele>6</ele>
        <time>2024-04-07T11:57:22.000Z</time>
        <extensions>
          <ns3:TrackPointExtension/>
        </extensions>
      </trkpt>
      <trkpt lat="32.00110240839421749114990234375" lon="118.74635308049619197845458984375">
        <ele>6</ele>
        <time>2024-04-07T11:57:23.000Z</time>
        <extensions>
          <ns3:TrackPointExtension/>
        </extensions>
      </trkpt>
      <trkpt lat="32.0010909251868724822998046875" lon="118.74638359062373638153076171875">
        <ele>5.80000019073486328125</ele>
        <time>2024-04-07T11:57:24.000Z</time>
        <extensions>
          <ns3:TrackPointExtension/>
        </extensions>
      </trkpt>
      <trkpt lat="32.0010795257985591888427734375" lon="118.7464141845703125">
        <ele>5.80000019073486328125</ele>
        <time>2024-04-07T11:57:25.000Z</time>
        <extensions>
          <ns3:TrackPointExtension/>
        </extensions>
      </trkpt>
      <trkpt lat="32.00106804259121417999267578125" lon="118.74645232222974300384521484375">
        <ele>5.599999904632568359375</ele>
        <time>2024-04-07T11:57:26.000Z</time>
        <extensions>
          <ns3:TrackPointExtension>
            <ns3:hr>157</ns3:hr>
            <ns3:cad>91</ns3:cad>
          </ns3:TrackPointExtension>
        </extensions>
      </trkpt>
      <trkpt lat="32.00105278752744197845458984375" lon="118.74648283235728740692138671875">
        <ele>5.80000019073486328125</ele>
        <time>2024-04-07T11:57:27.000Z</time>
        <extensions>
          <ns3:TrackPointExtension/>
        </extensions>
      </trkpt>
      <trkpt lat="32.00103753246366977691650390625" lon="118.746505714952945709228515625">
        <ele>5.80000019073486328125</ele>
        <time>2024-04-07T11:57:28.000Z</time>
        <extensions>
          <ns3:TrackPointExtension/>
        </extensions>
      </trkpt>
      <trkpt lat="32.0010185055434703826904296875" lon="118.7465362250804901123046875">
        <ele>5.80000019073486328125</ele>
        <time>2024-04-07T11:57:29.000Z</time>
        <extensions>
          <ns3:TrackPointExtension/>
        </extensions>
      </trkpt>
      <trkpt lat="32.00100325047969818115234375" lon="118.746566735208034515380859375">
        <ele>5.80000019073486328125</ele>
        <time>2024-04-07T11:57:30.000Z</time>
        <extensions>
          <ns3:TrackPointExtension/>
        </extensions>
      </trkpt>
      <trkpt lat="32.00099176727235317230224609375" lon="118.74658961780369281768798828125">
        <ele>6</ele>
        <time>2024-04-07T11:57:31.000Z</time>
        <extensions>
          <ns3:TrackPointExtension>
            <ns3:hr>159</ns3:hr>
            <ns3:cad>90</ns3:cad>
          </ns3:TrackPointExtension>
        </extensions>
      </trkpt>
      <trkpt lat="32.00097651220858097076416015625" lon="118.74662012793123722076416015625">
        <ele>6</ele>
        <time>2024-04-07T11:57:32.000Z</time>
        <extensions>
          <ns3:TrackPointExtension/>
        </extensions>
      </trkpt>
      <trkpt lat="32.00096511282026767730712890625" lon="118.7466430105268955230712890625">
        <ele>6</ele>
        <time>2024-04-07T11:57:33.000Z</time>
        <extensions>
          <ns3:TrackPointExtension/>
        </extensions>
      </trkpt>
      <trkpt lat="32.00094985775649547576904296875" lon="118.7466735206544399261474609375">
        <ele>6</ele>
        <time>2024-04-07T11:57:34.000Z</time>
        <extensions>
          <ns3:TrackPointExtension/>
        </extensions>
      </trkpt>
      <trkpt lat="32.0009383745491504669189453125" lon="118.74669640325009822845458984375">
        <ele>6.19999980926513671875</ele>
        <time>2024-04-07T11:57:35.000Z</time>
        <extensions>
          <ns3:TrackPointExtension/>
        </extensions>
      </trkpt>
      <trkpt lat="32.000923119485378265380859375" lon="118.74671928584575653076171875">
        <ele>6.19999980926513671875</ele>
        <time>2024-04-07T11:57:36.000Z</time>
        <extensions>
          <ns3:TrackPointExtension>
            <ns3:hr>159</ns3:hr>
            <ns3:cad>90</ns3:cad>
          </ns3:TrackPointExtension>
        </extensions>
      </trkpt>
      <trkpt lat="32.00091163627803325653076171875" lon="118.74674216844141483306884765625">
        <ele>6.400000095367431640625</ele>
        <time>2024-04-07T11:57:37.000Z</time>
        <extensions>
          <ns3:TrackPointExtension/>
        </extensions>
      </trkpt>
      <trkpt lat="32.00090400874614715576171875" lon="118.74676513485610485076904296875">
        <ele>6.599999904632568359375</ele>
        <time>2024-04-07T11:57:38.000Z</time>
        <extensions>
          <ns3:TrackPointExtension/>
        </extensions>
      </trkpt>
      <trkpt lat="32.00089638121426105499267578125" lon="118.746788017451763153076171875">
        <ele>6.80000019073486328125</ele>
        <time>2024-04-07T11:57:39.000Z</time>
        <extensions>
          <ns3:TrackPointExtension/>
        </extensions>
      </trkpt>
      <trkpt lat="32.00089638121426105499267578125" lon="118.74681090004742145538330078125">
        <ele>6.80000019073486328125</ele>
        <time>2024-04-07T11:57:40.000Z</time>
        <extensions>
          <ns3:TrackPointExtension/>
        </extensions>
      </trkpt>
      <trkpt lat="32.0009078644216060638427734375" lon="118.74682615511119365692138671875">
        <ele>6.80000019073486328125</ele>
        <time>2024-04-07T11:57:41.000Z</time>
        <extensions>
          <ns3:TrackPointExtension>
            <ns3:hr>159</ns3:hr>
            <ns3:cad>88</ns3:cad>
          </ns3:TrackPointExtension>
        </extensions>
      </trkpt>
      <trkpt lat="32.000923119485378265380859375" lon="118.74684141017496585845947265625">
        <ele>6.80000019073486328125</ele>
        <time>2024-04-07T11:57:42.000Z</time>
        <extensions>
          <ns3:TrackPointExtension/>
        </extensions>
      </trkpt>
      <trkpt lat="32.000942230224609375" lon="118.74685666523873805999755859375">
        <ele>6.599999904632568359375</ele>
        <time>2024-04-07T11:57:43.000Z</time>
        <extensions>
          <ns3:TrackPointExtension/>
        </extensions>
      </trkpt>
      <trkpt lat="32.00096511282026767730712890625" lon="118.7468642927706241607666015625">
        <ele>6.599999904632568359375</ele>
        <time>2024-04-07T11:57:44.000Z</time>
        <extensions>
          <ns3:TrackPointExtension/>
        </extensions>
      </trkpt>
      <trkpt lat="32.000984139740467071533203125" lon="118.74687192030251026153564453125">
        <ele>6.400000095367431640625</ele>
        <time>2024-04-07T11:57:45.000Z</time>
        <extensions>
          <ns3:TrackPointExtension/>
        </extensions>
      </trkpt>
      <trkpt lat="32.0009993948042392730712890625" lon="118.7468795478343963623046875">
        <ele>6.400000095367431640625</ele>
        <time>2024-04-07T11:57:46.000Z</time>
        <extensions>
          <ns3:TrackPointExtension>
            <ns3:hr>159</ns3:hr>
            <ns3:cad>84</ns3:cad>
          </ns3:TrackPointExtension>
        </extensions>
      </trkpt>
      <trkpt lat="32.001014649868011474609375" lon="118.7468948028981685638427734375">
        <ele>6.19999980926513671875</ele>
        <time>2024-04-07T11:57:47.000Z</time>
        <extensions>
          <ns3:TrackPointExtension/>
        </extensions>
      </trkpt>
      <trkpt lat="32.001033760607242584228515625" lon="118.74691768549382686614990234375">
        <ele>6.19999980926513671875</ele>
        <time>2024-04-07T11:57:48.000Z</time>
        <extensions>
          <ns3:TrackPointExtension/>
        </extensions>
      </trkpt>
      <trkpt lat="32.0010490156710147857666015625" lon="118.74694056808948516845703125">
        <ele>6.19999980926513671875</ele>
        <time>2024-04-07T11:57:49.000Z</time>
        <extensions>
          <ns3:TrackPointExtension/>
        </extensions>
      </trkpt>
      <trkpt lat="32.00106804259121417999267578125" lon="118.7469558231532573699951171875">
        <ele>6.19999980926513671875</ele>
        <time>2024-04-07T11:57:50.000Z</time>
        <extensions>
          <ns3:TrackPointExtension/>
        </extensions>
      </trkpt>
      <trkpt lat="32.00108715333044528961181640625" lon="118.746971078217029571533203125">
        <ele>6</ele>
        <time>2024-04-07T11:57:51.000Z</time>
        <extensions>
          <ns3:TrackPointExtension>
            <ns3:hr>159</ns3:hr>
            <ns3:cad>84</ns3:cad>
          </ns3:TrackPointExtension>
        </extensions>
      </trkpt>
      <trkpt lat="32.0011100359261035919189453125" lon="118.74699396081268787384033203125">
        <ele>6</ele>
        <time>2024-04-07T11:57:52.000Z</time>
        <extensions>
          <ns3:TrackPointExtension/>
        </extensions>
      </trkpt>
      <trkpt lat="32.0011291466653347015380859375" lon="118.74700921587646007537841796875">
        <ele>5.80000019073486328125</ele>
        <time>2024-04-07T11:57:53.000Z</time>
        <extensions>
          <ns3:TrackPointExtension/>
        </extensions>
      </trkpt>
      <trkpt lat="32.00115202926099300384521484375" lon="118.747032098472118377685546875">
        <ele>5.80000019073486328125</ele>
        <time>2024-04-07T11:57:54.000Z</time>
        <extensions>
          <ns3:TrackPointExtension/>
        </extensions>
      </trkpt>
      <trkpt lat="32.00117491185665130615234375" lon="118.7470473535358905792236328125">
        <ele>5.599999904632568359375</ele>
        <time>2024-04-07T11:57:55.000Z</time>
        <extensions>
          <ns3:TrackPointExtension/>
        </extensions>
      </trkpt>
      <trkpt lat="32.00119779445230960845947265625" lon="118.74706260859966278076171875">
        <ele>5.599999904632568359375</ele>
        <time>2024-04-07T11:57:56.000Z</time>
        <extensions>
          <ns3:TrackPointExtension>
            <ns3:hr>159</ns3:hr>
            <ns3:cad>85</ns3:cad>
          </ns3:TrackPointExtension>
        </extensions>
      </trkpt>
      <trkpt lat="32.00122444890439510345458984375" lon="118.74708549119532108306884765625">
        <ele>5.400000095367431640625</ele>
        <time>2024-04-07T11:57:57.000Z</time>
        <extensions>
          <ns3:TrackPointExtension/>
        </extensions>
      </trkpt>
      <trkpt lat="32.00124733150005340576171875" lon="118.747100830078125">
        <ele>5.400000095367431640625</ele>
        <time>2024-04-07T11:57:58.000Z</time>
        <extensions>
          <ns3:TrackPointExtension/>
        </extensions>
      </trkpt>
      <trkpt lat="32.00127021409571170806884765625" lon="118.7471160851418972015380859375">
        <ele>5.19999980926513671875</ele>
        <time>2024-04-07T11:57:59.000Z</time>
        <extensions>
          <ns3:TrackPointExtension/>
        </extensions>
      </trkpt>
      <trkpt lat="32.00129318051040172576904296875" lon="118.747131340205669403076171875">
        <ele>5.19999980926513671875</ele>
        <time>2024-04-07T11:58:00.000Z</time>
        <extensions>
          <ns3:TrackPointExtension/>
        </extensions>
      </trkpt>
      <trkpt lat="32.001316063106060028076171875" lon="118.7471465952694416046142578125">
        <ele>5.19999980926513671875</ele>
        <time>2024-04-07T11:58:01.000Z</time>
        <extensions>
          <ns3:TrackPointExtension>
            <ns3:hr>159</ns3:hr>
            <ns3:cad>84</ns3:cad>
          </ns3:TrackPointExtension>
        </extensions>
      </trkpt>
      <trkpt lat="32.00133894570171833038330078125" lon="118.74716185033321380615234375">
        <ele>5.19999980926513671875</ele>
        <time>2024-04-07T11:58:02.000Z</time>
        <extensions>
          <ns3:TrackPointExtension/>
        </extensions>
      </trkpt>
      <trkpt lat="32.0013618282973766326904296875" lon="118.7471771053969860076904296875">
        <ele>5.19999980926513671875</ele>
        <time>2024-04-07T11:58:03.000Z</time>
        <extensions>
          <ns3:TrackPointExtension/>
        </extensions>
      </trkpt>
      <trkpt lat="32.00138085521757602691650390625" lon="118.74719998799264430999755859375">
        <ele>5.19999980926513671875</ele>
        <time>2024-04-07T11:58:04.000Z</time>
        <extensions>
          <ns3:TrackPointExtension/>
        </extensions>
      </trkpt>
      <trkpt lat="32.0014037378132343292236328125" lon="118.74721524305641651153564453125">
        <ele>5.19999980926513671875</ele>
        <time>2024-04-07T11:58:05.000Z</time>
        <extensions>
          <ns3:TrackPointExtension/>
        </extensions>
      </trkpt>
      <trkpt lat="32.0014228485524654388427734375" lon="118.74723049812018871307373046875">
        <ele>5.19999980926513671875</ele>
        <time>2024-04-07T11:58:06.000Z</time>
        <extensions>
          <ns3:TrackPointExtension>
            <ns3:hr>158</ns3:hr>
            <ns3:cad>84</ns3:cad>
          </ns3:TrackPointExtension>
        </extensions>
      </trkpt>
      <trkpt lat="32.00144573114812374114990234375" lon="118.74724575318396091461181640625">
        <ele>5.19999980926513671875</ele>
        <time>2024-04-07T11:58:07.000Z</time>
        <extensions>
          <ns3:TrackPointExtension/>
        </extensions>
      </trkpt>
      <trkpt lat="32.00146861374378204345703125" lon="118.74726100824773311614990234375">
        <ele>5.19999980926513671875</ele>
        <time>2024-04-07T11:58:08.000Z</time>
        <extensions>
          <ns3:TrackPointExtension/>
        </extensions>
      </trkpt>
      <trkpt lat="32.0014838688075542449951171875" lon="118.74727626331150531768798828125">
        <ele>5.19999980926513671875</ele>
        <time>2024-04-07T11:58:09.000Z</time>
        <extensions>
          <ns3:TrackPointExtension/>
        </extensions>
      </trkpt>
      <trkpt lat="32.0015029795467853546142578125" lon="118.74729151837527751922607421875">
        <ele>5</ele>
        <time>2024-04-07T11:58:10.000Z</time>
        <extensions>
          <ns3:TrackPointExtension/>
        </extensions>
      </trkpt>
      <trkpt lat="32.00151823461055755615234375" lon="118.7472991459071636199951171875">
        <ele>5</ele>
        <time>2024-04-07T11:58:11.000Z</time>
        <extensions>
          <ns3:TrackPointExtension>
            <ns3:hr>158</ns3:hr>
            <ns3:cad>83</ns3:cad>
          </ns3:TrackPointExtension>
        </extensions>
      </trkpt>
      <trkpt lat="32.00153726153075695037841796875" lon="118.747314400970935821533203125">
        <ele>5</ele>
        <time>2024-04-07T11:58:12.000Z</time>
        <extensions>
          <ns3:TrackPointExtension/>
        </extensions>
      </trkpt>
      <trkpt lat="32.00155637226998805999755859375" lon="118.74733728356659412384033203125">
        <ele>5</ele>
        <time>2024-04-07T11:58:13.000Z</time>
        <extensions>
          <ns3:TrackPointExtension/>
        </extensions>
      </trkpt>
      <trkpt lat="32.0015753991901874542236328125" lon="118.74735253863036632537841796875">
        <ele>5</ele>
        <time>2024-04-07T11:58:14.000Z</time>
        <extensions>
          <ns3:TrackPointExtension/>
        </extensions>
      </trkpt>
      <trkpt lat="32.00159065425395965576171875" lon="118.74736779369413852691650390625">
        <ele>5</ele>
        <time>2024-04-07T11:58:15.000Z</time>
        <extensions>
          <ns3:TrackPointExtension/>
        </extensions>
      </trkpt>
      <trkpt lat="32.00160213746130466461181640625" lon="118.74738304875791072845458984375">
        <ele>5</ele>
        <time>2024-04-07T11:58:16.000Z</time>
        <extensions>
          <ns3:TrackPointExtension>
            <ns3:hr>159</ns3:hr>
            <ns3:cad>82</ns3:cad>
          </ns3:TrackPointExtension>
        </extensions>
      </trkpt>
      <trkpt lat="32.00161353684961795806884765625" lon="118.74739830382168292999267578125">
        <ele>5</ele>
        <time>2024-04-07T11:58:17.000Z</time>
        <extensions>
          <ns3:TrackPointExtension/>
        </extensions>
      </trkpt>
      <trkpt lat="32.0016250200569629669189453125" lon="118.74740593135356903076171875">
        <ele>5</ele>
        <time>2024-04-07T11:58:18.000Z</time>
        <extensions>
          <ns3:TrackPointExtension/>
        </extensions>
      </trkpt>
      <trkpt lat="32.00163650326430797576904296875" lon="118.74741355888545513153076171875">
        <ele>5</ele>
        <time>2024-04-07T11:58:19.000Z</time>
        <extensions>
          <ns3:TrackPointExtension/>
        </extensions>
      </trkpt>
      <trkpt lat="32.00165175832808017730712890625" lon="118.74742881394922733306884765625">
        <ele>5</ele>
        <time>2024-04-07T11:58:20.000Z</time>
        <extensions>
          <ns3:TrackPointExtension/>
        </extensions>
      </trkpt>
      <trkpt lat="32.00166315771639347076416015625" lon="118.747436441481113433837890625">
        <ele>5</ele>
        <time>2024-04-07T11:58:21.000Z</time>
        <extensions>
          <ns3:TrackPointExtension>
            <ns3:hr>160</ns3:hr>
            <ns3:cad>77</ns3:cad>
          </ns3:TrackPointExtension>
        </extensions>
      </trkpt>
      <trkpt lat="32.0016746409237384796142578125" lon="118.74745178036391735076904296875">
        <ele>5</ele>
        <time>2024-04-07T11:58:22.000Z</time>
        <extensions>
          <ns3:TrackPointExtension/>
        </extensions>
      </trkpt>
      <trkpt lat="32.00168226845562458038330078125" lon="118.74746703542768955230712890625">
        <ele>5</ele>
        <time>2024-04-07T11:58:23.000Z</time>
        <extensions>
          <ns3:TrackPointExtension/>
        </extensions>
      </trkpt>
      <trkpt lat="32.00168989598751068115234375" lon="118.74748229049146175384521484375">
        <ele>5</ele>
        <time>2024-04-07T11:58:24.000Z</time>
        <extensions>
          <ns3:TrackPointExtension/>
        </extensions>
      </trkpt>
      <trkpt lat="32.00169752351939678192138671875" lon="118.74749754555523395538330078125">
        <ele>5</ele>
        <time>2024-04-07T11:58:25.000Z</time>
        <extensions>
          <ns3:TrackPointExtension/>
        </extensions>
      </trkpt>
      <trkpt lat="32.001701295375823974609375" lon="118.74751280061900615692138671875">
        <ele>5</ele>
        <time>2024-04-07T11:58:26.000Z</time>
        <extensions>
          <ns3:TrackPointExtension>
            <ns3:hr>160</ns3:hr>
            <ns3:cad>62</ns3:cad>
          </ns3:TrackPointExtension>
        </extensions>
      </trkpt>
      <trkpt lat="32.001701295375823974609375" lon="118.74752805568277835845947265625">
        <ele>5</ele>
        <time>2024-04-07T11:58:27.000Z</time>
        <extensions>
          <ns3:TrackPointExtension/>
        </extensions>
      </trkpt>
      <trkpt lat="32.0017051510512828826904296875" lon="118.74754331074655055999755859375">
        <ele>5</ele>
        <time>2024-04-07T11:58:28.000Z</time>
        <extensions>
          <ns3:TrackPointExtension/>
        </extensions>
      </trkpt>
      <trkpt lat="32.0017051510512828826904296875" lon="118.7475661933422088623046875">
        <ele>5</ele>
        <time>2024-04-07T11:58:29.000Z</time>
        <extensions>
          <ns3:TrackPointExtension/>
        </extensions>
      </trkpt>
      <trkpt lat="32.001701295375823974609375" lon="118.7475814484059810638427734375">
        <ele>5</ele>
        <time>2024-04-07T11:58:30.000Z</time>
        <extensions>
          <ns3:TrackPointExtension/>
        </extensions>
      </trkpt>
      <trkpt lat="32.001701295375823974609375" lon="118.747596703469753265380859375">
        <ele>5</ele>
        <time>2024-04-07T11:58:31.000Z</time>
        <extensions>
          <ns3:TrackPointExtension>
            <ns3:hr>160</ns3:hr>
            <ns3:cad>60</ns3:cad>
          </ns3:TrackPointExtension>
        </extensions>
      </trkpt>
      <trkpt lat="32.00169752351939678192138671875" lon="118.7476119585335254669189453125">
        <ele>5</ele>
        <time>2024-04-07T11:58:32.000Z</time>
        <extensions>
          <ns3:TrackPointExtension/>
        </extensions>
      </trkpt>
      <trkpt lat="32.00169752351939678192138671875" lon="118.74762721359729766845703125">
        <ele>5</ele>
        <time>2024-04-07T11:58:33.000Z</time>
        <extensions>
          <ns3:TrackPointExtension/>
        </extensions>
      </trkpt>
      <trkpt lat="32.00169366784393787384033203125" lon="118.7476424686610698699951171875">
        <ele>5</ele>
        <time>2024-04-07T11:58:34.000Z</time>
        <extensions>
          <ns3:TrackPointExtension/>
        </extensions>
      </trkpt>
      <trkpt lat="32.00169752351939678192138671875" lon="118.747657723724842071533203125">
        <ele>5</ele>
        <time>2024-04-07T11:58:35.000Z</time>
        <extensions>
          <ns3:TrackPointExtension/>
        </extensions>
      </trkpt>
      <trkpt lat="32.00169752351939678192138671875" lon="118.7476729787886142730712890625">
        <ele>5</ele>
        <time>2024-04-07T11:58:36.000Z</time>
        <extensions>
          <ns3:TrackPointExtension>
            <ns3:hr>160</ns3:hr>
            <ns3:cad>60</ns3:cad>
          </ns3:TrackPointExtension>
        </extensions>
      </trkpt>
      <trkpt lat="32.00169752351939678192138671875" lon="118.747688233852386474609375">
        <ele>5</ele>
        <time>2024-04-07T11:58:37.000Z</time>
        <extensions>
          <ns3:TrackPointExtension/>
        </extensions>
      </trkpt>
      <trkpt lat="32.00169752351939678192138671875" lon="118.7477034889161586761474609375">
        <ele>5</ele>
        <time>2024-04-07T11:58:38.000Z</time>
        <extensions>
          <ns3:TrackPointExtension/>
        </extensions>
      </trkpt>
      <trkpt lat="32.00169752351939678192138671875" lon="118.74772637151181697845458984375">
        <ele>5</ele>
        <time>2024-04-07T11:58:39.000Z</time>
        <extensions>
          <ns3:TrackPointExtension/>
        </extensions>
      </trkpt>
      <trkpt lat="32.00169752351939678192138671875" lon="118.74774162657558917999267578125">
        <ele>5</ele>
        <time>2024-04-07T11:58:40.000Z</time>
        <extensions>
          <ns3:TrackPointExtension/>
        </extensions>
      </trkpt>
      <trkpt lat="32.00169366784393787384033203125" lon="118.74775688163936138153076171875">
        <ele>5.19999980926513671875</ele>
        <time>2024-04-07T11:58:41.000Z</time>
        <extensions>
          <ns3:TrackPointExtension>
            <ns3:hr>160</ns3:hr>
            <ns3:cad>58</ns3:cad>
          </ns3:TrackPointExtension>
        </extensions>
      </trkpt>
      <trkpt lat="32.00169366784393787384033203125" lon="118.74777213670313358306884765625">
        <ele>5.19999980926513671875</ele>
        <time>2024-04-07T11:58:42.000Z</time>
        <extensions>
          <ns3:TrackPointExtension/>
        </extensions>
      </trkpt>
      <trkpt lat="32.00169366784393787384033203125" lon="118.7477874755859375">
        <ele>5.400000095367431640625</ele>
        <time>2024-04-07T11:58:43.000Z</time>
        <extensions>
          <ns3:TrackPointExtension/>
        </extensions>
      </trkpt>
      <trkpt lat="32.00169752351939678192138671875" lon="118.74779510311782360076904296875">
        <ele>5.400000095367431640625</ele>
        <time>2024-04-07T11:58:44.000Z</time>
        <extensions>
          <ns3:TrackPointExtension/>
        </extensions>
      </trkpt>
      <trkpt lat="32.001701295375823974609375" lon="118.74781035818159580230712890625">
        <ele>5.400000095367431640625</ele>
        <time>2024-04-07T11:58:45.000Z</time>
        <extensions>
          <ns3:TrackPointExtension/>
        </extensions>
      </trkpt>
      <trkpt lat="32.00170892290771007537841796875" lon="118.74782561324536800384521484375">
        <ele>5.599999904632568359375</ele>
        <time>2024-04-07T11:58:46.000Z</time>
        <extensions>
          <ns3:TrackPointExtension>
            <ns3:hr>159</ns3:hr>
            <ns3:cad>57</ns3:cad>
          </ns3:TrackPointExtension>
        </extensions>
      </trkpt>
      <trkpt lat="32.0017165504395961761474609375" lon="118.7478332407772541046142578125">
        <ele>5.599999904632568359375</ele>
        <time>2024-04-07T11:58:47.000Z</time>
        <extensions>
          <ns3:TrackPointExtension/>
        </extensions>
      </trkpt>
      <trkpt lat="32.001731805503368377685546875" lon="118.74784086830914020538330078125">
        <ele>5.400000095367431640625</ele>
        <time>2024-04-07T11:58:48.000Z</time>
        <extensions>
          <ns3:TrackPointExtension/>
        </extensions>
      </trkpt>
      <trkpt lat="32.00174328871071338653564453125" lon="118.74784849584102630615234375">
        <ele>5.400000095367431640625</ele>
        <time>2024-04-07T11:58:49.000Z</time>
        <extensions>
          <ns3:TrackPointExtension/>
        </extensions>
      </trkpt>
      <trkpt lat="32.00175468809902667999267578125" lon="118.74784849584102630615234375">
        <ele>5.400000095367431640625</ele>
        <time>2024-04-07T11:58:50.000Z</time>
        <extensions>
          <ns3:TrackPointExtension/>
        </extensions>
      </trkpt>
      <trkpt lat="32.0017661713063716888427734375" lon="118.74785612337291240692138671875">
        <ele>5.400000095367431640625</ele>
        <time>2024-04-07T11:58:51.000Z</time>
        <extensions>
          <ns3:TrackPointExtension>
            <ns3:hr>155</ns3:hr>
            <ns3:cad>60</ns3:cad>
          </ns3:TrackPointExtension>
        </extensions>
      </trkpt>
      <trkpt lat="32.0017775706946849822998046875" lon="118.7478637509047985076904296875">
        <ele>5.400000095367431640625</ele>
        <time>2024-04-07T11:58:52.000Z</time>
        <extensions>
          <ns3:TrackPointExtension/>
        </extensions>
      </trkpt>
      <trkpt lat="32.00178905390202999114990234375" lon="118.747879005968570709228515625">
        <ele>5.400000095367431640625</ele>
        <time>2024-04-07T11:58:53.000Z</time>
        <extensions>
          <ns3:TrackPointExtension/>
        </extensions>
      </trkpt>
      <trkpt lat="32.00180430896580219268798828125" lon="118.74788663350045680999755859375">
        <ele>5.400000095367431640625</ele>
        <time>2024-04-07T11:58:54.000Z</time>
        <extensions>
          <ns3:TrackPointExtension/>
        </extensions>
      </trkpt>
      <trkpt lat="32.00181956402957439422607421875" lon="118.74790188856422901153564453125">
        <ele>5.400000095367431640625</ele>
        <time>2024-04-07T11:58:55.000Z</time>
        <extensions>
          <ns3:TrackPointExtension/>
        </extensions>
      </trkpt>
      <trkpt lat="32.001831047236919403076171875" lon="118.7479095160961151123046875">
        <ele>5.599999904632568359375</ele>
        <time>2024-04-07T11:58:56.000Z</time>
        <extensions>
          <ns3:TrackPointExtension>
            <ns3:hr>153</ns3:hr>
            <ns3:cad>63</ns3:cad>
          </ns3:TrackPointExtension>
        </extensions>
      </trkpt>
      <trkpt lat="32.0018463023006916046142578125" lon="118.74791714362800121307373046875">
        <ele>5.599999904632568359375</ele>
        <time>2024-04-07T11:58:57.000Z</time>
        <extensions>
          <ns3:TrackPointExtension/>
        </extensions>
      </trkpt>
      <trkpt lat="32.00186155736446380615234375" lon="118.74793239869177341461181640625">
        <ele>5.80000019073486328125</ele>
        <time>2024-04-07T11:58:58.000Z</time>
        <extensions>
          <ns3:TrackPointExtension/>
        </extensions>
      </trkpt>
      <trkpt lat="32.001872956752777099609375" lon="118.747940026223659515380859375">
        <ele>6</ele>
        <time>2024-04-07T11:58:59.000Z</time>
        <extensions>
          <ns3:TrackPointExtension/>
        </extensions>
      </trkpt>
      <trkpt lat="32.0018882118165493011474609375" lon="118.74794765375554561614990234375">
        <ele>6</ele>
        <time>2024-04-07T11:59:00.000Z</time>
        <extensions>
          <ns3:TrackPointExtension/>
        </extensions>
      </trkpt>
      <trkpt lat="32.00189969502389430999755859375" lon="118.7479552812874317169189453125">
        <ele>6.19999980926513671875</ele>
        <time>2024-04-07T11:59:01.000Z</time>
        <extensions>
          <ns3:TrackPointExtension>
            <ns3:hr>150</ns3:hr>
            <ns3:cad>62</ns3:cad>
          </ns3:TrackPointExtension>
        </extensions>
      </trkpt>
      <trkpt lat="32.00191495008766651153564453125" lon="118.74796290881931781768798828125">
        <ele>6.19999980926513671875</ele>
        <time>2024-04-07T11:59:02.000Z</time>
        <extensions>
          <ns3:TrackPointExtension/>
        </extensions>
      </trkpt>
      <trkpt lat="32.00193020515143871307373046875" lon="118.74797816388309001922607421875">
        <ele>6.400000095367431640625</ele>
        <time>2024-04-07T11:59:03.000Z</time>
        <extensions>
          <ns3:TrackPointExtension/>
        </extensions>
      </trkpt>
      <trkpt lat="32.0019492320716381072998046875" lon="118.74799341894686222076416015625">
        <ele>6.599999904632568359375</ele>
        <time>2024-04-07T11:59:04.000Z</time>
        <extensions>
          <ns3:TrackPointExtension/>
        </extensions>
      </trkpt>
      <trkpt lat="32.0019683428108692169189453125" lon="118.74800867401063442230224609375">
        <ele>6.80000019073486328125</ele>
        <time>2024-04-07T11:59:05.000Z</time>
        <extensions>
          <ns3:TrackPointExtension/>
        </extensions>
      </trkpt>
      <trkpt lat="32.00199122540652751922607421875" lon="118.74802392907440662384033203125">
        <ele>7</ele>
        <time>2024-04-07T11:59:06.000Z</time>
        <extensions>
          <ns3:TrackPointExtension>
            <ns3:hr>145</ns3:hr>
            <ns3:cad>72</ns3:cad>
          </ns3:TrackPointExtension>
        </extensions>
      </trkpt>
      <trkpt lat="32.0020179636776447296142578125" lon="118.74803918413817882537841796875">
        <ele>7.19999980926513671875</ele>
        <time>2024-04-07T11:59:07.000Z</time>
        <extensions>
          <ns3:TrackPointExtension/>
        </extensions>
      </trkpt>
      <trkpt lat="32.002044618129730224609375" lon="118.74805443920195102691650390625">
        <ele>7.400000095367431640625</ele>
        <time>2024-04-07T11:59:08.000Z</time>
        <extensions>
          <ns3:TrackPointExtension/>
        </extensions>
      </trkpt>
      <trkpt lat="32.00207135640084743499755859375" lon="118.74806969426572322845458984375">
        <ele>7.80000019073486328125</ele>
        <time>2024-04-07T11:59:09.000Z</time>
        <extensions>
          <ns3:TrackPointExtension/>
        </extensions>
      </trkpt>
      <trkpt lat="32.00209801085293292999267578125" lon="118.74809257686138153076171875">
        <ele>8</ele>
        <time>2024-04-07T11:59:10.000Z</time>
        <extensions>
          <ns3:TrackPointExtension/>
        </extensions>
      </trkpt>
      <trkpt lat="32.002124749124050140380859375" lon="118.7481078319251537322998046875">
        <ele>8</ele>
        <time>2024-04-07T11:59:11.000Z</time>
        <extensions>
          <ns3:TrackPointExtension>
            <ns3:hr>142</ns3:hr>
            <ns3:cad>84</ns3:cad>
          </ns3:TrackPointExtension>
        </extensions>
      </trkpt>
      <trkpt lat="32.00214763171970844268798828125" lon="118.748123086988925933837890625">
        <ele>8.19999980926513671875</ele>
        <time>2024-04-07T11:59:12.000Z</time>
        <extensions>
          <ns3:TrackPointExtension/>
        </extensions>
      </trkpt>
      <trkpt lat="32.00217814184725284576416015625" lon="118.74813842587172985076904296875">
        <ele>8.3999996185302734375</ele>
        <time>2024-04-07T11:59:13.000Z</time>
        <extensions>
          <ns3:TrackPointExtension/>
        </extensions>
      </trkpt>
      <trkpt lat="32.0022010244429111480712890625" lon="118.74815368093550205230712890625">
        <ele>8.6000003814697265625</ele>
        <time>2024-04-07T11:59:14.000Z</time>
        <extensions>
          <ns3:TrackPointExtension/>
        </extensions>
      </trkpt>
      <trkpt lat="32.0022315345704555511474609375" lon="118.74816893599927425384521484375">
        <ele>8.6000003814697265625</ele>
        <time>2024-04-07T11:59:15.000Z</time>
        <extensions>
          <ns3:TrackPointExtension/>
        </extensions>
      </trkpt>
      <trkpt lat="32.00225827284157276153564453125" lon="118.74818419106304645538330078125">
        <ele>8.80000019073486328125</ele>
        <time>2024-04-07T11:59:16.000Z</time>
        <extensions>
          <ns3:TrackPointExtension>
            <ns3:hr>143</ns3:hr>
            <ns3:cad>85</ns3:cad>
          </ns3:TrackPointExtension>
        </extensions>
      </trkpt>
      <trkpt lat="32.00228492729365825653076171875" lon="118.74819944612681865692138671875">
        <ele>9</ele>
        <time>2024-04-07T11:59:17.000Z</time>
        <extensions>
          <ns3:TrackPointExtension/>
        </extensions>
      </trkpt>
      <trkpt lat="32.0023116655647754669189453125" lon="118.74821470119059085845947265625">
        <ele>9.19999980926513671875</ele>
        <time>2024-04-07T11:59:18.000Z</time>
        <extensions>
          <ns3:TrackPointExtension/>
        </extensions>
      </trkpt>
      <trkpt lat="32.00233454816043376922607421875" lon="118.7482375837862491607666015625">
        <ele>9.3999996185302734375</ele>
        <time>2024-04-07T11:59:19.000Z</time>
        <extensions>
          <ns3:TrackPointExtension/>
        </extensions>
      </trkpt>
      <trkpt lat="32.00235365889966487884521484375" lon="118.7482528388500213623046875">
        <ele>9.3999996185302734375</ele>
        <time>2024-04-07T11:59:20.000Z</time>
        <extensions>
          <ns3:TrackPointExtension/>
        </extensions>
      </trkpt>
      <trkpt lat="32.0023726858198642730712890625" lon="118.7482680939137935638427734375">
        <ele>9.3999996185302734375</ele>
        <time>2024-04-07T11:59:21.000Z</time>
        <extensions>
          <ns3:TrackPointExtension>
            <ns3:hr>145</ns3:hr>
            <ns3:cad>83</ns3:cad>
          </ns3:TrackPointExtension>
        </extensions>
      </trkpt>
      <trkpt lat="32.00238416902720928192138671875" lon="118.74827572144567966461181640625">
        <ele>9.3999996185302734375</ele>
        <time>2024-04-07T11:59:22.000Z</time>
        <extensions>
          <ns3:TrackPointExtension/>
        </extensions>
      </trkpt>
      <trkpt lat="32.00239556841552257537841796875" lon="118.74829097650945186614990234375">
        <ele>9.3999996185302734375</ele>
        <time>2024-04-07T11:59:23.000Z</time>
        <extensions>
          <ns3:TrackPointExtension/>
        </extensions>
      </trkpt>
      <trkpt lat="32.002407051622867584228515625" lon="118.7482986040413379669189453125">
        <ele>9.3999996185302734375</ele>
        <time>2024-04-07T11:59:24.000Z</time>
        <extensions>
          <ns3:TrackPointExtension/>
        </extensions>
      </trkpt>
      <trkpt lat="32.00241467915475368499755859375" lon="118.74830623157322406768798828125">
        <ele>9.3999996185302734375</ele>
        <time>2024-04-07T11:59:25.000Z</time>
        <extensions>
          <ns3:TrackPointExtension/>
        </extensions>
      </trkpt>
      <trkpt lat="32.002418451011180877685546875" lon="118.74831385910511016845703125">
        <ele>9.3999996185302734375</ele>
        <time>2024-04-07T11:59:26.000Z</time>
        <extensions>
          <ns3:TrackPointExtension>
            <ns3:hr>144</ns3:hr>
            <ns3:cad>71</ns3:cad>
          </ns3:TrackPointExtension>
        </extensions>
      </trkpt>
      <trkpt lat="32.002418451011180877685546875" lon="118.74832148663699626922607421875">
        <ele>9.6000003814697265625</ele>
        <time>2024-04-07T11:59:27.000Z</time>
        <extensions>
          <ns3:TrackPointExtension/>
        </extensions>
      </trkpt>
      <trkpt lat="32.00241467915475368499755859375" lon="118.74832148663699626922607421875">
        <ele>9.6000003814697265625</ele>
        <time>2024-04-07T11:59:28.000Z</time>
        <extensions>
          <ns3:TrackPointExtension/>
        </extensions>
      </trkpt>
      <trkpt lat="32.00241082347929477691650390625" lon="118.74832148663699626922607421875">
        <ele>9.6000003814697265625</ele>
        <time>2024-04-07T11:59:29.000Z</time>
        <extensions>
          <ns3:TrackPointExtension/>
        </extensions>
      </trkpt>
      <trkpt lat="32.002407051622867584228515625" lon="118.74832148663699626922607421875">
        <ele>9.6000003814697265625</ele>
        <time>2024-04-07T11:59:30.000Z</time>
        <extensions>
          <ns3:TrackPointExtension/>
        </extensions>
      </trkpt>
      <trkpt lat="32.002407051622867584228515625" lon="118.74832148663699626922607421875">
        <ele>9.6000003814697265625</ele>
        <time>2024-04-07T11:59:31.000Z</time>
        <extensions>
          <ns3:TrackPointExtension>
            <ns3:hr>147</ns3:hr>
            <ns3:cad>58</ns3:cad>
          </ns3:TrackPointExtension>
        </extensions>
      </trkpt>
      <trkpt lat="32.002407051622867584228515625" lon="118.74831385910511016845703125">
        <ele>9.6000003814697265625</ele>
        <time>2024-04-07T11:59:32.000Z</time>
        <extensions>
          <ns3:TrackPointExtension/>
        </extensions>
      </trkpt>
      <trkpt lat="32.002407051622867584228515625" lon="118.74831385910511016845703125">
        <ele>9.6000003814697265625</ele>
        <time>2024-04-07T11:59:33.000Z</time>
        <extensions>
          <ns3:TrackPointExtension/>
        </extensions>
      </trkpt>
      <trkpt lat="32.00241082347929477691650390625" lon="118.74831385910511016845703125">
        <ele>9.6000003814697265625</ele>
        <time>2024-04-07T11:59:34.000Z</time>
        <extensions>
          <ns3:TrackPointExtension/>
        </extensions>
      </trkpt>
      <trkpt lat="32.00241082347929477691650390625" lon="118.74832148663699626922607421875">
        <ele>9.6000003814697265625</ele>
        <time>2024-04-07T11:59:35.000Z</time>
        <extensions>
          <ns3:TrackPointExtension/>
        </extensions>
      </trkpt>
      <trkpt lat="32.00241467915475368499755859375" lon="118.74832148663699626922607421875">
        <ele>9.6000003814697265625</ele>
        <time>2024-04-07T11:59:36.000Z</time>
        <extensions>
          <ns3:TrackPointExtension>
            <ns3:hr>146</ns3:hr>
          </ns3:TrackPointExtension>
        </extensions>
      </trkpt>
      <trkpt lat="32.00241467915475368499755859375" lon="118.74832148663699626922607421875">
        <ele>9.6000003814697265625</ele>
        <time>2024-04-07T11:59:37.000Z</time>
        <extensions>
          <ns3:TrackPointExtension/>
        </extensions>
      </trkpt>
      <trkpt lat="32.00241467915475368499755859375" lon="118.74832148663699626922607421875">
        <ele>9.6000003814697265625</ele>
        <time>2024-04-07T11:59:38.000Z</time>
        <extensions>
          <ns3:TrackPointExtension/>
        </extensions>
      </trkpt>
      <trkpt lat="32.00241467915475368499755859375" lon="118.74832148663699626922607421875">
        <ele>9.6000003814697265625</ele>
        <time>2024-04-07T11:59:39.000Z</time>
        <extensions>
          <ns3:TrackPointExtension/>
        </extensions>
      </trkpt>
      <trkpt lat="32.002418451011180877685546875" lon="118.74832148663699626922607421875">
        <ele>9.6000003814697265625</ele>
        <time>2024-04-07T11:59:40.000Z</time>
        <extensions>
          <ns3:TrackPointExtension/>
        </extensions>
      </trkpt>
      <trkpt lat="32.00241467915475368499755859375" lon="118.7483291141688823699951171875">
        <ele>9.6000003814697265625</ele>
        <time>2024-04-07T11:59:41.000Z</time>
        <extensions>
          <ns3:TrackPointExtension>
            <ns3:hr>144</ns3:hr>
          </ns3:TrackPointExtension>
        </extensions>
      </trkpt>
      <trkpt lat="32.00241467915475368499755859375" lon="118.7483291141688823699951171875">
        <ele>9.6000003814697265625</ele>
        <time>2024-04-07T11:59:42.000Z</time>
        <extensions>
          <ns3:TrackPointExtension/>
        </extensions>
      </trkpt>
      <trkpt lat="32.00241082347929477691650390625" lon="118.7483291141688823699951171875">
        <ele>9.6000003814697265625</ele>
        <time>2024-04-07T11:59:43.000Z</time>
        <extensions>
          <ns3:TrackPointExtension/>
        </extensions>
      </trkpt>
      <trkpt lat="32.00241082347929477691650390625" lon="118.74832148663699626922607421875">
        <ele>9.6000003814697265625</ele>
        <time>2024-04-07T11:59:44.000Z</time>
        <extensions>
          <ns3:TrackPointExtension/>
        </extensions>
      </trkpt>
      <trkpt lat="32.00241082347929477691650390625" lon="118.74832148663699626922607421875">
        <ele>9.6000003814697265625</ele>
        <time>2024-04-07T11:59:45.000Z</time>
        <extensions>
          <ns3:TrackPointExtension/>
        </extensions>
      </trkpt>
      <trkpt lat="32.00241082347929477691650390625" lon="118.74832148663699626922607421875">
        <ele>9.6000003814697265625</ele>
        <time>2024-04-07T11:59:46.000Z</time>
        <extensions>
          <ns3:TrackPointExtension>
            <ns3:hr>143</ns3:hr>
          </ns3:TrackPointExtension>
        </extensions>
      </trkpt>
      <trkpt lat="32.00241467915475368499755859375" lon="118.74832148663699626922607421875">
        <ele>9.6000003814697265625</ele>
        <time>2024-04-07T11:59:47.000Z</time>
        <extensions>
          <ns3:TrackPointExtension/>
        </extensions>
      </trkpt>
      <trkpt lat="32.00241467915475368499755859375" lon="118.74832148663699626922607421875">
        <ele>9.6000003814697265625</ele>
        <time>2024-04-07T11:59:48.000Z</time>
        <extensions>
          <ns3:TrackPointExtension/>
        </extensions>
      </trkpt>
      <trkpt lat="32.0024223066866397857666015625" lon="118.74832148663699626922607421875">
        <ele>9.3999996185302734375</ele>
        <time>2024-04-07T11:59:49.000Z</time>
        <extensions>
          <ns3:TrackPointExtension/>
        </extensions>
      </trkpt>
      <trkpt lat="32.00242993421852588653564453125" lon="118.7483291141688823699951171875">
        <ele>9.3999996185302734375</ele>
        <time>2024-04-07T11:59:50.000Z</time>
        <extensions>
          <ns3:TrackPointExtension/>
        </extensions>
      </trkpt>
      <trkpt lat="32.00244133360683917999267578125" lon="118.74833674170076847076416015625">
        <ele>9.3999996185302734375</ele>
        <time>2024-04-07T11:59:51.000Z</time>
        <extensions>
          <ns3:TrackPointExtension>
            <ns3:hr>139</ns3:hr>
          </ns3:TrackPointExtension>
        </extensions>
      </trkpt>
      <trkpt lat="32.00246044434607028961181640625" lon="118.748344369232654571533203125">
        <ele>9.3999996185302734375</ele>
        <time>2024-04-07T11:59:52.000Z</time>
        <extensions>
          <ns3:TrackPointExtension/>
        </extensions>
      </trkpt>
      <trkpt lat="32.0024871826171875" lon="118.7483596242964267730712890625">
        <ele>9.3999996185302734375</ele>
        <time>2024-04-07T11:59:53.000Z</time>
        <extensions>
          <ns3:TrackPointExtension/>
        </extensions>
      </trkpt>
      <trkpt lat="32.002517692744731903076171875" lon="118.74836725182831287384033203125">
        <ele>9.3999996185302734375</ele>
        <time>2024-04-07T11:59:54.000Z</time>
        <extensions>
          <ns3:TrackPointExtension/>
        </extensions>
      </trkpt>
      <trkpt lat="32.00255197472870349884033203125" lon="118.74838250689208507537841796875">
        <ele>9.19999980926513671875</ele>
        <time>2024-04-07T11:59:55.000Z</time>
        <extensions>
          <ns3:TrackPointExtension/>
        </extensions>
      </trkpt>
      <trkpt lat="32.0025939680635929107666015625" lon="118.74839776195585727691650390625">
        <ele>9.19999980926513671875</ele>
        <time>2024-04-07T11:59:56.000Z</time>
        <extensions>
          <ns3:TrackPointExtension>
            <ns3:hr>139</ns3:hr>
          </ns3:TrackPointExtension>
        </extensions>
      </trkpt>
      <trkpt lat="32.002639733254909515380859375" lon="118.74841301701962947845458984375">
        <ele>9</ele>
        <time>2024-04-07T11:59:57.000Z</time>
        <extensions>
          <ns3:TrackPointExtension/>
        </extensions>
      </trkpt>
      <trkpt lat="32.00269312597811222076416015625" lon="118.74842827208340167999267578125">
        <ele>9.3999996185302734375</ele>
        <time>2024-04-07T11:59:58.000Z</time>
        <extensions>
          <ns3:TrackPointExtension/>
        </extensions>
      </trkpt>
      <trkpt lat="32.00275414623320102691650390625" lon="118.7484511546790599822998046875">
        <ele>9.80000019073486328125</ele>
        <time>2024-04-07T11:59:59.000Z</time>
        <extensions>
          <ns3:TrackPointExtension/>
        </extensions>
      </trkpt>
      <trkpt lat="32.0028266496956348419189453125" lon="118.74847412109375">
        <ele>10.19999980926513671875</ele>
        <time>2024-04-07T12:00:00.000Z</time>
        <extensions>
          <ns3:TrackPointExtension/>
        </extensions>
      </trkpt>
      <trkpt lat="32.00291440822184085845947265625" lon="118.748504631221294403076171875">
        <ele>10.80000019073486328125</ele>
        <time>2024-04-07T12:00:03.000Z</time>
        <extensions>
          <ns3:TrackPointExtension/>
        </extensions>
      </trkpt>
      <trkpt lat="32.00300979427993297576904296875" lon="118.74853514134883880615234375">
        <ele>11</ele>
        <time>2024-04-07T12:00:04.000Z</time>
        <extensions>
          <ns3:TrackPointExtension/>
        </extensions>
      </trkpt>
      <trkpt lat="32.00310132466256618499755859375" lon="118.748565651476383209228515625">
        <ele>11.19999980926513671875</ele>
        <time>2024-04-07T12:00:05.000Z</time>
        <extensions>
          <ns3:TrackPointExtension/>
        </extensions>
      </trkpt>
      <trkpt lat="32.00318145565688610076904296875" lon="118.74858853407204151153564453125">
        <ele>11.6000003814697265625</ele>
        <time>2024-04-07T12:00:06.000Z</time>
        <extensions>
          <ns3:TrackPointExtension>
            <ns3:hr>125</ns3:hr>
          </ns3:TrackPointExtension>
        </extensions>
      </trkpt>
      <trkpt lat="32.0032195933163166046142578125" lon="118.7485961616039276123046875">
        <ele>11.6000003814697265625</ele>
        <time>2024-04-07T12:00:07.000Z</time>
        <extensions>
          <ns3:TrackPointExtension/>
        </extensions>
      </trkpt>
      <trkpt lat="32.00324247591197490692138671875" lon="118.7485961616039276123046875">
        <ele>11.6000003814697265625</ele>
        <time>2024-04-07T12:00:08.000Z</time>
        <extensions>
          <ns3:TrackPointExtension/>
        </extensions>
      </trkpt>
    </trkseg>
  </trk>
</gpx>
