<gpx xmlns:ns3="http://www.garmin.com/xmlschemas/TrackPointExtension/v1" xmlns="http://www.topografix.com/GPX/1/1" xmlns:xsi="http://www.w3.org/2001/XMLSchema-instance" xmlns:ns2="http://www.garmin.com/xmlschemas/GpxExtensions/v3" creator="Garmin Connect" version="1.1" xsi:schemaLocation="http://www.topografix.com/GPX/1/1 http://www.topografix.com/GPX/11.xsd">
  <extensions>
<distance>378.44</distance>
<average_hr>0.0</average_hr>
<average_speed>1.0969163550938281</average_speed>
<start_time>2024-05-17T01:06:16+00:00</start_time>
<end_time>2024-05-17T01:12:01+00:00</end_time>
<moving_time>126.0</moving_time>
<elapsed_time>345.0</elapsed_time>
</extensions>
<metadata>
    <link href="connect.garmin.com">
      <text>Garmin Connect</text>
    </link>
    <time>2024-05-17T01:06:16.000Z</time>
  </metadata>
  <trk>
    <name>南京市 其他</name>
    <type>other</type>
    <trkseg>
      <trkpt lat="31.88924632966518402099609375" lon="118.82390513084828853607177734375">
        <ele>5.80000019073486328125</ele>
        <time>2024-05-17T01:06:16.000Z</time>
        <extensions>
          <ns3:TrackPointExtension/>
        </extensions>
      </trkpt>
      <trkpt lat="31.8892495147883892059326171875" lon="118.8238738663494586944580078125">
        <ele>5.599999904632568359375</ele>
        <time>2024-05-17T01:06:17.000Z</time>
        <extensions>
          <ns3:TrackPointExtension/>
        </extensions>
      </trkpt>
      <trkpt lat="31.8892525322735309600830078125" lon="118.82384008727967739105224609375">
        <ele>5.599999904632568359375</ele>
        <time>2024-05-17T01:06:18.000Z</time>
        <extensions>
          <ns3:TrackPointExtension/>
        </extensions>
      </trkpt>
      <trkpt lat="31.88925546593964099884033203125" lon="118.823802955448627471923828125">
        <ele>5.400000095367431640625</ele>
        <time>2024-05-17T01:06:19.000Z</time>
        <extensions>
          <ns3:TrackPointExtension/>
        </extensions>
      </trkpt>
      <trkpt lat="31.88926049508154392242431640625" lon="118.8237635605037212371826171875">
        <ele>5.19999980926513671875</ele>
        <time>2024-05-17T01:06:20.000Z</time>
        <extensions>
          <ns3:TrackPointExtension/>
        </extensions>
      </trkpt>
      <trkpt lat="31.88926703296601772308349609375" lon="118.823723159730434417724609375">
        <ele>5</ele>
        <time>2024-05-17T01:06:21.000Z</time>
        <extensions>
          <ns3:TrackPointExtension/>
        </extensions>
      </trkpt>
      <trkpt lat="31.88927591778337955474853515625" lon="118.8236834295094013214111328125">
        <ele>5</ele>
        <time>2024-05-17T01:06:22.000Z</time>
        <extensions>
          <ns3:TrackPointExtension/>
        </extensions>
      </trkpt>
      <trkpt lat="31.889285556972026824951171875" lon="118.8236462138593196868896484375">
        <ele>4.80000019073486328125</ele>
        <time>2024-05-17T01:06:23.000Z</time>
        <extensions>
          <ns3:TrackPointExtension/>
        </extensions>
      </trkpt>
      <trkpt lat="31.8892971239984035491943359375" lon="118.8236076571047306060791015625">
        <ele>4.599999904632568359375</ele>
        <time>2024-05-17T01:06:24.000Z</time>
        <extensions>
          <ns3:TrackPointExtension/>
        </extensions>
      </trkpt>
      <trkpt lat="31.88930936157703399658203125" lon="118.82357253693044185638427734375">
        <ele>4.599999904632568359375</ele>
        <time>2024-05-17T01:06:25.000Z</time>
        <extensions>
          <ns3:TrackPointExtension/>
        </extensions>
      </trkpt>
      <trkpt lat="31.88932453282177448272705078125" lon="118.8235343992710113525390625">
        <ele>4.400000095367431640625</ele>
        <time>2024-05-17T01:06:26.000Z</time>
        <extensions>
          <ns3:TrackPointExtension/>
        </extensions>
      </trkpt>
      <trkpt lat="31.88934196718037128448486328125" lon="118.8234993629157543182373046875">
        <ele>4.19999980926513671875</ele>
        <time>2024-05-17T01:06:27.000Z</time>
        <extensions>
          <ns3:TrackPointExtension/>
        </extensions>
      </trkpt>
      <trkpt lat="31.88936292193830013275146484375" lon="118.82346424274146556854248046875">
        <ele>4.400000095367431640625</ele>
        <time>2024-05-17T01:06:28.000Z</time>
        <extensions>
          <ns3:TrackPointExtension/>
        </extensions>
      </trkpt>
      <trkpt lat="31.88938689418137073516845703125" lon="118.823432810604572296142578125">
        <ele>4.400000095367431640625</ele>
        <time>2024-05-17T01:06:29.000Z</time>
        <extensions>
          <ns3:TrackPointExtension/>
        </extensions>
      </trkpt>
      <trkpt lat="31.88941002823412418365478515625" lon="118.82340003736317157745361328125">
        <ele>4.599999904632568359375</ele>
        <time>2024-05-17T01:06:30.000Z</time>
        <extensions>
          <ns3:TrackPointExtension/>
        </extensions>
      </trkpt>
      <trkpt lat="31.8894295580685138702392578125" lon="118.82336785085499286651611328125">
        <ele>4.80000019073486328125</ele>
        <time>2024-05-17T01:06:31.000Z</time>
        <extensions>
          <ns3:TrackPointExtension/>
        </extensions>
      </trkpt>
      <trkpt lat="31.88944422639906406402587890625" lon="118.82333524525165557861328125">
        <ele>5</ele>
        <time>2024-05-17T01:06:32.000Z</time>
        <extensions>
          <ns3:TrackPointExtension/>
        </extensions>
      </trkpt>
      <trkpt lat="31.889457218348979949951171875" lon="118.82330582477152347564697265625">
        <ele>5</ele>
        <time>2024-05-17T01:06:33.000Z</time>
        <extensions>
          <ns3:TrackPointExtension/>
        </extensions>
      </trkpt>
      <trkpt lat="31.889471299946308135986328125" lon="118.82327556610107421875">
        <ele>5.19999980926513671875</ele>
        <time>2024-05-17T01:06:34.000Z</time>
        <extensions>
          <ns3:TrackPointExtension/>
        </extensions>
      </trkpt>
      <trkpt lat="31.88948412425816059112548828125" lon="118.823246061801910400390625">
        <ele>5.400000095367431640625</ele>
        <time>2024-05-17T01:06:35.000Z</time>
        <extensions>
          <ns3:TrackPointExtension/>
        </extensions>
      </trkpt>
      <trkpt lat="31.88949636183679103851318359375" lon="118.82321320474147796630859375">
        <ele>5.599999904632568359375</ele>
        <time>2024-05-17T01:06:36.000Z</time>
        <extensions>
          <ns3:TrackPointExtension/>
        </extensions>
      </trkpt>
      <trkpt lat="31.8895049951970577239990234375" lon="118.82318043150007724761962890625">
        <ele>5.80000019073486328125</ele>
        <time>2024-05-17T01:06:37.000Z</time>
        <extensions>
          <ns3:TrackPointExtension/>
        </extensions>
      </trkpt>
      <trkpt lat="31.8895111978054046630859375" lon="118.8231456466019153594970703125">
        <ele>5.80000019073486328125</ele>
        <time>2024-05-17T01:06:38.000Z</time>
        <extensions>
          <ns3:TrackPointExtension/>
        </extensions>
      </trkpt>
      <trkpt lat="31.88951396383345127105712890625" lon="118.82311052642762660980224609375">
        <ele>5.80000019073486328125</ele>
        <time>2024-05-17T01:06:39.000Z</time>
        <extensions>
          <ns3:TrackPointExtension/>
        </extensions>
      </trkpt>
      <trkpt lat="31.889514885842800140380859375" lon="118.82307372987270355224609375">
        <ele>5.80000019073486328125</ele>
        <time>2024-05-17T01:06:40.000Z</time>
        <extensions>
          <ns3:TrackPointExtension/>
        </extensions>
      </trkpt>
      <trkpt lat="31.88951413147151470184326171875" lon="118.823036849498748779296875">
        <ele>5.80000019073486328125</ele>
        <time>2024-05-17T01:06:41.000Z</time>
        <extensions>
          <ns3:TrackPointExtension/>
        </extensions>
      </trkpt>
      <trkpt lat="31.88951195217669010162353515625" lon="118.8229974545538425445556640625">
        <ele>5.80000019073486328125</ele>
        <time>2024-05-17T01:06:42.000Z</time>
        <extensions>
          <ns3:TrackPointExtension/>
        </extensions>
      </trkpt>
      <trkpt lat="31.88950876705348491668701171875" lon="118.8229588977992534637451171875">
        <ele>5.80000019073486328125</ele>
        <time>2024-05-17T01:06:43.000Z</time>
        <extensions>
          <ns3:TrackPointExtension/>
        </extensions>
      </trkpt>
      <trkpt lat="31.88950524665415287017822265625" lon="118.8229196704924106597900390625">
        <ele>5.80000019073486328125</ele>
        <time>2024-05-17T01:06:44.000Z</time>
        <extensions>
          <ns3:TrackPointExtension/>
        </extensions>
      </trkpt>
      <trkpt lat="31.88950122334063053131103515625" lon="118.82288195192813873291015625">
        <ele>5.80000019073486328125</ele>
        <time>2024-05-17T01:06:45.000Z</time>
        <extensions>
          <ns3:TrackPointExtension/>
        </extensions>
      </trkpt>
      <trkpt lat="31.889496780931949615478515625" lon="118.82284264080226421356201171875">
        <ele>5.80000019073486328125</ele>
        <time>2024-05-17T01:06:46.000Z</time>
        <extensions>
          <ns3:TrackPointExtension/>
        </extensions>
      </trkpt>
      <trkpt lat="31.8894924223423004150390625" lon="118.82280508987605571746826171875">
        <ele>6</ele>
        <time>2024-05-17T01:06:47.000Z</time>
        <extensions>
          <ns3:TrackPointExtension/>
        </extensions>
      </trkpt>
      <trkpt lat="31.889488063752651214599609375" lon="118.8227698020637035369873046875">
        <ele>6.19999980926513671875</ele>
        <time>2024-05-17T01:06:48.000Z</time>
        <extensions>
          <ns3:TrackPointExtension/>
        </extensions>
      </trkpt>
      <trkpt lat="31.889484040439128875732421875" lon="118.8227379508316516876220703125">
        <ele>6.19999980926513671875</ele>
        <time>2024-05-17T01:06:49.000Z</time>
        <extensions>
          <ns3:TrackPointExtension/>
        </extensions>
      </trkpt>
      <trkpt lat="31.88948010094463825225830078125" lon="118.82270350120961666107177734375">
        <ele>6.400000095367431640625</ele>
        <time>2024-05-17T01:06:50.000Z</time>
        <extensions>
          <ns3:TrackPointExtension/>
        </extensions>
      </trkpt>
      <trkpt lat="31.8894781731069087982177734375" lon="118.8226707279682159423828125">
        <ele>6.400000095367431640625</ele>
        <time>2024-05-17T01:06:51.000Z</time>
        <extensions>
          <ns3:TrackPointExtension/>
        </extensions>
      </trkpt>
      <trkpt lat="31.889478005468845367431640625" lon="118.82263493724167346954345703125">
        <ele>6.599999904632568359375</ele>
        <time>2024-05-17T01:06:52.000Z</time>
        <extensions>
          <ns3:TrackPointExtension/>
        </extensions>
      </trkpt>
      <trkpt lat="31.889479346573352813720703125" lon="118.82260140962898731231689453125">
        <ele>6.599999904632568359375</ele>
        <time>2024-05-17T01:06:53.000Z</time>
        <extensions>
          <ns3:TrackPointExtension/>
        </extensions>
      </trkpt>
      <trkpt lat="31.8894808553159236907958984375" lon="118.82256603799760341644287109375">
        <ele>6.80000019073486328125</ele>
        <time>2024-05-17T01:06:54.000Z</time>
        <extensions>
          <ns3:TrackPointExtension/>
        </extensions>
      </trkpt>
      <trkpt lat="31.88948194496333599090576171875" lon="118.8225327618420124053955078125">
        <ele>6.80000019073486328125</ele>
        <time>2024-05-17T01:06:55.000Z</time>
        <extensions>
          <ns3:TrackPointExtension/>
        </extensions>
      </trkpt>
      <trkpt lat="31.88948261551558971405029296875" lon="118.822500072419643402099609375">
        <ele>6.599999904632568359375</ele>
        <time>2024-05-17T01:06:56.000Z</time>
        <extensions>
          <ns3:TrackPointExtension/>
        </extensions>
      </trkpt>
      <trkpt lat="31.889482699334621429443359375" lon="118.8224677182734012603759765625">
        <ele>6.599999904632568359375</ele>
        <time>2024-05-17T01:06:57.000Z</time>
        <extensions>
          <ns3:TrackPointExtension/>
        </extensions>
      </trkpt>
      <trkpt lat="31.889482028782367706298828125" lon="118.82243511267006397247314453125">
        <ele>6.400000095367431640625</ele>
        <time>2024-05-17T01:06:58.000Z</time>
        <extensions>
          <ns3:TrackPointExtension/>
        </extensions>
      </trkpt>
      <trkpt lat="31.88948043622076511383056640625" lon="118.8223989866673946380615234375">
        <ele>6.400000095367431640625</ele>
        <time>2024-05-17T01:06:59.000Z</time>
        <extensions>
          <ns3:TrackPointExtension/>
        </extensions>
      </trkpt>
      <trkpt lat="31.8894781731069087982177734375" lon="118.82236319594085216522216796875">
        <ele>6.19999980926513671875</ele>
        <time>2024-05-17T01:07:00.000Z</time>
        <extensions>
          <ns3:TrackPointExtension/>
        </extensions>
      </trkpt>
      <trkpt lat="31.88947507180273532867431640625" lon="118.82232849486172199249267578125">
        <ele>6</ele>
        <time>2024-05-17T01:07:01.000Z</time>
        <extensions>
          <ns3:TrackPointExtension/>
        </extensions>
      </trkpt>
      <trkpt lat="31.88947138376533985137939453125" lon="118.82229362614452838897705078125">
        <ele>6</ele>
        <time>2024-05-17T01:07:02.000Z</time>
        <extensions>
          <ns3:TrackPointExtension/>
        </extensions>
      </trkpt>
      <trkpt lat="31.8894677795469760894775390625" lon="118.82225942797958850860595703125">
        <ele>6</ele>
        <time>2024-05-17T01:07:03.000Z</time>
        <extensions>
          <ns3:TrackPointExtension/>
        </extensions>
      </trkpt>
      <trkpt lat="31.88946434296667575836181640625" lon="118.822221793234348297119140625">
        <ele>6</ele>
        <time>2024-05-17T01:07:04.000Z</time>
        <extensions>
          <ns3:TrackPointExtension/>
        </extensions>
      </trkpt>
      <trkpt lat="31.88946182839572429656982421875" lon="118.82218717597424983978271484375">
        <ele>5.80000019073486328125</ele>
        <time>2024-05-17T01:07:05.000Z</time>
        <extensions>
          <ns3:TrackPointExtension/>
        </extensions>
      </trkpt>
      <trkpt lat="31.88945964910089969635009765625" lon="118.82215197198092937469482421875">
        <ele>5.599999904632568359375</ele>
        <time>2024-05-17T01:07:06.000Z</time>
        <extensions>
          <ns3:TrackPointExtension/>
        </extensions>
      </trkpt>
      <trkpt lat="31.8894580565392971038818359375" lon="118.82211928255856037139892578125">
        <ele>5.19999980926513671875</ele>
        <time>2024-05-17T01:07:07.000Z</time>
        <extensions>
          <ns3:TrackPointExtension/>
        </extensions>
      </trkpt>
      <trkpt lat="31.88945646397769451141357421875" lon="118.822085671126842498779296875">
        <ele>5</ele>
        <time>2024-05-17T01:07:08.000Z</time>
        <extensions>
          <ns3:TrackPointExtension/>
        </extensions>
      </trkpt>
      <trkpt lat="31.8894548714160919189453125" lon="118.82205122150480747222900390625">
        <ele>4.80000019073486328125</ele>
        <time>2024-05-17T01:07:09.000Z</time>
        <extensions>
          <ns3:TrackPointExtension/>
        </extensions>
      </trkpt>
      <trkpt lat="31.889453195035457611083984375" lon="118.8220162689685821533203125">
        <ele>4.80000019073486328125</ele>
        <time>2024-05-17T01:07:10.000Z</time>
        <extensions>
          <ns3:TrackPointExtension/>
        </extensions>
      </trkpt>
      <trkpt lat="31.88945160247385501861572265625" lon="118.82198031060397624969482421875">
        <ele>4.80000019073486328125</ele>
        <time>2024-05-17T01:07:11.000Z</time>
        <extensions>
          <ns3:TrackPointExtension/>
        </extensions>
      </trkpt>
      <trkpt lat="31.88945042900741100311279296875" lon="118.82194309495389461517333984375">
        <ele>4.80000019073486328125</ele>
        <time>2024-05-17T01:07:12.000Z</time>
        <extensions>
          <ns3:TrackPointExtension/>
        </extensions>
      </trkpt>
      <trkpt lat="31.88945017755031585693359375" lon="118.8219037838280200958251953125">
        <ele>4.80000019073486328125</ele>
        <time>2024-05-17T01:07:14.000Z</time>
        <extensions>
          <ns3:TrackPointExtension/>
        </extensions>
      </trkpt>
      <trkpt lat="31.889451853930950164794921875" lon="118.82186497561633586883544921875">
        <ele>4.80000019073486328125</ele>
        <time>2024-05-17T01:07:16.000Z</time>
        <extensions>
          <ns3:TrackPointExtension/>
        </extensions>
      </trkpt>
      <trkpt lat="31.889455206692218780517578125" lon="118.82183211855590343475341796875">
        <ele>4.80000019073486328125</ele>
        <time>2024-05-17T01:07:17.000Z</time>
        <extensions>
          <ns3:TrackPointExtension/>
        </extensions>
      </trkpt>
      <trkpt lat="31.8894604034721851348876953125" lon="118.82180646993219852447509765625">
        <ele>4.599999904632568359375</ele>
        <time>2024-05-17T01:07:18.000Z</time>
        <extensions>
          <ns3:TrackPointExtension/>
        </extensions>
      </trkpt>
      <trkpt lat="31.8894661031663417816162109375" lon="118.82178668864071369171142578125">
        <ele>4.599999904632568359375</ele>
        <time>2024-05-17T01:07:19.000Z</time>
        <extensions>
          <ns3:TrackPointExtension/>
        </extensions>
      </trkpt>
      <trkpt lat="31.88947171904146671295166015625" lon="118.8217666558921337127685546875">
        <ele>4.599999904632568359375</ele>
        <time>2024-05-17T01:07:20.000Z</time>
        <extensions>
          <ns3:TrackPointExtension/>
        </extensions>
      </trkpt>
      <trkpt lat="31.889475993812084197998046875" lon="118.82174544967710971832275390625">
        <ele>4.599999904632568359375</ele>
        <time>2024-05-17T01:07:21.000Z</time>
        <extensions>
          <ns3:TrackPointExtension/>
        </extensions>
      </trkpt>
      <trkpt lat="31.8894790112972259521484375" lon="118.82172189652919769287109375">
        <ele>4.599999904632568359375</ele>
        <time>2024-05-17T01:07:22.000Z</time>
        <extensions>
          <ns3:TrackPointExtension/>
        </extensions>
      </trkpt>
      <trkpt lat="31.8894808553159236907958984375" lon="118.8216952420771121978759765625">
        <ele>4.599999904632568359375</ele>
        <time>2024-05-17T01:07:23.000Z</time>
        <extensions>
          <ns3:TrackPointExtension/>
        </extensions>
      </trkpt>
      <trkpt lat="31.8894821964204311370849609375" lon="118.8216647319495677947998046875">
        <ele>4.599999904632568359375</ele>
        <time>2024-05-17T01:07:24.000Z</time>
        <extensions>
          <ns3:TrackPointExtension/>
        </extensions>
      </trkpt>
      <trkpt lat="31.88948295079171657562255859375" lon="118.82163070142269134521484375">
        <ele>4.80000019073486328125</ele>
        <time>2024-05-17T01:07:25.000Z</time>
        <extensions>
          <ns3:TrackPointExtension/>
        </extensions>
      </trkpt>
      <trkpt lat="31.88948295079171657562255859375" lon="118.821592815220355987548828125">
        <ele>4.80000019073486328125</ele>
        <time>2024-05-17T01:07:27.000Z</time>
        <extensions>
          <ns3:TrackPointExtension/>
        </extensions>
      </trkpt>
      <trkpt lat="31.889482028782367706298828125" lon="118.82155484519898891448974609375">
        <ele>5</ele>
        <time>2024-05-17T01:07:28.000Z</time>
        <extensions>
          <ns3:TrackPointExtension/>
        </extensions>
      </trkpt>
      <trkpt lat="31.88948102295398712158203125" lon="118.82151997648179531097412109375">
        <ele>5.19999980926513671875</ele>
        <time>2024-05-17T01:07:29.000Z</time>
        <extensions>
          <ns3:TrackPointExtension/>
        </extensions>
      </trkpt>
      <trkpt lat="31.88948127441108226776123046875" lon="118.82149097509682178497314453125">
        <ele>5.19999980926513671875</ele>
        <time>2024-05-17T01:07:30.000Z</time>
        <extensions>
          <ns3:TrackPointExtension/>
        </extensions>
      </trkpt>
      <trkpt lat="31.88948228023946285247802734375" lon="118.82146666757762432098388671875">
        <ele>5.19999980926513671875</ele>
        <time>2024-05-17T01:07:31.000Z</time>
        <extensions>
          <ns3:TrackPointExtension/>
        </extensions>
      </trkpt>
      <trkpt lat="31.88948496244847774505615234375" lon="118.82144353352487087249755859375">
        <ele>5.19999980926513671875</ele>
        <time>2024-05-17T01:07:32.000Z</time>
        <extensions>
          <ns3:TrackPointExtension/>
        </extensions>
      </trkpt>
      <trkpt lat="31.889484040439128875732421875" lon="118.82142408750951290130615234375">
        <ele>5.19999980926513671875</ele>
        <time>2024-05-17T01:07:33.000Z</time>
        <extensions>
          <ns3:TrackPointExtension/>
        </extensions>
      </trkpt>
      <trkpt lat="31.88962854444980621337890625" lon="118.82186011411249637603759765625">
        <ele>4</ele>
        <time>2024-05-17T01:11:12.000Z</time>
        <extensions>
          <ns3:TrackPointExtension/>
        </extensions>
      </trkpt>
      <trkpt lat="31.88959325663745403289794921875" lon="118.8218363933265209197998046875">
        <ele>4</ele>
        <time>2024-05-17T01:11:13.000Z</time>
        <extensions>
          <ns3:TrackPointExtension/>
        </extensions>
      </trkpt>
      <trkpt lat="31.88954397104680538177490234375" lon="118.82184150628745555877685546875">
        <ele>4</ele>
        <time>2024-05-17T01:11:15.000Z</time>
        <extensions>
          <ns3:TrackPointExtension/>
        </extensions>
      </trkpt>
      <trkpt lat="31.8895194120705127716064453125" lon="118.82185458205640316009521484375">
        <ele>4.19999980926513671875</ele>
        <time>2024-05-17T01:11:16.000Z</time>
        <extensions>
          <ns3:TrackPointExtension/>
        </extensions>
      </trkpt>
      <trkpt lat="31.88948831520974636077880859375" lon="118.821863718330860137939453125">
        <ele>4.400000095367431640625</ele>
        <time>2024-05-17T01:11:17.000Z</time>
        <extensions>
          <ns3:TrackPointExtension/>
        </extensions>
      </trkpt>
      <trkpt lat="31.88946568407118320465087890625" lon="118.8218719325959682464599609375">
        <ele>4.599999904632568359375</ele>
        <time>2024-05-17T01:11:18.000Z</time>
        <extensions>
          <ns3:TrackPointExtension/>
        </extensions>
      </trkpt>
      <trkpt lat="31.88945059664547443389892578125" lon="118.8218794763088226318359375">
        <ele>4.80000019073486328125</ele>
        <time>2024-05-17T01:11:19.000Z</time>
        <extensions>
          <ns3:TrackPointExtension/>
        </extensions>
      </trkpt>
      <trkpt lat="31.88944171182811260223388671875" lon="118.8218893669545650482177734375">
        <ele>4.80000019073486328125</ele>
        <time>2024-05-17T01:11:20.000Z</time>
        <extensions>
          <ns3:TrackPointExtension/>
        </extensions>
      </trkpt>
      <trkpt lat="31.8894362635910511016845703125" lon="118.82190428674221038818359375">
        <ele>4.80000019073486328125</ele>
        <time>2024-05-17T01:11:22.000Z</time>
        <extensions>
          <ns3:TrackPointExtension/>
        </extensions>
      </trkpt>
      <trkpt lat="31.88943207263946533203125" lon="118.8219205476343631744384765625">
        <ele>4.80000019073486328125</ele>
        <time>2024-05-17T01:11:23.000Z</time>
        <extensions>
          <ns3:TrackPointExtension/>
        </extensions>
      </trkpt>
      <trkpt lat="31.88942871987819671630859375" lon="118.82193588651716709136962890625">
        <ele>4.80000019073486328125</ele>
        <time>2024-05-17T01:11:24.000Z</time>
        <extensions>
          <ns3:TrackPointExtension/>
        </extensions>
      </trkpt>
      <trkpt lat="31.88942578621208667755126953125" lon="118.82195030339062213897705078125">
        <ele>5</ele>
        <time>2024-05-17T01:11:25.000Z</time>
        <extensions>
          <ns3:TrackPointExtension/>
        </extensions>
      </trkpt>
      <trkpt lat="31.88942394219338893890380859375" lon="118.82196488790214061737060546875">
        <ele>5</ele>
        <time>2024-05-17T01:11:26.000Z</time>
        <extensions>
          <ns3:TrackPointExtension/>
        </extensions>
      </trkpt>
      <trkpt lat="31.88942310400307178497314453125" lon="118.82198500446975231170654296875">
        <ele>5</ele>
        <time>2024-05-17T01:11:27.000Z</time>
        <extensions>
          <ns3:TrackPointExtension/>
        </extensions>
      </trkpt>
      <trkpt lat="31.8894238583743572235107421875" lon="118.82200411520898342132568359375">
        <ele>5</ele>
        <time>2024-05-17T01:11:28.000Z</time>
        <extensions>
          <ns3:TrackPointExtension/>
        </extensions>
      </trkpt>
      <trkpt lat="31.88942612148821353912353515625" lon="118.8220278359949588775634765625">
        <ele>5</ele>
        <time>2024-05-17T01:11:30.000Z</time>
        <extensions>
          <ns3:TrackPointExtension/>
        </extensions>
      </trkpt>
      <trkpt lat="31.8894278816878795623779296875" lon="118.8220482878386974334716796875">
        <ele>5</ele>
        <time>2024-05-17T01:11:31.000Z</time>
        <extensions>
          <ns3:TrackPointExtension/>
        </extensions>
      </trkpt>
      <trkpt lat="31.889429725706577301025390625" lon="118.82207066752016544342041015625">
        <ele>5.19999980926513671875</ele>
        <time>2024-05-17T01:11:32.000Z</time>
        <extensions>
          <ns3:TrackPointExtension/>
        </extensions>
      </trkpt>
      <trkpt lat="31.88943081535398960113525390625" lon="118.822090364992618560791015625">
        <ele>5.19999980926513671875</ele>
        <time>2024-05-17T01:11:33.000Z</time>
        <extensions>
          <ns3:TrackPointExtension/>
        </extensions>
      </trkpt>
      <trkpt lat="31.88943207263946533203125" lon="118.82211215794086456298828125">
        <ele>5.400000095367431640625</ele>
        <time>2024-05-17T01:11:34.000Z</time>
        <extensions>
          <ns3:TrackPointExtension/>
        </extensions>
      </trkpt>
      <trkpt lat="31.889433078467845916748046875" lon="118.822135627269744873046875">
        <ele>5.599999904632568359375</ele>
        <time>2024-05-17T01:11:35.000Z</time>
        <extensions>
          <ns3:TrackPointExtension/>
        </extensions>
      </trkpt>
      <trkpt lat="31.8894335813820362091064453125" lon="118.82216052152216434478759765625">
        <ele>5.80000019073486328125</ele>
        <time>2024-05-17T01:11:37.000Z</time>
        <extensions>
          <ns3:TrackPointExtension/>
        </extensions>
      </trkpt>
      <trkpt lat="31.88943408429622650146484375" lon="118.82218323647975921630859375">
        <ele>6</ele>
        <time>2024-05-17T01:11:38.000Z</time>
        <extensions>
          <ns3:TrackPointExtension/>
        </extensions>
      </trkpt>
      <trkpt lat="31.8894352577626705169677734375" lon="118.8222038559615612030029296875">
        <ele>6</ele>
        <time>2024-05-17T01:11:39.000Z</time>
        <extensions>
          <ns3:TrackPointExtension/>
        </extensions>
      </trkpt>
      <trkpt lat="31.88943701796233654022216796875" lon="118.82222204469144344329833984375">
        <ele>6</ele>
        <time>2024-05-17T01:11:40.000Z</time>
        <extensions>
          <ns3:TrackPointExtension/>
        </extensions>
      </trkpt>
      <trkpt lat="31.88944104127585887908935546875" lon="118.82224014960229396820068359375">
        <ele>6</ele>
        <time>2024-05-17T01:11:41.000Z</time>
        <extensions>
          <ns3:TrackPointExtension/>
        </extensions>
      </trkpt>
      <trkpt lat="31.8894436396658420562744140625" lon="118.82225775159895420074462890625">
        <ele>6</ele>
        <time>2024-05-17T01:11:42.000Z</time>
        <extensions>
          <ns3:TrackPointExtension/>
        </extensions>
      </trkpt>
      <trkpt lat="31.88944481313228607177734375" lon="118.82227300666272640228271484375">
        <ele>6</ele>
        <time>2024-05-17T01:11:43.000Z</time>
        <extensions>
          <ns3:TrackPointExtension/>
        </extensions>
      </trkpt>
      <trkpt lat="31.8894419632852077484130859375" lon="118.82228809408843517303466796875">
        <ele>6</ele>
        <time>2024-05-17T01:11:44.000Z</time>
        <extensions>
          <ns3:TrackPointExtension/>
        </extensions>
      </trkpt>
      <trkpt lat="31.8894387781620025634765625" lon="118.82230351679027080535888671875">
        <ele>6</ele>
        <time>2024-05-17T01:11:45.000Z</time>
        <extensions>
          <ns3:TrackPointExtension/>
        </extensions>
      </trkpt>
      <trkpt lat="31.8894359283149242401123046875" lon="118.8223212026059627532958984375">
        <ele>6</ele>
        <time>2024-05-17T01:11:46.000Z</time>
        <extensions>
          <ns3:TrackPointExtension/>
        </extensions>
      </trkpt>
      <trkpt lat="31.88943433575332164764404296875" lon="118.8223396427929401397705078125">
        <ele>6.19999980926513671875</ele>
        <time>2024-05-17T01:11:47.000Z</time>
        <extensions>
          <ns3:TrackPointExtension/>
        </extensions>
      </trkpt>
      <trkpt lat="31.88943408429622650146484375" lon="118.8223587535321712493896484375">
        <ele>6.19999980926513671875</ele>
        <time>2024-05-17T01:11:48.000Z</time>
        <extensions>
          <ns3:TrackPointExtension/>
        </extensions>
      </trkpt>
      <trkpt lat="31.88943483866751194000244140625" lon="118.82237845100462436676025390625">
        <ele>6.19999980926513671875</ele>
        <time>2024-05-17T01:11:49.000Z</time>
        <extensions>
          <ns3:TrackPointExtension/>
        </extensions>
      </trkpt>
      <trkpt lat="31.88943617977201938629150390625" lon="118.822398819029331207275390625">
        <ele>6.400000095367431640625</ele>
        <time>2024-05-17T01:11:50.000Z</time>
        <extensions>
          <ns3:TrackPointExtension/>
        </extensions>
      </trkpt>
      <trkpt lat="31.88943768851459026336669921875" lon="118.8224194385111331939697265625">
        <ele>6.400000095367431640625</ele>
        <time>2024-05-17T01:11:51.000Z</time>
        <extensions>
          <ns3:TrackPointExtension/>
        </extensions>
      </trkpt>
      <trkpt lat="31.8894396163523197174072265625" lon="118.822440393269062042236328125">
        <ele>6.400000095367431640625</ele>
        <time>2024-05-17T01:11:52.000Z</time>
        <extensions>
          <ns3:TrackPointExtension/>
        </extensions>
      </trkpt>
      <trkpt lat="31.88944187946617603302001953125" lon="118.82246126420795917510986328125">
        <ele>6.599999904632568359375</ele>
        <time>2024-05-17T01:11:53.000Z</time>
        <extensions>
          <ns3:TrackPointExtension/>
        </extensions>
      </trkpt>
      <trkpt lat="31.88944439403712749481201171875" lon="118.822481967508792877197265625">
        <ele>6.599999904632568359375</ele>
        <time>2024-05-17T01:11:54.000Z</time>
        <extensions>
          <ns3:TrackPointExtension/>
        </extensions>
      </trkpt>
      <trkpt lat="31.88944674097001552581787109375" lon="118.822502084076404571533203125">
        <ele>6.599999904632568359375</ele>
        <time>2024-05-17T01:11:55.000Z</time>
        <extensions>
          <ns3:TrackPointExtension/>
        </extensions>
      </trkpt>
      <trkpt lat="31.8894483335316181182861328125" lon="118.82252094335854053497314453125">
        <ele>6.599999904632568359375</ele>
        <time>2024-05-17T01:11:56.000Z</time>
        <extensions>
          <ns3:TrackPointExtension/>
        </extensions>
      </trkpt>
      <trkpt lat="31.8894493393599987030029296875" lon="118.822540976107120513916015625">
        <ele>6.599999904632568359375</ele>
        <time>2024-05-17T01:11:57.000Z</time>
        <extensions>
          <ns3:TrackPointExtension/>
        </extensions>
      </trkpt>
      <trkpt lat="31.88944992609322071075439453125" lon="118.82256000302731990814208984375">
        <ele>6.599999904632568359375</ele>
        <time>2024-05-17T01:11:58.000Z</time>
        <extensions>
          <ns3:TrackPointExtension/>
        </extensions>
      </trkpt>
      <trkpt lat="31.88945076428353786468505859375" lon="118.82257928140461444854736328125">
        <ele>6.599999904632568359375</ele>
        <time>2024-05-17T01:11:59.000Z</time>
        <extensions>
          <ns3:TrackPointExtension/>
        </extensions>
      </trkpt>
      <trkpt lat="31.88945227302610874176025390625" lon="118.82259587757289409637451171875">
        <ele>6.599999904632568359375</ele>
        <time>2024-05-17T01:12:00.000Z</time>
        <extensions>
          <ns3:TrackPointExtension/>
        </extensions>
      </trkpt>
      <trkpt lat="31.889454536139965057373046875" lon="118.82261247374117374420166015625">
        <ele>6.599999904632568359375</ele>
        <time>2024-05-17T01:12:01.000Z</time>
        <extensions>
          <ns3:TrackPointExtension/>
        </extensions>
      </trkpt>
    </trkseg>
  </trk>
</gpx>
