<gpx xmlns:ns3="http://www.garmin.com/xmlschemas/TrackPointExtension/v1" xmlns="http://www.topografix.com/GPX/1/1" xmlns:xsi="http://www.w3.org/2001/XMLSchema-instance" xmlns:ns2="http://www.garmin.com/xmlschemas/GpxExtensions/v3" creator="Garmin Connect" version="1.1" xsi:schemaLocation="http://www.topografix.com/GPX/1/1 http://www.topografix.com/GPX/11.xsd">
  <extensions>
<distance>710.0</distance>
<average_hr>143.0</average_hr>
<average_speed>2.7203065134099615</average_speed>
<start_time>2024-05-06T10:02:34+00:00</start_time>
<end_time>2024-05-06T10:06:55+00:00</end_time>
<moving_time>257.0</moving_time>
<elapsed_time>294.0</elapsed_time>
</extensions>
<metadata>
    <link href="connect.garmin.com">
      <text>Garmin Connect</text>
    </link>
    <time>2024-05-06T10:02:34.000Z</time>
  </metadata>
  <trk>
    <name>南京市 跑步</name>
    <type>running</type>
    <trkseg>
      <trkpt lat="32.00249858200550079345703125" lon="118.7431029975414276123046875">
        <ele>7.400000095367431640625</ele>
        <time>2024-05-06T10:02:38.000Z</time>
        <extensions>
          <ns3:TrackPointExtension/>
        </extensions>
      </trkpt>
      <trkpt lat="32.00249858200550079345703125" lon="118.74314113520085811614990234375">
        <ele>7.599999904632568359375</ele>
        <time>2024-05-06T10:02:39.000Z</time>
        <extensions>
          <ns3:TrackPointExtension>
            <ns3:hr>107</ns3:hr>
            <ns3:cad>83</ns3:cad>
          </ns3:TrackPointExtension>
        </extensions>
      </trkpt>
      <trkpt lat="32.00249858200550079345703125" lon="118.74315639026463031768798828125">
        <ele>7.599999904632568359375</ele>
        <time>2024-05-06T10:02:40.000Z</time>
        <extensions>
          <ns3:TrackPointExtension/>
        </extensions>
      </trkpt>
      <trkpt lat="32.00249858200550079345703125" lon="118.7431792728602886199951171875">
        <ele>7.599999904632568359375</ele>
        <time>2024-05-06T10:02:41.000Z</time>
        <extensions>
          <ns3:TrackPointExtension/>
        </extensions>
      </trkpt>
      <trkpt lat="32.00249858200550079345703125" lon="118.7432097829878330230712890625">
        <ele>7.599999904632568359375</ele>
        <time>2024-05-06T10:02:42.000Z</time>
        <extensions>
          <ns3:TrackPointExtension/>
        </extensions>
      </trkpt>
      <trkpt lat="32.00249481014907360076904296875" lon="118.74323266558349132537841796875">
        <ele>7.599999904632568359375</ele>
        <time>2024-05-06T10:02:43.000Z</time>
        <extensions>
          <ns3:TrackPointExtension/>
        </extensions>
      </trkpt>
      <trkpt lat="32.0024871826171875" lon="118.74326317571103572845458984375">
        <ele>7.599999904632568359375</ele>
        <time>2024-05-06T10:02:44.000Z</time>
        <extensions>
          <ns3:TrackPointExtension>
            <ns3:hr>115</ns3:hr>
            <ns3:cad>85</ns3:cad>
          </ns3:TrackPointExtension>
        </extensions>
      </trkpt>
      <trkpt lat="32.0024833269417285919189453125" lon="118.74328605830669403076171875">
        <ele>7.599999904632568359375</ele>
        <time>2024-05-06T10:02:45.000Z</time>
        <extensions>
          <ns3:TrackPointExtension/>
        </extensions>
      </trkpt>
      <trkpt lat="32.00247569940984249114990234375" lon="118.74330894090235233306884765625">
        <ele>7.599999904632568359375</ele>
        <time>2024-05-06T10:02:46.000Z</time>
        <extensions>
          <ns3:TrackPointExtension/>
        </extensions>
      </trkpt>
      <trkpt lat="32.002468071877956390380859375" lon="118.74333190731704235076904296875">
        <ele>7.599999904632568359375</ele>
        <time>2024-05-06T10:02:47.000Z</time>
        <extensions>
          <ns3:TrackPointExtension/>
        </extensions>
      </trkpt>
      <trkpt lat="32.00246044434607028961181640625" lon="118.743354789912700653076171875">
        <ele>7.599999904632568359375</ele>
        <time>2024-05-06T10:02:48.000Z</time>
        <extensions>
          <ns3:TrackPointExtension/>
        </extensions>
      </trkpt>
      <trkpt lat="32.00245658867061138153076171875" lon="118.74337767250835895538330078125">
        <ele>7.599999904632568359375</ele>
        <time>2024-05-06T10:02:49.000Z</time>
        <extensions>
          <ns3:TrackPointExtension>
            <ns3:hr>116</ns3:hr>
            <ns3:cad>87</ns3:cad>
          </ns3:TrackPointExtension>
        </extensions>
      </trkpt>
      <trkpt lat="32.0024528168141841888427734375" lon="118.7434005551040172576904296875">
        <ele>7.599999904632568359375</ele>
        <time>2024-05-06T10:02:50.000Z</time>
        <extensions>
          <ns3:TrackPointExtension/>
        </extensions>
      </trkpt>
      <trkpt lat="32.00244518928229808807373046875" lon="118.74342343769967555999755859375">
        <ele>7.599999904632568359375</ele>
        <time>2024-05-06T10:02:51.000Z</time>
        <extensions>
          <ns3:TrackPointExtension/>
        </extensions>
      </trkpt>
      <trkpt lat="32.0024375617504119873046875" lon="118.7434463202953338623046875">
        <ele>7.80000019073486328125</ele>
        <time>2024-05-06T10:02:52.000Z</time>
        <extensions>
          <ns3:TrackPointExtension/>
        </extensions>
      </trkpt>
      <trkpt lat="32.0024223066866397857666015625" lon="118.74346920289099216461181640625">
        <ele>7.80000019073486328125</ele>
        <time>2024-05-06T10:02:53.000Z</time>
        <extensions>
          <ns3:TrackPointExtension/>
        </extensions>
      </trkpt>
      <trkpt lat="32.00241082347929477691650390625" lon="118.74349971301853656768798828125">
        <ele>7.599999904632568359375</ele>
        <time>2024-05-06T10:02:54.000Z</time>
        <extensions>
          <ns3:TrackPointExtension>
            <ns3:hr>122</ns3:hr>
            <ns3:cad>87</ns3:cad>
          </ns3:TrackPointExtension>
        </extensions>
      </trkpt>
      <trkpt lat="32.00239556841552257537841796875" lon="118.7435225956141948699951171875">
        <ele>7.599999904632568359375</ele>
        <time>2024-05-06T10:02:55.000Z</time>
        <extensions>
          <ns3:TrackPointExtension/>
        </extensions>
      </trkpt>
      <trkpt lat="32.00238031335175037384033203125" lon="118.7435531057417392730712890625">
        <ele>7.400000095367431640625</ele>
        <time>2024-05-06T10:02:56.000Z</time>
        <extensions>
          <ns3:TrackPointExtension/>
        </extensions>
      </trkpt>
      <trkpt lat="32.00236505828797817230224609375" lon="118.74357598833739757537841796875">
        <ele>7.400000095367431640625</ele>
        <time>2024-05-06T10:02:57.000Z</time>
        <extensions>
          <ns3:TrackPointExtension/>
        </extensions>
      </trkpt>
      <trkpt lat="32.00234980322420597076416015625" lon="118.743598870933055877685546875">
        <ele>7.19999980926513671875</ele>
        <time>2024-05-06T10:02:58.000Z</time>
        <extensions>
          <ns3:TrackPointExtension/>
        </extensions>
      </trkpt>
      <trkpt lat="32.0023307763040065765380859375" lon="118.74362175352871417999267578125">
        <ele>7</ele>
        <time>2024-05-06T10:02:59.000Z</time>
        <extensions>
          <ns3:TrackPointExtension>
            <ns3:hr>126</ns3:hr>
            <ns3:cad>86</ns3:cad>
          </ns3:TrackPointExtension>
        </extensions>
      </trkpt>
      <trkpt lat="32.002315521240234375" lon="118.7436446361243724822998046875">
        <ele>7</ele>
        <time>2024-05-06T10:03:00.000Z</time>
        <extensions>
          <ns3:TrackPointExtension/>
        </extensions>
      </trkpt>
      <trkpt lat="32.002296410501003265380859375" lon="118.7436676025390625">
        <ele>6.80000019073486328125</ele>
        <time>2024-05-06T10:03:01.000Z</time>
        <extensions>
          <ns3:TrackPointExtension/>
        </extensions>
      </trkpt>
      <trkpt lat="32.00228492729365825653076171875" lon="118.743698112666606903076171875">
        <ele>6.80000019073486328125</ele>
        <time>2024-05-06T10:03:02.000Z</time>
        <extensions>
          <ns3:TrackPointExtension/>
        </extensions>
      </trkpt>
      <trkpt lat="32.00226967222988605499267578125" lon="118.74372099526226520538330078125">
        <ele>6.599999904632568359375</ele>
        <time>2024-05-06T10:03:03.000Z</time>
        <extensions>
          <ns3:TrackPointExtension/>
        </extensions>
      </trkpt>
      <trkpt lat="32.00225827284157276153564453125" lon="118.7437438778579235076904296875">
        <ele>6.599999904632568359375</ele>
        <time>2024-05-06T10:03:04.000Z</time>
        <extensions>
          <ns3:TrackPointExtension>
            <ns3:hr>130</ns3:hr>
            <ns3:cad>86</ns3:cad>
          </ns3:TrackPointExtension>
        </extensions>
      </trkpt>
      <trkpt lat="32.002246789634227752685546875" lon="118.7437743879854679107666015625">
        <ele>6.599999904632568359375</ele>
        <time>2024-05-06T10:03:05.000Z</time>
        <extensions>
          <ns3:TrackPointExtension/>
        </extensions>
      </trkpt>
      <trkpt lat="32.002235390245914459228515625" lon="118.7438048981130123138427734375">
        <ele>6.599999904632568359375</ele>
        <time>2024-05-06T10:03:06.000Z</time>
        <extensions>
          <ns3:TrackPointExtension/>
        </extensions>
      </trkpt>
      <trkpt lat="32.00222390703856945037841796875" lon="118.7438354082405567169189453125">
        <ele>6.400000095367431640625</ele>
        <time>2024-05-06T10:03:07.000Z</time>
        <extensions>
          <ns3:TrackPointExtension/>
        </extensions>
      </trkpt>
      <trkpt lat="32.00220865197479724884033203125" lon="118.74387354589998722076416015625">
        <ele>6.19999980926513671875</ele>
        <time>2024-05-06T10:03:09.000Z</time>
        <extensions>
          <ns3:TrackPointExtension>
            <ns3:hr>134</ns3:hr>
            <ns3:cad>86</ns3:cad>
          </ns3:TrackPointExtension>
        </extensions>
      </trkpt>
      <trkpt lat="32.00219339691102504730224609375" lon="118.74390405602753162384033203125">
        <ele>6</ele>
        <time>2024-05-06T10:03:10.000Z</time>
        <extensions>
          <ns3:TrackPointExtension/>
        </extensions>
      </trkpt>
      <trkpt lat="32.00218199752271175384521484375" lon="118.74394982121884822845458984375">
        <ele>5.80000019073486328125</ele>
        <time>2024-05-06T10:03:11.000Z</time>
        <extensions>
          <ns3:TrackPointExtension/>
        </extensions>
      </trkpt>
      <trkpt lat="32.0021705143153667449951171875" lon="118.74398033134639263153076171875">
        <ele>5.599999904632568359375</ele>
        <time>2024-05-06T10:03:12.000Z</time>
        <extensions>
          <ns3:TrackPointExtension/>
        </extensions>
      </trkpt>
      <trkpt lat="32.00216674245893955230712890625" lon="118.74401092529296875">
        <ele>5.599999904632568359375</ele>
        <time>2024-05-06T10:03:13.000Z</time>
        <extensions>
          <ns3:TrackPointExtension/>
        </extensions>
      </trkpt>
      <trkpt lat="32.00216288678348064422607421875" lon="118.744041435420513153076171875">
        <ele>5.599999904632568359375</ele>
        <time>2024-05-06T10:03:15.000Z</time>
        <extensions>
          <ns3:TrackPointExtension/>
        </extensions>
      </trkpt>
      <trkpt lat="32.00216674245893955230712890625" lon="118.74407957307994365692138671875">
        <ele>5.599999904632568359375</ele>
        <time>2024-05-06T10:03:16.000Z</time>
        <extensions>
          <ns3:TrackPointExtension/>
        </extensions>
      </trkpt>
      <trkpt lat="32.0021705143153667449951171875" lon="118.7441177107393741607666015625">
        <ele>5.599999904632568359375</ele>
        <time>2024-05-06T10:03:18.000Z</time>
        <extensions>
          <ns3:TrackPointExtension/>
        </extensions>
      </trkpt>
      <trkpt lat="32.00218199752271175384521484375" lon="118.7441482208669185638427734375">
        <ele>5.80000019073486328125</ele>
        <time>2024-05-06T10:03:19.000Z</time>
        <extensions>
          <ns3:TrackPointExtension>
            <ns3:hr>140</ns3:hr>
            <ns3:cad>87</ns3:cad>
          </ns3:TrackPointExtension>
        </extensions>
      </trkpt>
      <trkpt lat="32.0021896250545978546142578125" lon="118.7441787309944629669189453125">
        <ele>5.80000019073486328125</ele>
        <time>2024-05-06T10:03:20.000Z</time>
        <extensions>
          <ns3:TrackPointExtension/>
        </extensions>
      </trkpt>
      <trkpt lat="32.0021896250545978546142578125" lon="118.7442092411220073699951171875">
        <ele>5.80000019073486328125</ele>
        <time>2024-05-06T10:03:21.000Z</time>
        <extensions>
          <ns3:TrackPointExtension/>
        </extensions>
      </trkpt>
      <trkpt lat="32.0021896250545978546142578125" lon="118.7442397512495517730712890625">
        <ele>5.80000019073486328125</ele>
        <time>2024-05-06T10:03:23.000Z</time>
        <extensions>
          <ns3:TrackPointExtension/>
        </extensions>
      </trkpt>
      <trkpt lat="32.00218199752271175384521484375" lon="118.7442702613770961761474609375">
        <ele>5.80000019073486328125</ele>
        <time>2024-05-06T10:03:24.000Z</time>
        <extensions>
          <ns3:TrackPointExtension>
            <ns3:hr>142</ns3:hr>
            <ns3:cad>87</ns3:cad>
          </ns3:TrackPointExtension>
        </extensions>
      </trkpt>
      <trkpt lat="32.0021705143153667449951171875" lon="118.7443007715046405792236328125">
        <ele>5.599999904632568359375</ele>
        <time>2024-05-06T10:03:25.000Z</time>
        <extensions>
          <ns3:TrackPointExtension/>
        </extensions>
      </trkpt>
      <trkpt lat="32.00216288678348064422607421875" lon="118.7443312816321849822998046875">
        <ele>5.599999904632568359375</ele>
        <time>2024-05-06T10:03:26.000Z</time>
        <extensions>
          <ns3:TrackPointExtension/>
        </extensions>
      </trkpt>
      <trkpt lat="32.00215525925159454345703125" lon="118.744354248046875">
        <ele>5.599999904632568359375</ele>
        <time>2024-05-06T10:03:27.000Z</time>
        <extensions>
          <ns3:TrackPointExtension/>
        </extensions>
      </trkpt>
      <trkpt lat="32.00214763171970844268798828125" lon="118.74439238570630550384521484375">
        <ele>5.400000095367431640625</ele>
        <time>2024-05-06T10:03:29.000Z</time>
        <extensions>
          <ns3:TrackPointExtension>
            <ns3:hr>143</ns3:hr>
            <ns3:cad>87</ns3:cad>
          </ns3:TrackPointExtension>
        </extensions>
      </trkpt>
      <trkpt lat="32.0021400041878223419189453125" lon="118.74443815089762210845947265625">
        <ele>5.400000095367431640625</ele>
        <time>2024-05-06T10:03:31.000Z</time>
        <extensions>
          <ns3:TrackPointExtension/>
        </extensions>
      </trkpt>
      <trkpt lat="32.00213237665593624114990234375" lon="118.74448391608893871307373046875">
        <ele>5.400000095367431640625</ele>
        <time>2024-05-06T10:03:33.000Z</time>
        <extensions>
          <ns3:TrackPointExtension/>
        </extensions>
      </trkpt>
      <trkpt lat="32.002124749124050140380859375" lon="118.7445220537483692169189453125">
        <ele>5.19999980926513671875</ele>
        <time>2024-05-06T10:03:34.000Z</time>
        <extensions>
          <ns3:TrackPointExtension>
            <ns3:hr>143</ns3:hr>
            <ns3:cad>88</ns3:cad>
          </ns3:TrackPointExtension>
        </extensions>
      </trkpt>
      <trkpt lat="32.00211712159216403961181640625" lon="118.7445525638759136199951171875">
        <ele>5.19999980926513671875</ele>
        <time>2024-05-06T10:03:35.000Z</time>
        <extensions>
          <ns3:TrackPointExtension/>
        </extensions>
      </trkpt>
      <trkpt lat="32.0021094940602779388427734375" lon="118.74457544647157192230224609375">
        <ele>5</ele>
        <time>2024-05-06T10:03:36.000Z</time>
        <extensions>
          <ns3:TrackPointExtension/>
        </extensions>
      </trkpt>
      <trkpt lat="32.00210186652839183807373046875" lon="118.744598329067230224609375">
        <ele>5</ele>
        <time>2024-05-06T10:03:37.000Z</time>
        <extensions>
          <ns3:TrackPointExtension/>
        </extensions>
      </trkpt>
      <trkpt lat="32.00208661146461963653564453125" lon="118.74462121166288852691650390625">
        <ele>5</ele>
        <time>2024-05-06T10:03:38.000Z</time>
        <extensions>
          <ns3:TrackPointExtension/>
        </extensions>
      </trkpt>
      <trkpt lat="32.002075128257274627685546875" lon="118.74463646672666072845458984375">
        <ele>5</ele>
        <time>2024-05-06T10:03:39.000Z</time>
        <extensions>
          <ns3:TrackPointExtension>
            <ns3:hr>145</ns3:hr>
            <ns3:cad>87</ns3:cad>
          </ns3:TrackPointExtension>
        </extensions>
      </trkpt>
      <trkpt lat="32.0020598731935024261474609375" lon="118.74465172179043292999267578125">
        <ele>5</ele>
        <time>2024-05-06T10:03:40.000Z</time>
        <extensions>
          <ns3:TrackPointExtension/>
        </extensions>
      </trkpt>
      <trkpt lat="32.002044618129730224609375" lon="118.74466697685420513153076171875">
        <ele>4.80000019073486328125</ele>
        <time>2024-05-06T10:03:41.000Z</time>
        <extensions>
          <ns3:TrackPointExtension/>
        </extensions>
      </trkpt>
      <trkpt lat="32.0020293630659580230712890625" lon="118.744689859449863433837890625">
        <ele>4.80000019073486328125</ele>
        <time>2024-05-06T10:03:43.000Z</time>
        <extensions>
          <ns3:TrackPointExtension/>
        </extensions>
      </trkpt>
      <trkpt lat="32.0020179636776447296142578125" lon="118.74472045339643955230712890625">
        <ele>4.80000019073486328125</ele>
        <time>2024-05-06T10:03:44.000Z</time>
        <extensions>
          <ns3:TrackPointExtension>
            <ns3:hr>145</ns3:hr>
            <ns3:cad>87</ns3:cad>
          </ns3:TrackPointExtension>
        </extensions>
      </trkpt>
      <trkpt lat="32.00200648047029972076416015625" lon="118.74475096352398395538330078125">
        <ele>4.80000019073486328125</ele>
        <time>2024-05-06T10:03:45.000Z</time>
        <extensions>
          <ns3:TrackPointExtension/>
        </extensions>
      </trkpt>
      <trkpt lat="32.0019988529384136199951171875" lon="118.7447738461196422576904296875">
        <ele>5</ele>
        <time>2024-05-06T10:03:46.000Z</time>
        <extensions>
          <ns3:TrackPointExtension/>
        </extensions>
      </trkpt>
      <trkpt lat="32.00199122540652751922607421875" lon="118.7448043562471866607666015625">
        <ele>5</ele>
        <time>2024-05-06T10:03:47.000Z</time>
        <extensions>
          <ns3:TrackPointExtension/>
        </extensions>
      </trkpt>
      <trkpt lat="32.00198359787464141845703125" lon="118.74482723884284496307373046875">
        <ele>5.19999980926513671875</ele>
        <time>2024-05-06T10:03:48.000Z</time>
        <extensions>
          <ns3:TrackPointExtension/>
        </extensions>
      </trkpt>
      <trkpt lat="32.00197597034275531768798828125" lon="118.744850121438503265380859375">
        <ele>5.19999980926513671875</ele>
        <time>2024-05-06T10:03:49.000Z</time>
        <extensions>
          <ns3:TrackPointExtension>
            <ns3:hr>146</ns3:hr>
            <ns3:cad>87</ns3:cad>
          </ns3:TrackPointExtension>
        </extensions>
      </trkpt>
      <trkpt lat="32.0019683428108692169189453125" lon="118.74488063156604766845703125">
        <ele>5.400000095367431640625</ele>
        <time>2024-05-06T10:03:50.000Z</time>
        <extensions>
          <ns3:TrackPointExtension/>
        </extensions>
      </trkpt>
      <trkpt lat="32.00196071527898311614990234375" lon="118.74490351416170597076416015625">
        <ele>5.400000095367431640625</ele>
        <time>2024-05-06T10:03:51.000Z</time>
        <extensions>
          <ns3:TrackPointExtension/>
        </extensions>
      </trkpt>
      <trkpt lat="32.00195685960352420806884765625" lon="118.7449263967573642730712890625">
        <ele>5.400000095367431640625</ele>
        <time>2024-05-06T10:03:52.000Z</time>
        <extensions>
          <ns3:TrackPointExtension/>
        </extensions>
      </trkpt>
      <trkpt lat="32.00194546021521091461181640625" lon="118.74494927935302257537841796875">
        <ele>5.599999904632568359375</ele>
        <time>2024-05-06T10:03:53.000Z</time>
        <extensions>
          <ns3:TrackPointExtension/>
        </extensions>
      </trkpt>
      <trkpt lat="32.0019378326833248138427734375" lon="118.744972161948680877685546875">
        <ele>5.400000095367431640625</ele>
        <time>2024-05-06T10:03:54.000Z</time>
        <extensions>
          <ns3:TrackPointExtension>
            <ns3:hr>146</ns3:hr>
            <ns3:cad>86</ns3:cad>
          </ns3:TrackPointExtension>
        </extensions>
      </trkpt>
      <trkpt lat="32.00193020515143871307373046875" lon="118.74499504454433917999267578125">
        <ele>5.400000095367431640625</ele>
        <time>2024-05-06T10:03:55.000Z</time>
        <extensions>
          <ns3:TrackPointExtension/>
        </extensions>
      </trkpt>
      <trkpt lat="32.0019225776195526123046875" lon="118.74501029960811138153076171875">
        <ele>5.400000095367431640625</ele>
        <time>2024-05-06T10:03:56.000Z</time>
        <extensions>
          <ns3:TrackPointExtension/>
        </extensions>
      </trkpt>
      <trkpt lat="32.00191495008766651153564453125" lon="118.745033182203769683837890625">
        <ele>5.400000095367431640625</ele>
        <time>2024-05-06T10:03:57.000Z</time>
        <extensions>
          <ns3:TrackPointExtension/>
        </extensions>
      </trkpt>
      <trkpt lat="32.001903466880321502685546875" lon="118.7450561486184597015380859375">
        <ele>5.400000095367431640625</ele>
        <time>2024-05-06T10:03:58.000Z</time>
        <extensions>
          <ns3:TrackPointExtension/>
        </extensions>
      </trkpt>
      <trkpt lat="32.001892067492008209228515625" lon="118.745071403682231903076171875">
        <ele>5.19999980926513671875</ele>
        <time>2024-05-06T10:03:59.000Z</time>
        <extensions>
          <ns3:TrackPointExtension>
            <ns3:hr>145</ns3:hr>
            <ns3:cad>85</ns3:cad>
          </ns3:TrackPointExtension>
        </extensions>
      </trkpt>
      <trkpt lat="32.00188058428466320037841796875" lon="118.7450866587460041046142578125">
        <ele>5.19999980926513671875</ele>
        <time>2024-05-06T10:04:00.000Z</time>
        <extensions>
          <ns3:TrackPointExtension/>
        </extensions>
      </trkpt>
      <trkpt lat="32.00186532922089099884033203125" lon="118.74509428627789020538330078125">
        <ele>5.19999980926513671875</ele>
        <time>2024-05-06T10:04:01.000Z</time>
        <extensions>
          <ns3:TrackPointExtension/>
        </extensions>
      </trkpt>
      <trkpt lat="32.0018463023006916046142578125" lon="118.74510191380977630615234375">
        <ele>5</ele>
        <time>2024-05-06T10:04:02.000Z</time>
        <extensions>
          <ns3:TrackPointExtension/>
        </extensions>
      </trkpt>
      <trkpt lat="32.001831047236919403076171875" lon="118.74510954134166240692138671875">
        <ele>5</ele>
        <time>2024-05-06T10:04:03.000Z</time>
        <extensions>
          <ns3:TrackPointExtension/>
        </extensions>
      </trkpt>
      <trkpt lat="32.0018157921731472015380859375" lon="118.7451171688735485076904296875">
        <ele>5</ele>
        <time>2024-05-06T10:04:04.000Z</time>
        <extensions>
          <ns3:TrackPointExtension>
            <ns3:hr>144</ns3:hr>
            <ns3:cad>86</ns3:cad>
          </ns3:TrackPointExtension>
        </extensions>
      </trkpt>
      <trkpt lat="32.00180430896580219268798828125" lon="118.745132423937320709228515625">
        <ele>5</ele>
        <time>2024-05-06T10:04:05.000Z</time>
        <extensions>
          <ns3:TrackPointExtension/>
        </extensions>
      </trkpt>
      <trkpt lat="32.001792825758457183837890625" lon="118.7451476790010929107666015625">
        <ele>5</ele>
        <time>2024-05-06T10:04:06.000Z</time>
        <extensions>
          <ns3:TrackPointExtension/>
        </extensions>
      </trkpt>
      <trkpt lat="32.001781426370143890380859375" lon="118.7451629340648651123046875">
        <ele>5</ele>
        <time>2024-05-06T10:04:07.000Z</time>
        <extensions>
          <ns3:TrackPointExtension/>
        </extensions>
      </trkpt>
      <trkpt lat="32.00176994316279888153076171875" lon="118.74518581666052341461181640625">
        <ele>5</ele>
        <time>2024-05-06T10:04:08.000Z</time>
        <extensions>
          <ns3:TrackPointExtension/>
        </extensions>
      </trkpt>
      <trkpt lat="32.00176231563091278076171875" lon="118.7452086992561817169189453125">
        <ele>5</ele>
        <time>2024-05-06T10:04:09.000Z</time>
        <extensions>
          <ns3:TrackPointExtension>
            <ns3:hr>144</ns3:hr>
            <ns3:cad>86</ns3:cad>
          </ns3:TrackPointExtension>
        </extensions>
      </trkpt>
      <trkpt lat="32.0017509162425994873046875" lon="118.74523158185184001922607421875">
        <ele>5</ele>
        <time>2024-05-06T10:04:10.000Z</time>
        <extensions>
          <ns3:TrackPointExtension/>
        </extensions>
      </trkpt>
      <trkpt lat="32.00173943303525447845458984375" lon="118.745254464447498321533203125">
        <ele>5</ele>
        <time>2024-05-06T10:04:11.000Z</time>
        <extensions>
          <ns3:TrackPointExtension/>
        </extensions>
      </trkpt>
      <trkpt lat="32.00172803364694118499755859375" lon="118.74527734704315662384033203125">
        <ele>5</ele>
        <time>2024-05-06T10:04:12.000Z</time>
        <extensions>
          <ns3:TrackPointExtension/>
        </extensions>
      </trkpt>
      <trkpt lat="32.0017165504395961761474609375" lon="118.7453002296388149261474609375">
        <ele>5.19999980926513671875</ele>
        <time>2024-05-06T10:04:13.000Z</time>
        <extensions>
          <ns3:TrackPointExtension/>
        </extensions>
      </trkpt>
      <trkpt lat="32.0017051510512828826904296875" lon="118.74532311223447322845458984375">
        <ele>5.19999980926513671875</ele>
        <time>2024-05-06T10:04:14.000Z</time>
        <extensions>
          <ns3:TrackPointExtension>
            <ns3:hr>144</ns3:hr>
            <ns3:cad>86</ns3:cad>
          </ns3:TrackPointExtension>
        </extensions>
      </trkpt>
      <trkpt lat="32.00168989598751068115234375" lon="118.74533836729824542999267578125">
        <ele>5.400000095367431640625</ele>
        <time>2024-05-06T10:04:15.000Z</time>
        <extensions>
          <ns3:TrackPointExtension/>
        </extensions>
      </trkpt>
      <trkpt lat="32.0016746409237384796142578125" lon="118.74535362236201763153076171875">
        <ele>5.400000095367431640625</ele>
        <time>2024-05-06T10:04:16.000Z</time>
        <extensions>
          <ns3:TrackPointExtension/>
        </extensions>
      </trkpt>
      <trkpt lat="32.001659385859966278076171875" lon="118.74536887742578983306884765625">
        <ele>5.599999904632568359375</ele>
        <time>2024-05-06T10:04:17.000Z</time>
        <extensions>
          <ns3:TrackPointExtension/>
        </extensions>
      </trkpt>
      <trkpt lat="32.0016441307961940765380859375" lon="118.74538421630859375">
        <ele>5.599999904632568359375</ele>
        <time>2024-05-06T10:04:18.000Z</time>
        <extensions>
          <ns3:TrackPointExtension/>
        </extensions>
      </trkpt>
      <trkpt lat="32.001628875732421875" lon="118.7453994713723659515380859375">
        <ele>5.599999904632568359375</ele>
        <time>2024-05-06T10:04:19.000Z</time>
        <extensions>
          <ns3:TrackPointExtension>
            <ns3:hr>139</ns3:hr>
            <ns3:cad>85</ns3:cad>
          </ns3:TrackPointExtension>
        </extensions>
      </trkpt>
      <trkpt lat="32.00161739252507686614990234375" lon="118.745414726436138153076171875">
        <ele>5.599999904632568359375</ele>
        <time>2024-05-06T10:04:20.000Z</time>
        <extensions>
          <ns3:TrackPointExtension/>
        </extensions>
      </trkpt>
      <trkpt lat="32.00160213746130466461181640625" lon="118.7454299814999103546142578125">
        <ele>5.80000019073486328125</ele>
        <time>2024-05-06T10:04:21.000Z</time>
        <extensions>
          <ns3:TrackPointExtension/>
        </extensions>
      </trkpt>
      <trkpt lat="32.00159065425395965576171875" lon="118.74545286409556865692138671875">
        <ele>5.80000019073486328125</ele>
        <time>2024-05-06T10:04:22.000Z</time>
        <extensions>
          <ns3:TrackPointExtension/>
        </extensions>
      </trkpt>
      <trkpt lat="32.0015753991901874542236328125" lon="118.74546811915934085845947265625">
        <ele>5.80000019073486328125</ele>
        <time>2024-05-06T10:04:23.000Z</time>
        <extensions>
          <ns3:TrackPointExtension/>
        </extensions>
      </trkpt>
      <trkpt lat="32.001560144126415252685546875" lon="118.74548337422311305999755859375">
        <ele>5.80000019073486328125</ele>
        <time>2024-05-06T10:04:24.000Z</time>
        <extensions>
          <ns3:TrackPointExtension>
            <ns3:hr>139</ns3:hr>
            <ns3:cad>84</ns3:cad>
          </ns3:TrackPointExtension>
        </extensions>
      </trkpt>
      <trkpt lat="32.0015448890626430511474609375" lon="118.7455062568187713623046875">
        <ele>6</ele>
        <time>2024-05-06T10:04:25.000Z</time>
        <extensions>
          <ns3:TrackPointExtension/>
        </extensions>
      </trkpt>
      <trkpt lat="32.0015334896743297576904296875" lon="118.7455215118825435638427734375">
        <ele>6</ele>
        <time>2024-05-06T10:04:26.000Z</time>
        <extensions>
          <ns3:TrackPointExtension/>
        </extensions>
      </trkpt>
      <trkpt lat="32.0015143789350986480712890625" lon="118.745536766946315765380859375">
        <ele>6</ele>
        <time>2024-05-06T10:04:27.000Z</time>
        <extensions>
          <ns3:TrackPointExtension/>
        </extensions>
      </trkpt>
      <trkpt lat="32.001499123871326446533203125" lon="118.74555964954197406768798828125">
        <ele>6.19999980926513671875</ele>
        <time>2024-05-06T10:04:28.000Z</time>
        <extensions>
          <ns3:TrackPointExtension/>
        </extensions>
      </trkpt>
      <trkpt lat="32.0014838688075542449951171875" lon="118.7455825321376323699951171875">
        <ele>6.19999980926513671875</ele>
        <time>2024-05-06T10:04:29.000Z</time>
        <extensions>
          <ns3:TrackPointExtension>
            <ns3:hr>139</ns3:hr>
            <ns3:cad>84</ns3:cad>
          </ns3:TrackPointExtension>
        </extensions>
      </trkpt>
      <trkpt lat="32.00146861374378204345703125" lon="118.74560541473329067230224609375">
        <ele>6.19999980926513671875</ele>
        <time>2024-05-06T10:04:30.000Z</time>
        <extensions>
          <ns3:TrackPointExtension/>
        </extensions>
      </trkpt>
      <trkpt lat="32.0014533586800098419189453125" lon="118.745628297328948974609375">
        <ele>6.19999980926513671875</ele>
        <time>2024-05-06T10:04:31.000Z</time>
        <extensions>
          <ns3:TrackPointExtension/>
        </extensions>
      </trkpt>
      <trkpt lat="32.001438103616237640380859375" lon="118.74565117992460727691650390625">
        <ele>6.400000095367431640625</ele>
        <time>2024-05-06T10:04:32.000Z</time>
        <extensions>
          <ns3:TrackPointExtension/>
        </extensions>
      </trkpt>
      <trkpt lat="32.00141899287700653076171875" lon="118.74568169005215167999267578125">
        <ele>6.400000095367431640625</ele>
        <time>2024-05-06T10:04:33.000Z</time>
        <extensions>
          <ns3:TrackPointExtension/>
        </extensions>
      </trkpt>
      <trkpt lat="32.00139996595680713653564453125" lon="118.7457045726478099822998046875">
        <ele>6.400000095367431640625</ele>
        <time>2024-05-06T10:04:34.000Z</time>
        <extensions>
          <ns3:TrackPointExtension>
            <ns3:hr>139</ns3:hr>
            <ns3:cad>85</ns3:cad>
          </ns3:TrackPointExtension>
        </extensions>
      </trkpt>
      <trkpt lat="32.00138471089303493499755859375" lon="118.74573516659438610076904296875">
        <ele>6.599999904632568359375</ele>
        <time>2024-05-06T10:04:35.000Z</time>
        <extensions>
          <ns3:TrackPointExtension/>
        </extensions>
      </trkpt>
      <trkpt lat="32.00136945582926273345947265625" lon="118.74576567672193050384521484375">
        <ele>6.599999904632568359375</ele>
        <time>2024-05-06T10:04:36.000Z</time>
        <extensions>
          <ns3:TrackPointExtension/>
        </extensions>
      </trkpt>
      <trkpt lat="32.001357972621917724609375" lon="118.74579618684947490692138671875">
        <ele>6.599999904632568359375</ele>
        <time>2024-05-06T10:04:38.000Z</time>
        <extensions>
          <ns3:TrackPointExtension/>
        </extensions>
      </trkpt>
      <trkpt lat="32.00134657323360443115234375" lon="118.745819069445133209228515625">
        <ele>6.599999904632568359375</ele>
        <time>2024-05-06T10:04:39.000Z</time>
        <extensions>
          <ns3:TrackPointExtension>
            <ns3:hr>139</ns3:hr>
            <ns3:cad>86</ns3:cad>
          </ns3:TrackPointExtension>
        </extensions>
      </trkpt>
      <trkpt lat="32.00133894570171833038330078125" lon="118.7458495795726776123046875">
        <ele>6.599999904632568359375</ele>
        <time>2024-05-06T10:04:40.000Z</time>
        <extensions>
          <ns3:TrackPointExtension/>
        </extensions>
      </trkpt>
      <trkpt lat="32.001327462494373321533203125" lon="118.745880089700222015380859375">
        <ele>6.80000019073486328125</ele>
        <time>2024-05-06T10:04:41.000Z</time>
        <extensions>
          <ns3:TrackPointExtension/>
        </extensions>
      </trkpt>
      <trkpt lat="32.001316063106060028076171875" lon="118.74591059982776641845703125">
        <ele>6.80000019073486328125</ele>
        <time>2024-05-06T10:04:42.000Z</time>
        <extensions>
          <ns3:TrackPointExtension/>
        </extensions>
      </trkpt>
      <trkpt lat="32.00130843557417392730712890625" lon="118.74593348242342472076416015625">
        <ele>6.80000019073486328125</ele>
        <time>2024-05-06T10:04:43.000Z</time>
        <extensions>
          <ns3:TrackPointExtension/>
        </extensions>
      </trkpt>
      <trkpt lat="32.00129695236682891845703125" lon="118.74596399255096912384033203125">
        <ele>6.80000019073486328125</ele>
        <time>2024-05-06T10:04:44.000Z</time>
        <extensions>
          <ns3:TrackPointExtension>
            <ns3:hr>140</ns3:hr>
            <ns3:cad>85</ns3:cad>
          </ns3:TrackPointExtension>
        </extensions>
      </trkpt>
      <trkpt lat="32.001285552978515625" lon="118.746002130210399627685546875">
        <ele>6.599999904632568359375</ele>
        <time>2024-05-06T10:04:46.000Z</time>
        <extensions>
          <ns3:TrackPointExtension/>
        </extensions>
      </trkpt>
      <trkpt lat="32.00127406977117061614990234375" lon="118.74603264033794403076171875">
        <ele>6.599999904632568359375</ele>
        <time>2024-05-06T10:04:47.000Z</time>
        <extensions>
          <ns3:TrackPointExtension/>
        </extensions>
      </trkpt>
      <trkpt lat="32.00125881470739841461181640625" lon="118.74607086181640625">
        <ele>6.400000095367431640625</ele>
        <time>2024-05-06T10:04:48.000Z</time>
        <extensions>
          <ns3:TrackPointExtension/>
        </extensions>
      </trkpt>
      <trkpt lat="32.00124355964362621307373046875" lon="118.74609374441206455230712890625">
        <ele>6.400000095367431640625</ele>
        <time>2024-05-06T10:04:49.000Z</time>
        <extensions>
          <ns3:TrackPointExtension>
            <ns3:hr>142</ns3:hr>
            <ns3:cad>85</ns3:cad>
          </ns3:TrackPointExtension>
        </extensions>
      </trkpt>
      <trkpt lat="32.00122830457985401153564453125" lon="118.74612425453960895538330078125">
        <ele>6.19999980926513671875</ele>
        <time>2024-05-06T10:04:50.000Z</time>
        <extensions>
          <ns3:TrackPointExtension/>
        </extensions>
      </trkpt>
      <trkpt lat="32.00120919384062290191650390625" lon="118.74615476466715335845947265625">
        <ele>6.19999980926513671875</ele>
        <time>2024-05-06T10:04:51.000Z</time>
        <extensions>
          <ns3:TrackPointExtension/>
        </extensions>
      </trkpt>
      <trkpt lat="32.001186311244964599609375" lon="118.74618527479469776153564453125">
        <ele>6.19999980926513671875</ele>
        <time>2024-05-06T10:04:53.000Z</time>
        <extensions>
          <ns3:TrackPointExtension/>
        </extensions>
      </trkpt>
      <trkpt lat="32.00116728432476520538330078125" lon="118.746223412454128265380859375">
        <ele>6.19999980926513671875</ele>
        <time>2024-05-06T10:04:54.000Z</time>
        <extensions>
          <ns3:TrackPointExtension>
            <ns3:hr>144</ns3:hr>
            <ns3:cad>86</ns3:cad>
          </ns3:TrackPointExtension>
        </extensions>
      </trkpt>
      <trkpt lat="32.00115202926099300384521484375" lon="118.74625392258167266845703125">
        <ele>6</ele>
        <time>2024-05-06T10:04:55.000Z</time>
        <extensions>
          <ns3:TrackPointExtension/>
        </extensions>
      </trkpt>
      <trkpt lat="32.0011405460536479949951171875" lon="118.746284432709217071533203125">
        <ele>6</ele>
        <time>2024-05-06T10:04:56.000Z</time>
        <extensions>
          <ns3:TrackPointExtension/>
        </extensions>
      </trkpt>
      <trkpt lat="32.00113291852176189422607421875" lon="118.74630731530487537384033203125">
        <ele>6</ele>
        <time>2024-05-06T10:04:57.000Z</time>
        <extensions>
          <ns3:TrackPointExtension/>
        </extensions>
      </trkpt>
      <trkpt lat="32.00112151913344860076904296875" lon="118.74633782543241977691650390625">
        <ele>5.80000019073486328125</ele>
        <time>2024-05-06T10:04:58.000Z</time>
        <extensions>
          <ns3:TrackPointExtension/>
        </extensions>
      </trkpt>
      <trkpt lat="32.0011100359261035919189453125" lon="118.7463607080280780792236328125">
        <ele>5.80000019073486328125</ele>
        <time>2024-05-06T10:04:59.000Z</time>
        <extensions>
          <ns3:TrackPointExtension>
            <ns3:hr>146</ns3:hr>
            <ns3:cad>85</ns3:cad>
          </ns3:TrackPointExtension>
        </extensions>
      </trkpt>
      <trkpt lat="32.00109855271875858306884765625" lon="118.7463912181556224822998046875">
        <ele>5.80000019073486328125</ele>
        <time>2024-05-06T10:05:00.000Z</time>
        <extensions>
          <ns3:TrackPointExtension/>
        </extensions>
      </trkpt>
      <trkpt lat="32.00108715333044528961181640625" lon="118.7464141845703125">
        <ele>5.80000019073486328125</ele>
        <time>2024-05-06T10:05:01.000Z</time>
        <extensions>
          <ns3:TrackPointExtension/>
        </extensions>
      </trkpt>
      <trkpt lat="32.0010795257985591888427734375" lon="118.746444694697856903076171875">
        <ele>5.599999904632568359375</ele>
        <time>2024-05-06T10:05:02.000Z</time>
        <extensions>
          <ns3:TrackPointExtension/>
        </extensions>
      </trkpt>
      <trkpt lat="32.0010642707347869873046875" lon="118.74646757729351520538330078125">
        <ele>5.599999904632568359375</ele>
        <time>2024-05-06T10:05:03.000Z</time>
        <extensions>
          <ns3:TrackPointExtension/>
        </extensions>
      </trkpt>
      <trkpt lat="32.00105278752744197845458984375" lon="118.7464904598891735076904296875">
        <ele>5.80000019073486328125</ele>
        <time>2024-05-06T10:05:04.000Z</time>
        <extensions>
          <ns3:TrackPointExtension>
            <ns3:hr>151</ns3:hr>
            <ns3:cad>85</ns3:cad>
          </ns3:TrackPointExtension>
        </extensions>
      </trkpt>
      <trkpt lat="32.00103753246366977691650390625" lon="118.74651334248483180999755859375">
        <ele>5.80000019073486328125</ele>
        <time>2024-05-06T10:05:05.000Z</time>
        <extensions>
          <ns3:TrackPointExtension/>
        </extensions>
      </trkpt>
      <trkpt lat="32.00102227739989757537841796875" lon="118.74654385261237621307373046875">
        <ele>5.80000019073486328125</ele>
        <time>2024-05-06T10:05:06.000Z</time>
        <extensions>
          <ns3:TrackPointExtension/>
        </extensions>
      </trkpt>
      <trkpt lat="32.00100702233612537384033203125" lon="118.74657436273992061614990234375">
        <ele>5.80000019073486328125</ele>
        <time>2024-05-06T10:05:07.000Z</time>
        <extensions>
          <ns3:TrackPointExtension/>
        </extensions>
      </trkpt>
      <trkpt lat="32.00099176727235317230224609375" lon="118.74660487286746501922607421875">
        <ele>6</ele>
        <time>2024-05-06T10:05:09.000Z</time>
        <extensions>
          <ns3:TrackPointExtension>
            <ns3:hr>151</ns3:hr>
            <ns3:cad>85</ns3:cad>
          </ns3:TrackPointExtension>
        </extensions>
      </trkpt>
      <trkpt lat="32.00097651220858097076416015625" lon="118.7466430105268955230712890625">
        <ele>6</ele>
        <time>2024-05-06T10:05:10.000Z</time>
        <extensions>
          <ns3:TrackPointExtension/>
        </extensions>
      </trkpt>
      <trkpt lat="32.00096125714480876922607421875" lon="118.74668114818632602691650390625">
        <ele>6</ele>
        <time>2024-05-06T10:05:11.000Z</time>
        <extensions>
          <ns3:TrackPointExtension/>
        </extensions>
      </trkpt>
      <trkpt lat="32.00094600208103656768798828125" lon="118.74671928584575653076171875">
        <ele>6.19999980926513671875</ele>
        <time>2024-05-06T10:05:13.000Z</time>
        <extensions>
          <ns3:TrackPointExtension/>
        </extensions>
      </trkpt>
      <trkpt lat="32.000934518873691558837890625" lon="118.746749795973300933837890625">
        <ele>6.400000095367431640625</ele>
        <time>2024-05-06T10:05:15.000Z</time>
        <extensions>
          <ns3:TrackPointExtension/>
        </extensions>
      </trkpt>
      <trkpt lat="32.000923119485378265380859375" lon="118.74678038991987705230712890625">
        <ele>6.599999904632568359375</ele>
        <time>2024-05-06T10:05:16.000Z</time>
        <extensions>
          <ns3:TrackPointExtension/>
        </extensions>
      </trkpt>
      <trkpt lat="32.000923119485378265380859375" lon="118.7468032725155353546142578125">
        <ele>6.599999904632568359375</ele>
        <time>2024-05-06T10:05:17.000Z</time>
        <extensions>
          <ns3:TrackPointExtension/>
        </extensions>
      </trkpt>
      <trkpt lat="32.000923119485378265380859375" lon="118.7468337826430797576904296875">
        <ele>6.80000019073486328125</ele>
        <time>2024-05-06T10:05:18.000Z</time>
        <extensions>
          <ns3:TrackPointExtension/>
        </extensions>
      </trkpt>
      <trkpt lat="32.000934518873691558837890625" lon="118.746849037706851959228515625">
        <ele>6.599999904632568359375</ele>
        <time>2024-05-06T10:05:20.000Z</time>
        <extensions>
          <ns3:TrackPointExtension/>
        </extensions>
      </trkpt>
      <trkpt lat="32.00094600208103656768798828125" lon="118.74687192030251026153564453125">
        <ele>6.599999904632568359375</ele>
        <time>2024-05-06T10:05:21.000Z</time>
        <extensions>
          <ns3:TrackPointExtension/>
        </extensions>
      </trkpt>
      <trkpt lat="32.00096125714480876922607421875" lon="118.74688717536628246307373046875">
        <ele>6.599999904632568359375</ele>
        <time>2024-05-06T10:05:22.000Z</time>
        <extensions>
          <ns3:TrackPointExtension/>
        </extensions>
      </trkpt>
      <trkpt lat="32.000984139740467071533203125" lon="118.746910057961940765380859375">
        <ele>6.599999904632568359375</ele>
        <time>2024-05-06T10:05:23.000Z</time>
        <extensions>
          <ns3:TrackPointExtension/>
        </extensions>
      </trkpt>
      <trkpt lat="32.00100325047969818115234375" lon="118.74693294055759906768798828125">
        <ele>6.400000095367431640625</ele>
        <time>2024-05-06T10:05:24.000Z</time>
        <extensions>
          <ns3:TrackPointExtension>
            <ns3:hr>153</ns3:hr>
            <ns3:cad>84</ns3:cad>
          </ns3:TrackPointExtension>
        </extensions>
      </trkpt>
      <trkpt lat="32.00102227739989757537841796875" lon="118.74696345068514347076416015625">
        <ele>6.400000095367431640625</ele>
        <time>2024-05-06T10:05:26.000Z</time>
        <extensions>
          <ns3:TrackPointExtension/>
        </extensions>
      </trkpt>
      <trkpt lat="32.00104138813912868499755859375" lon="118.74697870574891567230224609375">
        <ele>6.400000095367431640625</ele>
        <time>2024-05-06T10:05:27.000Z</time>
        <extensions>
          <ns3:TrackPointExtension/>
        </extensions>
      </trkpt>
      <trkpt lat="32.0010604150593280792236328125" lon="118.747001588344573974609375">
        <ele>6.400000095367431640625</ele>
        <time>2024-05-06T10:05:28.000Z</time>
        <extensions>
          <ns3:TrackPointExtension/>
        </extensions>
      </trkpt>
      <trkpt lat="32.00108329765498638153076171875" lon="118.7470168434083461761474609375">
        <ele>6.19999980926513671875</ele>
        <time>2024-05-06T10:05:29.000Z</time>
        <extensions>
          <ns3:TrackPointExtension>
            <ns3:hr>154</ns3:hr>
            <ns3:cad>85</ns3:cad>
          </ns3:TrackPointExtension>
        </extensions>
      </trkpt>
      <trkpt lat="32.00110240839421749114990234375" lon="118.747032098472118377685546875">
        <ele>6.19999980926513671875</ele>
        <time>2024-05-06T10:05:30.000Z</time>
        <extensions>
          <ns3:TrackPointExtension/>
        </extensions>
      </trkpt>
      <trkpt lat="32.00112151913344860076904296875" lon="118.7470473535358905792236328125">
        <ele>6</ele>
        <time>2024-05-06T10:05:31.000Z</time>
        <extensions>
          <ns3:TrackPointExtension/>
        </extensions>
      </trkpt>
      <trkpt lat="32.001144401729106903076171875" lon="118.74706260859966278076171875">
        <ele>6</ele>
        <time>2024-05-06T10:05:32.000Z</time>
        <extensions>
          <ns3:TrackPointExtension/>
        </extensions>
      </trkpt>
      <trkpt lat="32.00116728432476520538330078125" lon="118.7470778636634349822998046875">
        <ele>5.80000019073486328125</ele>
        <time>2024-05-06T10:05:33.000Z</time>
        <extensions>
          <ns3:TrackPointExtension/>
        </extensions>
      </trkpt>
      <trkpt lat="32.0011901669204235076904296875" lon="118.747093118727207183837890625">
        <ele>5.80000019073486328125</ele>
        <time>2024-05-06T10:05:34.000Z</time>
        <extensions>
          <ns3:TrackPointExtension>
            <ns3:hr>155</ns3:hr>
            <ns3:cad>85</ns3:cad>
          </ns3:TrackPointExtension>
        </extensions>
      </trkpt>
      <trkpt lat="32.00121304951608180999755859375" lon="118.7471160851418972015380859375">
        <ele>5.599999904632568359375</ele>
        <time>2024-05-06T10:05:35.000Z</time>
        <extensions>
          <ns3:TrackPointExtension/>
        </extensions>
      </trkpt>
      <trkpt lat="32.0012320764362812042236328125" lon="118.747131340205669403076171875">
        <ele>5.599999904632568359375</ele>
        <time>2024-05-06T10:05:36.000Z</time>
        <extensions>
          <ns3:TrackPointExtension/>
        </extensions>
      </trkpt>
      <trkpt lat="32.0012511871755123138427734375" lon="118.74715422280132770538330078125">
        <ele>5.599999904632568359375</ele>
        <time>2024-05-06T10:05:37.000Z</time>
        <extensions>
          <ns3:TrackPointExtension/>
        </extensions>
      </trkpt>
      <trkpt lat="32.00127021409571170806884765625" lon="118.7471771053969860076904296875">
        <ele>5.599999904632568359375</ele>
        <time>2024-05-06T10:05:38.000Z</time>
        <extensions>
          <ns3:TrackPointExtension/>
        </extensions>
      </trkpt>
      <trkpt lat="32.0012816973030567169189453125" lon="118.74719998799264430999755859375">
        <ele>5.599999904632568359375</ele>
        <time>2024-05-06T10:05:39.000Z</time>
        <extensions>
          <ns3:TrackPointExtension>
            <ns3:hr>157</ns3:hr>
            <ns3:cad>85</ns3:cad>
          </ns3:TrackPointExtension>
        </extensions>
      </trkpt>
      <trkpt lat="32.001285552978515625" lon="118.7472228705883026123046875">
        <ele>5.599999904632568359375</ele>
        <time>2024-05-06T10:05:40.000Z</time>
        <extensions>
          <ns3:TrackPointExtension/>
        </extensions>
      </trkpt>
      <trkpt lat="32.001285552978515625" lon="118.747253380715847015380859375">
        <ele>5.80000019073486328125</ele>
        <time>2024-05-06T10:05:41.000Z</time>
        <extensions>
          <ns3:TrackPointExtension/>
        </extensions>
      </trkpt>
      <trkpt lat="32.001277841627597808837890625" lon="118.74727626331150531768798828125">
        <ele>5.80000019073486328125</ele>
        <time>2024-05-06T10:05:42.000Z</time>
        <extensions>
          <ns3:TrackPointExtension/>
        </extensions>
      </trkpt>
      <trkpt lat="32.001266442239284515380859375" lon="118.747314400970935821533203125">
        <ele>6</ele>
        <time>2024-05-06T10:05:43.000Z</time>
        <extensions>
          <ns3:TrackPointExtension/>
        </extensions>
      </trkpt>
      <trkpt lat="32.00125495903193950653076171875" lon="118.747344911098480224609375">
        <ele>6.400000095367431640625</ele>
        <time>2024-05-06T10:05:44.000Z</time>
        <extensions>
          <ns3:TrackPointExtension>
            <ns3:hr>159</ns3:hr>
            <ns3:cad>83</ns3:cad>
          </ns3:TrackPointExtension>
        </extensions>
      </trkpt>
      <trkpt lat="32.00124733150005340576171875" lon="118.74738304875791072845458984375">
        <ele>6.599999904632568359375</ele>
        <time>2024-05-06T10:05:46.000Z</time>
        <extensions>
          <ns3:TrackPointExtension/>
        </extensions>
      </trkpt>
      <trkpt lat="32.00123970396816730499267578125" lon="118.74740593135356903076171875">
        <ele>7</ele>
        <time>2024-05-06T10:05:47.000Z</time>
        <extensions>
          <ns3:TrackPointExtension/>
        </extensions>
      </trkpt>
      <trkpt lat="32.0012320764362812042236328125" lon="118.747436441481113433837890625">
        <ele>7.19999980926513671875</ele>
        <time>2024-05-06T10:05:48.000Z</time>
        <extensions>
          <ns3:TrackPointExtension/>
        </extensions>
      </trkpt>
      <trkpt lat="32.0012320764362812042236328125" lon="118.7474594078958034515380859375">
        <ele>7.400000095367431640625</ele>
        <time>2024-05-06T10:05:49.000Z</time>
        <extensions>
          <ns3:TrackPointExtension>
            <ns3:hr>159</ns3:hr>
            <ns3:cad>83</ns3:cad>
          </ns3:TrackPointExtension>
        </extensions>
      </trkpt>
      <trkpt lat="32.00122830457985401153564453125" lon="118.74748229049146175384521484375">
        <ele>7.599999904632568359375</ele>
        <time>2024-05-06T10:05:50.000Z</time>
        <extensions>
          <ns3:TrackPointExtension/>
        </extensions>
      </trkpt>
      <trkpt lat="32.00122830457985401153564453125" lon="118.74750517308712005615234375">
        <ele>7.80000019073486328125</ele>
        <time>2024-05-06T10:05:51.000Z</time>
        <extensions>
          <ns3:TrackPointExtension/>
        </extensions>
      </trkpt>
      <trkpt lat="32.00122444890439510345458984375" lon="118.7475204281508922576904296875">
        <ele>8</ele>
        <time>2024-05-06T10:05:52.000Z</time>
        <extensions>
          <ns3:TrackPointExtension/>
        </extensions>
      </trkpt>
      <trkpt lat="32.00122444890439510345458984375" lon="118.747535683214664459228515625">
        <ele>8</ele>
        <time>2024-05-06T10:05:53.000Z</time>
        <extensions>
          <ns3:TrackPointExtension/>
        </extensions>
      </trkpt>
      <trkpt lat="32.00122444890439510345458984375" lon="118.74754331074655055999755859375">
        <ele>8</ele>
        <time>2024-05-06T10:05:54.000Z</time>
        <extensions>
          <ns3:TrackPointExtension>
            <ns3:hr>159</ns3:hr>
            <ns3:cad>79</ns3:cad>
          </ns3:TrackPointExtension>
        </extensions>
      </trkpt>
      <trkpt lat="32.00122444890439510345458984375" lon="118.74754331074655055999755859375">
        <ele>8</ele>
        <time>2024-05-06T10:05:55.000Z</time>
        <extensions>
          <ns3:TrackPointExtension/>
        </extensions>
      </trkpt>
      <trkpt lat="32.0012206770479679107666015625" lon="118.74754331074655055999755859375">
        <ele>8.19999980926513671875</ele>
        <time>2024-05-06T10:05:56.000Z</time>
        <extensions>
          <ns3:TrackPointExtension/>
        </extensions>
      </trkpt>
      <trkpt lat="32.0012206770479679107666015625" lon="118.74754331074655055999755859375">
        <ele>8.19999980926513671875</ele>
        <time>2024-05-06T10:05:57.000Z</time>
        <extensions>
          <ns3:TrackPointExtension/>
        </extensions>
      </trkpt>
      <trkpt lat="32.001216821372509002685546875" lon="118.74754331074655055999755859375">
        <ele>8.19999980926513671875</ele>
        <time>2024-05-06T10:05:58.000Z</time>
        <extensions>
          <ns3:TrackPointExtension/>
        </extensions>
      </trkpt>
      <trkpt lat="32.001216821372509002685546875" lon="118.74754331074655055999755859375">
        <ele>8.19999980926513671875</ele>
        <time>2024-05-06T10:05:59.000Z</time>
        <extensions>
          <ns3:TrackPointExtension>
            <ns3:hr>133</ns3:hr>
          </ns3:TrackPointExtension>
        </extensions>
      </trkpt>
      <trkpt lat="32.001216821372509002685546875" lon="118.74754331074655055999755859375">
        <ele>8.19999980926513671875</ele>
        <time>2024-05-06T10:06:00.000Z</time>
        <extensions>
          <ns3:TrackPointExtension/>
        </extensions>
      </trkpt>
      <trkpt lat="32.001216821372509002685546875" lon="118.74754331074655055999755859375">
        <ele>8.19999980926513671875</ele>
        <time>2024-05-06T10:06:01.000Z</time>
        <extensions>
          <ns3:TrackPointExtension/>
        </extensions>
      </trkpt>
      <trkpt lat="32.001216821372509002685546875" lon="118.74754331074655055999755859375">
        <ele>8.19999980926513671875</ele>
        <time>2024-05-06T10:06:02.000Z</time>
        <extensions>
          <ns3:TrackPointExtension/>
        </extensions>
      </trkpt>
      <trkpt lat="32.001216821372509002685546875" lon="118.74754331074655055999755859375">
        <ele>8.19999980926513671875</ele>
        <time>2024-05-06T10:06:03.000Z</time>
        <extensions>
          <ns3:TrackPointExtension/>
        </extensions>
      </trkpt>
      <trkpt lat="32.001216821372509002685546875" lon="118.74754331074655055999755859375">
        <ele>8.19999980926513671875</ele>
        <time>2024-05-06T10:06:04.000Z</time>
        <extensions>
          <ns3:TrackPointExtension>
            <ns3:hr>134</ns3:hr>
            <ns3:cad>85</ns3:cad>
          </ns3:TrackPointExtension>
        </extensions>
      </trkpt>
      <trkpt lat="32.001216821372509002685546875" lon="118.74754331074655055999755859375">
        <ele>8.19999980926513671875</ele>
        <time>2024-05-06T10:06:05.000Z</time>
        <extensions>
          <ns3:TrackPointExtension/>
        </extensions>
      </trkpt>
      <trkpt lat="32.001216821372509002685546875" lon="118.74754331074655055999755859375">
        <ele>8.19999980926513671875</ele>
        <time>2024-05-06T10:06:06.000Z</time>
        <extensions>
          <ns3:TrackPointExtension/>
        </extensions>
      </trkpt>
      <trkpt lat="32.0012206770479679107666015625" lon="118.74754331074655055999755859375">
        <ele>8.19999980926513671875</ele>
        <time>2024-05-06T10:06:07.000Z</time>
        <extensions>
          <ns3:TrackPointExtension/>
        </extensions>
      </trkpt>
      <trkpt lat="32.0012206770479679107666015625" lon="118.74754331074655055999755859375">
        <ele>8.19999980926513671875</ele>
        <time>2024-05-06T10:06:08.000Z</time>
        <extensions>
          <ns3:TrackPointExtension/>
        </extensions>
      </trkpt>
      <trkpt lat="32.0012206770479679107666015625" lon="118.74754331074655055999755859375">
        <ele>8.19999980926513671875</ele>
        <time>2024-05-06T10:06:09.000Z</time>
        <extensions>
          <ns3:TrackPointExtension>
            <ns3:hr>139</ns3:hr>
            <ns3:cad>85</ns3:cad>
          </ns3:TrackPointExtension>
        </extensions>
      </trkpt>
      <trkpt lat="32.0012206770479679107666015625" lon="118.74754331074655055999755859375">
        <ele>8.19999980926513671875</ele>
        <time>2024-05-06T10:06:10.000Z</time>
        <extensions>
          <ns3:TrackPointExtension/>
        </extensions>
      </trkpt>
      <trkpt lat="32.0012206770479679107666015625" lon="118.74754331074655055999755859375">
        <ele>8.19999980926513671875</ele>
        <time>2024-05-06T10:06:11.000Z</time>
        <extensions>
          <ns3:TrackPointExtension/>
        </extensions>
      </trkpt>
      <trkpt lat="32.0012206770479679107666015625" lon="118.74754331074655055999755859375">
        <ele>8.19999980926513671875</ele>
        <time>2024-05-06T10:06:12.000Z</time>
        <extensions>
          <ns3:TrackPointExtension/>
        </extensions>
      </trkpt>
      <trkpt lat="32.00122444890439510345458984375" lon="118.74754331074655055999755859375">
        <ele>8</ele>
        <time>2024-05-06T10:06:13.000Z</time>
        <extensions>
          <ns3:TrackPointExtension/>
        </extensions>
      </trkpt>
      <trkpt lat="32.00122444890439510345458984375" lon="118.74754331074655055999755859375">
        <ele>8</ele>
        <time>2024-05-06T10:06:14.000Z</time>
        <extensions>
          <ns3:TrackPointExtension>
            <ns3:hr>142</ns3:hr>
            <ns3:cad>85</ns3:cad>
          </ns3:TrackPointExtension>
        </extensions>
      </trkpt>
      <trkpt lat="32.00122444890439510345458984375" lon="118.74754331074655055999755859375">
        <ele>8</ele>
        <time>2024-05-06T10:06:15.000Z</time>
        <extensions>
          <ns3:TrackPointExtension/>
        </extensions>
      </trkpt>
      <trkpt lat="32.00122444890439510345458984375" lon="118.74754331074655055999755859375">
        <ele>8</ele>
        <time>2024-05-06T10:06:16.000Z</time>
        <extensions>
          <ns3:TrackPointExtension/>
        </extensions>
      </trkpt>
      <trkpt lat="32.0012206770479679107666015625" lon="118.74754331074655055999755859375">
        <ele>8.19999980926513671875</ele>
        <time>2024-05-06T10:06:17.000Z</time>
        <extensions>
          <ns3:TrackPointExtension/>
        </extensions>
      </trkpt>
      <trkpt lat="32.0012206770479679107666015625" lon="118.74754331074655055999755859375">
        <ele>8.19999980926513671875</ele>
        <time>2024-05-06T10:06:18.000Z</time>
        <extensions>
          <ns3:TrackPointExtension/>
        </extensions>
      </trkpt>
      <trkpt lat="32.0012206770479679107666015625" lon="118.74754331074655055999755859375">
        <ele>8.19999980926513671875</ele>
        <time>2024-05-06T10:06:19.000Z</time>
        <extensions>
          <ns3:TrackPointExtension>
            <ns3:hr>146</ns3:hr>
            <ns3:cad>84</ns3:cad>
          </ns3:TrackPointExtension>
        </extensions>
      </trkpt>
      <trkpt lat="32.0012206770479679107666015625" lon="118.74754331074655055999755859375">
        <ele>8.19999980926513671875</ele>
        <time>2024-05-06T10:06:20.000Z</time>
        <extensions>
          <ns3:TrackPointExtension/>
        </extensions>
      </trkpt>
      <trkpt lat="32.0012206770479679107666015625" lon="118.74754331074655055999755859375">
        <ele>8.19999980926513671875</ele>
        <time>2024-05-06T10:06:21.000Z</time>
        <extensions>
          <ns3:TrackPointExtension/>
        </extensions>
      </trkpt>
      <trkpt lat="32.00122444890439510345458984375" lon="118.7475509382784366607666015625">
        <ele>8.19999980926513671875</ele>
        <time>2024-05-06T10:06:22.000Z</time>
        <extensions>
          <ns3:TrackPointExtension/>
        </extensions>
      </trkpt>
      <trkpt lat="32.0012320764362812042236328125" lon="118.7475509382784366607666015625">
        <ele>8</ele>
        <time>2024-05-06T10:06:23.000Z</time>
        <extensions>
          <ns3:TrackPointExtension/>
        </extensions>
      </trkpt>
      <trkpt lat="32.00123970396816730499267578125" lon="118.74755856581032276153564453125">
        <ele>8</ele>
        <time>2024-05-06T10:06:24.000Z</time>
        <extensions>
          <ns3:TrackPointExtension>
            <ns3:hr>150</ns3:hr>
            <ns3:cad>83</ns3:cad>
          </ns3:TrackPointExtension>
        </extensions>
      </trkpt>
      <trkpt lat="32.00125495903193950653076171875" lon="118.7475661933422088623046875">
        <ele>8</ele>
        <time>2024-05-06T10:06:25.000Z</time>
        <extensions>
          <ns3:TrackPointExtension/>
        </extensions>
      </trkpt>
      <trkpt lat="32.00127021409571170806884765625" lon="118.7475814484059810638427734375">
        <ele>7.80000019073486328125</ele>
        <time>2024-05-06T10:06:26.000Z</time>
        <extensions>
          <ns3:TrackPointExtension/>
        </extensions>
      </trkpt>
      <trkpt lat="32.00128932483494281768798828125" lon="118.747596703469753265380859375">
        <ele>7.80000019073486328125</ele>
        <time>2024-05-06T10:06:27.000Z</time>
        <extensions>
          <ns3:TrackPointExtension/>
        </extensions>
      </trkpt>
      <trkpt lat="32.0013122074306011199951171875" lon="118.7476119585335254669189453125">
        <ele>7.599999904632568359375</ele>
        <time>2024-05-06T10:06:28.000Z</time>
        <extensions>
          <ns3:TrackPointExtension/>
        </extensions>
      </trkpt>
      <trkpt lat="32.00133509002625942230224609375" lon="118.74762721359729766845703125">
        <ele>7.599999904632568359375</ele>
        <time>2024-05-06T10:06:29.000Z</time>
        <extensions>
          <ns3:TrackPointExtension>
            <ns3:hr>150</ns3:hr>
            <ns3:cad>86</ns3:cad>
          </ns3:TrackPointExtension>
        </extensions>
      </trkpt>
      <trkpt lat="32.0013618282973766326904296875" lon="118.7476424686610698699951171875">
        <ele>7.400000095367431640625</ele>
        <time>2024-05-06T10:06:30.000Z</time>
        <extensions>
          <ns3:TrackPointExtension/>
        </extensions>
      </trkpt>
      <trkpt lat="32.001388482749462127685546875" lon="118.747657723724842071533203125">
        <ele>7.19999980926513671875</ele>
        <time>2024-05-06T10:06:31.000Z</time>
        <extensions>
          <ns3:TrackPointExtension/>
        </extensions>
      </trkpt>
      <trkpt lat="32.00141136534512042999267578125" lon="118.7476729787886142730712890625">
        <ele>7</ele>
        <time>2024-05-06T10:06:32.000Z</time>
        <extensions>
          <ns3:TrackPointExtension/>
        </extensions>
      </trkpt>
      <trkpt lat="32.00144187547266483306884765625" lon="118.747688233852386474609375">
        <ele>6.80000019073486328125</ele>
        <time>2024-05-06T10:06:33.000Z</time>
        <extensions>
          <ns3:TrackPointExtension/>
        </extensions>
      </trkpt>
      <trkpt lat="32.00146861374378204345703125" lon="118.7477034889161586761474609375">
        <ele>6.599999904632568359375</ele>
        <time>2024-05-06T10:06:34.000Z</time>
        <extensions>
          <ns3:TrackPointExtension>
            <ns3:hr>154</ns3:hr>
            <ns3:cad>87</ns3:cad>
          </ns3:TrackPointExtension>
        </extensions>
      </trkpt>
      <trkpt lat="32.001499123871326446533203125" lon="118.747718743979930877685546875">
        <ele>6.400000095367431640625</ele>
        <time>2024-05-06T10:06:35.000Z</time>
        <extensions>
          <ns3:TrackPointExtension/>
        </extensions>
      </trkpt>
      <trkpt lat="32.001529633998870849609375" lon="118.7477339990437030792236328125">
        <ele>6.19999980926513671875</ele>
        <time>2024-05-06T10:06:36.000Z</time>
        <extensions>
          <ns3:TrackPointExtension/>
        </extensions>
      </trkpt>
      <trkpt lat="32.00155637226998805999755859375" lon="118.74774925410747528076171875">
        <ele>6</ele>
        <time>2024-05-06T10:06:37.000Z</time>
        <extensions>
          <ns3:TrackPointExtension/>
        </extensions>
      </trkpt>
      <trkpt lat="32.00158302672207355499267578125" lon="118.7477645091712474822998046875">
        <ele>6</ele>
        <time>2024-05-06T10:06:38.000Z</time>
        <extensions>
          <ns3:TrackPointExtension/>
        </extensions>
      </trkpt>
      <trkpt lat="32.001609764993190765380859375" lon="118.747779764235019683837890625">
        <ele>6</ele>
        <time>2024-05-06T10:06:39.000Z</time>
        <extensions>
          <ns3:TrackPointExtension>
            <ns3:hr>157</ns3:hr>
            <ns3:cad>86</ns3:cad>
          </ns3:TrackPointExtension>
        </extensions>
      </trkpt>
      <trkpt lat="32.00163650326430797576904296875" lon="118.74779510311782360076904296875">
        <ele>5.80000019073486328125</ele>
        <time>2024-05-06T10:06:40.000Z</time>
        <extensions>
          <ns3:TrackPointExtension/>
        </extensions>
      </trkpt>
      <trkpt lat="32.00166315771639347076416015625" lon="118.747817985713481903076171875">
        <ele>5.80000019073486328125</ele>
        <time>2024-05-06T10:06:41.000Z</time>
        <extensions>
          <ns3:TrackPointExtension/>
        </extensions>
      </trkpt>
      <trkpt lat="32.0016860403120517730712890625" lon="118.7478332407772541046142578125">
        <ele>5.80000019073486328125</ele>
        <time>2024-05-06T10:06:42.000Z</time>
        <extensions>
          <ns3:TrackPointExtension/>
        </extensions>
      </trkpt>
      <trkpt lat="32.00170892290771007537841796875" lon="118.74784849584102630615234375">
        <ele>5.80000019073486328125</ele>
        <time>2024-05-06T10:06:43.000Z</time>
        <extensions>
          <ns3:TrackPointExtension/>
        </extensions>
      </trkpt>
      <trkpt lat="32.00172803364694118499755859375" lon="118.74787137843668460845947265625">
        <ele>5.80000019073486328125</ele>
        <time>2024-05-06T10:06:44.000Z</time>
        <extensions>
          <ns3:TrackPointExtension>
            <ns3:hr>156</ns3:hr>
            <ns3:cad>85</ns3:cad>
          </ns3:TrackPointExtension>
        </extensions>
      </trkpt>
      <trkpt lat="32.0017509162425994873046875" lon="118.74788663350045680999755859375">
        <ele>5.599999904632568359375</ele>
        <time>2024-05-06T10:06:45.000Z</time>
        <extensions>
          <ns3:TrackPointExtension/>
        </extensions>
      </trkpt>
      <trkpt lat="32.00176994316279888153076171875" lon="118.7479095160961151123046875">
        <ele>5.80000019073486328125</ele>
        <time>2024-05-06T10:06:46.000Z</time>
        <extensions>
          <ns3:TrackPointExtension/>
        </extensions>
      </trkpt>
      <trkpt lat="32.001792825758457183837890625" lon="118.74793239869177341461181640625">
        <ele>5.80000019073486328125</ele>
        <time>2024-05-06T10:06:47.000Z</time>
        <extensions>
          <ns3:TrackPointExtension/>
        </extensions>
      </trkpt>
      <trkpt lat="32.00181193649768829345703125" lon="118.74794765375554561614990234375">
        <ele>5.80000019073486328125</ele>
        <time>2024-05-06T10:06:48.000Z</time>
        <extensions>
          <ns3:TrackPointExtension/>
        </extensions>
      </trkpt>
      <trkpt lat="32.001831047236919403076171875" lon="118.74797053635120391845703125">
        <ele>6</ele>
        <time>2024-05-06T10:06:49.000Z</time>
        <extensions>
          <ns3:TrackPointExtension>
            <ns3:hr>157</ns3:hr>
            <ns3:cad>85</ns3:cad>
          </ns3:TrackPointExtension>
        </extensions>
      </trkpt>
      <trkpt lat="32.00185392983257770538330078125" lon="118.7479857914149761199951171875">
        <ele>6.19999980926513671875</ele>
        <time>2024-05-06T10:06:50.000Z</time>
        <extensions>
          <ns3:TrackPointExtension/>
        </extensions>
      </trkpt>
      <trkpt lat="32.001872956752777099609375" lon="118.74800867401063442230224609375">
        <ele>6.400000095367431640625</ele>
        <time>2024-05-06T10:06:51.000Z</time>
        <extensions>
          <ns3:TrackPointExtension/>
        </extensions>
      </trkpt>
      <trkpt lat="32.00189583934843540191650390625" lon="118.74802392907440662384033203125">
        <ele>6.599999904632568359375</ele>
        <time>2024-05-06T10:06:52.000Z</time>
        <extensions>
          <ns3:TrackPointExtension/>
        </extensions>
      </trkpt>
      <trkpt lat="32.00191495008766651153564453125" lon="118.74803918413817882537841796875">
        <ele>6.80000019073486328125</ele>
        <time>2024-05-06T10:06:53.000Z</time>
        <extensions>
          <ns3:TrackPointExtension/>
        </extensions>
      </trkpt>
      <trkpt lat="32.0019378326833248138427734375" lon="118.748062066733837127685546875">
        <ele>7</ele>
        <time>2024-05-06T10:06:54.000Z</time>
        <extensions>
          <ns3:TrackPointExtension>
            <ns3:hr>158</ns3:hr>
            <ns3:cad>85</ns3:cad>
          </ns3:TrackPointExtension>
        </extensions>
      </trkpt>
      <trkpt lat="32.00196071527898311614990234375" lon="118.7480773217976093292236328125">
        <ele>7.19999980926513671875</ele>
        <time>2024-05-06T10:06:55.000Z</time>
        <extensions>
          <ns3:TrackPointExtension/>
        </extensions>
      </trkpt>
      <trkpt lat="32.00198359787464141845703125" lon="118.74809257686138153076171875">
        <ele>7.400000095367431640625</ele>
        <time>2024-05-06T10:06:56.000Z</time>
        <extensions>
          <ns3:TrackPointExtension/>
        </extensions>
      </trkpt>
      <trkpt lat="32.00200648047029972076416015625" lon="118.74811545945703983306884765625">
        <ele>7.599999904632568359375</ele>
        <time>2024-05-06T10:06:57.000Z</time>
        <extensions>
          <ns3:TrackPointExtension/>
        </extensions>
      </trkpt>
      <trkpt lat="32.00202173553407192230224609375" lon="118.74813842587172985076904296875">
        <ele>7.80000019073486328125</ele>
        <time>2024-05-06T10:06:58.000Z</time>
        <extensions>
          <ns3:TrackPointExtension/>
        </extensions>
      </trkpt>
      <trkpt lat="32.00204084627330303192138671875" lon="118.74815368093550205230712890625">
        <ele>8</ele>
        <time>2024-05-06T10:06:59.000Z</time>
        <extensions>
          <ns3:TrackPointExtension/>
        </extensions>
      </trkpt>
      <trkpt lat="32.002063728868961334228515625" lon="118.74816893599927425384521484375">
        <ele>8</ele>
        <time>2024-05-06T10:07:00.000Z</time>
        <extensions>
          <ns3:TrackPointExtension/>
        </extensions>
      </trkpt>
      <trkpt lat="32.00208275578916072845458984375" lon="118.7481765635311603546142578125">
        <ele>8.19999980926513671875</ele>
        <time>2024-05-06T10:07:01.000Z</time>
        <extensions>
          <ns3:TrackPointExtension/>
        </extensions>
      </trkpt>
      <trkpt lat="32.0021094940602779388427734375" lon="118.74819181859493255615234375">
        <ele>8.3999996185302734375</ele>
        <time>2024-05-06T10:07:02.000Z</time>
        <extensions>
          <ns3:TrackPointExtension/>
        </extensions>
      </trkpt>
      <trkpt lat="32.00212852098047733306884765625" lon="118.7482070736587047576904296875">
        <ele>8.3999996185302734375</ele>
        <time>2024-05-06T10:07:03.000Z</time>
        <extensions>
          <ns3:TrackPointExtension/>
        </extensions>
      </trkpt>
      <trkpt lat="32.00215148739516735076904296875" lon="118.748222328722476959228515625">
        <ele>8.6000003814697265625</ele>
        <time>2024-05-06T10:07:04.000Z</time>
        <extensions>
          <ns3:TrackPointExtension/>
        </extensions>
      </trkpt>
      <trkpt lat="32.0021705143153667449951171875" lon="118.7482375837862491607666015625">
        <ele>8.80000019073486328125</ele>
        <time>2024-05-06T10:07:05.000Z</time>
        <extensions>
          <ns3:TrackPointExtension/>
        </extensions>
      </trkpt>
      <trkpt lat="32.0021896250545978546142578125" lon="118.7482528388500213623046875">
        <ele>8.80000019073486328125</ele>
        <time>2024-05-06T10:07:06.000Z</time>
        <extensions>
          <ns3:TrackPointExtension/>
        </extensions>
      </trkpt>
      <trkpt lat="32.00221250765025615692138671875" lon="118.7482680939137935638427734375">
        <ele>9</ele>
        <time>2024-05-06T10:07:07.000Z</time>
        <extensions>
          <ns3:TrackPointExtension/>
        </extensions>
      </trkpt>
      <trkpt lat="32.002235390245914459228515625" lon="118.74827572144567966461181640625">
        <ele>9</ele>
        <time>2024-05-06T10:07:08.000Z</time>
        <extensions>
          <ns3:TrackPointExtension/>
        </extensions>
      </trkpt>
      <trkpt lat="32.00225827284157276153564453125" lon="118.748283348977565765380859375">
        <ele>9.19999980926513671875</ele>
        <time>2024-05-06T10:07:09.000Z</time>
        <extensions>
          <ns3:TrackPointExtension/>
        </extensions>
      </trkpt>
      <trkpt lat="32.00228492729365825653076171875" lon="118.74829097650945186614990234375">
        <ele>9.3999996185302734375</ele>
        <time>2024-05-06T10:07:10.000Z</time>
        <extensions>
          <ns3:TrackPointExtension/>
        </extensions>
      </trkpt>
      <trkpt lat="32.0023116655647754669189453125" lon="118.7482986040413379669189453125">
        <ele>9.3999996185302734375</ele>
        <time>2024-05-06T10:07:11.000Z</time>
        <extensions>
          <ns3:TrackPointExtension/>
        </extensions>
      </trkpt>
      <trkpt lat="32.00233840383589267730712890625" lon="118.7482986040413379669189453125">
        <ele>9.6000003814697265625</ele>
        <time>2024-05-06T10:07:12.000Z</time>
        <extensions>
          <ns3:TrackPointExtension/>
        </extensions>
      </trkpt>
      <trkpt lat="32.0023612864315509796142578125" lon="118.74831385910511016845703125">
        <ele>9.6000003814697265625</ele>
        <time>2024-05-06T10:07:13.000Z</time>
        <extensions>
          <ns3:TrackPointExtension/>
        </extensions>
      </trkpt>
      <trkpt lat="32.00238416902720928192138671875" lon="118.7483291141688823699951171875">
        <ele>9.6000003814697265625</ele>
        <time>2024-05-06T10:07:14.000Z</time>
        <extensions>
          <ns3:TrackPointExtension/>
        </extensions>
      </trkpt>
      <trkpt lat="32.00241082347929477691650390625" lon="118.748344369232654571533203125">
        <ele>9.6000003814697265625</ele>
        <time>2024-05-06T10:07:15.000Z</time>
        <extensions>
          <ns3:TrackPointExtension/>
        </extensions>
      </trkpt>
      <trkpt lat="32.0024337060749530792236328125" lon="118.7483596242964267730712890625">
        <ele>9.6000003814697265625</ele>
        <time>2024-05-06T10:07:16.000Z</time>
        <extensions>
          <ns3:TrackPointExtension/>
        </extensions>
      </trkpt>
      <trkpt lat="32.0024642162024974822998046875" lon="118.748374879360198974609375">
        <ele>9.6000003814697265625</ele>
        <time>2024-05-06T10:07:17.000Z</time>
        <extensions>
          <ns3:TrackPointExtension/>
        </extensions>
      </trkpt>
      <trkpt lat="32.00249095447361469268798828125" lon="118.7483901344239711761474609375">
        <ele>9.3999996185302734375</ele>
        <time>2024-05-06T10:07:18.000Z</time>
        <extensions>
          <ns3:TrackPointExtension/>
        </extensions>
      </trkpt>
      <trkpt lat="32.00252146460115909576416015625" lon="118.74839776195585727691650390625">
        <ele>9.3999996185302734375</ele>
        <time>2024-05-06T10:07:19.000Z</time>
        <extensions>
          <ns3:TrackPointExtension/>
        </extensions>
      </trkpt>
      <trkpt lat="32.0025443471968173980712890625" lon="118.74839776195585727691650390625">
        <ele>9.3999996185302734375</ele>
        <time>2024-05-06T10:07:20.000Z</time>
        <extensions>
          <ns3:TrackPointExtension/>
        </extensions>
      </trkpt>
      <trkpt lat="32.00257108546793460845947265625" lon="118.748405389487743377685546875">
        <ele>9.19999980926513671875</ele>
        <time>2024-05-06T10:07:21.000Z</time>
        <extensions>
          <ns3:TrackPointExtension/>
        </extensions>
      </trkpt>
      <trkpt lat="32.002590112388134002685546875" lon="118.7484206445515155792236328125">
        <ele>9.19999980926513671875</ele>
        <time>2024-05-06T10:07:22.000Z</time>
        <extensions>
          <ns3:TrackPointExtension/>
        </extensions>
      </trkpt>
      <trkpt lat="32.00261299498379230499267578125" lon="118.74843589961528778076171875">
        <ele>9.19999980926513671875</ele>
        <time>2024-05-06T10:07:23.000Z</time>
        <extensions>
          <ns3:TrackPointExtension/>
        </extensions>
      </trkpt>
      <trkpt lat="32.0026358775794506072998046875" lon="118.74844352714717388153076171875">
        <ele>9.19999980926513671875</ele>
        <time>2024-05-06T10:07:24.000Z</time>
        <extensions>
          <ns3:TrackPointExtension/>
        </extensions>
      </trkpt>
      <trkpt lat="32.00264736078679561614990234375" lon="118.7484511546790599822998046875">
        <ele>9.19999980926513671875</ele>
        <time>2024-05-06T10:07:25.000Z</time>
        <extensions>
          <ns3:TrackPointExtension/>
        </extensions>
      </trkpt>
      <trkpt lat="32.002651132643222808837890625" lon="118.74845878221094608306884765625">
        <ele>9.19999980926513671875</ele>
        <time>2024-05-06T10:07:26.000Z</time>
        <extensions>
          <ns3:TrackPointExtension/>
        </extensions>
      </trkpt>
    </trkseg>
  </trk>
</gpx>
