<gpx xmlns:ns3="http://www.garmin.com/xmlschemas/TrackPointExtension/v1" xmlns="http://www.topografix.com/GPX/1/1" xmlns:xsi="http://www.w3.org/2001/XMLSchema-instance" xmlns:ns2="http://www.garmin.com/xmlschemas/GpxExtensions/v3" creator="Garmin Connect" version="1.1" xsi:schemaLocation="http://www.topografix.com/GPX/1/1 http://www.topografix.com/GPX/11.xsd">
  <extensions>
<distance>620.0</distance>
<average_hr>148.0</average_hr>
<average_speed>2.540983606557377</average_speed>
<start_time>2024-05-09T10:26:00+00:00</start_time>
<end_time>2024-05-09T10:30:04+00:00</end_time>
<moving_time>244.0</moving_time>
<elapsed_time>265.0</elapsed_time>
</extensions>
<metadata>
    <link href="connect.garmin.com">
      <text>Garmin Connect</text>
    </link>
    <time>2024-05-09T10:26:00.000Z</time>
  </metadata>
  <trk>
    <name>南京市 跑步</name>
    <type>running</type>
    <trkseg>
      <trkpt lat="32.00236891396343708038330078125" lon="118.7433013133704662322998046875">
        <ele>8</ele>
        <time>2024-05-09T10:26:02.000Z</time>
        <extensions>
          <ns3:TrackPointExtension/>
        </extensions>
      </trkpt>
      <trkpt lat="32.002346031367778778076171875" lon="118.74333190731704235076904296875">
        <ele>8</ele>
        <time>2024-05-09T10:26:03.000Z</time>
        <extensions>
          <ns3:TrackPointExtension/>
        </extensions>
      </trkpt>
      <trkpt lat="32.0023421756923198699951171875" lon="118.74334716238081455230712890625">
        <ele>8</ele>
        <time>2024-05-09T10:26:04.000Z</time>
        <extensions>
          <ns3:TrackPointExtension/>
        </extensions>
      </trkpt>
      <trkpt lat="32.0023307763040065765380859375" lon="118.7433700449764728546142578125">
        <ele>7.80000019073486328125</ele>
        <time>2024-05-09T10:26:05.000Z</time>
        <extensions>
          <ns3:TrackPointExtension>
            <ns3:hr>105</ns3:hr>
            <ns3:cad>86</ns3:cad>
          </ns3:TrackPointExtension>
        </extensions>
      </trkpt>
      <trkpt lat="32.00231929309666156768798828125" lon="118.7434005551040172576904296875">
        <ele>7.80000019073486328125</ele>
        <time>2024-05-09T10:26:06.000Z</time>
        <extensions>
          <ns3:TrackPointExtension/>
        </extensions>
      </trkpt>
      <trkpt lat="32.0023116655647754669189453125" lon="118.74342343769967555999755859375">
        <ele>7.80000019073486328125</ele>
        <time>2024-05-09T10:26:07.000Z</time>
        <extensions>
          <ns3:TrackPointExtension/>
        </extensions>
      </trkpt>
      <trkpt lat="32.00230018235743045806884765625" lon="118.74345394782721996307373046875">
        <ele>7.599999904632568359375</ele>
        <time>2024-05-09T10:26:08.000Z</time>
        <extensions>
          <ns3:TrackPointExtension/>
        </extensions>
      </trkpt>
      <trkpt lat="32.0022925548255443572998046875" lon="118.743476830422878265380859375">
        <ele>7.400000095367431640625</ele>
        <time>2024-05-09T10:26:09.000Z</time>
        <extensions>
          <ns3:TrackPointExtension/>
        </extensions>
      </trkpt>
      <trkpt lat="32.0022811554372310638427734375" lon="118.74350734055042266845703125">
        <ele>7.400000095367431640625</ele>
        <time>2024-05-09T10:26:10.000Z</time>
        <extensions>
          <ns3:TrackPointExtension>
            <ns3:hr>117</ns3:hr>
            <ns3:cad>89</ns3:cad>
          </ns3:TrackPointExtension>
        </extensions>
      </trkpt>
      <trkpt lat="32.00226967222988605499267578125" lon="118.743537850677967071533203125">
        <ele>7.19999980926513671875</ele>
        <time>2024-05-09T10:26:11.000Z</time>
        <extensions>
          <ns3:TrackPointExtension/>
        </extensions>
      </trkpt>
      <trkpt lat="32.00225827284157276153564453125" lon="118.74356073327362537384033203125">
        <ele>7</ele>
        <time>2024-05-09T10:26:12.000Z</time>
        <extensions>
          <ns3:TrackPointExtension/>
        </extensions>
      </trkpt>
      <trkpt lat="32.002246789634227752685546875" lon="118.7435836158692836761474609375">
        <ele>7</ele>
        <time>2024-05-09T10:26:13.000Z</time>
        <extensions>
          <ns3:TrackPointExtension/>
        </extensions>
      </trkpt>
      <trkpt lat="32.00223916210234165191650390625" lon="118.7436141259968280792236328125">
        <ele>6.80000019073486328125</ele>
        <time>2024-05-09T10:26:14.000Z</time>
        <extensions>
          <ns3:TrackPointExtension/>
        </extensions>
      </trkpt>
      <trkpt lat="32.00222776271402835845947265625" lon="118.74363700859248638153076171875">
        <ele>6.599999904632568359375</ele>
        <time>2024-05-09T10:26:15.000Z</time>
        <extensions>
          <ns3:TrackPointExtension>
            <ns3:hr>127</ns3:hr>
            <ns3:cad>89</ns3:cad>
          </ns3:TrackPointExtension>
        </extensions>
      </trkpt>
      <trkpt lat="32.00221250765025615692138671875" lon="118.743659891188144683837890625">
        <ele>6.599999904632568359375</ele>
        <time>2024-05-09T10:26:16.000Z</time>
        <extensions>
          <ns3:TrackPointExtension/>
        </extensions>
      </trkpt>
      <trkpt lat="32.0022010244429111480712890625" lon="118.7436828576028347015380859375">
        <ele>6.400000095367431640625</ele>
        <time>2024-05-09T10:26:17.000Z</time>
        <extensions>
          <ns3:TrackPointExtension/>
        </extensions>
      </trkpt>
      <trkpt lat="32.0021896250545978546142578125" lon="118.7437133677303791046142578125">
        <ele>6.400000095367431640625</ele>
        <time>2024-05-09T10:26:18.000Z</time>
        <extensions>
          <ns3:TrackPointExtension/>
        </extensions>
      </trkpt>
      <trkpt lat="32.00217814184725284576416015625" lon="118.74373625032603740692138671875">
        <ele>6.400000095367431640625</ele>
        <time>2024-05-09T10:26:19.000Z</time>
        <extensions>
          <ns3:TrackPointExtension/>
        </extensions>
      </trkpt>
      <trkpt lat="32.00216674245893955230712890625" lon="118.743759132921695709228515625">
        <ele>6.19999980926513671875</ele>
        <time>2024-05-09T10:26:20.000Z</time>
        <extensions>
          <ns3:TrackPointExtension>
            <ns3:hr>132</ns3:hr>
            <ns3:cad>90</ns3:cad>
          </ns3:TrackPointExtension>
        </extensions>
      </trkpt>
      <trkpt lat="32.0021591149270534515380859375" lon="118.7437896430492401123046875">
        <ele>6.19999980926513671875</ele>
        <time>2024-05-09T10:26:21.000Z</time>
        <extensions>
          <ns3:TrackPointExtension/>
        </extensions>
      </trkpt>
      <trkpt lat="32.00215148739516735076904296875" lon="118.74381252564489841461181640625">
        <ele>6</ele>
        <time>2024-05-09T10:26:22.000Z</time>
        <extensions>
          <ns3:TrackPointExtension/>
        </extensions>
      </trkpt>
      <trkpt lat="32.0021400041878223419189453125" lon="118.7438354082405567169189453125">
        <ele>5.80000019073486328125</ele>
        <time>2024-05-09T10:26:23.000Z</time>
        <extensions>
          <ns3:TrackPointExtension/>
        </extensions>
      </trkpt>
      <trkpt lat="32.00212852098047733306884765625" lon="118.74385829083621501922607421875">
        <ele>5.599999904632568359375</ele>
        <time>2024-05-09T10:26:24.000Z</time>
        <extensions>
          <ns3:TrackPointExtension/>
        </extensions>
      </trkpt>
      <trkpt lat="32.00211712159216403961181640625" lon="118.743881173431873321533203125">
        <ele>5.599999904632568359375</ele>
        <time>2024-05-09T10:26:25.000Z</time>
        <extensions>
          <ns3:TrackPointExtension>
            <ns3:hr>134</ns3:hr>
            <ns3:cad>89</ns3:cad>
          </ns3:TrackPointExtension>
        </extensions>
      </trkpt>
      <trkpt lat="32.00210563838481903076171875" lon="118.74390405602753162384033203125">
        <ele>5.400000095367431640625</ele>
        <time>2024-05-09T10:26:26.000Z</time>
        <extensions>
          <ns3:TrackPointExtension/>
        </extensions>
      </trkpt>
      <trkpt lat="32.00209801085293292999267578125" lon="118.74393456615507602691650390625">
        <ele>5.19999980926513671875</ele>
        <time>2024-05-09T10:26:27.000Z</time>
        <extensions>
          <ns3:TrackPointExtension/>
        </extensions>
      </trkpt>
      <trkpt lat="32.0020942389965057373046875" lon="118.74396507628262042999267578125">
        <ele>5</ele>
        <time>2024-05-09T10:26:28.000Z</time>
        <extensions>
          <ns3:TrackPointExtension/>
        </extensions>
      </trkpt>
      <trkpt lat="32.0020903833210468292236328125" lon="118.74399558641016483306884765625">
        <ele>5</ele>
        <time>2024-05-09T10:26:29.000Z</time>
        <extensions>
          <ns3:TrackPointExtension/>
        </extensions>
      </trkpt>
      <trkpt lat="32.0020903833210468292236328125" lon="118.74401855282485485076904296875">
        <ele>5</ele>
        <time>2024-05-09T10:26:30.000Z</time>
        <extensions>
          <ns3:TrackPointExtension>
            <ns3:hr>137</ns3:hr>
            <ns3:cad>90</ns3:cad>
          </ns3:TrackPointExtension>
        </extensions>
      </trkpt>
      <trkpt lat="32.0020903833210468292236328125" lon="118.744041435420513153076171875">
        <ele>5</ele>
        <time>2024-05-09T10:26:31.000Z</time>
        <extensions>
          <ns3:TrackPointExtension/>
        </extensions>
      </trkpt>
      <trkpt lat="32.0020903833210468292236328125" lon="118.74407194554805755615234375">
        <ele>5</ele>
        <time>2024-05-09T10:26:32.000Z</time>
        <extensions>
          <ns3:TrackPointExtension/>
        </extensions>
      </trkpt>
      <trkpt lat="32.0020942389965057373046875" lon="118.74409482814371585845947265625">
        <ele>5</ele>
        <time>2024-05-09T10:26:33.000Z</time>
        <extensions>
          <ns3:TrackPointExtension/>
        </extensions>
      </trkpt>
      <trkpt lat="32.00210186652839183807373046875" lon="118.7441177107393741607666015625">
        <ele>5.19999980926513671875</ele>
        <time>2024-05-09T10:26:34.000Z</time>
        <extensions>
          <ns3:TrackPointExtension/>
        </extensions>
      </trkpt>
      <trkpt lat="32.00210186652839183807373046875" lon="118.74414059333503246307373046875">
        <ele>5.19999980926513671875</ele>
        <time>2024-05-09T10:26:35.000Z</time>
        <extensions>
          <ns3:TrackPointExtension>
            <ns3:hr>139</ns3:hr>
            <ns3:cad>91</ns3:cad>
          </ns3:TrackPointExtension>
        </extensions>
      </trkpt>
      <trkpt lat="32.00209801085293292999267578125" lon="118.744163475930690765380859375">
        <ele>5.19999980926513671875</ele>
        <time>2024-05-09T10:26:36.000Z</time>
        <extensions>
          <ns3:TrackPointExtension/>
        </extensions>
      </trkpt>
      <trkpt lat="32.0020903833210468292236328125" lon="118.74418635852634906768798828125">
        <ele>5</ele>
        <time>2024-05-09T10:26:37.000Z</time>
        <extensions>
          <ns3:TrackPointExtension/>
        </extensions>
      </trkpt>
      <trkpt lat="32.00208275578916072845458984375" lon="118.7442092411220073699951171875">
        <ele>5</ele>
        <time>2024-05-09T10:26:38.000Z</time>
        <extensions>
          <ns3:TrackPointExtension/>
        </extensions>
      </trkpt>
      <trkpt lat="32.00207135640084743499755859375" lon="118.74423212371766567230224609375">
        <ele>5</ele>
        <time>2024-05-09T10:26:39.000Z</time>
        <extensions>
          <ns3:TrackPointExtension/>
        </extensions>
      </trkpt>
      <trkpt lat="32.00206750072538852691650390625" lon="118.74424737878143787384033203125">
        <ele>4.80000019073486328125</ele>
        <time>2024-05-09T10:26:40.000Z</time>
        <extensions>
          <ns3:TrackPointExtension>
            <ns3:hr>141</ns3:hr>
            <ns3:cad>90</ns3:cad>
          </ns3:TrackPointExtension>
        </extensions>
      </trkpt>
      <trkpt lat="32.002063728868961334228515625" lon="118.74427788890898227691650390625">
        <ele>4.80000019073486328125</ele>
        <time>2024-05-09T10:26:41.000Z</time>
        <extensions>
          <ns3:TrackPointExtension/>
        </extensions>
      </trkpt>
      <trkpt lat="32.002063728868961334228515625" lon="118.74430839903652667999267578125">
        <ele>4.80000019073486328125</ele>
        <time>2024-05-09T10:26:42.000Z</time>
        <extensions>
          <ns3:TrackPointExtension/>
        </extensions>
      </trkpt>
      <trkpt lat="32.002063728868961334228515625" lon="118.744346536695957183837890625">
        <ele>4.80000019073486328125</ele>
        <time>2024-05-09T10:26:43.000Z</time>
        <extensions>
          <ns3:TrackPointExtension/>
        </extensions>
      </trkpt>
      <trkpt lat="32.002063728868961334228515625" lon="118.74437713064253330230712890625">
        <ele>4.80000019073486328125</ele>
        <time>2024-05-09T10:26:44.000Z</time>
        <extensions>
          <ns3:TrackPointExtension/>
        </extensions>
      </trkpt>
      <trkpt lat="32.002063728868961334228515625" lon="118.74440764077007770538330078125">
        <ele>4.80000019073486328125</ele>
        <time>2024-05-09T10:26:45.000Z</time>
        <extensions>
          <ns3:TrackPointExtension>
            <ns3:hr>139</ns3:hr>
            <ns3:cad>89</ns3:cad>
          </ns3:TrackPointExtension>
        </extensions>
      </trkpt>
      <trkpt lat="32.0020598731935024261474609375" lon="118.74443815089762210845947265625">
        <ele>4.80000019073486328125</ele>
        <time>2024-05-09T10:26:46.000Z</time>
        <extensions>
          <ns3:TrackPointExtension/>
        </extensions>
      </trkpt>
      <trkpt lat="32.00205610133707523345947265625" lon="118.74446866102516651153564453125">
        <ele>4.80000019073486328125</ele>
        <time>2024-05-09T10:26:47.000Z</time>
        <extensions>
          <ns3:TrackPointExtension/>
        </extensions>
      </trkpt>
      <trkpt lat="32.0020484738051891326904296875" lon="118.74449917115271091461181640625">
        <ele>4.80000019073486328125</ele>
        <time>2024-05-09T10:26:48.000Z</time>
        <extensions>
          <ns3:TrackPointExtension/>
        </extensions>
      </trkpt>
      <trkpt lat="32.00204084627330303192138671875" lon="118.7445220537483692169189453125">
        <ele>4.80000019073486328125</ele>
        <time>2024-05-09T10:26:49.000Z</time>
        <extensions>
          <ns3:TrackPointExtension/>
        </extensions>
      </trkpt>
      <trkpt lat="32.00203321874141693115234375" lon="118.74454493634402751922607421875">
        <ele>4.80000019073486328125</ele>
        <time>2024-05-09T10:26:50.000Z</time>
        <extensions>
          <ns3:TrackPointExtension>
            <ns3:hr>142</ns3:hr>
            <ns3:cad>88</ns3:cad>
          </ns3:TrackPointExtension>
        </extensions>
      </trkpt>
      <trkpt lat="32.00202559120953083038330078125" lon="118.744567818939685821533203125">
        <ele>4.80000019073486328125</ele>
        <time>2024-05-09T10:26:51.000Z</time>
        <extensions>
          <ns3:TrackPointExtension/>
        </extensions>
      </trkpt>
      <trkpt lat="32.00202173553407192230224609375" lon="118.7445830740034580230712890625">
        <ele>4.80000019073486328125</ele>
        <time>2024-05-09T10:26:52.000Z</time>
        <extensions>
          <ns3:TrackPointExtension/>
        </extensions>
      </trkpt>
      <trkpt lat="32.002014108002185821533203125" lon="118.74460595659911632537841796875">
        <ele>4.80000019073486328125</ele>
        <time>2024-05-09T10:26:53.000Z</time>
        <extensions>
          <ns3:TrackPointExtension/>
        </extensions>
      </trkpt>
      <trkpt lat="32.00200648047029972076416015625" lon="118.74462121166288852691650390625">
        <ele>4.80000019073486328125</ele>
        <time>2024-05-09T10:26:54.000Z</time>
        <extensions>
          <ns3:TrackPointExtension/>
        </extensions>
      </trkpt>
      <trkpt lat="32.00199508108198642730712890625" lon="118.7446440942585468292236328125">
        <ele>4.599999904632568359375</ele>
        <time>2024-05-09T10:26:55.000Z</time>
        <extensions>
          <ns3:TrackPointExtension>
            <ns3:hr>144</ns3:hr>
            <ns3:cad>88</ns3:cad>
          </ns3:TrackPointExtension>
        </extensions>
      </trkpt>
      <trkpt lat="32.0019874535501003265380859375" lon="118.74466697685420513153076171875">
        <ele>4.599999904632568359375</ele>
        <time>2024-05-09T10:26:56.000Z</time>
        <extensions>
          <ns3:TrackPointExtension/>
        </extensions>
      </trkpt>
      <trkpt lat="32.00197597034275531768798828125" lon="118.744689859449863433837890625">
        <ele>4.599999904632568359375</ele>
        <time>2024-05-09T10:26:57.000Z</time>
        <extensions>
          <ns3:TrackPointExtension/>
        </extensions>
      </trkpt>
      <trkpt lat="32.0019683428108692169189453125" lon="118.7447128258645534515380859375">
        <ele>4.80000019073486328125</ele>
        <time>2024-05-09T10:26:58.000Z</time>
        <extensions>
          <ns3:TrackPointExtension/>
        </extensions>
      </trkpt>
      <trkpt lat="32.00196071527898311614990234375" lon="118.7447433359920978546142578125">
        <ele>4.80000019073486328125</ele>
        <time>2024-05-09T10:26:59.000Z</time>
        <extensions>
          <ns3:TrackPointExtension/>
        </extensions>
      </trkpt>
      <trkpt lat="32.00195685960352420806884765625" lon="118.74476621858775615692138671875">
        <ele>5</ele>
        <time>2024-05-09T10:27:00.000Z</time>
        <extensions>
          <ns3:TrackPointExtension>
            <ns3:hr>145</ns3:hr>
            <ns3:cad>88</ns3:cad>
          </ns3:TrackPointExtension>
        </extensions>
      </trkpt>
      <trkpt lat="32.0019492320716381072998046875" lon="118.744789101183414459228515625">
        <ele>5</ele>
        <time>2024-05-09T10:27:01.000Z</time>
        <extensions>
          <ns3:TrackPointExtension/>
        </extensions>
      </trkpt>
      <trkpt lat="32.00194546021521091461181640625" lon="118.74481198377907276153564453125">
        <ele>5</ele>
        <time>2024-05-09T10:27:02.000Z</time>
        <extensions>
          <ns3:TrackPointExtension/>
        </extensions>
      </trkpt>
      <trkpt lat="32.00194160453975200653076171875" lon="118.74484249390661716461181640625">
        <ele>5.19999980926513671875</ele>
        <time>2024-05-09T10:27:03.000Z</time>
        <extensions>
          <ns3:TrackPointExtension/>
        </extensions>
      </trkpt>
      <trkpt lat="32.00193397700786590576171875" lon="118.7448653765022754669189453125">
        <ele>5.19999980926513671875</ele>
        <time>2024-05-09T10:27:04.000Z</time>
        <extensions>
          <ns3:TrackPointExtension/>
        </extensions>
      </trkpt>
      <trkpt lat="32.00193020515143871307373046875" lon="118.74488825909793376922607421875">
        <ele>5.400000095367431640625</ele>
        <time>2024-05-09T10:27:05.000Z</time>
        <extensions>
          <ns3:TrackPointExtension>
            <ns3:hr>145</ns3:hr>
            <ns3:cad>88</ns3:cad>
          </ns3:TrackPointExtension>
        </extensions>
      </trkpt>
      <trkpt lat="32.00192634947597980499267578125" lon="118.744911141693592071533203125">
        <ele>5.400000095367431640625</ele>
        <time>2024-05-09T10:27:06.000Z</time>
        <extensions>
          <ns3:TrackPointExtension/>
        </extensions>
      </trkpt>
      <trkpt lat="32.0019225776195526123046875" lon="118.74493402428925037384033203125">
        <ele>5.400000095367431640625</ele>
        <time>2024-05-09T10:27:07.000Z</time>
        <extensions>
          <ns3:TrackPointExtension/>
        </extensions>
      </trkpt>
      <trkpt lat="32.00191495008766651153564453125" lon="118.74496453441679477691650390625">
        <ele>5.400000095367431640625</ele>
        <time>2024-05-09T10:27:08.000Z</time>
        <extensions>
          <ns3:TrackPointExtension/>
        </extensions>
      </trkpt>
      <trkpt lat="32.001903466880321502685546875" lon="118.7449874170124530792236328125">
        <ele>5.400000095367431640625</ele>
        <time>2024-05-09T10:27:09.000Z</time>
        <extensions>
          <ns3:TrackPointExtension/>
        </extensions>
      </trkpt>
      <trkpt lat="32.001892067492008209228515625" lon="118.74500267207622528076171875">
        <ele>5.400000095367431640625</ele>
        <time>2024-05-09T10:27:10.000Z</time>
        <extensions>
          <ns3:TrackPointExtension>
            <ns3:hr>145</ns3:hr>
            <ns3:cad>88</ns3:cad>
          </ns3:TrackPointExtension>
        </extensions>
      </trkpt>
      <trkpt lat="32.0018768124282360076904296875" lon="118.74502555467188358306884765625">
        <ele>5.19999980926513671875</ele>
        <time>2024-05-09T10:27:11.000Z</time>
        <extensions>
          <ns3:TrackPointExtension/>
        </extensions>
      </trkpt>
      <trkpt lat="32.00186155736446380615234375" lon="118.7450408935546875">
        <ele>5.19999980926513671875</ele>
        <time>2024-05-09T10:27:12.000Z</time>
        <extensions>
          <ns3:TrackPointExtension/>
        </extensions>
      </trkpt>
      <trkpt lat="32.0018463023006916046142578125" lon="118.74506377615034580230712890625">
        <ele>5.19999980926513671875</ele>
        <time>2024-05-09T10:27:13.000Z</time>
        <extensions>
          <ns3:TrackPointExtension/>
        </extensions>
      </trkpt>
      <trkpt lat="32.001831047236919403076171875" lon="118.74507903121411800384521484375">
        <ele>5</ele>
        <time>2024-05-09T10:27:14.000Z</time>
        <extensions>
          <ns3:TrackPointExtension/>
        </extensions>
      </trkpt>
      <trkpt lat="32.00181956402957439422607421875" lon="118.74510191380977630615234375">
        <ele>5</ele>
        <time>2024-05-09T10:27:15.000Z</time>
        <extensions>
          <ns3:TrackPointExtension>
            <ns3:hr>145</ns3:hr>
            <ns3:cad>87</ns3:cad>
          </ns3:TrackPointExtension>
        </extensions>
      </trkpt>
      <trkpt lat="32.00180816464126110076904296875" lon="118.7451171688735485076904296875">
        <ele>5</ele>
        <time>2024-05-09T10:27:16.000Z</time>
        <extensions>
          <ns3:TrackPointExtension/>
        </extensions>
      </trkpt>
      <trkpt lat="32.0017966814339160919189453125" lon="118.74514005146920680999755859375">
        <ele>5</ele>
        <time>2024-05-09T10:27:17.000Z</time>
        <extensions>
          <ns3:TrackPointExtension/>
        </extensions>
      </trkpt>
      <trkpt lat="32.00178519822657108306884765625" lon="118.74515530653297901153564453125">
        <ele>5</ele>
        <time>2024-05-09T10:27:18.000Z</time>
        <extensions>
          <ns3:TrackPointExtension/>
        </extensions>
      </trkpt>
      <trkpt lat="32.00177379883825778961181640625" lon="118.7451781891286373138427734375">
        <ele>5</ele>
        <time>2024-05-09T10:27:19.000Z</time>
        <extensions>
          <ns3:TrackPointExtension/>
        </extensions>
      </trkpt>
      <trkpt lat="32.00175854377448558807373046875" lon="118.745193444192409515380859375">
        <ele>5</ele>
        <time>2024-05-09T10:27:20.000Z</time>
        <extensions>
          <ns3:TrackPointExtension>
            <ns3:hr>144</ns3:hr>
            <ns3:cad>86</ns3:cad>
          </ns3:TrackPointExtension>
        </extensions>
      </trkpt>
      <trkpt lat="32.00174328871071338653564453125" lon="118.7452086992561817169189453125">
        <ele>5</ele>
        <time>2024-05-09T10:27:21.000Z</time>
        <extensions>
          <ns3:TrackPointExtension/>
        </extensions>
      </trkpt>
      <trkpt lat="32.001731805503368377685546875" lon="118.74522395431995391845703125">
        <ele>5</ele>
        <time>2024-05-09T10:27:22.000Z</time>
        <extensions>
          <ns3:TrackPointExtension/>
        </extensions>
      </trkpt>
      <trkpt lat="32.0017165504395961761474609375" lon="118.7452392093837261199951171875">
        <ele>5</ele>
        <time>2024-05-09T10:27:23.000Z</time>
        <extensions>
          <ns3:TrackPointExtension/>
        </extensions>
      </trkpt>
      <trkpt lat="32.00169752351939678192138671875" lon="118.745254464447498321533203125">
        <ele>5</ele>
        <time>2024-05-09T10:27:24.000Z</time>
        <extensions>
          <ns3:TrackPointExtension/>
        </extensions>
      </trkpt>
      <trkpt lat="32.00168226845562458038330078125" lon="118.7452697195112705230712890625">
        <ele>5.19999980926513671875</ele>
        <time>2024-05-09T10:27:25.000Z</time>
        <extensions>
          <ns3:TrackPointExtension>
            <ns3:hr>145</ns3:hr>
            <ns3:cad>87</ns3:cad>
          </ns3:TrackPointExtension>
        </extensions>
      </trkpt>
      <trkpt lat="32.00166701339185237884521484375" lon="118.74529260210692882537841796875">
        <ele>5.400000095367431640625</ele>
        <time>2024-05-09T10:27:26.000Z</time>
        <extensions>
          <ns3:TrackPointExtension/>
        </extensions>
      </trkpt>
      <trkpt lat="32.00165175832808017730712890625" lon="118.74530785717070102691650390625">
        <ele>5.400000095367431640625</ele>
        <time>2024-05-09T10:27:27.000Z</time>
        <extensions>
          <ns3:TrackPointExtension/>
        </extensions>
      </trkpt>
      <trkpt lat="32.00163650326430797576904296875" lon="118.7453307397663593292236328125">
        <ele>5.599999904632568359375</ele>
        <time>2024-05-09T10:27:28.000Z</time>
        <extensions>
          <ns3:TrackPointExtension/>
        </extensions>
      </trkpt>
      <trkpt lat="32.001621164381504058837890625" lon="118.74535362236201763153076171875">
        <ele>5.599999904632568359375</ele>
        <time>2024-05-09T10:27:29.000Z</time>
        <extensions>
          <ns3:TrackPointExtension/>
        </extensions>
      </trkpt>
      <trkpt lat="32.0016059093177318572998046875" lon="118.745376504957675933837890625">
        <ele>5.80000019073486328125</ele>
        <time>2024-05-09T10:27:30.000Z</time>
        <extensions>
          <ns3:TrackPointExtension>
            <ns3:hr>146</ns3:hr>
            <ns3:cad>87</ns3:cad>
          </ns3:TrackPointExtension>
        </extensions>
      </trkpt>
      <trkpt lat="32.00159065425395965576171875" lon="118.7453994713723659515380859375">
        <ele>5.80000019073486328125</ele>
        <time>2024-05-09T10:27:31.000Z</time>
        <extensions>
          <ns3:TrackPointExtension/>
        </extensions>
      </trkpt>
      <trkpt lat="32.0015753991901874542236328125" lon="118.745414726436138153076171875">
        <ele>5.80000019073486328125</ele>
        <time>2024-05-09T10:27:32.000Z</time>
        <extensions>
          <ns3:TrackPointExtension/>
        </extensions>
      </trkpt>
      <trkpt lat="32.00155637226998805999755859375" lon="118.74543760903179645538330078125">
        <ele>5.80000019073486328125</ele>
        <time>2024-05-09T10:27:33.000Z</time>
        <extensions>
          <ns3:TrackPointExtension/>
        </extensions>
      </trkpt>
      <trkpt lat="32.00154111720621585845947265625" lon="118.74545286409556865692138671875">
        <ele>6</ele>
        <time>2024-05-09T10:27:34.000Z</time>
        <extensions>
          <ns3:TrackPointExtension/>
        </extensions>
      </trkpt>
      <trkpt lat="32.00152586214244365692138671875" lon="118.74546811915934085845947265625">
        <ele>6</ele>
        <time>2024-05-09T10:27:35.000Z</time>
        <extensions>
          <ns3:TrackPointExtension>
            <ns3:hr>147</ns3:hr>
            <ns3:cad>86</ns3:cad>
          </ns3:TrackPointExtension>
        </extensions>
      </trkpt>
      <trkpt lat="32.00151060707867145538330078125" lon="118.7454910017549991607666015625">
        <ele>6</ele>
        <time>2024-05-09T10:27:36.000Z</time>
        <extensions>
          <ns3:TrackPointExtension/>
        </extensions>
      </trkpt>
      <trkpt lat="32.001499123871326446533203125" lon="118.7455062568187713623046875">
        <ele>6.19999980926513671875</ele>
        <time>2024-05-09T10:27:37.000Z</time>
        <extensions>
          <ns3:TrackPointExtension/>
        </extensions>
      </trkpt>
      <trkpt lat="32.0014838688075542449951171875" lon="118.7455215118825435638427734375">
        <ele>6.19999980926513671875</ele>
        <time>2024-05-09T10:27:38.000Z</time>
        <extensions>
          <ns3:TrackPointExtension/>
        </extensions>
      </trkpt>
      <trkpt lat="32.0014724694192409515380859375" lon="118.74554439447820186614990234375">
        <ele>6.19999980926513671875</ele>
        <time>2024-05-09T10:27:39.000Z</time>
        <extensions>
          <ns3:TrackPointExtension/>
        </extensions>
      </trkpt>
      <trkpt lat="32.00145721435546875" lon="118.74556727707386016845703125">
        <ele>6.19999980926513671875</ele>
        <time>2024-05-09T10:27:40.000Z</time>
        <extensions>
          <ns3:TrackPointExtension>
            <ns3:hr>147</ns3:hr>
            <ns3:cad>87</ns3:cad>
          </ns3:TrackPointExtension>
        </extensions>
      </trkpt>
      <trkpt lat="32.00144573114812374114990234375" lon="118.7455825321376323699951171875">
        <ele>6.19999980926513671875</ele>
        <time>2024-05-09T10:27:41.000Z</time>
        <extensions>
          <ns3:TrackPointExtension/>
        </extensions>
      </trkpt>
      <trkpt lat="32.00143047608435153961181640625" lon="118.7456130422651767730712890625">
        <ele>6.400000095367431640625</ele>
        <time>2024-05-09T10:27:42.000Z</time>
        <extensions>
          <ns3:TrackPointExtension/>
        </extensions>
      </trkpt>
      <trkpt lat="32.00141899287700653076171875" lon="118.74563592486083507537841796875">
        <ele>6.400000095367431640625</ele>
        <time>2024-05-09T10:27:43.000Z</time>
        <extensions>
          <ns3:TrackPointExtension/>
        </extensions>
      </trkpt>
      <trkpt lat="32.0014075934886932373046875" lon="118.745658807456493377685546875">
        <ele>6.400000095367431640625</ele>
        <time>2024-05-09T10:27:44.000Z</time>
        <extensions>
          <ns3:TrackPointExtension/>
        </extensions>
      </trkpt>
      <trkpt lat="32.00139611028134822845458984375" lon="118.74568931758403778076171875">
        <ele>6.400000095367431640625</ele>
        <time>2024-05-09T10:27:45.000Z</time>
        <extensions>
          <ns3:TrackPointExtension>
            <ns3:hr>149</ns3:hr>
            <ns3:cad>86</ns3:cad>
          </ns3:TrackPointExtension>
        </extensions>
      </trkpt>
      <trkpt lat="32.00138471089303493499755859375" lon="118.74571220017969608306884765625">
        <ele>6.599999904632568359375</ele>
        <time>2024-05-09T10:27:46.000Z</time>
        <extensions>
          <ns3:TrackPointExtension/>
        </extensions>
      </trkpt>
      <trkpt lat="32.00136945582926273345947265625" lon="118.7457427941262722015380859375">
        <ele>6.599999904632568359375</ele>
        <time>2024-05-09T10:27:47.000Z</time>
        <extensions>
          <ns3:TrackPointExtension/>
        </extensions>
      </trkpt>
      <trkpt lat="32.001357972621917724609375" lon="118.74576567672193050384521484375">
        <ele>6.599999904632568359375</ele>
        <time>2024-05-09T10:27:48.000Z</time>
        <extensions>
          <ns3:TrackPointExtension/>
        </extensions>
      </trkpt>
      <trkpt lat="32.00135034509003162384033203125" lon="118.74578855931758880615234375">
        <ele>6.599999904632568359375</ele>
        <time>2024-05-09T10:27:49.000Z</time>
        <extensions>
          <ns3:TrackPointExtension/>
        </extensions>
      </trkpt>
      <trkpt lat="32.0013427175581455230712890625" lon="118.745819069445133209228515625">
        <ele>6.599999904632568359375</ele>
        <time>2024-05-09T10:27:50.000Z</time>
        <extensions>
          <ns3:TrackPointExtension>
            <ns3:hr>154</ns3:hr>
            <ns3:cad>87</ns3:cad>
          </ns3:TrackPointExtension>
        </extensions>
      </trkpt>
      <trkpt lat="32.0013313181698322296142578125" lon="118.74584195204079151153564453125">
        <ele>6.80000019073486328125</ele>
        <time>2024-05-09T10:27:51.000Z</time>
        <extensions>
          <ns3:TrackPointExtension/>
        </extensions>
      </trkpt>
      <trkpt lat="32.00132369063794612884521484375" lon="118.74587246216833591461181640625">
        <ele>6.80000019073486328125</ele>
        <time>2024-05-09T10:27:52.000Z</time>
        <extensions>
          <ns3:TrackPointExtension/>
        </extensions>
      </trkpt>
      <trkpt lat="32.001316063106060028076171875" lon="118.7458953447639942169189453125">
        <ele>6.80000019073486328125</ele>
        <time>2024-05-09T10:27:53.000Z</time>
        <extensions>
          <ns3:TrackPointExtension/>
        </extensions>
      </trkpt>
      <trkpt lat="32.00130457989871501922607421875" lon="118.74591059982776641845703125">
        <ele>6.80000019073486328125</ele>
        <time>2024-05-09T10:27:54.000Z</time>
        <extensions>
          <ns3:TrackPointExtension/>
        </extensions>
      </trkpt>
      <trkpt lat="32.00129695236682891845703125" lon="118.74593348242342472076416015625">
        <ele>6.80000019073486328125</ele>
        <time>2024-05-09T10:27:55.000Z</time>
        <extensions>
          <ns3:TrackPointExtension>
            <ns3:hr>158</ns3:hr>
            <ns3:cad>88</ns3:cad>
          </ns3:TrackPointExtension>
        </extensions>
      </trkpt>
      <trkpt lat="32.00128932483494281768798828125" lon="118.7459563650190830230712890625">
        <ele>6.80000019073486328125</ele>
        <time>2024-05-09T10:27:56.000Z</time>
        <extensions>
          <ns3:TrackPointExtension/>
        </extensions>
      </trkpt>
      <trkpt lat="32.001277841627597808837890625" lon="118.74597924761474132537841796875">
        <ele>6.80000019073486328125</ele>
        <time>2024-05-09T10:27:57.000Z</time>
        <extensions>
          <ns3:TrackPointExtension/>
        </extensions>
      </trkpt>
      <trkpt lat="32.00127021409571170806884765625" lon="118.746002130210399627685546875">
        <ele>6.599999904632568359375</ele>
        <time>2024-05-09T10:27:58.000Z</time>
        <extensions>
          <ns3:TrackPointExtension/>
        </extensions>
      </trkpt>
      <trkpt lat="32.0012625865638256072998046875" lon="118.74603264033794403076171875">
        <ele>6.599999904632568359375</ele>
        <time>2024-05-09T10:27:59.000Z</time>
        <extensions>
          <ns3:TrackPointExtension/>
        </extensions>
      </trkpt>
      <trkpt lat="32.00125495903193950653076171875" lon="118.74605552293360233306884765625">
        <ele>6.400000095367431640625</ele>
        <time>2024-05-09T10:28:00.000Z</time>
        <extensions>
          <ns3:TrackPointExtension>
            <ns3:hr>159</ns3:hr>
            <ns3:cad>87</ns3:cad>
          </ns3:TrackPointExtension>
        </extensions>
      </trkpt>
      <trkpt lat="32.00124733150005340576171875" lon="118.7460861168801784515380859375">
        <ele>6.400000095367431640625</ele>
        <time>2024-05-09T10:28:01.000Z</time>
        <extensions>
          <ns3:TrackPointExtension/>
        </extensions>
      </trkpt>
      <trkpt lat="32.00123970396816730499267578125" lon="118.74610899947583675384521484375">
        <ele>6.19999980926513671875</ele>
        <time>2024-05-09T10:28:02.000Z</time>
        <extensions>
          <ns3:TrackPointExtension/>
        </extensions>
      </trkpt>
      <trkpt lat="32.00122830457985401153564453125" lon="118.74613188207149505615234375">
        <ele>6.19999980926513671875</ele>
        <time>2024-05-09T10:28:03.000Z</time>
        <extensions>
          <ns3:TrackPointExtension/>
        </extensions>
      </trkpt>
      <trkpt lat="32.001216821372509002685546875" lon="118.7461471371352672576904296875">
        <ele>6.19999980926513671875</ele>
        <time>2024-05-09T10:28:04.000Z</time>
        <extensions>
          <ns3:TrackPointExtension/>
        </extensions>
      </trkpt>
      <trkpt lat="32.001205421984195709228515625" lon="118.74617001973092555999755859375">
        <ele>6.19999980926513671875</ele>
        <time>2024-05-09T10:28:05.000Z</time>
        <extensions>
          <ns3:TrackPointExtension>
            <ns3:hr>160</ns3:hr>
            <ns3:cad>87</ns3:cad>
          </ns3:TrackPointExtension>
        </extensions>
      </trkpt>
      <trkpt lat="32.00119393877685070037841796875" lon="118.7461929023265838623046875">
        <ele>6.19999980926513671875</ele>
        <time>2024-05-09T10:28:06.000Z</time>
        <extensions>
          <ns3:TrackPointExtension/>
        </extensions>
      </trkpt>
      <trkpt lat="32.00117868371307849884033203125" lon="118.74621578492224216461181640625">
        <ele>6.19999980926513671875</ele>
        <time>2024-05-09T10:28:07.000Z</time>
        <extensions>
          <ns3:TrackPointExtension/>
        </extensions>
      </trkpt>
      <trkpt lat="32.00116342864930629730224609375" lon="118.7462386675179004669189453125">
        <ele>6</ele>
        <time>2024-05-09T10:28:08.000Z</time>
        <extensions>
          <ns3:TrackPointExtension/>
        </extensions>
      </trkpt>
      <trkpt lat="32.00114817358553409576416015625" lon="118.74626155011355876922607421875">
        <ele>6</ele>
        <time>2024-05-09T10:28:09.000Z</time>
        <extensions>
          <ns3:TrackPointExtension/>
        </extensions>
      </trkpt>
      <trkpt lat="32.00113291852176189422607421875" lon="118.74627680517733097076416015625">
        <ele>6</ele>
        <time>2024-05-09T10:28:10.000Z</time>
        <extensions>
          <ns3:TrackPointExtension>
            <ns3:hr>160</ns3:hr>
            <ns3:cad>87</ns3:cad>
          </ns3:TrackPointExtension>
        </extensions>
      </trkpt>
      <trkpt lat="32.00111766345798969268798828125" lon="118.74629206024110317230224609375">
        <ele>6</ele>
        <time>2024-05-09T10:28:11.000Z</time>
        <extensions>
          <ns3:TrackPointExtension/>
        </extensions>
      </trkpt>
      <trkpt lat="32.00110240839421749114990234375" lon="118.746314942836761474609375">
        <ele>6</ele>
        <time>2024-05-09T10:28:12.000Z</time>
        <extensions>
          <ns3:TrackPointExtension/>
        </extensions>
      </trkpt>
      <trkpt lat="32.00108715333044528961181640625" lon="118.7463301979005336761474609375">
        <ele>6</ele>
        <time>2024-05-09T10:28:13.000Z</time>
        <extensions>
          <ns3:TrackPointExtension/>
        </extensions>
      </trkpt>
      <trkpt lat="32.00107567012310028076171875" lon="118.746345452964305877685546875">
        <ele>6</ele>
        <time>2024-05-09T10:28:14.000Z</time>
        <extensions>
          <ns3:TrackPointExtension/>
        </extensions>
      </trkpt>
      <trkpt lat="32.0010604150593280792236328125" lon="118.7463607080280780792236328125">
        <ele>6</ele>
        <time>2024-05-09T10:28:15.000Z</time>
        <extensions>
          <ns3:TrackPointExtension>
            <ns3:hr>162</ns3:hr>
            <ns3:cad>88</ns3:cad>
          </ns3:TrackPointExtension>
        </extensions>
      </trkpt>
      <trkpt lat="32.00104138813912868499755859375" lon="118.74638359062373638153076171875">
        <ele>6</ele>
        <time>2024-05-09T10:28:16.000Z</time>
        <extensions>
          <ns3:TrackPointExtension/>
        </extensions>
      </trkpt>
      <trkpt lat="32.0010299049317836761474609375" lon="118.746406473219394683837890625">
        <ele>6</ele>
        <time>2024-05-09T10:28:17.000Z</time>
        <extensions>
          <ns3:TrackPointExtension/>
        </extensions>
      </trkpt>
      <trkpt lat="32.001014649868011474609375" lon="118.7464294396340847015380859375">
        <ele>6</ele>
        <time>2024-05-09T10:28:18.000Z</time>
        <extensions>
          <ns3:TrackPointExtension/>
        </extensions>
      </trkpt>
      <trkpt lat="32.00100325047969818115234375" lon="118.74645232222974300384521484375">
        <ele>6</ele>
        <time>2024-05-09T10:28:19.000Z</time>
        <extensions>
          <ns3:TrackPointExtension/>
        </extensions>
      </trkpt>
      <trkpt lat="32.0009879954159259796142578125" lon="118.74648283235728740692138671875">
        <ele>6</ele>
        <time>2024-05-09T10:28:20.000Z</time>
        <extensions>
          <ns3:TrackPointExtension>
            <ns3:hr>165</ns3:hr>
            <ns3:cad>87</ns3:cad>
          </ns3:TrackPointExtension>
        </extensions>
      </trkpt>
      <trkpt lat="32.00097651220858097076416015625" lon="118.746505714952945709228515625">
        <ele>6</ele>
        <time>2024-05-09T10:28:21.000Z</time>
        <extensions>
          <ns3:TrackPointExtension/>
        </extensions>
      </trkpt>
      <trkpt lat="32.00096511282026767730712890625" lon="118.7465362250804901123046875">
        <ele>6</ele>
        <time>2024-05-09T10:28:22.000Z</time>
        <extensions>
          <ns3:TrackPointExtension/>
        </extensions>
      </trkpt>
      <trkpt lat="32.0009574852883815765380859375" lon="118.74655910767614841461181640625">
        <ele>6</ele>
        <time>2024-05-09T10:28:23.000Z</time>
        <extensions>
          <ns3:TrackPointExtension/>
        </extensions>
      </trkpt>
      <trkpt lat="32.00094985775649547576904296875" lon="118.74658961780369281768798828125">
        <ele>6</ele>
        <time>2024-05-09T10:28:24.000Z</time>
        <extensions>
          <ns3:TrackPointExtension/>
        </extensions>
      </trkpt>
      <trkpt lat="32.000942230224609375" lon="118.7466125003993511199951171875">
        <ele>6.19999980926513671875</ele>
        <time>2024-05-09T10:28:25.000Z</time>
        <extensions>
          <ns3:TrackPointExtension>
            <ns3:hr>164</ns3:hr>
            <ns3:cad>87</ns3:cad>
          </ns3:TrackPointExtension>
        </extensions>
      </trkpt>
      <trkpt lat="32.00093074701726436614990234375" lon="118.7466430105268955230712890625">
        <ele>6.19999980926513671875</ele>
        <time>2024-05-09T10:28:26.000Z</time>
        <extensions>
          <ns3:TrackPointExtension/>
        </extensions>
      </trkpt>
      <trkpt lat="32.0009192638099193572998046875" lon="118.7466735206544399261474609375">
        <ele>6.19999980926513671875</ele>
        <time>2024-05-09T10:28:27.000Z</time>
        <extensions>
          <ns3:TrackPointExtension/>
        </extensions>
      </trkpt>
      <trkpt lat="32.0009078644216060638427734375" lon="118.74669640325009822845458984375">
        <ele>6.400000095367431640625</ele>
        <time>2024-05-09T10:28:28.000Z</time>
        <extensions>
          <ns3:TrackPointExtension/>
        </extensions>
      </trkpt>
      <trkpt lat="32.00090023688971996307373046875" lon="118.74672691337764263153076171875">
        <ele>6.400000095367431640625</ele>
        <time>2024-05-09T10:28:29.000Z</time>
        <extensions>
          <ns3:TrackPointExtension/>
        </extensions>
      </trkpt>
      <trkpt lat="32.00089638121426105499267578125" lon="118.746749795973300933837890625">
        <ele>6.599999904632568359375</ele>
        <time>2024-05-09T10:28:30.000Z</time>
        <extensions>
          <ns3:TrackPointExtension>
            <ns3:hr>165</ns3:hr>
            <ns3:cad>87</ns3:cad>
          </ns3:TrackPointExtension>
        </extensions>
      </trkpt>
      <trkpt lat="32.0008887536823749542236328125" lon="118.74678038991987705230712890625">
        <ele>6.80000019073486328125</ele>
        <time>2024-05-09T10:28:31.000Z</time>
        <extensions>
          <ns3:TrackPointExtension/>
        </extensions>
      </trkpt>
      <trkpt lat="32.00088498182594776153564453125" lon="118.7468032725155353546142578125">
        <ele>6.80000019073486328125</ele>
        <time>2024-05-09T10:28:32.000Z</time>
        <extensions>
          <ns3:TrackPointExtension/>
        </extensions>
      </trkpt>
      <trkpt lat="32.00088112615048885345458984375" lon="118.74682615511119365692138671875">
        <ele>7</ele>
        <time>2024-05-09T10:28:33.000Z</time>
        <extensions>
          <ns3:TrackPointExtension/>
        </extensions>
      </trkpt>
      <trkpt lat="32.00088112615048885345458984375" lon="118.746849037706851959228515625">
        <ele>7</ele>
        <time>2024-05-09T10:28:34.000Z</time>
        <extensions>
          <ns3:TrackPointExtension/>
        </extensions>
      </trkpt>
      <trkpt lat="32.0008887536823749542236328125" lon="118.7468642927706241607666015625">
        <ele>7</ele>
        <time>2024-05-09T10:28:35.000Z</time>
        <extensions>
          <ns3:TrackPointExtension>
            <ns3:hr>165</ns3:hr>
            <ns3:cad>87</ns3:cad>
          </ns3:TrackPointExtension>
        </extensions>
      </trkpt>
      <trkpt lat="32.00089638121426105499267578125" lon="118.7468795478343963623046875">
        <ele>7</ele>
        <time>2024-05-09T10:28:36.000Z</time>
        <extensions>
          <ns3:TrackPointExtension/>
        </extensions>
      </trkpt>
      <trkpt lat="32.00091163627803325653076171875" lon="118.7468948028981685638427734375">
        <ele>7</ele>
        <time>2024-05-09T10:28:37.000Z</time>
        <extensions>
          <ns3:TrackPointExtension/>
        </extensions>
      </trkpt>
      <trkpt lat="32.00092689134180545806884765625" lon="118.74690243043005466461181640625">
        <ele>7</ele>
        <time>2024-05-09T10:28:38.000Z</time>
        <extensions>
          <ns3:TrackPointExtension/>
        </extensions>
      </trkpt>
      <trkpt lat="32.00094600208103656768798828125" lon="118.746910057961940765380859375">
        <ele>6.80000019073486328125</ele>
        <time>2024-05-09T10:28:39.000Z</time>
        <extensions>
          <ns3:TrackPointExtension/>
        </extensions>
      </trkpt>
      <trkpt lat="32.00096511282026767730712890625" lon="118.74691768549382686614990234375">
        <ele>6.80000019073486328125</ele>
        <time>2024-05-09T10:28:40.000Z</time>
        <extensions>
          <ns3:TrackPointExtension>
            <ns3:hr>166</ns3:hr>
            <ns3:cad>85</ns3:cad>
          </ns3:TrackPointExtension>
        </extensions>
      </trkpt>
      <trkpt lat="32.000984139740467071533203125" lon="118.74693294055759906768798828125">
        <ele>6.599999904632568359375</ele>
        <time>2024-05-09T10:28:41.000Z</time>
        <extensions>
          <ns3:TrackPointExtension/>
        </extensions>
      </trkpt>
      <trkpt lat="32.00100702233612537384033203125" lon="118.74694056808948516845703125">
        <ele>6.400000095367431640625</ele>
        <time>2024-05-09T10:28:42.000Z</time>
        <extensions>
          <ns3:TrackPointExtension/>
        </extensions>
      </trkpt>
      <trkpt lat="32.00102613307535648345947265625" lon="118.7469558231532573699951171875">
        <ele>6.400000095367431640625</ele>
        <time>2024-05-09T10:28:43.000Z</time>
        <extensions>
          <ns3:TrackPointExtension/>
        </extensions>
      </trkpt>
      <trkpt lat="32.001045159995555877685546875" lon="118.74696345068514347076416015625">
        <ele>6.19999980926513671875</ele>
        <time>2024-05-09T10:28:44.000Z</time>
        <extensions>
          <ns3:TrackPointExtension/>
        </extensions>
      </trkpt>
      <trkpt lat="32.0010642707347869873046875" lon="118.74697870574891567230224609375">
        <ele>6.19999980926513671875</ele>
        <time>2024-05-09T10:28:45.000Z</time>
        <extensions>
          <ns3:TrackPointExtension>
            <ns3:hr>166</ns3:hr>
            <ns3:cad>85</ns3:cad>
          </ns3:TrackPointExtension>
        </extensions>
      </trkpt>
      <trkpt lat="32.00108715333044528961181640625" lon="118.74699396081268787384033203125">
        <ele>6.19999980926513671875</ele>
        <time>2024-05-09T10:28:46.000Z</time>
        <extensions>
          <ns3:TrackPointExtension/>
        </extensions>
      </trkpt>
      <trkpt lat="32.001106180250644683837890625" lon="118.747001588344573974609375">
        <ele>6</ele>
        <time>2024-05-09T10:28:47.000Z</time>
        <extensions>
          <ns3:TrackPointExtension/>
        </extensions>
      </trkpt>
      <trkpt lat="32.00112529098987579345703125" lon="118.7470168434083461761474609375">
        <ele>6</ele>
        <time>2024-05-09T10:28:48.000Z</time>
        <extensions>
          <ns3:TrackPointExtension/>
        </extensions>
      </trkpt>
      <trkpt lat="32.001144401729106903076171875" lon="118.74702447094023227691650390625">
        <ele>5.80000019073486328125</ele>
        <time>2024-05-09T10:28:49.000Z</time>
        <extensions>
          <ns3:TrackPointExtension/>
        </extensions>
      </trkpt>
      <trkpt lat="32.00116342864930629730224609375" lon="118.74703972600400447845458984375">
        <ele>5.80000019073486328125</ele>
        <time>2024-05-09T10:28:50.000Z</time>
        <extensions>
          <ns3:TrackPointExtension>
            <ns3:hr>165</ns3:hr>
            <ns3:cad>87</ns3:cad>
          </ns3:TrackPointExtension>
        </extensions>
      </trkpt>
      <trkpt lat="32.00118253938853740692138671875" lon="118.74705498106777667999267578125">
        <ele>5.599999904632568359375</ele>
        <time>2024-05-09T10:28:51.000Z</time>
        <extensions>
          <ns3:TrackPointExtension/>
        </extensions>
      </trkpt>
      <trkpt lat="32.00119779445230960845947265625" lon="118.74706260859966278076171875">
        <ele>5.599999904632568359375</ele>
        <time>2024-05-09T10:28:52.000Z</time>
        <extensions>
          <ns3:TrackPointExtension/>
        </extensions>
      </trkpt>
      <trkpt lat="32.001216821372509002685546875" lon="118.7470778636634349822998046875">
        <ele>5.400000095367431640625</ele>
        <time>2024-05-09T10:28:53.000Z</time>
        <extensions>
          <ns3:TrackPointExtension/>
        </extensions>
      </trkpt>
      <trkpt lat="32.00123970396816730499267578125" lon="118.747093118727207183837890625">
        <ele>5.400000095367431640625</ele>
        <time>2024-05-09T10:28:54.000Z</time>
        <extensions>
          <ns3:TrackPointExtension/>
        </extensions>
      </trkpt>
      <trkpt lat="32.00125881470739841461181640625" lon="118.74710845761001110076904296875">
        <ele>5.400000095367431640625</ele>
        <time>2024-05-09T10:28:55.000Z</time>
        <extensions>
          <ns3:TrackPointExtension>
            <ns3:hr>165</ns3:hr>
            <ns3:cad>87</ns3:cad>
          </ns3:TrackPointExtension>
        </extensions>
      </trkpt>
      <trkpt lat="32.001277841627597808837890625" lon="118.74712371267378330230712890625">
        <ele>5.19999980926513671875</ele>
        <time>2024-05-09T10:28:56.000Z</time>
        <extensions>
          <ns3:TrackPointExtension/>
        </extensions>
      </trkpt>
      <trkpt lat="32.00129695236682891845703125" lon="118.74713896773755550384521484375">
        <ele>5.19999980926513671875</ele>
        <time>2024-05-09T10:28:57.000Z</time>
        <extensions>
          <ns3:TrackPointExtension/>
        </extensions>
      </trkpt>
      <trkpt lat="32.00131983496248722076416015625" lon="118.74715422280132770538330078125">
        <ele>5.19999980926513671875</ele>
        <time>2024-05-09T10:28:58.000Z</time>
        <extensions>
          <ns3:TrackPointExtension/>
        </extensions>
      </trkpt>
      <trkpt lat="32.00133894570171833038330078125" lon="118.74716947786509990692138671875">
        <ele>5.19999980926513671875</ele>
        <time>2024-05-09T10:28:59.000Z</time>
        <extensions>
          <ns3:TrackPointExtension/>
        </extensions>
      </trkpt>
      <trkpt lat="32.001357972621917724609375" lon="118.74718473292887210845947265625">
        <ele>5.19999980926513671875</ele>
        <time>2024-05-09T10:29:00.000Z</time>
        <extensions>
          <ns3:TrackPointExtension>
            <ns3:hr>165</ns3:hr>
            <ns3:cad>87</ns3:cad>
          </ns3:TrackPointExtension>
        </extensions>
      </trkpt>
      <trkpt lat="32.001377083361148834228515625" lon="118.7472076155245304107666015625">
        <ele>5.19999980926513671875</ele>
        <time>2024-05-09T10:29:01.000Z</time>
        <extensions>
          <ns3:TrackPointExtension/>
        </extensions>
      </trkpt>
      <trkpt lat="32.00139611028134822845458984375" lon="118.7472228705883026123046875">
        <ele>5.19999980926513671875</ele>
        <time>2024-05-09T10:29:02.000Z</time>
        <extensions>
          <ns3:TrackPointExtension/>
        </extensions>
      </trkpt>
      <trkpt lat="32.00141522102057933807373046875" lon="118.7472381256520748138427734375">
        <ele>5.19999980926513671875</ele>
        <time>2024-05-09T10:29:03.000Z</time>
        <extensions>
          <ns3:TrackPointExtension/>
        </extensions>
      </trkpt>
      <trkpt lat="32.0014342479407787322998046875" lon="118.747253380715847015380859375">
        <ele>5.19999980926513671875</ele>
        <time>2024-05-09T10:29:04.000Z</time>
        <extensions>
          <ns3:TrackPointExtension/>
        </extensions>
      </trkpt>
      <trkpt lat="32.0014533586800098419189453125" lon="118.7472686357796192169189453125">
        <ele>5.19999980926513671875</ele>
        <time>2024-05-09T10:29:05.000Z</time>
        <extensions>
          <ns3:TrackPointExtension>
            <ns3:hr>167</ns3:hr>
            <ns3:cad>87</ns3:cad>
          </ns3:TrackPointExtension>
        </extensions>
      </trkpt>
      <trkpt lat="32.00147624127566814422607421875" lon="118.74729151837527751922607421875">
        <ele>5.19999980926513671875</ele>
        <time>2024-05-09T10:29:06.000Z</time>
        <extensions>
          <ns3:TrackPointExtension/>
        </extensions>
      </trkpt>
      <trkpt lat="32.00149535201489925384521484375" lon="118.747314400970935821533203125">
        <ele>5.19999980926513671875</ele>
        <time>2024-05-09T10:29:07.000Z</time>
        <extensions>
          <ns3:TrackPointExtension/>
        </extensions>
      </trkpt>
      <trkpt lat="32.0015143789350986480712890625" lon="118.7473296560347080230712890625">
        <ele>5</ele>
        <time>2024-05-09T10:29:08.000Z</time>
        <extensions>
          <ns3:TrackPointExtension/>
        </extensions>
      </trkpt>
      <trkpt lat="32.0015334896743297576904296875" lon="118.74735253863036632537841796875">
        <ele>5</ele>
        <time>2024-05-09T10:29:09.000Z</time>
        <extensions>
          <ns3:TrackPointExtension/>
        </extensions>
      </trkpt>
      <trkpt lat="32.00155251659452915191650390625" lon="118.74736779369413852691650390625">
        <ele>5</ele>
        <time>2024-05-09T10:29:10.000Z</time>
        <extensions>
          <ns3:TrackPointExtension>
            <ns3:hr>167</ns3:hr>
            <ns3:cad>87</ns3:cad>
          </ns3:TrackPointExtension>
        </extensions>
      </trkpt>
      <trkpt lat="32.0015753991901874542236328125" lon="118.74738304875791072845458984375">
        <ele>5</ele>
        <time>2024-05-09T10:29:11.000Z</time>
        <extensions>
          <ns3:TrackPointExtension/>
        </extensions>
      </trkpt>
      <trkpt lat="32.0015945099294185638427734375" lon="118.74739830382168292999267578125">
        <ele>5</ele>
        <time>2024-05-09T10:29:12.000Z</time>
        <extensions>
          <ns3:TrackPointExtension/>
        </extensions>
      </trkpt>
      <trkpt lat="32.00161353684961795806884765625" lon="118.74741355888545513153076171875">
        <ele>5</ele>
        <time>2024-05-09T10:29:13.000Z</time>
        <extensions>
          <ns3:TrackPointExtension/>
        </extensions>
      </trkpt>
      <trkpt lat="32.00163264758884906768798828125" lon="118.74742881394922733306884765625">
        <ele>5</ele>
        <time>2024-05-09T10:29:14.000Z</time>
        <extensions>
          <ns3:TrackPointExtension/>
        </extensions>
      </trkpt>
      <trkpt lat="32.00165175832808017730712890625" lon="118.747436441481113433837890625">
        <ele>5</ele>
        <time>2024-05-09T10:29:15.000Z</time>
        <extensions>
          <ns3:TrackPointExtension>
            <ns3:hr>167</ns3:hr>
            <ns3:cad>84</ns3:cad>
          </ns3:TrackPointExtension>
        </extensions>
      </trkpt>
      <trkpt lat="32.00166315771639347076416015625" lon="118.74744415283203125">
        <ele>5</ele>
        <time>2024-05-09T10:29:16.000Z</time>
        <extensions>
          <ns3:TrackPointExtension/>
        </extensions>
      </trkpt>
      <trkpt lat="32.0016746409237384796142578125" lon="118.74745178036391735076904296875">
        <ele>5</ele>
        <time>2024-05-09T10:29:17.000Z</time>
        <extensions>
          <ns3:TrackPointExtension/>
        </extensions>
      </trkpt>
      <trkpt lat="32.00168226845562458038330078125" lon="118.7474594078958034515380859375">
        <ele>5</ele>
        <time>2024-05-09T10:29:18.000Z</time>
        <extensions>
          <ns3:TrackPointExtension/>
        </extensions>
      </trkpt>
      <trkpt lat="32.00168989598751068115234375" lon="118.74746703542768955230712890625">
        <ele>5</ele>
        <time>2024-05-09T10:29:19.000Z</time>
        <extensions>
          <ns3:TrackPointExtension/>
        </extensions>
      </trkpt>
      <trkpt lat="32.00169752351939678192138671875" lon="118.747474662959575653076171875">
        <ele>5</ele>
        <time>2024-05-09T10:29:20.000Z</time>
        <extensions>
          <ns3:TrackPointExtension>
            <ns3:hr>167</ns3:hr>
            <ns3:cad>62</ns3:cad>
          </ns3:TrackPointExtension>
        </extensions>
      </trkpt>
      <trkpt lat="32.00169752351939678192138671875" lon="118.747474662959575653076171875">
        <ele>5</ele>
        <time>2024-05-09T10:29:21.000Z</time>
        <extensions>
          <ns3:TrackPointExtension/>
        </extensions>
      </trkpt>
      <trkpt lat="32.001701295375823974609375" lon="118.747474662959575653076171875">
        <ele>5</ele>
        <time>2024-05-09T10:29:22.000Z</time>
        <extensions>
          <ns3:TrackPointExtension/>
        </extensions>
      </trkpt>
      <trkpt lat="32.0017051510512828826904296875" lon="118.74748229049146175384521484375">
        <ele>5</ele>
        <time>2024-05-09T10:29:23.000Z</time>
        <extensions>
          <ns3:TrackPointExtension/>
        </extensions>
      </trkpt>
      <trkpt lat="32.0017051510512828826904296875" lon="118.74748229049146175384521484375">
        <ele>5</ele>
        <time>2024-05-09T10:29:24.000Z</time>
        <extensions>
          <ns3:TrackPointExtension/>
        </extensions>
      </trkpt>
      <trkpt lat="32.0017051510512828826904296875" lon="118.74748229049146175384521484375">
        <ele>5</ele>
        <time>2024-05-09T10:29:25.000Z</time>
        <extensions>
          <ns3:TrackPointExtension>
            <ns3:hr>135</ns3:hr>
          </ns3:TrackPointExtension>
        </extensions>
      </trkpt>
      <trkpt lat="32.0017051510512828826904296875" lon="118.74748229049146175384521484375">
        <ele>5</ele>
        <time>2024-05-09T10:29:26.000Z</time>
        <extensions>
          <ns3:TrackPointExtension/>
        </extensions>
      </trkpt>
      <trkpt lat="32.0017051510512828826904296875" lon="118.74748229049146175384521484375">
        <ele>5</ele>
        <time>2024-05-09T10:29:27.000Z</time>
        <extensions>
          <ns3:TrackPointExtension/>
        </extensions>
      </trkpt>
      <trkpt lat="32.0017051510512828826904296875" lon="118.74748229049146175384521484375">
        <ele>5</ele>
        <time>2024-05-09T10:29:28.000Z</time>
        <extensions>
          <ns3:TrackPointExtension/>
        </extensions>
      </trkpt>
      <trkpt lat="32.0017051510512828826904296875" lon="118.74748229049146175384521484375">
        <ele>5</ele>
        <time>2024-05-09T10:29:29.000Z</time>
        <extensions>
          <ns3:TrackPointExtension/>
        </extensions>
      </trkpt>
      <trkpt lat="32.0017051510512828826904296875" lon="118.74748229049146175384521484375">
        <ele>5</ele>
        <time>2024-05-09T10:29:30.000Z</time>
        <extensions>
          <ns3:TrackPointExtension>
            <ns3:hr>137</ns3:hr>
            <ns3:cad>81</ns3:cad>
          </ns3:TrackPointExtension>
        </extensions>
      </trkpt>
      <trkpt lat="32.0017051510512828826904296875" lon="118.747474662959575653076171875">
        <ele>5</ele>
        <time>2024-05-09T10:29:31.000Z</time>
        <extensions>
          <ns3:TrackPointExtension/>
        </extensions>
      </trkpt>
      <trkpt lat="32.00170892290771007537841796875" lon="118.747474662959575653076171875">
        <ele>5</ele>
        <time>2024-05-09T10:29:32.000Z</time>
        <extensions>
          <ns3:TrackPointExtension/>
        </extensions>
      </trkpt>
      <trkpt lat="32.00170892290771007537841796875" lon="118.747474662959575653076171875">
        <ele>5</ele>
        <time>2024-05-09T10:29:33.000Z</time>
        <extensions>
          <ns3:TrackPointExtension/>
        </extensions>
      </trkpt>
      <trkpt lat="32.00170892290771007537841796875" lon="118.747474662959575653076171875">
        <ele>5</ele>
        <time>2024-05-09T10:29:34.000Z</time>
        <extensions>
          <ns3:TrackPointExtension/>
        </extensions>
      </trkpt>
      <trkpt lat="32.0017051510512828826904296875" lon="118.74748229049146175384521484375">
        <ele>5</ele>
        <time>2024-05-09T10:29:35.000Z</time>
        <extensions>
          <ns3:TrackPointExtension>
            <ns3:hr>137</ns3:hr>
            <ns3:cad>83</ns3:cad>
          </ns3:TrackPointExtension>
        </extensions>
      </trkpt>
      <trkpt lat="32.0017051510512828826904296875" lon="118.7474899180233478546142578125">
        <ele>5</ele>
        <time>2024-05-09T10:29:36.000Z</time>
        <extensions>
          <ns3:TrackPointExtension/>
        </extensions>
      </trkpt>
      <trkpt lat="32.001701295375823974609375" lon="118.74749754555523395538330078125">
        <ele>5</ele>
        <time>2024-05-09T10:29:37.000Z</time>
        <extensions>
          <ns3:TrackPointExtension/>
        </extensions>
      </trkpt>
      <trkpt lat="32.00169752351939678192138671875" lon="118.74751280061900615692138671875">
        <ele>5</ele>
        <time>2024-05-09T10:29:38.000Z</time>
        <extensions>
          <ns3:TrackPointExtension/>
        </extensions>
      </trkpt>
      <trkpt lat="32.00169366784393787384033203125" lon="118.74752805568277835845947265625">
        <ele>5</ele>
        <time>2024-05-09T10:29:39.000Z</time>
        <extensions>
          <ns3:TrackPointExtension/>
        </extensions>
      </trkpt>
      <trkpt lat="32.00168989598751068115234375" lon="118.74754331074655055999755859375">
        <ele>5</ele>
        <time>2024-05-09T10:29:40.000Z</time>
        <extensions>
          <ns3:TrackPointExtension>
            <ns3:hr>138</ns3:hr>
            <ns3:cad>86</ns3:cad>
          </ns3:TrackPointExtension>
        </extensions>
      </trkpt>
      <trkpt lat="32.0016860403120517730712890625" lon="118.7475661933422088623046875">
        <ele>5</ele>
        <time>2024-05-09T10:29:41.000Z</time>
        <extensions>
          <ns3:TrackPointExtension/>
        </extensions>
      </trkpt>
      <trkpt lat="32.00167841278016567230224609375" lon="118.74758907593786716461181640625">
        <ele>5</ele>
        <time>2024-05-09T10:29:42.000Z</time>
        <extensions>
          <ns3:TrackPointExtension/>
        </extensions>
      </trkpt>
      <trkpt lat="32.0016746409237384796142578125" lon="118.7476119585335254669189453125">
        <ele>5</ele>
        <time>2024-05-09T10:29:43.000Z</time>
        <extensions>
          <ns3:TrackPointExtension/>
        </extensions>
      </trkpt>
      <trkpt lat="32.00166701339185237884521484375" lon="118.7476424686610698699951171875">
        <ele>5</ele>
        <time>2024-05-09T10:29:44.000Z</time>
        <extensions>
          <ns3:TrackPointExtension/>
        </extensions>
      </trkpt>
      <trkpt lat="32.00166315771639347076416015625" lon="118.74766535125672817230224609375">
        <ele>5</ele>
        <time>2024-05-09T10:29:45.000Z</time>
        <extensions>
          <ns3:TrackPointExtension>
            <ns3:hr>138</ns3:hr>
            <ns3:cad>86</ns3:cad>
          </ns3:TrackPointExtension>
        </extensions>
      </trkpt>
      <trkpt lat="32.0016555301845073699951171875" lon="118.74769586138427257537841796875">
        <ele>5</ele>
        <time>2024-05-09T10:29:46.000Z</time>
        <extensions>
          <ns3:TrackPointExtension/>
        </extensions>
      </trkpt>
      <trkpt lat="32.0016555301845073699951171875" lon="118.747718743979930877685546875">
        <ele>5.19999980926513671875</ele>
        <time>2024-05-09T10:29:47.000Z</time>
        <extensions>
          <ns3:TrackPointExtension/>
        </extensions>
      </trkpt>
      <trkpt lat="32.001659385859966278076171875" lon="118.74774925410747528076171875">
        <ele>5.400000095367431640625</ele>
        <time>2024-05-09T10:29:48.000Z</time>
        <extensions>
          <ns3:TrackPointExtension/>
        </extensions>
      </trkpt>
      <trkpt lat="32.00166701339185237884521484375" lon="118.74777213670313358306884765625">
        <ele>5.400000095367431640625</ele>
        <time>2024-05-09T10:29:49.000Z</time>
        <extensions>
          <ns3:TrackPointExtension/>
        </extensions>
      </trkpt>
      <trkpt lat="32.0016746409237384796142578125" lon="118.74779510311782360076904296875">
        <ele>5.599999904632568359375</ele>
        <time>2024-05-09T10:29:50.000Z</time>
        <extensions>
          <ns3:TrackPointExtension>
            <ns3:hr>138</ns3:hr>
            <ns3:cad>86</ns3:cad>
          </ns3:TrackPointExtension>
        </extensions>
      </trkpt>
      <trkpt lat="32.0016860403120517730712890625" lon="118.747817985713481903076171875">
        <ele>5.599999904632568359375</ele>
        <time>2024-05-09T10:29:51.000Z</time>
        <extensions>
          <ns3:TrackPointExtension/>
        </extensions>
      </trkpt>
      <trkpt lat="32.001701295375823974609375" lon="118.7478332407772541046142578125">
        <ele>5.599999904632568359375</ele>
        <time>2024-05-09T10:29:52.000Z</time>
        <extensions>
          <ns3:TrackPointExtension/>
        </extensions>
      </trkpt>
      <trkpt lat="32.0017165504395961761474609375" lon="118.74785612337291240692138671875">
        <ele>5.80000019073486328125</ele>
        <time>2024-05-09T10:29:53.000Z</time>
        <extensions>
          <ns3:TrackPointExtension/>
        </extensions>
      </trkpt>
      <trkpt lat="32.001731805503368377685546875" lon="118.74787137843668460845947265625">
        <ele>5.80000019073486328125</ele>
        <time>2024-05-09T10:29:54.000Z</time>
        <extensions>
          <ns3:TrackPointExtension/>
        </extensions>
      </trkpt>
      <trkpt lat="32.0017509162425994873046875" lon="118.7478942610323429107666015625">
        <ele>5.80000019073486328125</ele>
        <time>2024-05-09T10:29:55.000Z</time>
        <extensions>
          <ns3:TrackPointExtension>
            <ns3:hr>140</ns3:hr>
            <ns3:cad>87</ns3:cad>
          </ns3:TrackPointExtension>
        </extensions>
      </trkpt>
      <trkpt lat="32.0017661713063716888427734375" lon="118.7479095160961151123046875">
        <ele>5.80000019073486328125</ele>
        <time>2024-05-09T10:29:56.000Z</time>
        <extensions>
          <ns3:TrackPointExtension/>
        </extensions>
      </trkpt>
      <trkpt lat="32.00178519822657108306884765625" lon="118.7479247711598873138427734375">
        <ele>5.80000019073486328125</ele>
        <time>2024-05-09T10:29:57.000Z</time>
        <extensions>
          <ns3:TrackPointExtension/>
        </extensions>
      </trkpt>
      <trkpt lat="32.001800537109375" lon="118.74793239869177341461181640625">
        <ele>5.599999904632568359375</ele>
        <time>2024-05-09T10:29:58.000Z</time>
        <extensions>
          <ns3:TrackPointExtension/>
        </extensions>
      </trkpt>
      <trkpt lat="32.00181956402957439422607421875" lon="118.74794765375554561614990234375">
        <ele>5.80000019073486328125</ele>
        <time>2024-05-09T10:29:59.000Z</time>
        <extensions>
          <ns3:TrackPointExtension/>
        </extensions>
      </trkpt>
      <trkpt lat="32.00183867476880550384521484375" lon="118.74796290881931781768798828125">
        <ele>6</ele>
        <time>2024-05-09T10:30:00.000Z</time>
        <extensions>
          <ns3:TrackPointExtension>
            <ns3:hr>140</ns3:hr>
            <ns3:cad>87</ns3:cad>
          </ns3:TrackPointExtension>
        </extensions>
      </trkpt>
      <trkpt lat="32.0018577016890048980712890625" lon="118.74797816388309001922607421875">
        <ele>6.19999980926513671875</ele>
        <time>2024-05-09T10:30:01.000Z</time>
        <extensions>
          <ns3:TrackPointExtension/>
        </extensions>
      </trkpt>
      <trkpt lat="32.0018768124282360076904296875" lon="118.74799341894686222076416015625">
        <ele>6.400000095367431640625</ele>
        <time>2024-05-09T10:30:02.000Z</time>
        <extensions>
          <ns3:TrackPointExtension/>
        </extensions>
      </trkpt>
      <trkpt lat="32.00189583934843540191650390625" lon="118.74800867401063442230224609375">
        <ele>6.400000095367431640625</ele>
        <time>2024-05-09T10:30:03.000Z</time>
        <extensions>
          <ns3:TrackPointExtension/>
        </extensions>
      </trkpt>
      <trkpt lat="32.00191495008766651153564453125" lon="118.74802392907440662384033203125">
        <ele>6.599999904632568359375</ele>
        <time>2024-05-09T10:30:04.000Z</time>
        <extensions>
          <ns3:TrackPointExtension/>
        </extensions>
      </trkpt>
      <trkpt lat="32.0019378326833248138427734375" lon="118.74803918413817882537841796875">
        <ele>6.80000019073486328125</ele>
        <time>2024-05-09T10:30:05.000Z</time>
        <extensions>
          <ns3:TrackPointExtension/>
        </extensions>
      </trkpt>
      <trkpt lat="32.00196071527898311614990234375" lon="118.7480468116700649261474609375">
        <ele>7</ele>
        <time>2024-05-09T10:30:06.000Z</time>
        <extensions>
          <ns3:TrackPointExtension/>
        </extensions>
      </trkpt>
      <trkpt lat="32.00198359787464141845703125" lon="118.748062066733837127685546875">
        <ele>7.19999980926513671875</ele>
        <time>2024-05-09T10:30:07.000Z</time>
        <extensions>
          <ns3:TrackPointExtension/>
        </extensions>
      </trkpt>
      <trkpt lat="32.00201033614575862884521484375" lon="118.74806969426572322845458984375">
        <ele>7.400000095367431640625</ele>
        <time>2024-05-09T10:30:08.000Z</time>
        <extensions>
          <ns3:TrackPointExtension/>
        </extensions>
      </trkpt>
      <trkpt lat="32.00203321874141693115234375" lon="118.74808494932949542999267578125">
        <ele>7.599999904632568359375</ele>
        <time>2024-05-09T10:30:09.000Z</time>
        <extensions>
          <ns3:TrackPointExtension/>
        </extensions>
      </trkpt>
      <trkpt lat="32.0020598731935024261474609375" lon="118.74809257686138153076171875">
        <ele>7.80000019073486328125</ele>
        <time>2024-05-09T10:30:10.000Z</time>
        <extensions>
          <ns3:TrackPointExtension/>
        </extensions>
      </trkpt>
      <trkpt lat="32.0020789839327335357666015625" lon="118.7481078319251537322998046875">
        <ele>8</ele>
        <time>2024-05-09T10:30:11.000Z</time>
        <extensions>
          <ns3:TrackPointExtension/>
        </extensions>
      </trkpt>
      <trkpt lat="32.00210563838481903076171875" lon="118.748123086988925933837890625">
        <ele>8</ele>
        <time>2024-05-09T10:30:12.000Z</time>
        <extensions>
          <ns3:TrackPointExtension/>
        </extensions>
      </trkpt>
      <trkpt lat="32.002124749124050140380859375" lon="118.74813842587172985076904296875">
        <ele>8.19999980926513671875</ele>
        <time>2024-05-09T10:30:13.000Z</time>
        <extensions>
          <ns3:TrackPointExtension/>
        </extensions>
      </trkpt>
      <trkpt lat="32.00214763171970844268798828125" lon="118.74815368093550205230712890625">
        <ele>8.3999996185302734375</ele>
        <time>2024-05-09T10:30:14.000Z</time>
        <extensions>
          <ns3:TrackPointExtension/>
        </extensions>
      </trkpt>
      <trkpt lat="32.0021705143153667449951171875" lon="118.74816893599927425384521484375">
        <ele>8.3999996185302734375</ele>
        <time>2024-05-09T10:30:15.000Z</time>
        <extensions>
          <ns3:TrackPointExtension/>
        </extensions>
      </trkpt>
      <trkpt lat="32.0021896250545978546142578125" lon="118.74819181859493255615234375">
        <ele>8.6000003814697265625</ele>
        <time>2024-05-09T10:30:16.000Z</time>
        <extensions>
          <ns3:TrackPointExtension/>
        </extensions>
      </trkpt>
      <trkpt lat="32.00220865197479724884033203125" lon="118.7482070736587047576904296875">
        <ele>8.80000019073486328125</ele>
        <time>2024-05-09T10:30:17.000Z</time>
        <extensions>
          <ns3:TrackPointExtension/>
        </extensions>
      </trkpt>
      <trkpt lat="32.00222776271402835845947265625" lon="118.748222328722476959228515625">
        <ele>8.80000019073486328125</ele>
        <time>2024-05-09T10:30:18.000Z</time>
        <extensions>
          <ns3:TrackPointExtension/>
        </extensions>
      </trkpt>
      <trkpt lat="32.002246789634227752685546875" lon="118.74824521131813526153564453125">
        <ele>9</ele>
        <time>2024-05-09T10:30:19.000Z</time>
        <extensions>
          <ns3:TrackPointExtension/>
        </extensions>
      </trkpt>
      <trkpt lat="32.0022620446979999542236328125" lon="118.74826046638190746307373046875">
        <ele>9.19999980926513671875</ele>
        <time>2024-05-09T10:30:20.000Z</time>
        <extensions>
          <ns3:TrackPointExtension/>
        </extensions>
      </trkpt>
      <trkpt lat="32.0022811554372310638427734375" lon="118.74827572144567966461181640625">
        <ele>9.19999980926513671875</ele>
        <time>2024-05-09T10:30:21.000Z</time>
        <extensions>
          <ns3:TrackPointExtension/>
        </extensions>
      </trkpt>
      <trkpt lat="32.0022925548255443572998046875" lon="118.748283348977565765380859375">
        <ele>9.3999996185302734375</ele>
        <time>2024-05-09T10:30:22.000Z</time>
        <extensions>
          <ns3:TrackPointExtension/>
        </extensions>
      </trkpt>
      <trkpt lat="32.00230018235743045806884765625" lon="118.748283348977565765380859375">
        <ele>9.3999996185302734375</ele>
        <time>2024-05-09T10:30:23.000Z</time>
        <extensions>
          <ns3:TrackPointExtension/>
        </extensions>
      </trkpt>
    </trkseg>
  </trk>
</gpx>
