<gpx xmlns:ns3="http://www.garmin.com/xmlschemas/TrackPointExtension/v1" xmlns="http://www.topografix.com/GPX/1/1" xmlns:xsi="http://www.w3.org/2001/XMLSchema-instance" xmlns:ns2="http://www.garmin.com/xmlschemas/GpxExtensions/v3" creator="Garmin Connect" version="1.1" xsi:schemaLocation="http://www.topografix.com/GPX/1/1 http://www.topografix.com/GPX/11.xsd">
  <extensions>
<distance>884.03</distance>
<average_hr>86.0</average_hr>
<average_speed>0.8830000162124635</average_speed>
<start_time>2024-06-27T11:44:43+00:00</start_time>
<end_time>2024-06-27T12:01:24.713000+00:00</end_time>
<moving_time>727.0</moving_time>
<elapsed_time>1001.713</elapsed_time>
</extensions>
<metadata>
    <link href="connect.garmin.com">
      <text>Garmin Connect</text>
    </link>
    <time>2024-06-27T11:44:43.000Z</time>
  </metadata>
  <trk>
    <name>南京市 步行</name>
    <type>walking</type>
    <trkseg>
      <trkpt lat="31.97084625251591205596923828125" lon="118.830144703388214111328125">
        <ele>7.400000095367431640625</ele>
        <time>2024-06-27T11:44:43.000Z</time>
        <extensions>
          <ns3:TrackPointExtension>
            <ns3:hr>89</ns3:hr>
          </ns3:TrackPointExtension>
        </extensions>
      </trkpt>
      <trkpt lat="31.97083753533661365509033203125" lon="118.8301743753254413604736328125">
        <ele>7.19999980926513671875</ele>
        <time>2024-06-27T11:44:44.000Z</time>
        <extensions>
          <ns3:TrackPointExtension>
            <ns3:hr>89</ns3:hr>
          </ns3:TrackPointExtension>
        </extensions>
      </trkpt>
      <trkpt lat="31.97084088809788227081298828125" lon="118.83016808889806270599365234375">
        <ele>7.19999980926513671875</ele>
        <time>2024-06-27T11:44:48.000Z</time>
        <extensions>
          <ns3:TrackPointExtension>
            <ns3:hr>88</ns3:hr>
          </ns3:TrackPointExtension>
        </extensions>
      </trkpt>
      <trkpt lat="31.9708349369466304779052734375" lon="118.830159790813922882080078125">
        <ele>7.19999980926513671875</ele>
        <time>2024-06-27T11:44:52.000Z</time>
        <extensions>
          <ns3:TrackPointExtension>
            <ns3:hr>86</ns3:hr>
          </ns3:TrackPointExtension>
        </extensions>
      </trkpt>
      <trkpt lat="31.9708208553493022918701171875" lon="118.83017496205866336822509765625">
        <ele>7.19999980926513671875</ele>
        <time>2024-06-27T11:44:57.000Z</time>
        <extensions>
          <ns3:TrackPointExtension>
            <ns3:hr>86</ns3:hr>
          </ns3:TrackPointExtension>
        </extensions>
      </trkpt>
      <trkpt lat="31.97082764469087123870849609375" lon="118.830162473022937774658203125">
        <ele>7.19999980926513671875</ele>
        <time>2024-06-27T11:45:05.000Z</time>
        <extensions>
          <ns3:TrackPointExtension>
            <ns3:hr>89</ns3:hr>
          </ns3:TrackPointExtension>
        </extensions>
      </trkpt>
      <trkpt lat="31.9708255492150783538818359375" lon="118.8301602937281131744384765625">
        <ele>7.19999980926513671875</ele>
        <time>2024-06-27T11:45:07.000Z</time>
        <extensions>
          <ns3:TrackPointExtension>
            <ns3:hr>91</ns3:hr>
          </ns3:TrackPointExtension>
        </extensions>
      </trkpt>
      <trkpt lat="31.97081674821674823760986328125" lon="118.83016574196517467498779296875">
        <ele>7.19999980926513671875</ele>
        <time>2024-06-27T11:45:13.000Z</time>
        <extensions>
          <ns3:TrackPointExtension>
            <ns3:hr>88</ns3:hr>
          </ns3:TrackPointExtension>
        </extensions>
      </trkpt>
      <trkpt lat="31.97080920450389385223388671875" lon="118.83016683161258697509765625">
        <ele>7.19999980926513671875</ele>
        <time>2024-06-27T11:45:15.000Z</time>
        <extensions>
          <ns3:TrackPointExtension>
            <ns3:hr>88</ns3:hr>
          </ns3:TrackPointExtension>
        </extensions>
      </trkpt>
      <trkpt lat="31.9708228670060634613037109375" lon="118.83016071282327175140380859375">
        <ele>7.19999980926513671875</ele>
        <time>2024-06-27T11:45:24.000Z</time>
        <extensions>
          <ns3:TrackPointExtension>
            <ns3:hr>91</ns3:hr>
          </ns3:TrackPointExtension>
        </extensions>
      </trkpt>
      <trkpt lat="31.9708171673119068145751953125" lon="118.8301539234817028045654296875">
        <ele>7.19999980926513671875</ele>
        <time>2024-06-27T11:45:27.000Z</time>
        <extensions>
          <ns3:TrackPointExtension>
            <ns3:hr>90</ns3:hr>
          </ns3:TrackPointExtension>
        </extensions>
      </trkpt>
      <trkpt lat="31.9708211906254291534423828125" lon="118.830158449709415435791015625">
        <ele>7.19999980926513671875</ele>
        <time>2024-06-27T11:45:33.000Z</time>
        <extensions>
          <ns3:TrackPointExtension>
            <ns3:hr>86</ns3:hr>
          </ns3:TrackPointExtension>
        </extensions>
      </trkpt>
      <trkpt lat="31.97082764469087123870849609375" lon="118.83016104809939861297607421875">
        <ele>7.19999980926513671875</ele>
        <time>2024-06-27T11:45:35.000Z</time>
        <extensions>
          <ns3:TrackPointExtension>
            <ns3:hr>82</ns3:hr>
          </ns3:TrackPointExtension>
        </extensions>
      </trkpt>
      <trkpt lat="31.97081473655998706817626953125" lon="118.83020312525331974029541015625">
        <ele>7</ele>
        <time>2024-06-27T11:45:40.000Z</time>
        <extensions>
          <ns3:TrackPointExtension>
            <ns3:hr>81</ns3:hr>
          </ns3:TrackPointExtension>
        </extensions>
      </trkpt>
      <trkpt lat="31.97079344652593135833740234375" lon="118.83022022433578968048095703125">
        <ele>7</ele>
        <time>2024-06-27T11:45:46.000Z</time>
        <extensions>
          <ns3:TrackPointExtension>
            <ns3:hr>81</ns3:hr>
          </ns3:TrackPointExtension>
        </extensions>
      </trkpt>
      <trkpt lat="31.97072169743478298187255859375" lon="118.8302199728786945343017578125">
        <ele>6.599999904632568359375</ele>
        <time>2024-06-27T11:45:52.000Z</time>
        <extensions>
          <ns3:TrackPointExtension>
            <ns3:hr>80</ns3:hr>
          </ns3:TrackPointExtension>
        </extensions>
      </trkpt>
      <trkpt lat="31.97065397165715694427490234375" lon="118.83021150715649127960205078125">
        <ele>6.400000095367431640625</ele>
        <time>2024-06-27T11:45:58.000Z</time>
        <extensions>
          <ns3:TrackPointExtension>
            <ns3:hr>80</ns3:hr>
          </ns3:TrackPointExtension>
        </extensions>
      </trkpt>
      <trkpt lat="31.97059881873428821563720703125" lon="118.83021452464163303375244140625">
        <ele>6</ele>
        <time>2024-06-27T11:46:03.000Z</time>
        <extensions>
          <ns3:TrackPointExtension>
            <ns3:hr>80</ns3:hr>
          </ns3:TrackPointExtension>
        </extensions>
      </trkpt>
      <trkpt lat="31.970551125705242156982421875" lon="118.83018686436116695404052734375">
        <ele>5.599999904632568359375</ele>
        <time>2024-06-27T11:46:08.000Z</time>
        <extensions>
          <ns3:TrackPointExtension>
            <ns3:hr>82</ns3:hr>
          </ns3:TrackPointExtension>
        </extensions>
      </trkpt>
      <trkpt lat="31.97052572853863239288330078125" lon="118.83017714135348796844482421875">
        <ele>5.599999904632568359375</ele>
        <time>2024-06-27T11:46:12.000Z</time>
        <extensions>
          <ns3:TrackPointExtension>
            <ns3:hr>85</ns3:hr>
          </ns3:TrackPointExtension>
        </extensions>
      </trkpt>
      <trkpt lat="31.9705204479396343231201171875" lon="118.83017932064831256866455078125">
        <ele>5.400000095367431640625</ele>
        <time>2024-06-27T11:46:13.000Z</time>
        <extensions>
          <ns3:TrackPointExtension>
            <ns3:hr>85</ns3:hr>
          </ns3:TrackPointExtension>
        </extensions>
      </trkpt>
      <trkpt lat="31.97046940214931964874267578125" lon="118.83017932064831256866455078125">
        <ele>5.400000095367431640625</ele>
        <time>2024-06-27T11:46:18.000Z</time>
        <extensions>
          <ns3:TrackPointExtension>
            <ns3:hr>86</ns3:hr>
          </ns3:TrackPointExtension>
        </extensions>
      </trkpt>
      <trkpt lat="31.9703890196979045867919921875" lon="118.83016339503228664398193359375">
        <ele>5.400000095367431640625</ele>
        <time>2024-06-27T11:46:24.000Z</time>
        <extensions>
          <ns3:TrackPointExtension>
            <ns3:hr>85</ns3:hr>
          </ns3:TrackPointExtension>
        </extensions>
      </trkpt>
      <trkpt lat="31.9703591801226139068603515625" lon="118.8301539234817028045654296875">
        <ele>5.400000095367431640625</ele>
        <time>2024-06-27T11:46:28.000Z</time>
        <extensions>
          <ns3:TrackPointExtension>
            <ns3:hr>86</ns3:hr>
          </ns3:TrackPointExtension>
        </extensions>
      </trkpt>
      <trkpt lat="31.9702911190688610076904296875" lon="118.83016188628971576690673828125">
        <ele>5.599999904632568359375</ele>
        <time>2024-06-27T11:46:33.000Z</time>
        <extensions>
          <ns3:TrackPointExtension>
            <ns3:hr>87</ns3:hr>
          </ns3:TrackPointExtension>
        </extensions>
      </trkpt>
      <trkpt lat="31.97022280655801296234130859375" lon="118.83015216328203678131103515625">
        <ele>5.80000019073486328125</ele>
        <time>2024-06-27T11:46:39.000Z</time>
        <extensions>
          <ns3:TrackPointExtension>
            <ns3:hr>87</ns3:hr>
          </ns3:TrackPointExtension>
        </extensions>
      </trkpt>
      <trkpt lat="31.970153488218784332275390625" lon="118.83014176972210407257080078125">
        <ele>6</ele>
        <time>2024-06-27T11:46:46.000Z</time>
        <extensions>
          <ns3:TrackPointExtension>
            <ns3:hr>87</ns3:hr>
          </ns3:TrackPointExtension>
        </extensions>
      </trkpt>
      <trkpt lat="31.97008408606052398681640625" lon="118.83014269173145294189453125">
        <ele>6.400000095367431640625</ele>
        <time>2024-06-27T11:46:52.000Z</time>
        <extensions>
          <ns3:TrackPointExtension>
            <ns3:hr>87</ns3:hr>
          </ns3:TrackPointExtension>
        </extensions>
      </trkpt>
      <trkpt lat="31.97003178298473358154296875" lon="118.8301344774663448333740234375">
        <ele>6.599999904632568359375</ele>
        <time>2024-06-27T11:46:57.000Z</time>
        <extensions>
          <ns3:TrackPointExtension>
            <ns3:hr>87</ns3:hr>
          </ns3:TrackPointExtension>
        </extensions>
      </trkpt>
      <trkpt lat="31.970014683902263641357421875" lon="118.8301351480185985565185546875">
        <ele>6.599999904632568359375</ele>
        <time>2024-06-27T11:46:58.000Z</time>
        <extensions>
          <ns3:TrackPointExtension>
            <ns3:hr>87</ns3:hr>
          </ns3:TrackPointExtension>
        </extensions>
      </trkpt>
      <trkpt lat="31.96994251571595668792724609375" lon="118.8301294483244419097900390625">
        <ele>6.80000019073486328125</ele>
        <time>2024-06-27T11:47:04.000Z</time>
        <extensions>
          <ns3:TrackPointExtension>
            <ns3:hr>88</ns3:hr>
          </ns3:TrackPointExtension>
        </extensions>
      </trkpt>
      <trkpt lat="31.96987361647188663482666015625" lon="118.83011444471776485443115234375">
        <ele>7</ele>
        <time>2024-06-27T11:47:10.000Z</time>
        <extensions>
          <ns3:TrackPointExtension>
            <ns3:hr>88</ns3:hr>
          </ns3:TrackPointExtension>
        </extensions>
      </trkpt>
      <trkpt lat="31.96980907581746578216552734375" lon="118.83011511527001857757568359375">
        <ele>6.400000095367431640625</ele>
        <time>2024-06-27T11:47:17.000Z</time>
        <extensions>
          <ns3:TrackPointExtension>
            <ns3:hr>88</ns3:hr>
          </ns3:TrackPointExtension>
        </extensions>
      </trkpt>
      <trkpt lat="31.96975811384618282318115234375" lon="118.8301069848239421844482421875">
        <ele>5.599999904632568359375</ele>
        <time>2024-06-27T11:47:21.000Z</time>
        <extensions>
          <ns3:TrackPointExtension>
            <ns3:hr>89</ns3:hr>
          </ns3:TrackPointExtension>
        </extensions>
      </trkpt>
      <trkpt lat="31.96966054849326610565185546875" lon="118.8301126845180988311767578125">
        <ele>4.19999980926513671875</ele>
        <time>2024-06-27T11:47:29.000Z</time>
        <extensions>
          <ns3:TrackPointExtension>
            <ns3:hr>90</ns3:hr>
          </ns3:TrackPointExtension>
        </extensions>
      </trkpt>
      <trkpt lat="31.96960405446588993072509765625" lon="118.83011293597519397735595703125">
        <ele>3.400000095367431640625</ele>
        <time>2024-06-27T11:47:34.000Z</time>
        <extensions>
          <ns3:TrackPointExtension>
            <ns3:hr>91</ns3:hr>
          </ns3:TrackPointExtension>
        </extensions>
      </trkpt>
      <trkpt lat="31.96953163482248783111572265625" lon="118.83010053075850009918212890625">
        <ele>2.599999904632568359375</ele>
        <time>2024-06-27T11:47:41.000Z</time>
        <extensions>
          <ns3:TrackPointExtension>
            <ns3:hr>91</ns3:hr>
          </ns3:TrackPointExtension>
        </extensions>
      </trkpt>
      <trkpt lat="31.969486959278583526611328125" lon="118.830087371170520782470703125">
        <ele>2</ele>
        <time>2024-06-27T11:47:45.000Z</time>
        <extensions>
          <ns3:TrackPointExtension>
            <ns3:hr>88</ns3:hr>
          </ns3:TrackPointExtension>
        </extensions>
      </trkpt>
      <trkpt lat="31.96944831870496273040771484375" lon="118.83007588796317577362060546875">
        <ele>1.7999999523162841796875</ele>
        <time>2024-06-27T11:47:48.000Z</time>
        <extensions>
          <ns3:TrackPointExtension>
            <ns3:hr>86</ns3:hr>
          </ns3:TrackPointExtension>
        </extensions>
      </trkpt>
      <trkpt lat="31.96938746608793735504150390625" lon="118.8300815038383007049560546875">
        <ele>1</ele>
        <time>2024-06-27T11:47:54.000Z</time>
        <extensions>
          <ns3:TrackPointExtension>
            <ns3:hr>87</ns3:hr>
          </ns3:TrackPointExtension>
        </extensions>
      </trkpt>
      <trkpt lat="31.9693074189126491546630859375" lon="118.8300754688680171966552734375">
        <ele>0.20000000298023223876953125</ele>
        <time>2024-06-27T11:48:00.000Z</time>
        <extensions>
          <ns3:TrackPointExtension>
            <ns3:hr>87</ns3:hr>
          </ns3:TrackPointExtension>
        </extensions>
      </trkpt>
      <trkpt lat="31.96926475502550601959228515625" lon="118.8300644047558307647705078125">
        <ele>0</ele>
        <time>2024-06-27T11:48:05.000Z</time>
        <extensions>
          <ns3:TrackPointExtension>
            <ns3:hr>87</ns3:hr>
          </ns3:TrackPointExtension>
        </extensions>
      </trkpt>
      <trkpt lat="31.9692282937467098236083984375" lon="118.83003314025700092315673828125">
        <ele>0.20000000298023223876953125</ele>
        <time>2024-06-27T11:48:10.000Z</time>
        <extensions>
          <ns3:TrackPointExtension>
            <ns3:hr>89</ns3:hr>
          </ns3:TrackPointExtension>
        </extensions>
      </trkpt>
      <trkpt lat="31.9691971130669116973876953125" lon="118.8300251774489879608154296875">
        <ele>0.20000000298023223876953125</ele>
        <time>2024-06-27T11:48:13.000Z</time>
        <extensions>
          <ns3:TrackPointExtension>
            <ns3:hr>89</ns3:hr>
          </ns3:TrackPointExtension>
        </extensions>
      </trkpt>
      <trkpt lat="31.96915847249329090118408203125" lon="118.83001470007002353668212890625">
        <ele>0</ele>
        <time>2024-06-27T11:48:16.000Z</time>
        <extensions>
          <ns3:TrackPointExtension>
            <ns3:hr>90</ns3:hr>
          </ns3:TrackPointExtension>
        </extensions>
      </trkpt>
      <trkpt lat="31.969072557985782623291015625" lon="118.82997631095349788665771484375">
        <ele>0</ele>
        <time>2024-06-27T11:48:23.000Z</time>
        <extensions>
          <ns3:TrackPointExtension>
            <ns3:hr>91</ns3:hr>
          </ns3:TrackPointExtension>
        </extensions>
      </trkpt>
      <trkpt lat="31.9689946062862873077392578125" lon="118.8299366645514965057373046875">
        <ele>0.20000000298023223876953125</ele>
        <time>2024-06-27T11:48:30.000Z</time>
        <extensions>
          <ns3:TrackPointExtension>
            <ns3:hr>90</ns3:hr>
          </ns3:TrackPointExtension>
        </extensions>
      </trkpt>
      <trkpt lat="31.9689282216131687164306640625" lon="118.82990933954715728759765625">
        <ele>0.60000002384185791015625</ele>
        <time>2024-06-27T11:48:36.000Z</time>
        <extensions>
          <ns3:TrackPointExtension>
            <ns3:hr>90</ns3:hr>
          </ns3:TrackPointExtension>
        </extensions>
      </trkpt>
      <trkpt lat="31.96887030266225337982177734375" lon="118.82988880388438701629638671875">
        <ele>1</ele>
        <time>2024-06-27T11:48:43.000Z</time>
        <extensions>
          <ns3:TrackPointExtension>
            <ns3:hr>90</ns3:hr>
          </ns3:TrackPointExtension>
        </extensions>
      </trkpt>
      <trkpt lat="31.96882051415741443634033203125" lon="118.8298776559531688690185546875">
        <ele>1.2000000476837158203125</ele>
        <time>2024-06-27T11:48:49.000Z</time>
        <extensions>
          <ns3:TrackPointExtension>
            <ns3:hr>90</ns3:hr>
          </ns3:TrackPointExtension>
        </extensions>
      </trkpt>
      <trkpt lat="31.96873652748763561248779296875" lon="118.829859383404254913330078125">
        <ele>2</ele>
        <time>2024-06-27T11:48:57.000Z</time>
        <extensions>
          <ns3:TrackPointExtension>
            <ns3:hr>89</ns3:hr>
          </ns3:TrackPointExtension>
        </extensions>
      </trkpt>
      <trkpt lat="31.968668214976787567138671875" lon="118.82985359989106655120849609375">
        <ele>2.7999999523162841796875</ele>
        <time>2024-06-27T11:49:03.000Z</time>
        <extensions>
          <ns3:TrackPointExtension>
            <ns3:hr>88</ns3:hr>
          </ns3:TrackPointExtension>
        </extensions>
      </trkpt>
      <trkpt lat="31.96859336458146572113037109375" lon="118.8298129476606845855712890625">
        <ele>3.599999904632568359375</ele>
        <time>2024-06-27T11:49:09.000Z</time>
        <extensions>
          <ns3:TrackPointExtension>
            <ns3:hr>86</ns3:hr>
          </ns3:TrackPointExtension>
        </extensions>
      </trkpt>
      <trkpt lat="31.968555562198162078857421875" lon="118.8297639973461627960205078125">
        <ele>4.400000095367431640625</ele>
        <time>2024-06-27T11:49:14.000Z</time>
        <extensions>
          <ns3:TrackPointExtension>
            <ns3:hr>86</ns3:hr>
          </ns3:TrackPointExtension>
        </extensions>
      </trkpt>
      <trkpt lat="31.968526057898998260498046875" lon="118.82967841811478137969970703125">
        <ele>5.19999980926513671875</ele>
        <time>2024-06-27T11:49:21.000Z</time>
        <extensions>
          <ns3:TrackPointExtension>
            <ns3:hr>83</ns3:hr>
          </ns3:TrackPointExtension>
        </extensions>
      </trkpt>
      <trkpt lat="31.9685272313654422760009765625" lon="118.82960147224366664886474609375">
        <ele>5.80000019073486328125</ele>
        <time>2024-06-27T11:49:26.000Z</time>
        <extensions>
          <ns3:TrackPointExtension>
            <ns3:hr>81</ns3:hr>
          </ns3:TrackPointExtension>
        </extensions>
      </trkpt>
      <trkpt lat="31.96852706372737884521484375" lon="118.8295806013047695159912109375">
        <ele>6</ele>
        <time>2024-06-27T11:49:28.000Z</time>
        <extensions>
          <ns3:TrackPointExtension>
            <ns3:hr>80</ns3:hr>
          </ns3:TrackPointExtension>
        </extensions>
      </trkpt>
      <trkpt lat="31.96851826272904872894287109375" lon="118.82953927852213382720947265625">
        <ele>6.599999904632568359375</ele>
        <time>2024-06-27T11:49:31.000Z</time>
        <extensions>
          <ns3:TrackPointExtension>
            <ns3:hr>80</ns3:hr>
          </ns3:TrackPointExtension>
        </extensions>
      </trkpt>
      <trkpt lat="31.96852228604257106781005859375" lon="118.82952402345836162567138671875">
        <ele>6.599999904632568359375</ele>
        <time>2024-06-27T11:49:32.000Z</time>
        <extensions>
          <ns3:TrackPointExtension>
            <ns3:hr>80</ns3:hr>
          </ns3:TrackPointExtension>
        </extensions>
      </trkpt>
      <trkpt lat="31.96853502653539180755615234375" lon="118.8294446468353271484375">
        <ele>7.19999980926513671875</ele>
        <time>2024-06-27T11:49:38.000Z</time>
        <extensions>
          <ns3:TrackPointExtension>
            <ns3:hr>81</ns3:hr>
          </ns3:TrackPointExtension>
        </extensions>
      </trkpt>
      <trkpt lat="31.96853452362120151519775390625" lon="118.82936107926070690155029296875">
        <ele>7.80000019073486328125</ele>
        <time>2024-06-27T11:49:44.000Z</time>
        <extensions>
          <ns3:TrackPointExtension>
            <ns3:hr>81</ns3:hr>
          </ns3:TrackPointExtension>
        </extensions>
      </trkpt>
      <trkpt lat="31.96853888221085071563720703125" lon="118.82930047810077667236328125">
        <ele>8</ele>
        <time>2024-06-27T11:49:49.000Z</time>
        <extensions>
          <ns3:TrackPointExtension>
            <ns3:hr>81</ns3:hr>
          </ns3:TrackPointExtension>
        </extensions>
      </trkpt>
      <trkpt lat="31.96854676119983196258544921875" lon="118.82924289442598819732666015625">
        <ele>8</ele>
        <time>2024-06-27T11:49:54.000Z</time>
        <extensions>
          <ns3:TrackPointExtension>
            <ns3:hr>83</ns3:hr>
          </ns3:TrackPointExtension>
        </extensions>
      </trkpt>
      <trkpt lat="31.9685564003884792327880859375" lon="118.82923350669443607330322265625">
        <ele>8</ele>
        <time>2024-06-27T11:49:56.000Z</time>
        <extensions>
          <ns3:TrackPointExtension>
            <ns3:hr>85</ns3:hr>
          </ns3:TrackPointExtension>
        </extensions>
      </trkpt>
      <trkpt lat="31.96856863796710968017578125" lon="118.8292044214904308319091796875">
        <ele>7.599999904632568359375</ele>
        <time>2024-06-27T11:50:00.000Z</time>
        <extensions>
          <ns3:TrackPointExtension>
            <ns3:hr>85</ns3:hr>
          </ns3:TrackPointExtension>
        </extensions>
      </trkpt>
      <trkpt lat="31.96856402792036533355712890625" lon="118.82919595576822757720947265625">
        <ele>7.599999904632568359375</ele>
        <time>2024-06-27T11:50:08.000Z</time>
        <extensions>
          <ns3:TrackPointExtension>
            <ns3:hr>86</ns3:hr>
          </ns3:TrackPointExtension>
        </extensions>
      </trkpt>
      <trkpt lat="31.96854449808597564697265625" lon="118.82912454195320606231689453125">
        <ele>7.599999904632568359375</ele>
        <time>2024-06-27T11:50:16.000Z</time>
        <extensions>
          <ns3:TrackPointExtension>
            <ns3:hr>88</ns3:hr>
          </ns3:TrackPointExtension>
        </extensions>
      </trkpt>
      <trkpt lat="31.9685426540672779083251953125" lon="118.82898640818893909454345703125">
        <ele>7.19999980926513671875</ele>
        <time>2024-06-27T11:50:27.000Z</time>
        <extensions>
          <ns3:TrackPointExtension>
            <ns3:hr>88</ns3:hr>
          </ns3:TrackPointExtension>
        </extensions>
      </trkpt>
      <trkpt lat="31.96854542009532451629638671875" lon="118.82889823056757450103759765625">
        <ele>6.599999904632568359375</ele>
        <time>2024-06-27T11:50:36.000Z</time>
        <extensions>
          <ns3:TrackPointExtension>
            <ns3:hr>87</ns3:hr>
          </ns3:TrackPointExtension>
        </extensions>
      </trkpt>
      <trkpt lat="31.96853955276310443878173828125" lon="118.82889118976891040802001953125">
        <ele>6.599999904632568359375</ele>
        <time>2024-06-27T11:50:37.000Z</time>
        <extensions>
          <ns3:TrackPointExtension>
            <ns3:hr>87</ns3:hr>
          </ns3:TrackPointExtension>
        </extensions>
      </trkpt>
      <trkpt lat="31.968528069555759429931640625" lon="118.828834109008312225341796875">
        <ele>6.19999980926513671875</ele>
        <time>2024-06-27T11:50:42.000Z</time>
        <extensions>
          <ns3:TrackPointExtension>
            <ns3:hr>88</ns3:hr>
          </ns3:TrackPointExtension>
        </extensions>
      </trkpt>
      <trkpt lat="31.96848842315375804901123046875" lon="118.8287605158984661102294921875">
        <ele>6.19999980926513671875</ele>
        <time>2024-06-27T11:50:50.000Z</time>
        <extensions>
          <ns3:TrackPointExtension>
            <ns3:hr>88</ns3:hr>
          </ns3:TrackPointExtension>
        </extensions>
      </trkpt>
      <trkpt lat="31.96841097436845302581787109375" lon="118.82865406572818756103515625">
        <ele>6</ele>
        <time>2024-06-27T11:51:01.000Z</time>
        <extensions>
          <ns3:TrackPointExtension>
            <ns3:hr>88</ns3:hr>
          </ns3:TrackPointExtension>
        </extensions>
      </trkpt>
      <trkpt lat="31.96835213340818881988525390625" lon="118.82859514094889163970947265625">
        <ele>6</ele>
        <time>2024-06-27T11:51:09.000Z</time>
        <extensions>
          <ns3:TrackPointExtension>
            <ns3:hr>88</ns3:hr>
          </ns3:TrackPointExtension>
        </extensions>
      </trkpt>
      <trkpt lat="31.9682737626135349273681640625" lon="118.8285134173929691314697265625">
        <ele>6</ele>
        <time>2024-06-27T11:51:17.000Z</time>
        <extensions>
          <ns3:TrackPointExtension>
            <ns3:hr>88</ns3:hr>
          </ns3:TrackPointExtension>
        </extensions>
      </trkpt>
      <trkpt lat="31.96821852587163448333740234375" lon="118.82843010127544403076171875">
        <ele>6</ele>
        <time>2024-06-27T11:51:23.000Z</time>
        <extensions>
          <ns3:TrackPointExtension>
            <ns3:hr>88</ns3:hr>
          </ns3:TrackPointExtension>
        </extensions>
      </trkpt>
      <trkpt lat="31.96816362440586090087890625" lon="118.82837503217160701751708984375">
        <ele>6</ele>
        <time>2024-06-27T11:51:29.000Z</time>
        <extensions>
          <ns3:TrackPointExtension>
            <ns3:hr>87</ns3:hr>
          </ns3:TrackPointExtension>
        </extensions>
      </trkpt>
      <trkpt lat="31.96812246926128864288330078125" lon="118.828329183161258697509765625">
        <ele>6.19999980926513671875</ele>
        <time>2024-06-27T11:51:34.000Z</time>
        <extensions>
          <ns3:TrackPointExtension>
            <ns3:hr>88</ns3:hr>
          </ns3:TrackPointExtension>
        </extensions>
      </trkpt>
      <trkpt lat="31.9680759496986865997314453125" lon="118.8282703422009944915771484375">
        <ele>6.400000095367431640625</ele>
        <time>2024-06-27T11:51:40.000Z</time>
        <extensions>
          <ns3:TrackPointExtension>
            <ns3:hr>88</ns3:hr>
          </ns3:TrackPointExtension>
        </extensions>
      </trkpt>
      <trkpt lat="31.9680256582796573638916015625" lon="118.82822248153388500213623046875">
        <ele>6.599999904632568359375</ele>
        <time>2024-06-27T11:51:46.000Z</time>
        <extensions>
          <ns3:TrackPointExtension>
            <ns3:hr>89</ns3:hr>
          </ns3:TrackPointExtension>
        </extensions>
      </trkpt>
      <trkpt lat="31.9680194556713104248046875" lon="118.8282146863639354705810546875">
        <ele>6.599999904632568359375</ele>
        <time>2024-06-27T11:51:47.000Z</time>
        <extensions>
          <ns3:TrackPointExtension>
            <ns3:hr>89</ns3:hr>
          </ns3:TrackPointExtension>
        </extensions>
      </trkpt>
      <trkpt lat="31.9679765403270721435546875" lon="118.82816263474524021148681640625">
        <ele>6.80000019073486328125</ele>
        <time>2024-06-27T11:51:53.000Z</time>
        <extensions>
          <ns3:TrackPointExtension>
            <ns3:hr>90</ns3:hr>
          </ns3:TrackPointExtension>
        </extensions>
      </trkpt>
      <trkpt lat="31.967941336333751678466796875" lon="118.82810077629983425140380859375">
        <ele>6.80000019073486328125</ele>
        <time>2024-06-27T11:51:58.000Z</time>
        <extensions>
          <ns3:TrackPointExtension>
            <ns3:hr>90</ns3:hr>
          </ns3:TrackPointExtension>
        </extensions>
      </trkpt>
      <trkpt lat="31.967915184795856475830078125" lon="118.8280349783599376678466796875">
        <ele>7</ele>
        <time>2024-06-27T11:52:04.000Z</time>
        <extensions>
          <ns3:TrackPointExtension>
            <ns3:hr>90</ns3:hr>
          </ns3:TrackPointExtension>
        </extensions>
      </trkpt>
      <trkpt lat="31.96790470741689205169677734375" lon="118.82799181155860424041748046875">
        <ele>7</ele>
        <time>2024-06-27T11:52:09.000Z</time>
        <extensions>
          <ns3:TrackPointExtension>
            <ns3:hr>90</ns3:hr>
          </ns3:TrackPointExtension>
        </extensions>
      </trkpt>
      <trkpt lat="31.96787537075579166412353515625" lon="118.82789491675794124603271484375">
        <ele>6.80000019073486328125</ele>
        <time>2024-06-27T11:52:15.000Z</time>
        <extensions>
          <ns3:TrackPointExtension>
            <ns3:hr>90</ns3:hr>
          </ns3:TrackPointExtension>
        </extensions>
      </trkpt>
      <trkpt lat="31.96788207627832889556884765625" lon="118.82788561284542083740234375">
        <ele>6.80000019073486328125</ele>
        <time>2024-06-27T11:52:16.000Z</time>
        <extensions>
          <ns3:TrackPointExtension>
            <ns3:hr>90</ns3:hr>
          </ns3:TrackPointExtension>
        </extensions>
      </trkpt>
      <trkpt lat="31.96787889115512371063232421875" lon="118.8278393447399139404296875">
        <ele>6.80000019073486328125</ele>
        <time>2024-06-27T11:52:19.000Z</time>
        <extensions>
          <ns3:TrackPointExtension>
            <ns3:hr>90</ns3:hr>
          </ns3:TrackPointExtension>
        </extensions>
      </trkpt>
      <trkpt lat="31.96786497719585895538330078125" lon="118.827731050550937652587890625">
        <ele>6</ele>
        <time>2024-06-27T11:52:27.000Z</time>
        <extensions>
          <ns3:TrackPointExtension>
            <ns3:hr>90</ns3:hr>
          </ns3:TrackPointExtension>
        </extensions>
      </trkpt>
      <trkpt lat="31.9678590260446071624755859375" lon="118.82766433060169219970703125">
        <ele>5.599999904632568359375</ele>
        <time>2024-06-27T11:52:33.000Z</time>
        <extensions>
          <ns3:TrackPointExtension>
            <ns3:hr>90</ns3:hr>
          </ns3:TrackPointExtension>
        </extensions>
      </trkpt>
      <trkpt lat="31.96786078624427318572998046875" lon="118.8276033103466033935546875">
        <ele>5</ele>
        <time>2024-06-27T11:52:38.000Z</time>
        <extensions>
          <ns3:TrackPointExtension>
            <ns3:hr>90</ns3:hr>
          </ns3:TrackPointExtension>
        </extensions>
      </trkpt>
      <trkpt lat="31.967862881720066070556640625" lon="118.827510774135589599609375">
        <ele>4.80000019073486328125</ele>
        <time>2024-06-27T11:52:45.000Z</time>
        <extensions>
          <ns3:TrackPointExtension>
            <ns3:hr>91</ns3:hr>
          </ns3:TrackPointExtension>
        </extensions>
      </trkpt>
      <trkpt lat="31.96787755005061626434326171875" lon="118.82742167450487613677978515625">
        <ele>4.80000019073486328125</ele>
        <time>2024-06-27T11:52:52.000Z</time>
        <extensions>
          <ns3:TrackPointExtension>
            <ns3:hr>91</ns3:hr>
          </ns3:TrackPointExtension>
        </extensions>
      </trkpt>
      <trkpt lat="31.96787905879318714141845703125" lon="118.82741396315395832061767578125">
        <ele>4.80000019073486328125</ele>
        <time>2024-06-27T11:52:57.000Z</time>
        <extensions>
          <ns3:TrackPointExtension>
            <ns3:hr>91</ns3:hr>
          </ns3:TrackPointExtension>
        </extensions>
      </trkpt>
      <trkpt lat="31.96788341738283634185791015625" lon="118.82737842388451099395751953125">
        <ele>5</ele>
        <time>2024-06-27T11:53:02.000Z</time>
        <extensions>
          <ns3:TrackPointExtension>
            <ns3:hr>90</ns3:hr>
          </ns3:TrackPointExtension>
        </extensions>
      </trkpt>
      <trkpt lat="31.96789112873375415802001953125" lon="118.82736735977232456207275390625">
        <ele>5</ele>
        <time>2024-06-27T11:53:06.000Z</time>
        <extensions>
          <ns3:TrackPointExtension>
            <ns3:hr>85</ns3:hr>
          </ns3:TrackPointExtension>
        </extensions>
      </trkpt>
      <trkpt lat="31.96790571324527263641357421875" lon="118.82734875194728374481201171875">
        <ele>5</ele>
        <time>2024-06-27T11:53:09.000Z</time>
        <extensions>
          <ns3:TrackPointExtension>
            <ns3:hr>83</ns3:hr>
          </ns3:TrackPointExtension>
        </extensions>
      </trkpt>
      <trkpt lat="31.96791862137615680694580078125" lon="118.82729209028184413909912109375">
        <ele>5</ele>
        <time>2024-06-27T11:53:15.000Z</time>
        <extensions>
          <ns3:TrackPointExtension>
            <ns3:hr>82</ns3:hr>
          </ns3:TrackPointExtension>
        </extensions>
      </trkpt>
      <trkpt lat="31.9679347984492778778076171875" lon="118.82724079303443431854248046875">
        <ele>5.19999980926513671875</ele>
        <time>2024-06-27T11:53:20.000Z</time>
        <extensions>
          <ns3:TrackPointExtension>
            <ns3:hr>82</ns3:hr>
          </ns3:TrackPointExtension>
        </extensions>
      </trkpt>
      <trkpt lat="31.96795416064560413360595703125" lon="118.82719301618635654449462890625">
        <ele>5.400000095367431640625</ele>
        <time>2024-06-27T11:53:26.000Z</time>
        <extensions>
          <ns3:TrackPointExtension>
            <ns3:hr>82</ns3:hr>
          </ns3:TrackPointExtension>
        </extensions>
      </trkpt>
      <trkpt lat="31.96797964163124561309814453125" lon="118.8271307386457920074462890625">
        <ele>5.599999904632568359375</ele>
        <time>2024-06-27T11:53:32.000Z</time>
        <extensions>
          <ns3:TrackPointExtension>
            <ns3:hr>83</ns3:hr>
          </ns3:TrackPointExtension>
        </extensions>
      </trkpt>
      <trkpt lat="31.96801166050136089324951171875" lon="118.82704474031925201416015625">
        <ele>5.400000095367431640625</ele>
        <time>2024-06-27T11:53:40.000Z</time>
        <extensions>
          <ns3:TrackPointExtension>
            <ns3:hr>84</ns3:hr>
          </ns3:TrackPointExtension>
        </extensions>
      </trkpt>
      <trkpt lat="31.968029849231243133544921875" lon="118.8269899226725101470947265625">
        <ele>5.19999980926513671875</ele>
        <time>2024-06-27T11:53:46.000Z</time>
        <extensions>
          <ns3:TrackPointExtension>
            <ns3:hr>83</ns3:hr>
          </ns3:TrackPointExtension>
        </extensions>
      </trkpt>
      <trkpt lat="31.968055665493011474609375" lon="118.8268987275660037994384765625">
        <ele>5</ele>
        <time>2024-06-27T11:53:54.000Z</time>
        <extensions>
          <ns3:TrackPointExtension>
            <ns3:hr>83</ns3:hr>
          </ns3:TrackPointExtension>
        </extensions>
      </trkpt>
      <trkpt lat="31.96806027553975582122802734375" lon="118.8268752582371234893798828125">
        <ele>5</ele>
        <time>2024-06-27T11:53:56.000Z</time>
        <extensions>
          <ns3:TrackPointExtension>
            <ns3:hr>84</ns3:hr>
          </ns3:TrackPointExtension>
        </extensions>
      </trkpt>
      <trkpt lat="31.96808315813541412353515625" lon="118.82681968621909618377685546875">
        <ele>4.80000019073486328125</ele>
        <time>2024-06-27T11:54:01.000Z</time>
        <extensions>
          <ns3:TrackPointExtension>
            <ns3:hr>85</ns3:hr>
          </ns3:TrackPointExtension>
        </extensions>
      </trkpt>
      <trkpt lat="31.9681091420352458953857421875" lon="118.82672061212360858917236328125">
        <ele>4.80000019073486328125</ele>
        <time>2024-06-27T11:54:09.000Z</time>
        <extensions>
          <ns3:TrackPointExtension>
            <ns3:hr>86</ns3:hr>
          </ns3:TrackPointExtension>
        </extensions>
      </trkpt>
      <trkpt lat="31.96814258582890033721923828125" lon="118.8266395591199398040771484375">
        <ele>5.19999980926513671875</ele>
        <time>2024-06-27T11:54:16.000Z</time>
        <extensions>
          <ns3:TrackPointExtension>
            <ns3:hr>86</ns3:hr>
          </ns3:TrackPointExtension>
        </extensions>
      </trkpt>
      <trkpt lat="31.96816907264292240142822265625" lon="118.82654559798538684844970703125">
        <ele>5.80000019073486328125</ele>
        <time>2024-06-27T11:54:23.000Z</time>
        <extensions>
          <ns3:TrackPointExtension>
            <ns3:hr>86</ns3:hr>
          </ns3:TrackPointExtension>
        </extensions>
      </trkpt>
      <trkpt lat="31.96819740347564220428466796875" lon="118.82648055441677570343017578125">
        <ele>6</ele>
        <time>2024-06-27T11:54:28.000Z</time>
        <extensions>
          <ns3:TrackPointExtension>
            <ns3:hr>88</ns3:hr>
          </ns3:TrackPointExtension>
        </extensions>
      </trkpt>
      <trkpt lat="31.96822288446128368377685546875" lon="118.82639153860509395599365234375">
        <ele>7.400000095367431640625</ele>
        <time>2024-06-27T11:54:35.000Z</time>
        <extensions>
          <ns3:TrackPointExtension>
            <ns3:hr>90</ns3:hr>
          </ns3:TrackPointExtension>
        </extensions>
      </trkpt>
      <trkpt lat="31.96824266575276851654052734375" lon="118.8263264112174510955810546875">
        <ele>8.3999996185302734375</ele>
        <time>2024-06-27T11:54:40.000Z</time>
        <extensions>
          <ns3:TrackPointExtension>
            <ns3:hr>90</ns3:hr>
          </ns3:TrackPointExtension>
        </extensions>
      </trkpt>
      <trkpt lat="31.968265883624553680419921875" lon="118.82624016143381595611572265625">
        <ele>9.6000003814697265625</ele>
        <time>2024-06-27T11:54:47.000Z</time>
        <extensions>
          <ns3:TrackPointExtension>
            <ns3:hr>91</ns3:hr>
          </ns3:TrackPointExtension>
        </extensions>
      </trkpt>
      <trkpt lat="31.96829111315310001373291015625" lon="118.82616958580911159515380859375">
        <ele>10.19999980926513671875</ele>
        <time>2024-06-27T11:54:53.000Z</time>
        <extensions>
          <ns3:TrackPointExtension>
            <ns3:hr>90</ns3:hr>
          </ns3:TrackPointExtension>
        </extensions>
      </trkpt>
      <trkpt lat="31.96832648478448390960693359375" lon="118.82606497965753078460693359375">
        <ele>10.3999996185302734375</ele>
        <time>2024-06-27T11:55:00.000Z</time>
        <extensions>
          <ns3:TrackPointExtension>
            <ns3:hr>91</ns3:hr>
          </ns3:TrackPointExtension>
        </extensions>
      </trkpt>
      <trkpt lat="31.96834777481853961944580078125" lon="118.82600094191730022430419921875">
        <ele>10.80000019073486328125</ele>
        <time>2024-06-27T11:55:05.000Z</time>
        <extensions>
          <ns3:TrackPointExtension>
            <ns3:hr>94</ns3:hr>
          </ns3:TrackPointExtension>
        </extensions>
      </trkpt>
      <trkpt lat="31.96835003793239593505859375" lon="118.82597378455102443695068359375">
        <ele>10.80000019073486328125</ele>
        <time>2024-06-27T11:55:07.000Z</time>
        <extensions>
          <ns3:TrackPointExtension>
            <ns3:hr>94</ns3:hr>
          </ns3:TrackPointExtension>
        </extensions>
      </trkpt>
      <trkpt lat="31.96835431270301342010498046875" lon="118.82596238516271114349365234375">
        <ele>10.80000019073486328125</ele>
        <time>2024-06-27T11:55:08.000Z</time>
        <extensions>
          <ns3:TrackPointExtension>
            <ns3:hr>94</ns3:hr>
          </ns3:TrackPointExtension>
        </extensions>
      </trkpt>
      <trkpt lat="31.96838096715509891510009765625" lon="118.82587420754134654998779296875">
        <ele>10.80000019073486328125</ele>
        <time>2024-06-27T11:55:15.000Z</time>
        <extensions>
          <ns3:TrackPointExtension>
            <ns3:hr>94</ns3:hr>
          </ns3:TrackPointExtension>
        </extensions>
      </trkpt>
      <trkpt lat="31.96841801516711711883544921875" lon="118.8257767260074615478515625">
        <ele>10.3999996185302734375</ele>
        <time>2024-06-27T11:55:22.000Z</time>
        <extensions>
          <ns3:TrackPointExtension>
            <ns3:hr>94</ns3:hr>
          </ns3:TrackPointExtension>
        </extensions>
      </trkpt>
      <trkpt lat="31.96843042038381099700927734375" lon="118.82572333328425884246826171875">
        <ele>10.19999980926513671875</ele>
        <time>2024-06-27T11:55:26.000Z</time>
        <extensions>
          <ns3:TrackPointExtension>
            <ns3:hr>94</ns3:hr>
          </ns3:TrackPointExtension>
        </extensions>
      </trkpt>
      <trkpt lat="31.9684310071170330047607421875" lon="118.825706653296947479248046875">
        <ele>10.19999980926513671875</ele>
        <time>2024-06-27T11:55:27.000Z</time>
        <extensions>
          <ns3:TrackPointExtension>
            <ns3:hr>94</ns3:hr>
          </ns3:TrackPointExtension>
        </extensions>
      </trkpt>
      <trkpt lat="31.9684424065053462982177734375" lon="118.82563331164419651031494140625">
        <ele>9.80000019073486328125</ele>
        <time>2024-06-27T11:55:32.000Z</time>
        <extensions>
          <ns3:TrackPointExtension>
            <ns3:hr>94</ns3:hr>
          </ns3:TrackPointExtension>
        </extensions>
      </trkpt>
      <trkpt lat="31.9684566557407379150390625" lon="118.8256050646305084228515625">
        <ele>9.3999996185302734375</ele>
        <time>2024-06-27T11:55:34.000Z</time>
        <extensions>
          <ns3:TrackPointExtension>
            <ns3:hr>94</ns3:hr>
          </ns3:TrackPointExtension>
        </extensions>
      </trkpt>
      <trkpt lat="31.9685024209320545196533203125" lon="118.8254778273403644561767578125">
        <ele>6.80000019073486328125</ele>
        <time>2024-06-27T11:55:44.000Z</time>
        <extensions>
          <ns3:TrackPointExtension>
            <ns3:hr>93</ns3:hr>
          </ns3:TrackPointExtension>
        </extensions>
      </trkpt>
      <trkpt lat="31.96852262131869792938232421875" lon="118.82539090700447559356689453125">
        <ele>5.80000019073486328125</ele>
        <time>2024-06-27T11:55:50.000Z</time>
        <extensions>
          <ns3:TrackPointExtension>
            <ns3:hr>93</ns3:hr>
          </ns3:TrackPointExtension>
        </extensions>
      </trkpt>
      <trkpt lat="31.968542821705341339111328125" lon="118.82533080875873565673828125">
        <ele>5.599999904632568359375</ele>
        <time>2024-06-27T11:55:55.000Z</time>
        <extensions>
          <ns3:TrackPointExtension>
            <ns3:hr>93</ns3:hr>
          </ns3:TrackPointExtension>
        </extensions>
      </trkpt>
      <trkpt lat="31.968547515571117401123046875" lon="118.82530666887760162353515625">
        <ele>5.400000095367431640625</ele>
        <time>2024-06-27T11:55:57.000Z</time>
        <extensions>
          <ns3:TrackPointExtension>
            <ns3:hr>93</ns3:hr>
          </ns3:TrackPointExtension>
        </extensions>
      </trkpt>
      <trkpt lat="31.96857643313705921173095703125" lon="118.8252102769911289215087890625">
        <ele>5</ele>
        <time>2024-06-27T11:56:04.000Z</time>
        <extensions>
          <ns3:TrackPointExtension>
            <ns3:hr>94</ns3:hr>
          </ns3:TrackPointExtension>
        </extensions>
      </trkpt>
      <trkpt lat="31.9686113856732845306396484375" lon="118.82509385235607624053955078125">
        <ele>5.599999904632568359375</ele>
        <time>2024-06-27T11:56:13.000Z</time>
        <extensions>
          <ns3:TrackPointExtension>
            <ns3:hr>93</ns3:hr>
          </ns3:TrackPointExtension>
        </extensions>
      </trkpt>
      <trkpt lat="31.968651451170444488525390625" lon="118.82499880157411098480224609375">
        <ele>6.599999904632568359375</ele>
        <time>2024-06-27T11:56:21.000Z</time>
        <extensions>
          <ns3:TrackPointExtension>
            <ns3:hr>95</ns3:hr>
          </ns3:TrackPointExtension>
        </extensions>
      </trkpt>
      <trkpt lat="31.9686848111450672149658203125" lon="118.82488212548196315765380859375">
        <ele>6.400000095367431640625</ele>
        <time>2024-06-27T11:56:29.000Z</time>
        <extensions>
          <ns3:TrackPointExtension>
            <ns3:hr>93</ns3:hr>
          </ns3:TrackPointExtension>
        </extensions>
      </trkpt>
      <trkpt lat="31.96870299987494945526123046875" lon="118.8248220272362232208251953125">
        <ele>6.19999980926513671875</ele>
        <time>2024-06-27T11:56:34.000Z</time>
        <extensions>
          <ns3:TrackPointExtension>
            <ns3:hr>92</ns3:hr>
          </ns3:TrackPointExtension>
        </extensions>
      </trkpt>
      <trkpt lat="31.96872361935675144195556640625" lon="118.82474206387996673583984375">
        <ele>6.400000095367431640625</ele>
        <time>2024-06-27T11:56:40.000Z</time>
        <extensions>
          <ns3:TrackPointExtension>
            <ns3:hr>92</ns3:hr>
          </ns3:TrackPointExtension>
        </extensions>
      </trkpt>
      <trkpt lat="31.9687612541019916534423828125" lon="118.82465162314474582672119140625">
        <ele>6.599999904632568359375</ele>
        <time>2024-06-27T11:56:47.000Z</time>
        <extensions>
          <ns3:TrackPointExtension>
            <ns3:hr>92</ns3:hr>
          </ns3:TrackPointExtension>
        </extensions>
      </trkpt>
      <trkpt lat="31.9687746651470661163330078125" lon="118.824592195451259613037109375">
        <ele>6.599999904632568359375</ele>
        <time>2024-06-27T11:56:52.000Z</time>
        <extensions>
          <ns3:TrackPointExtension>
            <ns3:hr>92</ns3:hr>
          </ns3:TrackPointExtension>
        </extensions>
      </trkpt>
      <trkpt lat="31.96879100985825061798095703125" lon="118.82450477220118045806884765625">
        <ele>6.80000019073486328125</ele>
        <time>2024-06-27T11:56:58.000Z</time>
        <extensions>
          <ns3:TrackPointExtension>
            <ns3:hr>93</ns3:hr>
          </ns3:TrackPointExtension>
        </extensions>
      </trkpt>
      <trkpt lat="31.96882470510900020599365234375" lon="118.82443537004292011260986328125">
        <ele>6.400000095367431640625</ele>
        <time>2024-06-27T11:57:03.000Z</time>
        <extensions>
          <ns3:TrackPointExtension>
            <ns3:hr>93</ns3:hr>
          </ns3:TrackPointExtension>
        </extensions>
      </trkpt>
      <trkpt lat="31.9688262976706027984619140625" lon="118.82439748384058475494384765625">
        <ele>6.19999980926513671875</ele>
        <time>2024-06-27T11:57:07.000Z</time>
        <extensions>
          <ns3:TrackPointExtension>
            <ns3:hr>93</ns3:hr>
          </ns3:TrackPointExtension>
        </extensions>
      </trkpt>
      <trkpt lat="31.9688547961413860321044921875" lon="118.8243315182626247406005859375">
        <ele>5.80000019073486328125</ele>
        <time>2024-06-27T11:57:12.000Z</time>
        <extensions>
          <ns3:TrackPointExtension>
            <ns3:hr>95</ns3:hr>
          </ns3:TrackPointExtension>
        </extensions>
      </trkpt>
      <trkpt lat="31.96887952275574207305908203125" lon="118.82424007169902324676513671875">
        <ele>5.599999904632568359375</ele>
        <time>2024-06-27T11:57:19.000Z</time>
        <extensions>
          <ns3:TrackPointExtension>
            <ns3:hr>95</ns3:hr>
          </ns3:TrackPointExtension>
        </extensions>
      </trkpt>
      <trkpt lat="31.96888086386024951934814453125" lon="118.82422439754009246826171875">
        <ele>5.400000095367431640625</ele>
        <time>2024-06-27T11:57:20.000Z</time>
        <extensions>
          <ns3:TrackPointExtension>
            <ns3:hr>94</ns3:hr>
          </ns3:TrackPointExtension>
        </extensions>
      </trkpt>
      <trkpt lat="31.968892179429531097412109375" lon="118.82417318411171436309814453125">
        <ele>5.400000095367431640625</ele>
        <time>2024-06-27T11:57:24.000Z</time>
        <extensions>
          <ns3:TrackPointExtension>
            <ns3:hr>94</ns3:hr>
          </ns3:TrackPointExtension>
        </extensions>
      </trkpt>
      <trkpt lat="31.968919672071933746337890625" lon="118.8241102360188961029052734375">
        <ele>5.400000095367431640625</ele>
        <time>2024-06-27T11:57:29.000Z</time>
        <extensions>
          <ns3:TrackPointExtension>
            <ns3:hr>94</ns3:hr>
          </ns3:TrackPointExtension>
        </extensions>
      </trkpt>
      <trkpt lat="31.968924701213836669921875" lon="118.82404879666864871978759765625">
        <ele>5.400000095367431640625</ele>
        <time>2024-06-27T11:57:34.000Z</time>
        <extensions>
          <ns3:TrackPointExtension>
            <ns3:hr>95</ns3:hr>
          </ns3:TrackPointExtension>
        </extensions>
      </trkpt>
      <trkpt lat="31.96893702261149883270263671875" lon="118.82396967150270938873291015625">
        <ele>5.400000095367431640625</ele>
        <time>2024-06-27T11:57:39.000Z</time>
        <extensions>
          <ns3:TrackPointExtension>
            <ns3:hr>95</ns3:hr>
          </ns3:TrackPointExtension>
        </extensions>
      </trkpt>
      <trkpt lat="31.96895747445523738861083984375" lon="118.8239177875220775604248046875">
        <ele>5.400000095367431640625</ele>
        <time>2024-06-27T11:57:45.000Z</time>
        <extensions>
          <ns3:TrackPointExtension>
            <ns3:hr>94</ns3:hr>
          </ns3:TrackPointExtension>
        </extensions>
      </trkpt>
      <trkpt lat="31.9689751602709293365478515625" lon="118.8239151053130626678466796875">
        <ele>5.400000095367431640625</ele>
        <time>2024-06-27T11:57:46.000Z</time>
        <extensions>
          <ns3:TrackPointExtension>
            <ns3:hr>94</ns3:hr>
          </ns3:TrackPointExtension>
        </extensions>
      </trkpt>
      <trkpt lat="31.96897633373737335205078125" lon="118.82391326129436492919921875">
        <ele>5.400000095367431640625</ele>
        <time>2024-06-27T11:57:50.000Z</time>
        <extensions>
          <ns3:TrackPointExtension>
            <ns3:hr>94</ns3:hr>
          </ns3:TrackPointExtension>
        </extensions>
      </trkpt>
      <trkpt lat="31.96897633373737335205078125" lon="118.82391326129436492919921875">
        <ele>5.400000095367431640625</ele>
        <time>2024-06-27T11:57:54.000Z</time>
        <extensions>
          <ns3:TrackPointExtension>
            <ns3:hr>90</ns3:hr>
          </ns3:TrackPointExtension>
        </extensions>
      </trkpt>
      <trkpt lat="31.96897633373737335205078125" lon="118.82391326129436492919921875">
        <ele>5.400000095367431640625</ele>
        <time>2024-06-27T11:57:55.000Z</time>
        <extensions>
          <ns3:TrackPointExtension>
            <ns3:hr>87</ns3:hr>
          </ns3:TrackPointExtension>
        </extensions>
      </trkpt>
      <trkpt lat="31.96897633373737335205078125" lon="118.82391326129436492919921875">
        <ele>5.400000095367431640625</ele>
        <time>2024-06-27T11:58:01.000Z</time>
        <extensions>
          <ns3:TrackPointExtension>
            <ns3:hr>86</ns3:hr>
          </ns3:TrackPointExtension>
        </extensions>
      </trkpt>
      <trkpt lat="31.96897633373737335205078125" lon="118.82391326129436492919921875">
        <ele>5.400000095367431640625</ele>
        <time>2024-06-27T11:58:08.000Z</time>
        <extensions>
          <ns3:TrackPointExtension>
            <ns3:hr>86</ns3:hr>
          </ns3:TrackPointExtension>
        </extensions>
      </trkpt>
      <trkpt lat="31.96897633373737335205078125" lon="118.82391326129436492919921875">
        <ele>5.400000095367431640625</ele>
        <time>2024-06-27T11:58:12.000Z</time>
        <extensions>
          <ns3:TrackPointExtension>
            <ns3:hr>89</ns3:hr>
          </ns3:TrackPointExtension>
        </extensions>
      </trkpt>
      <trkpt lat="31.96897633373737335205078125" lon="118.82391326129436492919921875">
        <ele>5.400000095367431640625</ele>
        <time>2024-06-27T11:58:14.000Z</time>
        <extensions>
          <ns3:TrackPointExtension>
            <ns3:hr>86</ns3:hr>
          </ns3:TrackPointExtension>
        </extensions>
      </trkpt>
      <trkpt lat="31.96897633373737335205078125" lon="118.82391326129436492919921875">
        <ele>5.400000095367431640625</ele>
        <time>2024-06-27T11:58:19.000Z</time>
        <extensions>
          <ns3:TrackPointExtension>
            <ns3:hr>83</ns3:hr>
          </ns3:TrackPointExtension>
        </extensions>
      </trkpt>
      <trkpt lat="31.96897633373737335205078125" lon="118.82391326129436492919921875">
        <ele>5.400000095367431640625</ele>
        <time>2024-06-27T11:58:22.000Z</time>
        <extensions>
          <ns3:TrackPointExtension>
            <ns3:hr>79</ns3:hr>
          </ns3:TrackPointExtension>
        </extensions>
      </trkpt>
      <trkpt lat="31.96897633373737335205078125" lon="118.82391326129436492919921875">
        <ele>5.400000095367431640625</ele>
        <time>2024-06-27T11:58:23.000Z</time>
        <extensions>
          <ns3:TrackPointExtension>
            <ns3:hr>75</ns3:hr>
          </ns3:TrackPointExtension>
        </extensions>
      </trkpt>
      <trkpt lat="31.96897633373737335205078125" lon="118.82391326129436492919921875">
        <ele>5.400000095367431640625</ele>
        <time>2024-06-27T11:58:32.000Z</time>
        <extensions>
          <ns3:TrackPointExtension>
            <ns3:hr>75</ns3:hr>
          </ns3:TrackPointExtension>
        </extensions>
      </trkpt>
      <trkpt lat="31.96897633373737335205078125" lon="118.82391326129436492919921875">
        <ele>5.400000095367431640625</ele>
        <time>2024-06-27T11:58:40.000Z</time>
        <extensions>
          <ns3:TrackPointExtension>
            <ns3:hr>78</ns3:hr>
          </ns3:TrackPointExtension>
        </extensions>
      </trkpt>
      <trkpt lat="31.96897633373737335205078125" lon="118.82391326129436492919921875">
        <ele>5.400000095367431640625</ele>
        <time>2024-06-27T11:58:46.000Z</time>
        <extensions>
          <ns3:TrackPointExtension>
            <ns3:hr>81</ns3:hr>
          </ns3:TrackPointExtension>
        </extensions>
      </trkpt>
      <trkpt lat="31.96897901594638824462890625" lon="118.8239286839962005615234375">
        <ele>5.19999980926513671875</ele>
        <time>2024-06-27T11:58:50.000Z</time>
        <extensions>
          <ns3:TrackPointExtension>
            <ns3:hr>84</ns3:hr>
          </ns3:TrackPointExtension>
        </extensions>
      </trkpt>
      <trkpt lat="31.96897901594638824462890625" lon="118.8239286839962005615234375">
        <ele>5.19999980926513671875</ele>
        <time>2024-06-27T11:58:52.000Z</time>
        <extensions>
          <ns3:TrackPointExtension>
            <ns3:hr>84</ns3:hr>
          </ns3:TrackPointExtension>
        </extensions>
      </trkpt>
      <trkpt lat="31.96897901594638824462890625" lon="118.8239286839962005615234375">
        <ele>5.19999980926513671875</ele>
        <time>2024-06-27T11:59:13.000Z</time>
        <extensions>
          <ns3:TrackPointExtension>
            <ns3:hr>76</ns3:hr>
          </ns3:TrackPointExtension>
        </extensions>
      </trkpt>
      <trkpt lat="31.96897901594638824462890625" lon="118.8239286839962005615234375">
        <ele>5.19999980926513671875</ele>
        <time>2024-06-27T11:59:14.000Z</time>
        <extensions>
          <ns3:TrackPointExtension>
            <ns3:hr>72</ns3:hr>
          </ns3:TrackPointExtension>
        </extensions>
      </trkpt>
      <trkpt lat="31.968995444476604461669921875" lon="118.82392658852040767669677734375">
        <ele>5.19999980926513671875</ele>
        <time>2024-06-27T11:59:28.000Z</time>
        <extensions>
          <ns3:TrackPointExtension>
            <ns3:hr>72</ns3:hr>
          </ns3:TrackPointExtension>
        </extensions>
      </trkpt>
      <trkpt lat="31.968995444476604461669921875" lon="118.82392658852040767669677734375">
        <ele>5.19999980926513671875</ele>
        <time>2024-06-27T11:59:34.000Z</time>
        <extensions>
          <ns3:TrackPointExtension>
            <ns3:hr>75</ns3:hr>
          </ns3:TrackPointExtension>
        </extensions>
      </trkpt>
      <trkpt lat="31.968995444476604461669921875" lon="118.82392658852040767669677734375">
        <ele>5.19999980926513671875</ele>
        <time>2024-06-27T11:59:35.000Z</time>
        <extensions>
          <ns3:TrackPointExtension>
            <ns3:hr>78</ns3:hr>
          </ns3:TrackPointExtension>
        </extensions>
      </trkpt>
      <trkpt lat="31.968995444476604461669921875" lon="118.82392658852040767669677734375">
        <ele>5.19999980926513671875</ele>
        <time>2024-06-27T11:59:37.000Z</time>
        <extensions>
          <ns3:TrackPointExtension>
            <ns3:hr>82</ns3:hr>
          </ns3:TrackPointExtension>
        </extensions>
      </trkpt>
      <trkpt lat="31.968995444476604461669921875" lon="118.82392658852040767669677734375">
        <ele>5.19999980926513671875</ele>
        <time>2024-06-27T11:59:47.000Z</time>
        <extensions>
          <ns3:TrackPointExtension>
            <ns3:hr>79</ns3:hr>
          </ns3:TrackPointExtension>
        </extensions>
      </trkpt>
      <trkpt lat="31.968995444476604461669921875" lon="118.82392658852040767669677734375">
        <ele>5.19999980926513671875</ele>
        <time>2024-06-27T11:59:50.000Z</time>
        <extensions>
          <ns3:TrackPointExtension>
            <ns3:hr>77</ns3:hr>
          </ns3:TrackPointExtension>
        </extensions>
      </trkpt>
      <trkpt lat="31.968995444476604461669921875" lon="118.82392658852040767669677734375">
        <ele>5.19999980926513671875</ele>
        <time>2024-06-27T11:59:57.000Z</time>
        <extensions>
          <ns3:TrackPointExtension>
            <ns3:hr>82</ns3:hr>
          </ns3:TrackPointExtension>
        </extensions>
      </trkpt>
      <trkpt lat="31.968994773924350738525390625" lon="118.8239265047013759613037109375">
        <ele>5.19999980926513671875</ele>
        <time>2024-06-27T12:00:04.000Z</time>
        <extensions>
          <ns3:TrackPointExtension>
            <ns3:hr>81</ns3:hr>
          </ns3:TrackPointExtension>
        </extensions>
      </trkpt>
      <trkpt lat="31.968995444476604461669921875" lon="118.82392658852040767669677734375">
        <ele>5.19999980926513671875</ele>
        <time>2024-06-27T12:00:12.000Z</time>
        <extensions>
          <ns3:TrackPointExtension>
            <ns3:hr>78</ns3:hr>
          </ns3:TrackPointExtension>
        </extensions>
      </trkpt>
      <trkpt lat="31.968995444476604461669921875" lon="118.82392658852040767669677734375">
        <ele>5.19999980926513671875</ele>
        <time>2024-06-27T12:00:23.000Z</time>
        <extensions>
          <ns3:TrackPointExtension>
            <ns3:hr>81</ns3:hr>
          </ns3:TrackPointExtension>
        </extensions>
      </trkpt>
      <trkpt lat="31.968995444476604461669921875" lon="118.82392658852040767669677734375">
        <ele>5.19999980926513671875</ele>
        <time>2024-06-27T12:00:24.000Z</time>
        <extensions>
          <ns3:TrackPointExtension>
            <ns3:hr>84</ns3:hr>
          </ns3:TrackPointExtension>
        </extensions>
      </trkpt>
      <trkpt lat="31.968995444476604461669921875" lon="118.82392658852040767669677734375">
        <ele>5.19999980926513671875</ele>
        <time>2024-06-27T12:00:31.000Z</time>
        <extensions>
          <ns3:TrackPointExtension>
            <ns3:hr>80</ns3:hr>
          </ns3:TrackPointExtension>
        </extensions>
      </trkpt>
      <trkpt lat="31.968995444476604461669921875" lon="118.82392658852040767669677734375">
        <ele>5.19999980926513671875</ele>
        <time>2024-06-27T12:00:33.000Z</time>
        <extensions>
          <ns3:TrackPointExtension>
            <ns3:hr>77</ns3:hr>
          </ns3:TrackPointExtension>
        </extensions>
      </trkpt>
      <trkpt lat="31.968995444476604461669921875" lon="118.82392658852040767669677734375">
        <ele>5.19999980926513671875</ele>
        <time>2024-06-27T12:00:36.000Z</time>
        <extensions>
          <ns3:TrackPointExtension>
            <ns3:hr>74</ns3:hr>
          </ns3:TrackPointExtension>
        </extensions>
      </trkpt>
      <trkpt lat="31.968995444476604461669921875" lon="118.82392658852040767669677734375">
        <ele>5.19999980926513671875</ele>
        <time>2024-06-27T12:00:38.000Z</time>
        <extensions>
          <ns3:TrackPointExtension>
            <ns3:hr>71</ns3:hr>
          </ns3:TrackPointExtension>
        </extensions>
      </trkpt>
      <trkpt lat="31.968995444476604461669921875" lon="118.82392658852040767669677734375">
        <ele>5.19999980926513671875</ele>
        <time>2024-06-27T12:00:40.000Z</time>
        <extensions>
          <ns3:TrackPointExtension>
            <ns3:hr>68</ns3:hr>
          </ns3:TrackPointExtension>
        </extensions>
      </trkpt>
      <trkpt lat="31.968995444476604461669921875" lon="118.82392658852040767669677734375">
        <ele>5.19999980926513671875</ele>
        <time>2024-06-27T12:00:43.000Z</time>
        <extensions>
          <ns3:TrackPointExtension>
            <ns3:hr>68</ns3:hr>
          </ns3:TrackPointExtension>
        </extensions>
      </trkpt>
      <trkpt lat="31.968995444476604461669921875" lon="118.82392658852040767669677734375">
        <ele>5.19999980926513671875</ele>
        <time>2024-06-27T12:00:54.000Z</time>
        <extensions>
          <ns3:TrackPointExtension>
            <ns3:hr>71</ns3:hr>
          </ns3:TrackPointExtension>
        </extensions>
      </trkpt>
      <trkpt lat="31.968994773924350738525390625" lon="118.8239313662052154541015625">
        <ele>5.19999980926513671875</ele>
        <time>2024-06-27T12:01:05.000Z</time>
        <extensions>
          <ns3:TrackPointExtension>
            <ns3:hr>72</ns3:hr>
          </ns3:TrackPointExtension>
        </extensions>
      </trkpt>
      <trkpt lat="31.9689949415624141693115234375" lon="118.8239298574626445770263671875">
        <ele>5.19999980926513671875</ele>
        <time>2024-06-27T12:01:15.000Z</time>
        <extensions>
          <ns3:TrackPointExtension>
            <ns3:hr>76</ns3:hr>
          </ns3:TrackPointExtension>
        </extensions>
      </trkpt>
      <trkpt lat="31.96899368427693843841552734375" lon="118.8239192962646484375">
        <ele>5.19999980926513671875</ele>
        <time>2024-06-27T12:01:18.000Z</time>
        <extensions>
          <ns3:TrackPointExtension>
            <ns3:hr>79</ns3:hr>
          </ns3:TrackPointExtension>
        </extensions>
      </trkpt>
      <trkpt lat="31.968981362879276275634765625" lon="118.8238926418125629425048828125">
        <ele>5.19999980926513671875</ele>
        <time>2024-06-27T12:01:21.000Z</time>
        <extensions>
          <ns3:TrackPointExtension>
            <ns3:hr>78</ns3:hr>
          </ns3:TrackPointExtension>
        </extensions>
      </trkpt>
      <trkpt lat="31.96898412890732288360595703125" lon="118.82387948222458362579345703125">
        <ele>5.19999980926513671875</ele>
        <time>2024-06-27T12:01:24.000Z</time>
        <extensions>
          <ns3:TrackPointExtension>
            <ns3:hr>79</ns3:hr>
          </ns3:TrackPointExtension>
        </extensions>
      </trkpt>
    </trkseg>
  </trk>
</gpx>
