<gpx xmlns:ns3="http://www.garmin.com/xmlschemas/TrackPointExtension/v1" xmlns="http://www.topografix.com/GPX/1/1" xmlns:xsi="http://www.w3.org/2001/XMLSchema-instance" xmlns:ns2="http://www.garmin.com/xmlschemas/GpxExtensions/v3" creator="Garmin Connect" version="1.1" xsi:schemaLocation="http://www.topografix.com/GPX/1/1 http://www.topografix.com/GPX/11.xsd">
  <extensions>
<distance>544.75</distance>
<average_hr>147.0</average_hr>
<average_speed>2.7109999656677246</average_speed>
<start_time>2024-07-04T00:46:20+00:00</start_time>
<end_time>2024-07-04T00:49:40.961000+00:00</end_time>
<moving_time>200.961</moving_time>
<elapsed_time>200.961</elapsed_time>
</extensions>
<metadata>
    <link href="connect.garmin.com">
      <text>Garmin Connect</text>
    </link>
    <time>2024-07-04T00:46:20.000Z</time>
  </metadata>
  <trk>
    <name>南京市 跑步</name>
    <type>running</type>
    <trkseg>
      <trkpt lat="32.00118421576917171478271484375" lon="118.7475090287625789642333984375">
        <ele>9</ele>
        <time>2024-07-04T00:46:20.000Z</time>
        <extensions>
          <ns3:TrackPointExtension>
            <ns3:hr>118</ns3:hr>
            <ns3:cad>84</ns3:cad>
          </ns3:TrackPointExtension>
        </extensions>
      </trkpt>
      <trkpt lat="32.00116929598152637481689453125" lon="118.74747030436992645263671875">
        <ele>9</ele>
        <time>2024-07-04T00:46:21.000Z</time>
        <extensions>
          <ns3:TrackPointExtension>
            <ns3:hr>120</ns3:hr>
            <ns3:cad>84</ns3:cad>
          </ns3:TrackPointExtension>
        </extensions>
      </trkpt>
      <trkpt lat="32.00117298401892185211181640625" lon="118.74747960828244686126708984375">
        <ele>9.19999980926513671875</ele>
        <time>2024-07-04T00:46:22.000Z</time>
        <extensions>
          <ns3:TrackPointExtension>
            <ns3:hr>122</ns3:hr>
            <ns3:cad>84</ns3:cad>
          </ns3:TrackPointExtension>
        </extensions>
      </trkpt>
      <trkpt lat="32.001175247132778167724609375" lon="118.74748706817626953125">
        <ele>9.19999980926513671875</ele>
        <time>2024-07-04T00:46:23.000Z</time>
        <extensions>
          <ns3:TrackPointExtension>
            <ns3:hr>122</ns3:hr>
            <ns3:cad>0</ns3:cad>
          </ns3:TrackPointExtension>
        </extensions>
      </trkpt>
      <trkpt lat="32.0011703856289386749267578125" lon="118.7474993057548999786376953125">
        <ele>9.19999980926513671875</ele>
        <time>2024-07-04T00:46:24.000Z</time>
        <extensions>
          <ns3:TrackPointExtension>
            <ns3:hr>122</ns3:hr>
            <ns3:cad>0</ns3:cad>
          </ns3:TrackPointExtension>
        </extensions>
      </trkpt>
      <trkpt lat="32.001168541610240936279296875" lon="118.74750274233520030975341796875">
        <ele>9.19999980926513671875</ele>
        <time>2024-07-04T00:46:25.000Z</time>
        <extensions>
          <ns3:TrackPointExtension>
            <ns3:hr>122</ns3:hr>
            <ns3:cad>0</ns3:cad>
          </ns3:TrackPointExtension>
        </extensions>
      </trkpt>
      <trkpt lat="32.0011673681437969207763671875" lon="118.74749637208878993988037109375">
        <ele>9.19999980926513671875</ele>
        <time>2024-07-04T00:46:26.000Z</time>
        <extensions>
          <ns3:TrackPointExtension>
            <ns3:hr>122</ns3:hr>
            <ns3:cad>0</ns3:cad>
          </ns3:TrackPointExtension>
        </extensions>
      </trkpt>
      <trkpt lat="32.00116627849638462066650390625" lon="118.747480027377605438232421875">
        <ele>9.19999980926513671875</ele>
        <time>2024-07-04T00:46:27.000Z</time>
        <extensions>
          <ns3:TrackPointExtension>
            <ns3:hr>124</ns3:hr>
            <ns3:cad>0</ns3:cad>
          </ns3:TrackPointExtension>
        </extensions>
      </trkpt>
      <trkpt lat="32.00116711668670177459716796875" lon="118.747464604675769805908203125">
        <ele>9.19999980926513671875</ele>
        <time>2024-07-04T00:46:28.000Z</time>
        <extensions>
          <ns3:TrackPointExtension>
            <ns3:hr>125</ns3:hr>
            <ns3:cad>0</ns3:cad>
          </ns3:TrackPointExtension>
        </extensions>
      </trkpt>
      <trkpt lat="32.00117315165698528289794921875" lon="118.74745261855423450469970703125">
        <ele>9</ele>
        <time>2024-07-04T00:46:29.000Z</time>
        <extensions>
          <ns3:TrackPointExtension>
            <ns3:hr>129</ns3:hr>
            <ns3:cad>0</ns3:cad>
          </ns3:TrackPointExtension>
        </extensions>
      </trkpt>
      <trkpt lat="32.00117985717952251434326171875" lon="118.7474334239959716796875">
        <ele>9</ele>
        <time>2024-07-04T00:46:30.000Z</time>
        <extensions>
          <ns3:TrackPointExtension>
            <ns3:hr>131</ns3:hr>
            <ns3:cad>0</ns3:cad>
          </ns3:TrackPointExtension>
        </extensions>
      </trkpt>
      <trkpt lat="32.0011821202933788299560546875" lon="118.74742059968411922454833984375">
        <ele>9</ele>
        <time>2024-07-04T00:46:31.000Z</time>
        <extensions>
          <ns3:TrackPointExtension>
            <ns3:hr>132</ns3:hr>
            <ns3:cad>0</ns3:cad>
          </ns3:TrackPointExtension>
        </extensions>
      </trkpt>
      <trkpt lat="32.0011891610920429229736328125" lon="118.7474003992974758148193359375">
        <ele>9</ele>
        <time>2024-07-04T00:46:32.000Z</time>
        <extensions>
          <ns3:TrackPointExtension>
            <ns3:hr>132</ns3:hr>
            <ns3:cad>0</ns3:cad>
          </ns3:TrackPointExtension>
        </extensions>
      </trkpt>
      <trkpt lat="32.00119595043361186981201171875" lon="118.74737969599664211273193359375">
        <ele>9</ele>
        <time>2024-07-04T00:46:33.000Z</time>
        <extensions>
          <ns3:TrackPointExtension>
            <ns3:hr>132</ns3:hr>
            <ns3:cad>0</ns3:cad>
          </ns3:TrackPointExtension>
        </extensions>
      </trkpt>
      <trkpt lat="32.001202739775180816650390625" lon="118.74735991470515727996826171875">
        <ele>9</ele>
        <time>2024-07-04T00:46:34.000Z</time>
        <extensions>
          <ns3:TrackPointExtension>
            <ns3:hr>132</ns3:hr>
            <ns3:cad>59</ns3:cad>
          </ns3:TrackPointExtension>
        </extensions>
      </trkpt>
      <trkpt lat="32.00121103785932064056396484375" lon="118.747339211404323577880859375">
        <ele>8.80000019073486328125</ele>
        <time>2024-07-04T00:46:35.000Z</time>
        <extensions>
          <ns3:TrackPointExtension>
            <ns3:hr>131</ns3:hr>
            <ns3:cad>121</ns3:cad>
          </ns3:TrackPointExtension>
        </extensions>
      </trkpt>
      <trkpt lat="32.00121304951608180999755859375" lon="118.747324459254741668701171875">
        <ele>8.80000019073486328125</ele>
        <time>2024-07-04T00:46:36.000Z</time>
        <extensions>
          <ns3:TrackPointExtension>
            <ns3:hr>131</ns3:hr>
            <ns3:cad>121</ns3:cad>
          </ns3:TrackPointExtension>
        </extensions>
      </trkpt>
      <trkpt lat="32.00121522881090641021728515625" lon="118.74731205403804779052734375">
        <ele>8.80000019073486328125</ele>
        <time>2024-07-04T00:46:37.000Z</time>
        <extensions>
          <ns3:TrackPointExtension>
            <ns3:hr>131</ns3:hr>
            <ns3:cad>65</ns3:cad>
          </ns3:TrackPointExtension>
        </extensions>
      </trkpt>
      <trkpt lat="32.0012226887047290802001953125" lon="118.74729059636592864990234375">
        <ele>8.80000019073486328125</ele>
        <time>2024-07-04T00:46:38.000Z</time>
        <extensions>
          <ns3:TrackPointExtension>
            <ns3:hr>131</ns3:hr>
            <ns3:cad>65</ns3:cad>
          </ns3:TrackPointExtension>
        </extensions>
      </trkpt>
      <trkpt lat="32.0012278854846954345703125" lon="118.74726855196058750152587890625">
        <ele>8.80000019073486328125</ele>
        <time>2024-07-04T00:46:39.000Z</time>
        <extensions>
          <ns3:TrackPointExtension>
            <ns3:hr>131</ns3:hr>
            <ns3:cad>65</ns3:cad>
          </ns3:TrackPointExtension>
        </extensions>
      </trkpt>
      <trkpt lat="32.0012319087982177734375" lon="118.74724365770816802978515625">
        <ele>8.80000019073486328125</ele>
        <time>2024-07-04T00:46:40.000Z</time>
        <extensions>
          <ns3:TrackPointExtension>
            <ns3:hr>131</ns3:hr>
            <ns3:cad>65</ns3:cad>
          </ns3:TrackPointExtension>
        </extensions>
      </trkpt>
      <trkpt lat="32.00123517774045467376708984375" lon="118.7472230382263660430908203125">
        <ele>8.6000003814697265625</ele>
        <time>2024-07-04T00:46:41.000Z</time>
        <extensions>
          <ns3:TrackPointExtension>
            <ns3:hr>131</ns3:hr>
            <ns3:cad>65</ns3:cad>
          </ns3:TrackPointExtension>
        </extensions>
      </trkpt>
      <trkpt lat="32.0012360997498035430908203125" lon="118.7471978925168514251708984375">
        <ele>8.6000003814697265625</ele>
        <time>2024-07-04T00:46:42.000Z</time>
        <extensions>
          <ns3:TrackPointExtension>
            <ns3:hr>132</ns3:hr>
            <ns3:cad>65</ns3:cad>
          </ns3:TrackPointExtension>
        </extensions>
      </trkpt>
      <trkpt lat="32.00122629292309284210205078125" lon="118.747167885303497314453125">
        <ele>8.6000003814697265625</ele>
        <time>2024-07-04T00:46:43.000Z</time>
        <extensions>
          <ns3:TrackPointExtension>
            <ns3:hr>132</ns3:hr>
            <ns3:cad>65</ns3:cad>
          </ns3:TrackPointExtension>
        </extensions>
      </trkpt>
      <trkpt lat="32.00121170841157436370849609375" lon="118.74713980592787265777587890625">
        <ele>8.6000003814697265625</ele>
        <time>2024-07-04T00:46:44.000Z</time>
        <extensions>
          <ns3:TrackPointExtension>
            <ns3:hr>132</ns3:hr>
            <ns3:cad>65</ns3:cad>
          </ns3:TrackPointExtension>
        </extensions>
      </trkpt>
      <trkpt lat="32.00119544751942157745361328125" lon="118.74712304212152957916259765625">
        <ele>8.19999980926513671875</ele>
        <time>2024-07-04T00:46:45.000Z</time>
        <extensions>
          <ns3:TrackPointExtension>
            <ns3:hr>132</ns3:hr>
            <ns3:cad>65</ns3:cad>
          </ns3:TrackPointExtension>
        </extensions>
      </trkpt>
      <trkpt lat="32.00117164291441440582275390625" lon="118.74709638766944408416748046875">
        <ele>8</ele>
        <time>2024-07-04T00:46:46.000Z</time>
        <extensions>
          <ns3:TrackPointExtension>
            <ns3:hr>132</ns3:hr>
            <ns3:cad>65</ns3:cad>
          </ns3:TrackPointExtension>
        </extensions>
      </trkpt>
      <trkpt lat="32.00115320272743701934814453125" lon="118.74708482064306735992431640625">
        <ele>7.80000019073486328125</ele>
        <time>2024-07-04T00:46:47.000Z</time>
        <extensions>
          <ns3:TrackPointExtension>
            <ns3:hr>131</ns3:hr>
            <ns3:cad>81</ns3:cad>
          </ns3:TrackPointExtension>
        </extensions>
      </trkpt>
      <trkpt lat="32.00113073922693729400634765625" lon="118.7470681406557559967041015625">
        <ele>7.80000019073486328125</ele>
        <time>2024-07-04T00:46:48.000Z</time>
        <extensions>
          <ns3:TrackPointExtension>
            <ns3:hr>131</ns3:hr>
            <ns3:cad>82</ns3:cad>
          </ns3:TrackPointExtension>
        </extensions>
      </trkpt>
      <trkpt lat="32.00111598707735538482666015625" lon="118.74704794026911258697509765625">
        <ele>7.80000019073486328125</ele>
        <time>2024-07-04T00:46:49.000Z</time>
        <extensions>
          <ns3:TrackPointExtension>
            <ns3:hr>130</ns3:hr>
            <ns3:cad>82</ns3:cad>
          </ns3:TrackPointExtension>
        </extensions>
      </trkpt>
      <trkpt lat="32.00109754689037799835205078125" lon="118.74703570269048213958740234375">
        <ele>7.599999904632568359375</ele>
        <time>2024-07-04T00:46:50.000Z</time>
        <extensions>
          <ns3:TrackPointExtension>
            <ns3:hr>130</ns3:hr>
            <ns3:cad>83</ns3:cad>
          </ns3:TrackPointExtension>
        </extensions>
      </trkpt>
      <trkpt lat="32.0010731555521488189697265625" lon="118.7470185197889804840087890625">
        <ele>7.599999904632568359375</ele>
        <time>2024-07-04T00:46:51.000Z</time>
        <extensions>
          <ns3:TrackPointExtension>
            <ns3:hr>130</ns3:hr>
            <ns3:cad>83</ns3:cad>
          </ns3:TrackPointExtension>
        </extensions>
      </trkpt>
      <trkpt lat="32.0010553859174251556396484375" lon="118.7470061145722866058349609375">
        <ele>7.599999904632568359375</ele>
        <time>2024-07-04T00:46:52.000Z</time>
        <extensions>
          <ns3:TrackPointExtension>
            <ns3:hr>130</ns3:hr>
            <ns3:cad>84</ns3:cad>
          </ns3:TrackPointExtension>
        </extensions>
      </trkpt>
      <trkpt lat="32.00102982111275196075439453125" lon="118.7469913624227046966552734375">
        <ele>7.400000095367431640625</ele>
        <time>2024-07-04T00:46:53.000Z</time>
        <extensions>
          <ns3:TrackPointExtension>
            <ns3:hr>130</ns3:hr>
            <ns3:cad>84</ns3:cad>
          </ns3:TrackPointExtension>
        </extensions>
      </trkpt>
      <trkpt lat="32.00100853107869625091552734375" lon="118.7469739280641078948974609375">
        <ele>7.400000095367431640625</ele>
        <time>2024-07-04T00:46:54.000Z</time>
        <extensions>
          <ns3:TrackPointExtension>
            <ns3:hr>131</ns3:hr>
            <ns3:cad>83</ns3:cad>
          </ns3:TrackPointExtension>
        </extensions>
      </trkpt>
      <trkpt lat="32.00098573230206966400146484375" lon="118.74696462415158748626708984375">
        <ele>7.400000095367431640625</ele>
        <time>2024-07-04T00:46:55.000Z</time>
        <extensions>
          <ns3:TrackPointExtension>
            <ns3:hr>132</ns3:hr>
            <ns3:cad>83</ns3:cad>
          </ns3:TrackPointExtension>
        </extensions>
      </trkpt>
      <trkpt lat="32.00096108950674533843994140625" lon="118.7469439208507537841796875">
        <ele>7.19999980926513671875</ele>
        <time>2024-07-04T00:46:56.000Z</time>
        <extensions>
          <ns3:TrackPointExtension>
            <ns3:hr>133</ns3:hr>
            <ns3:cad>83</ns3:cad>
          </ns3:TrackPointExtension>
        </extensions>
      </trkpt>
      <trkpt lat="32.00094298459589481353759765625" lon="118.7469303421676158905029296875">
        <ele>7.19999980926513671875</ele>
        <time>2024-07-04T00:46:57.000Z</time>
        <extensions>
          <ns3:TrackPointExtension>
            <ns3:hr>133</ns3:hr>
            <ns3:cad>83</ns3:cad>
          </ns3:TrackPointExtension>
        </extensions>
      </trkpt>
      <trkpt lat="32.00091532431542873382568359375" lon="118.74691265635192394256591796875">
        <ele>7.400000095367431640625</ele>
        <time>2024-07-04T00:46:58.000Z</time>
        <extensions>
          <ns3:TrackPointExtension>
            <ns3:hr>134</ns3:hr>
            <ns3:cad>83</ns3:cad>
          </ns3:TrackPointExtension>
        </extensions>
      </trkpt>
      <trkpt lat="32.00088766403496265411376953125" lon="118.7468921206891536712646484375">
        <ele>7.400000095367431640625</ele>
        <time>2024-07-04T00:46:59.000Z</time>
        <extensions>
          <ns3:TrackPointExtension>
            <ns3:hr>133</ns3:hr>
            <ns3:cad>84</ns3:cad>
          </ns3:TrackPointExtension>
        </extensions>
      </trkpt>
      <trkpt lat="32.00086184777319431304931640625" lon="118.74688030220568180084228515625">
        <ele>7.599999904632568359375</ele>
        <time>2024-07-04T00:47:00.000Z</time>
        <extensions>
          <ns3:TrackPointExtension>
            <ns3:hr>132</ns3:hr>
            <ns3:cad>84</ns3:cad>
          </ns3:TrackPointExtension>
        </extensions>
      </trkpt>
      <trkpt lat="32.00083837844431400299072265625" lon="118.74685700051486492156982421875">
        <ele>7.599999904632568359375</ele>
        <time>2024-07-04T00:47:01.000Z</time>
        <extensions>
          <ns3:TrackPointExtension>
            <ns3:hr>132</ns3:hr>
            <ns3:cad>84</ns3:cad>
          </ns3:TrackPointExtension>
        </extensions>
      </trkpt>
      <trkpt lat="32.000822536647319793701171875" lon="118.74684023670852184295654296875">
        <ele>7.599999904632568359375</ele>
        <time>2024-07-04T00:47:02.000Z</time>
        <extensions>
          <ns3:TrackPointExtension>
            <ns3:hr>133</ns3:hr>
            <ns3:cad>84</ns3:cad>
          </ns3:TrackPointExtension>
        </extensions>
      </trkpt>
      <trkpt lat="32.000809796154499053955078125" lon="118.74681307934224605560302734375">
        <ele>7.80000019073486328125</ele>
        <time>2024-07-04T00:47:03.000Z</time>
        <extensions>
          <ns3:TrackPointExtension>
            <ns3:hr>134</ns3:hr>
            <ns3:cad>84</ns3:cad>
          </ns3:TrackPointExtension>
        </extensions>
      </trkpt>
      <trkpt lat="32.00081306509673595428466796875" lon="118.74678106047213077545166015625">
        <ele>8</ele>
        <time>2024-07-04T00:47:04.000Z</time>
        <extensions>
          <ns3:TrackPointExtension>
            <ns3:hr>134</ns3:hr>
            <ns3:cad>84</ns3:cad>
          </ns3:TrackPointExtension>
        </extensions>
      </trkpt>
      <trkpt lat="32.00081524439156055450439453125" lon="118.74675172381103038787841796875">
        <ele>8</ele>
        <time>2024-07-04T00:47:05.000Z</time>
        <extensions>
          <ns3:TrackPointExtension>
            <ns3:hr>135</ns3:hr>
            <ns3:cad>85</ns3:cad>
          </ns3:TrackPointExtension>
        </extensions>
      </trkpt>
      <trkpt lat="32.00082848779857158660888671875" lon="118.7467150948941707611083984375">
        <ele>8</ele>
        <time>2024-07-04T00:47:06.000Z</time>
        <extensions>
          <ns3:TrackPointExtension>
            <ns3:hr>134</ns3:hr>
            <ns3:cad>85</ns3:cad>
          </ns3:TrackPointExtension>
        </extensions>
      </trkpt>
      <trkpt lat="32.00083829462528228759765625" lon="118.7466772086918354034423828125">
        <ele>8</ele>
        <time>2024-07-04T00:47:07.000Z</time>
        <extensions>
          <ns3:TrackPointExtension>
            <ns3:hr>134</ns3:hr>
            <ns3:cad>84</ns3:cad>
          </ns3:TrackPointExtension>
        </extensions>
      </trkpt>
      <trkpt lat="32.0008470118045806884765625" lon="118.746641837060451507568359375">
        <ele>8</ele>
        <time>2024-07-04T00:47:08.000Z</time>
        <extensions>
          <ns3:TrackPointExtension>
            <ns3:hr>134</ns3:hr>
            <ns3:cad>84</ns3:cad>
          </ns3:TrackPointExtension>
        </extensions>
      </trkpt>
      <trkpt lat="32.00086017139256000518798828125" lon="118.7466111592948436737060546875">
        <ele>8</ele>
        <time>2024-07-04T00:47:09.000Z</time>
        <extensions>
          <ns3:TrackPointExtension>
            <ns3:hr>135</ns3:hr>
            <ns3:cad>84</ns3:cad>
          </ns3:TrackPointExtension>
        </extensions>
      </trkpt>
      <trkpt lat="32.000871486961841583251953125" lon="118.74658048152923583984375">
        <ele>8</ele>
        <time>2024-07-04T00:47:10.000Z</time>
        <extensions>
          <ns3:TrackPointExtension>
            <ns3:hr>135</ns3:hr>
            <ns3:cad>84</ns3:cad>
          </ns3:TrackPointExtension>
        </extensions>
      </trkpt>
      <trkpt lat="32.00088799931108951568603515625" lon="118.74655139632523059844970703125">
        <ele>8</ele>
        <time>2024-07-04T00:47:11.000Z</time>
        <extensions>
          <ns3:TrackPointExtension>
            <ns3:hr>136</ns3:hr>
            <ns3:cad>84</ns3:cad>
          </ns3:TrackPointExtension>
        </extensions>
      </trkpt>
      <trkpt lat="32.00090643949806690216064453125" lon="118.7465246580541133880615234375">
        <ele>8</ele>
        <time>2024-07-04T00:47:12.000Z</time>
        <extensions>
          <ns3:TrackPointExtension>
            <ns3:hr>136</ns3:hr>
            <ns3:cad>84</ns3:cad>
          </ns3:TrackPointExtension>
        </extensions>
      </trkpt>
      <trkpt lat="32.00092278420925140380859375" lon="118.7464944832026958465576171875">
        <ele>8</ele>
        <time>2024-07-04T00:47:13.000Z</time>
        <extensions>
          <ns3:TrackPointExtension>
            <ns3:hr>137</ns3:hr>
            <ns3:cad>84</ns3:cad>
          </ns3:TrackPointExtension>
        </extensions>
      </trkpt>
      <trkpt lat="32.00093594379723072052001953125" lon="118.74646875075995922088623046875">
        <ele>8.19999980926513671875</ele>
        <time>2024-07-04T00:47:14.000Z</time>
        <extensions>
          <ns3:TrackPointExtension>
            <ns3:hr>137</ns3:hr>
            <ns3:cad>84</ns3:cad>
          </ns3:TrackPointExtension>
        </extensions>
      </trkpt>
      <trkpt lat="32.0009541325271129608154296875" lon="118.74644033610820770263671875">
        <ele>8.3999996185302734375</ele>
        <time>2024-07-04T00:47:15.000Z</time>
        <extensions>
          <ns3:TrackPointExtension>
            <ns3:hr>138</ns3:hr>
            <ns3:cad>84</ns3:cad>
          </ns3:TrackPointExtension>
        </extensions>
      </trkpt>
      <trkpt lat="32.00097433291375637054443359375" lon="118.74640957452356815338134765625">
        <ele>8.3999996185302734375</ele>
        <time>2024-07-04T00:47:16.000Z</time>
        <extensions>
          <ns3:TrackPointExtension>
            <ns3:hr>138</ns3:hr>
            <ns3:cad>84</ns3:cad>
          </ns3:TrackPointExtension>
        </extensions>
      </trkpt>
      <trkpt lat="32.00099595822393894195556640625" lon="118.74637730419635772705078125">
        <ele>8.6000003814697265625</ele>
        <time>2024-07-04T00:47:17.000Z</time>
        <extensions>
          <ns3:TrackPointExtension>
            <ns3:hr>139</ns3:hr>
            <ns3:cad>84</ns3:cad>
          </ns3:TrackPointExtension>
        </extensions>
      </trkpt>
      <trkpt lat="32.00101741589605808258056640625" lon="118.74634553678333759307861328125">
        <ele>8.80000019073486328125</ele>
        <time>2024-07-04T00:47:18.000Z</time>
        <extensions>
          <ns3:TrackPointExtension>
            <ns3:hr>139</ns3:hr>
            <ns3:cad>85</ns3:cad>
          </ns3:TrackPointExtension>
        </extensions>
      </trkpt>
      <trkpt lat="32.001030407845973968505859375" lon="118.74631988815963268280029296875">
        <ele>8.80000019073486328125</ele>
        <time>2024-07-04T00:47:19.000Z</time>
        <extensions>
          <ns3:TrackPointExtension>
            <ns3:hr>140</ns3:hr>
            <ns3:cad>85</ns3:cad>
          </ns3:TrackPointExtension>
        </extensions>
      </trkpt>
      <trkpt lat="32.0010493509471416473388671875" lon="118.7462852708995342254638671875">
        <ele>8.80000019073486328125</ele>
        <time>2024-07-04T00:47:20.000Z</time>
        <extensions>
          <ns3:TrackPointExtension>
            <ns3:hr>140</ns3:hr>
            <ns3:cad>86</ns3:cad>
          </ns3:TrackPointExtension>
        </extensions>
      </trkpt>
      <trkpt lat="32.00106133706867694854736328125" lon="118.74626062810420989990234375">
        <ele>8.80000019073486328125</ele>
        <time>2024-07-04T00:47:21.000Z</time>
        <extensions>
          <ns3:TrackPointExtension>
            <ns3:hr>141</ns3:hr>
            <ns3:cad>86</ns3:cad>
          </ns3:TrackPointExtension>
        </extensions>
      </trkpt>
      <trkpt lat="32.0010734908282756805419921875" lon="118.74623221345245838165283203125">
        <ele>8.80000019073486328125</ele>
        <time>2024-07-04T00:47:22.000Z</time>
        <extensions>
          <ns3:TrackPointExtension>
            <ns3:hr>141</ns3:hr>
            <ns3:cad>86</ns3:cad>
          </ns3:TrackPointExtension>
        </extensions>
      </trkpt>
      <trkpt lat="32.0010858960449695587158203125" lon="118.74620472081005573272705078125">
        <ele>8.80000019073486328125</ele>
        <time>2024-07-04T00:47:23.000Z</time>
        <extensions>
          <ns3:TrackPointExtension>
            <ns3:hr>142</ns3:hr>
            <ns3:cad>85</ns3:cad>
          </ns3:TrackPointExtension>
        </extensions>
      </trkpt>
      <trkpt lat="32.0010989718139171600341796875" lon="118.746180832386016845703125">
        <ele>8.80000019073486328125</ele>
        <time>2024-07-04T00:47:24.000Z</time>
        <extensions>
          <ns3:TrackPointExtension>
            <ns3:hr>142</ns3:hr>
            <ns3:cad>85</ns3:cad>
          </ns3:TrackPointExtension>
        </extensions>
      </trkpt>
      <trkpt lat="32.00111179612576961517333984375" lon="118.74615333974361419677734375">
        <ele>8.6000003814697265625</ele>
        <time>2024-07-04T00:47:25.000Z</time>
        <extensions>
          <ns3:TrackPointExtension>
            <ns3:hr>143</ns3:hr>
            <ns3:cad>85</ns3:cad>
          </ns3:TrackPointExtension>
        </extensions>
      </trkpt>
      <trkpt lat="32.00112394988536834716796875" lon="118.74613062478601932525634765625">
        <ele>8.3999996185302734375</ele>
        <time>2024-07-04T00:47:26.000Z</time>
        <extensions>
          <ns3:TrackPointExtension>
            <ns3:hr>143</ns3:hr>
            <ns3:cad>85</ns3:cad>
          </ns3:TrackPointExtension>
        </extensions>
      </trkpt>
      <trkpt lat="32.00114138424396514892578125" lon="118.7460975162684917449951171875">
        <ele>8.3999996185302734375</ele>
        <time>2024-07-04T00:47:27.000Z</time>
        <extensions>
          <ns3:TrackPointExtension>
            <ns3:hr>143</ns3:hr>
            <ns3:cad>86</ns3:cad>
          </ns3:TrackPointExtension>
        </extensions>
      </trkpt>
      <trkpt lat="32.00115337036550045013427734375" lon="118.7460794113576412200927734375">
        <ele>8.3999996185302734375</ele>
        <time>2024-07-04T00:47:28.000Z</time>
        <extensions>
          <ns3:TrackPointExtension>
            <ns3:hr>144</ns3:hr>
            <ns3:cad>86</ns3:cad>
          </ns3:TrackPointExtension>
        </extensions>
      </trkpt>
      <trkpt lat="32.00116963125765323638916015625" lon="118.74605719931423664093017578125">
        <ele>8.3999996185302734375</ele>
        <time>2024-07-04T00:47:29.000Z</time>
        <extensions>
          <ns3:TrackPointExtension>
            <ns3:hr>144</ns3:hr>
            <ns3:cad>86</ns3:cad>
          </ns3:TrackPointExtension>
        </extensions>
      </trkpt>
      <trkpt lat="32.0011827908456325531005859375" lon="118.74603037722408771514892578125">
        <ele>8.19999980926513671875</ele>
        <time>2024-07-04T00:47:30.000Z</time>
        <extensions>
          <ns3:TrackPointExtension>
            <ns3:hr>145</ns3:hr>
            <ns3:cad>86</ns3:cad>
          </ns3:TrackPointExtension>
        </extensions>
      </trkpt>
      <trkpt lat="32.00119310058653354644775390625" lon="118.7460024654865264892578125">
        <ele>8.19999980926513671875</ele>
        <time>2024-07-04T00:47:31.000Z</time>
        <extensions>
          <ns3:TrackPointExtension>
            <ns3:hr>145</ns3:hr>
            <ns3:cad>86</ns3:cad>
          </ns3:TrackPointExtension>
        </extensions>
      </trkpt>
      <trkpt lat="32.0012010633945465087890625" lon="118.7459697760641574859619140625">
        <ele>8</ele>
        <time>2024-07-04T00:47:32.000Z</time>
        <extensions>
          <ns3:TrackPointExtension>
            <ns3:hr>146</ns3:hr>
            <ns3:cad>86</ns3:cad>
          </ns3:TrackPointExtension>
        </extensions>
      </trkpt>
      <trkpt lat="32.001208104193210601806640625" lon="118.7459339015185832977294921875">
        <ele>8</ele>
        <time>2024-07-04T00:47:33.000Z</time>
        <extensions>
          <ns3:TrackPointExtension>
            <ns3:hr>146</ns3:hr>
            <ns3:cad>86</ns3:cad>
          </ns3:TrackPointExtension>
        </extensions>
      </trkpt>
      <trkpt lat="32.00121522881090641021728515625" lon="118.745899200439453125">
        <ele>7.80000019073486328125</ele>
        <time>2024-07-04T00:47:34.000Z</time>
        <extensions>
          <ns3:TrackPointExtension>
            <ns3:hr>146</ns3:hr>
            <ns3:cad>86</ns3:cad>
          </ns3:TrackPointExtension>
        </extensions>
      </trkpt>
      <trkpt lat="32.00121992267668247222900390625" lon="118.74587036669254302978515625">
        <ele>7.80000019073486328125</ele>
        <time>2024-07-04T00:47:35.000Z</time>
        <extensions>
          <ns3:TrackPointExtension>
            <ns3:hr>146</ns3:hr>
            <ns3:cad>86</ns3:cad>
          </ns3:TrackPointExtension>
        </extensions>
      </trkpt>
      <trkpt lat="32.00122813694179058074951171875" lon="118.745831809937953948974609375">
        <ele>7.80000019073486328125</ele>
        <time>2024-07-04T00:47:36.000Z</time>
        <extensions>
          <ns3:TrackPointExtension>
            <ns3:hr>147</ns3:hr>
            <ns3:cad>86</ns3:cad>
          </ns3:TrackPointExtension>
        </extensions>
      </trkpt>
      <trkpt lat="32.00123132206499576568603515625" lon="118.745797611773014068603515625">
        <ele>7.599999904632568359375</ele>
        <time>2024-07-04T00:47:37.000Z</time>
        <extensions>
          <ns3:TrackPointExtension>
            <ns3:hr>147</ns3:hr>
            <ns3:cad>86</ns3:cad>
          </ns3:TrackPointExtension>
        </extensions>
      </trkpt>
      <trkpt lat="32.001237608492374420166015625" lon="118.7457610666751861572265625">
        <ele>7.599999904632568359375</ele>
        <time>2024-07-04T00:47:38.000Z</time>
        <extensions>
          <ns3:TrackPointExtension>
            <ns3:hr>147</ns3:hr>
            <ns3:cad>87</ns3:cad>
          </ns3:TrackPointExtension>
        </extensions>
      </trkpt>
      <trkpt lat="32.0012439787387847900390625" lon="118.74572779051959514617919921875">
        <ele>7.599999904632568359375</ele>
        <time>2024-07-04T00:47:39.000Z</time>
        <extensions>
          <ns3:TrackPointExtension>
            <ns3:hr>148</ns3:hr>
            <ns3:cad>87</ns3:cad>
          </ns3:TrackPointExtension>
        </extensions>
      </trkpt>
      <trkpt lat="32.0012542046606540679931640625" lon="118.74568973667919635772705078125">
        <ele>7.400000095367431640625</ele>
        <time>2024-07-04T00:47:40.000Z</time>
        <extensions>
          <ns3:TrackPointExtension>
            <ns3:hr>148</ns3:hr>
            <ns3:cad>87</ns3:cad>
          </ns3:TrackPointExtension>
        </extensions>
      </trkpt>
      <trkpt lat="32.00126216746866703033447265625" lon="118.745655454695224761962890625">
        <ele>7.400000095367431640625</ele>
        <time>2024-07-04T00:47:41.000Z</time>
        <extensions>
          <ns3:TrackPointExtension>
            <ns3:hr>148</ns3:hr>
            <ns3:cad>87</ns3:cad>
          </ns3:TrackPointExtension>
        </extensions>
      </trkpt>
      <trkpt lat="32.00127121992409229278564453125" lon="118.74561379663646221160888671875">
        <ele>7.19999980926513671875</ele>
        <time>2024-07-04T00:47:42.000Z</time>
        <extensions>
          <ns3:TrackPointExtension>
            <ns3:hr>148</ns3:hr>
            <ns3:cad>87</ns3:cad>
          </ns3:TrackPointExtension>
        </extensions>
      </trkpt>
      <trkpt lat="32.0012780092656612396240234375" lon="118.74558496288955211639404296875">
        <ele>7.19999980926513671875</ele>
        <time>2024-07-04T00:47:43.000Z</time>
        <extensions>
          <ns3:TrackPointExtension>
            <ns3:hr>149</ns3:hr>
            <ns3:cad>87</ns3:cad>
          </ns3:TrackPointExtension>
        </extensions>
      </trkpt>
      <trkpt lat="32.00128681026399135589599609375" lon="118.74554808251559734344482421875">
        <ele>7.19999980926513671875</ele>
        <time>2024-07-04T00:47:44.000Z</time>
        <extensions>
          <ns3:TrackPointExtension>
            <ns3:hr>149</ns3:hr>
            <ns3:cad>88</ns3:cad>
          </ns3:TrackPointExtension>
        </extensions>
      </trkpt>
      <trkpt lat="32.00129552744328975677490234375" lon="118.7455181591212749481201171875">
        <ele>7.19999980926513671875</ele>
        <time>2024-07-04T00:47:45.000Z</time>
        <extensions>
          <ns3:TrackPointExtension>
            <ns3:hr>149</ns3:hr>
            <ns3:cad>88</ns3:cad>
          </ns3:TrackPointExtension>
        </extensions>
      </trkpt>
      <trkpt lat="32.001307010650634765625" lon="118.7454846315085887908935546875">
        <ele>7.19999980926513671875</ele>
        <time>2024-07-04T00:47:46.000Z</time>
        <extensions>
          <ns3:TrackPointExtension>
            <ns3:hr>149</ns3:hr>
            <ns3:cad>88</ns3:cad>
          </ns3:TrackPointExtension>
        </extensions>
      </trkpt>
      <trkpt lat="32.00131765566766262054443359375" lon="118.7454561330378055572509765625">
        <ele>7.19999980926513671875</ele>
        <time>2024-07-04T00:47:47.000Z</time>
        <extensions>
          <ns3:TrackPointExtension>
            <ns3:hr>149</ns3:hr>
            <ns3:cad>88</ns3:cad>
          </ns3:TrackPointExtension>
        </extensions>
      </trkpt>
      <trkpt lat="32.00132335536181926727294921875" lon="118.74542671255767345428466796875">
        <ele>7</ele>
        <time>2024-07-04T00:47:48.000Z</time>
        <extensions>
          <ns3:TrackPointExtension>
            <ns3:hr>150</ns3:hr>
            <ns3:cad>88</ns3:cad>
          </ns3:TrackPointExtension>
        </extensions>
      </trkpt>
      <trkpt lat="32.0013443939387798309326171875" lon="118.7454078532755374908447265625">
        <ele>7</ele>
        <time>2024-07-04T00:47:49.000Z</time>
        <extensions>
          <ns3:TrackPointExtension>
            <ns3:hr>150</ns3:hr>
            <ns3:cad>88</ns3:cad>
          </ns3:TrackPointExtension>
        </extensions>
      </trkpt>
      <trkpt lat="32.00135621242225170135498046875" lon="118.74538379721343517303466796875">
        <ele>6.80000019073486328125</ele>
        <time>2024-07-04T00:47:50.000Z</time>
        <extensions>
          <ns3:TrackPointExtension>
            <ns3:hr>150</ns3:hr>
            <ns3:cad>88</ns3:cad>
          </ns3:TrackPointExtension>
        </extensions>
      </trkpt>
      <trkpt lat="32.0013675279915332794189453125" lon="118.74535798095166683197021484375">
        <ele>6.80000019073486328125</ele>
        <time>2024-07-04T00:47:51.000Z</time>
        <extensions>
          <ns3:TrackPointExtension>
            <ns3:hr>150</ns3:hr>
            <ns3:cad>88</ns3:cad>
          </ns3:TrackPointExtension>
        </extensions>
      </trkpt>
      <trkpt lat="32.0013806037604808807373046875" lon="118.7453314103186130523681640625">
        <ele>6.80000019073486328125</ele>
        <time>2024-07-04T00:47:52.000Z</time>
        <extensions>
          <ns3:TrackPointExtension>
            <ns3:hr>150</ns3:hr>
            <ns3:cad>88</ns3:cad>
          </ns3:TrackPointExtension>
        </extensions>
      </trkpt>
      <trkpt lat="32.00139661319553852081298828125" lon="118.74530282802879810333251953125">
        <ele>6.80000019073486328125</ele>
        <time>2024-07-04T00:47:53.000Z</time>
        <extensions>
          <ns3:TrackPointExtension>
            <ns3:hr>151</ns3:hr>
            <ns3:cad>88</ns3:cad>
          </ns3:TrackPointExtension>
        </extensions>
      </trkpt>
      <trkpt lat="32.00141421519219875335693359375" lon="118.74529100954532623291015625">
        <ele>7</ele>
        <time>2024-07-04T00:47:54.000Z</time>
        <extensions>
          <ns3:TrackPointExtension>
            <ns3:hr>151</ns3:hr>
            <ns3:cad>0</ns3:cad>
          </ns3:TrackPointExtension>
        </extensions>
      </trkpt>
      <trkpt lat="32.001439444720745086669921875" lon="118.74528028070926666259765625">
        <ele>7</ele>
        <time>2024-07-04T00:47:55.000Z</time>
        <extensions>
          <ns3:TrackPointExtension>
            <ns3:hr>151</ns3:hr>
            <ns3:cad>0</ns3:cad>
          </ns3:TrackPointExtension>
        </extensions>
      </trkpt>
      <trkpt lat="32.0014746487140655517578125" lon="118.74526997096836566925048828125">
        <ele>7.19999980926513671875</ele>
        <time>2024-07-04T00:47:56.000Z</time>
        <extensions>
          <ns3:TrackPointExtension>
            <ns3:hr>151</ns3:hr>
            <ns3:cad>0</ns3:cad>
          </ns3:TrackPointExtension>
        </extensions>
      </trkpt>
      <trkpt lat="32.00150088407099246978759765625" lon="118.7452596612274646759033203125">
        <ele>7.19999980926513671875</ele>
        <time>2024-07-04T00:47:57.000Z</time>
        <extensions>
          <ns3:TrackPointExtension>
            <ns3:hr>151</ns3:hr>
            <ns3:cad>0</ns3:cad>
          </ns3:TrackPointExtension>
        </extensions>
      </trkpt>
      <trkpt lat="32.001522593200206756591796875" lon="118.74524264596402645111083984375">
        <ele>7.19999980926513671875</ele>
        <time>2024-07-04T00:47:58.000Z</time>
        <extensions>
          <ns3:TrackPointExtension>
            <ns3:hr>151</ns3:hr>
            <ns3:cad>0</ns3:cad>
          </ns3:TrackPointExtension>
        </extensions>
      </trkpt>
      <trkpt lat="32.00153969228267669677734375" lon="118.7452219426631927490234375">
        <ele>7.19999980926513671875</ele>
        <time>2024-07-04T00:47:59.000Z</time>
        <extensions>
          <ns3:TrackPointExtension>
            <ns3:hr>152</ns3:hr>
            <ns3:cad>87</ns3:cad>
          </ns3:TrackPointExtension>
        </extensions>
      </trkpt>
      <trkpt lat="32.001559473574161529541015625" lon="118.7451976351439952850341796875">
        <ele>7.19999980926513671875</ele>
        <time>2024-07-04T00:48:00.000Z</time>
        <extensions>
          <ns3:TrackPointExtension>
            <ns3:hr>152</ns3:hr>
            <ns3:cad>87</ns3:cad>
          </ns3:TrackPointExtension>
        </extensions>
      </trkpt>
      <trkpt lat="32.00157984159886837005615234375" lon="118.74517240561544895172119140625">
        <ele>7.19999980926513671875</ele>
        <time>2024-07-04T00:48:01.000Z</time>
        <extensions>
          <ns3:TrackPointExtension>
            <ns3:hr>152</ns3:hr>
            <ns3:cad>87</ns3:cad>
          </ns3:TrackPointExtension>
        </extensions>
      </trkpt>
      <trkpt lat="32.00159995816648006439208984375" lon="118.7451436556875705718994140625">
        <ele>7.19999980926513671875</ele>
        <time>2024-07-04T00:48:02.000Z</time>
        <extensions>
          <ns3:TrackPointExtension>
            <ns3:hr>152</ns3:hr>
            <ns3:cad>87</ns3:cad>
          </ns3:TrackPointExtension>
        </extensions>
      </trkpt>
      <trkpt lat="32.0016179792582988739013671875" lon="118.74511658214032649993896484375">
        <ele>7.400000095367431640625</ele>
        <time>2024-07-04T00:48:03.000Z</time>
        <extensions>
          <ns3:TrackPointExtension>
            <ns3:hr>152</ns3:hr>
            <ns3:cad>87</ns3:cad>
          </ns3:TrackPointExtension>
        </extensions>
      </trkpt>
      <trkpt lat="32.001634575426578521728515625" lon="118.7450776062905788421630859375">
        <ele>7.400000095367431640625</ele>
        <time>2024-07-04T00:48:04.000Z</time>
        <extensions>
          <ns3:TrackPointExtension>
            <ns3:hr>152</ns3:hr>
            <ns3:cad>87</ns3:cad>
          </ns3:TrackPointExtension>
        </extensions>
      </trkpt>
      <trkpt lat="32.00164890848100185394287109375" lon="118.74504433013498783111572265625">
        <ele>7.400000095367431640625</ele>
        <time>2024-07-04T00:48:05.000Z</time>
        <extensions>
          <ns3:TrackPointExtension>
            <ns3:hr>152</ns3:hr>
            <ns3:cad>87</ns3:cad>
          </ns3:TrackPointExtension>
        </extensions>
      </trkpt>
      <trkpt lat="32.00166642665863037109375" lon="118.74501465819776058197021484375">
        <ele>7.400000095367431640625</ele>
        <time>2024-07-04T00:48:06.000Z</time>
        <extensions>
          <ns3:TrackPointExtension>
            <ns3:hr>152</ns3:hr>
            <ns3:cad>87</ns3:cad>
          </ns3:TrackPointExtension>
        </extensions>
      </trkpt>
      <trkpt lat="32.001681514084339141845703125" lon="118.74498615972697734832763671875">
        <ele>7.400000095367431640625</ele>
        <time>2024-07-04T00:48:07.000Z</time>
        <extensions>
          <ns3:TrackPointExtension>
            <ns3:hr>153</ns3:hr>
            <ns3:cad>87</ns3:cad>
          </ns3:TrackPointExtension>
        </extensions>
      </trkpt>
      <trkpt lat="32.0016984455287456512451171875" lon="118.744966126978397369384765625">
        <ele>7.400000095367431640625</ele>
        <time>2024-07-04T00:48:08.000Z</time>
        <extensions>
          <ns3:TrackPointExtension>
            <ns3:hr>153</ns3:hr>
            <ns3:cad>86</ns3:cad>
          </ns3:TrackPointExtension>
        </extensions>
      </trkpt>
      <trkpt lat="32.001719735562801361083984375" lon="118.74494710005819797515869140625">
        <ele>7.599999904632568359375</ele>
        <time>2024-07-04T00:48:09.000Z</time>
        <extensions>
          <ns3:TrackPointExtension>
            <ns3:hr>153</ns3:hr>
            <ns3:cad>86</ns3:cad>
          </ns3:TrackPointExtension>
        </extensions>
      </trkpt>
      <trkpt lat="32.00174312107264995574951171875" lon="118.7449351139366626739501953125">
        <ele>7.599999904632568359375</ele>
        <time>2024-07-04T00:48:10.000Z</time>
        <extensions>
          <ns3:TrackPointExtension>
            <ns3:hr>153</ns3:hr>
            <ns3:cad>86</ns3:cad>
          </ns3:TrackPointExtension>
        </extensions>
      </trkpt>
      <trkpt lat="32.001759968698024749755859375" lon="118.74492463655769824981689453125">
        <ele>7.599999904632568359375</ele>
        <time>2024-07-04T00:48:11.000Z</time>
        <extensions>
          <ns3:TrackPointExtension>
            <ns3:hr>153</ns3:hr>
            <ns3:cad>85</ns3:cad>
          </ns3:TrackPointExtension>
        </extensions>
      </trkpt>
      <trkpt lat="32.001777403056621551513671875" lon="118.744914494454860687255859375">
        <ele>7.599999904632568359375</ele>
        <time>2024-07-04T00:48:12.000Z</time>
        <extensions>
          <ns3:TrackPointExtension>
            <ns3:hr>153</ns3:hr>
            <ns3:cad>85</ns3:cad>
          </ns3:TrackPointExtension>
        </extensions>
      </trkpt>
      <trkpt lat="32.001797519624233245849609375" lon="118.74490317888557910919189453125">
        <ele>7.599999904632568359375</ele>
        <time>2024-07-04T00:48:13.000Z</time>
        <extensions>
          <ns3:TrackPointExtension>
            <ns3:hr>154</ns3:hr>
            <ns3:cad>84</ns3:cad>
          </ns3:TrackPointExtension>
        </extensions>
      </trkpt>
      <trkpt lat="32.00182710774242877960205078125" lon="118.74487769789993762969970703125">
        <ele>7.599999904632568359375</ele>
        <time>2024-07-04T00:48:14.000Z</time>
        <extensions>
          <ns3:TrackPointExtension>
            <ns3:hr>154</ns3:hr>
            <ns3:cad>84</ns3:cad>
          </ns3:TrackPointExtension>
        </extensions>
      </trkpt>
      <trkpt lat="32.001847140491008758544921875" lon="118.74486185610294342041015625">
        <ele>7.599999904632568359375</ele>
        <time>2024-07-04T00:48:15.000Z</time>
        <extensions>
          <ns3:TrackPointExtension>
            <ns3:hr>154</ns3:hr>
            <ns3:cad>84</ns3:cad>
          </ns3:TrackPointExtension>
        </extensions>
      </trkpt>
      <trkpt lat="32.0018731243908405303955078125" lon="118.74482874758541584014892578125">
        <ele>7.599999904632568359375</ele>
        <time>2024-07-04T00:48:16.000Z</time>
        <extensions>
          <ns3:TrackPointExtension>
            <ns3:hr>154</ns3:hr>
            <ns3:cad>84</ns3:cad>
          </ns3:TrackPointExtension>
        </extensions>
      </trkpt>
      <trkpt lat="32.00188578106462955474853515625" lon="118.7448013387620449066162109375">
        <ele>7.599999904632568359375</ele>
        <time>2024-07-04T00:48:17.000Z</time>
        <extensions>
          <ns3:TrackPointExtension>
            <ns3:hr>154</ns3:hr>
            <ns3:cad>84</ns3:cad>
          </ns3:TrackPointExtension>
        </extensions>
      </trkpt>
      <trkpt lat="32.00189776718616485595703125" lon="118.74478138983249664306640625">
        <ele>7.599999904632568359375</ele>
        <time>2024-07-04T00:48:18.000Z</time>
        <extensions>
          <ns3:TrackPointExtension>
            <ns3:hr>154</ns3:hr>
            <ns3:cad>84</ns3:cad>
          </ns3:TrackPointExtension>
        </extensions>
      </trkpt>
      <trkpt lat="32.001914195716381072998046875" lon="118.744749538600444793701171875">
        <ele>7.599999904632568359375</ele>
        <time>2024-07-04T00:48:19.000Z</time>
        <extensions>
          <ns3:TrackPointExtension>
            <ns3:hr>154</ns3:hr>
            <ns3:cad>84</ns3:cad>
          </ns3:TrackPointExtension>
        </extensions>
      </trkpt>
      <trkpt lat="32.0019217394292354583740234375" lon="118.7447284162044525146484375">
        <ele>7.599999904632568359375</ele>
        <time>2024-07-04T00:48:20.000Z</time>
        <extensions>
          <ns3:TrackPointExtension>
            <ns3:hr>154</ns3:hr>
            <ns3:cad>85</ns3:cad>
          </ns3:TrackPointExtension>
        </extensions>
      </trkpt>
      <trkpt lat="32.0019284449517726898193359375" lon="118.74469731934368610382080078125">
        <ele>7.599999904632568359375</ele>
        <time>2024-07-04T00:48:21.000Z</time>
        <extensions>
          <ns3:TrackPointExtension>
            <ns3:hr>154</ns3:hr>
            <ns3:cad>85</ns3:cad>
          </ns3:TrackPointExtension>
        </extensions>
      </trkpt>
      <trkpt lat="32.00192819349467754364013671875" lon="118.74467678368091583251953125">
        <ele>7.599999904632568359375</ele>
        <time>2024-07-04T00:48:22.000Z</time>
        <extensions>
          <ns3:TrackPointExtension>
            <ns3:hr>155</ns3:hr>
            <ns3:cad>85</ns3:cad>
          </ns3:TrackPointExtension>
        </extensions>
      </trkpt>
      <trkpt lat="32.00192567892372608184814453125" lon="118.74465373344719409942626953125">
        <ele>7.599999904632568359375</ele>
        <time>2024-07-04T00:48:23.000Z</time>
        <extensions>
          <ns3:TrackPointExtension>
            <ns3:hr>155</ns3:hr>
            <ns3:cad>85</ns3:cad>
          </ns3:TrackPointExtension>
        </extensions>
      </trkpt>
      <trkpt lat="32.001926936209201812744140625" lon="118.74463546089828014373779296875">
        <ele>7.80000019073486328125</ele>
        <time>2024-07-04T00:48:24.000Z</time>
        <extensions>
          <ns3:TrackPointExtension>
            <ns3:hr>155</ns3:hr>
            <ns3:cad>85</ns3:cad>
          </ns3:TrackPointExtension>
        </extensions>
      </trkpt>
      <trkpt lat="32.00192433781921863555908203125" lon="118.74460461549460887908935546875">
        <ele>7.80000019073486328125</ele>
        <time>2024-07-04T00:48:25.000Z</time>
        <extensions>
          <ns3:TrackPointExtension>
            <ns3:hr>155</ns3:hr>
            <ns3:cad>85</ns3:cad>
          </ns3:TrackPointExtension>
        </extensions>
      </trkpt>
      <trkpt lat="32.00192199088633060455322265625" lon="118.744569160044193267822265625">
        <ele>7.80000019073486328125</ele>
        <time>2024-07-04T00:48:26.000Z</time>
        <extensions>
          <ns3:TrackPointExtension>
            <ns3:hr>155</ns3:hr>
            <ns3:cad>85</ns3:cad>
          </ns3:TrackPointExtension>
        </extensions>
      </trkpt>
      <trkpt lat="32.0019240863621234893798828125" lon="118.74454560689628124237060546875">
        <ele>8</ele>
        <time>2024-07-04T00:48:27.000Z</time>
        <extensions>
          <ns3:TrackPointExtension>
            <ns3:hr>155</ns3:hr>
            <ns3:cad>85</ns3:cad>
          </ns3:TrackPointExtension>
        </extensions>
      </trkpt>
      <trkpt lat="32.0019294507801532745361328125" lon="118.7445136718451976776123046875">
        <ele>8</ele>
        <time>2024-07-04T00:48:28.000Z</time>
        <extensions>
          <ns3:TrackPointExtension>
            <ns3:hr>155</ns3:hr>
            <ns3:cad>85</ns3:cad>
          </ns3:TrackPointExtension>
        </extensions>
      </trkpt>
      <trkpt lat="32.0019428618252277374267578125" lon="118.74449841678142547607421875">
        <ele>8</ele>
        <time>2024-07-04T00:48:29.000Z</time>
        <extensions>
          <ns3:TrackPointExtension>
            <ns3:hr>155</ns3:hr>
            <ns3:cad>85</ns3:cad>
          </ns3:TrackPointExtension>
        </extensions>
      </trkpt>
      <trkpt lat="32.0019535906612873077392578125" lon="118.7444731034338474273681640625">
        <ele>8</ele>
        <time>2024-07-04T00:48:30.000Z</time>
        <extensions>
          <ns3:TrackPointExtension>
            <ns3:hr>155</ns3:hr>
            <ns3:cad>85</ns3:cad>
          </ns3:TrackPointExtension>
        </extensions>
      </trkpt>
      <trkpt lat="32.00196507386863231658935546875" lon="118.744461536407470703125">
        <ele>8</ele>
        <time>2024-07-04T00:48:31.000Z</time>
        <extensions>
          <ns3:TrackPointExtension>
            <ns3:hr>155</ns3:hr>
            <ns3:cad>85</ns3:cad>
          </ns3:TrackPointExtension>
        </extensions>
      </trkpt>
      <trkpt lat="32.0019773952662944793701171875" lon="118.74444318003952503204345703125">
        <ele>8</ele>
        <time>2024-07-04T00:48:32.000Z</time>
        <extensions>
          <ns3:TrackPointExtension>
            <ns3:hr>155</ns3:hr>
            <ns3:cad>85</ns3:cad>
          </ns3:TrackPointExtension>
        </extensions>
      </trkpt>
      <trkpt lat="32.001987285912036895751953125" lon="118.7444181181490421295166015625">
        <ele>8</ele>
        <time>2024-07-04T00:48:33.000Z</time>
        <extensions>
          <ns3:TrackPointExtension>
            <ns3:hr>156</ns3:hr>
            <ns3:cad>85</ns3:cad>
          </ns3:TrackPointExtension>
        </extensions>
      </trkpt>
      <trkpt lat="32.001992650330066680908203125" lon="118.74439439736306667327880859375">
        <ele>7.80000019073486328125</ele>
        <time>2024-07-04T00:48:34.000Z</time>
        <extensions>
          <ns3:TrackPointExtension>
            <ns3:hr>156</ns3:hr>
            <ns3:cad>85</ns3:cad>
          </ns3:TrackPointExtension>
        </extensions>
      </trkpt>
      <trkpt lat="32.00200413353741168975830078125" lon="118.74437369406223297119140625">
        <ele>7.80000019073486328125</ele>
        <time>2024-07-04T00:48:35.000Z</time>
        <extensions>
          <ns3:TrackPointExtension>
            <ns3:hr>156</ns3:hr>
            <ns3:cad>86</ns3:cad>
          </ns3:TrackPointExtension>
        </extensions>
      </trkpt>
      <trkpt lat="32.00201033614575862884521484375" lon="118.74434092082083225250244140625">
        <ele>7.80000019073486328125</ele>
        <time>2024-07-04T00:48:36.000Z</time>
        <extensions>
          <ns3:TrackPointExtension>
            <ns3:hr>155</ns3:hr>
            <ns3:cad>86</ns3:cad>
          </ns3:TrackPointExtension>
        </extensions>
      </trkpt>
      <trkpt lat="32.00201570056378841400146484375" lon="118.7443081475794315338134765625">
        <ele>7.400000095367431640625</ele>
        <time>2024-07-04T00:48:37.000Z</time>
        <extensions>
          <ns3:TrackPointExtension>
            <ns3:hr>156</ns3:hr>
            <ns3:cad>86</ns3:cad>
          </ns3:TrackPointExtension>
        </extensions>
      </trkpt>
      <trkpt lat="32.0020233280956745147705078125" lon="118.7442846782505512237548828125">
        <ele>7.19999980926513671875</ele>
        <time>2024-07-04T00:48:38.000Z</time>
        <extensions>
          <ns3:TrackPointExtension>
            <ns3:hr>156</ns3:hr>
            <ns3:cad>86</ns3:cad>
          </ns3:TrackPointExtension>
        </extensions>
      </trkpt>
      <trkpt lat="32.00202860869467258453369140625" lon="118.74425827525556087493896484375">
        <ele>7.19999980926513671875</ele>
        <time>2024-07-04T00:48:39.000Z</time>
        <extensions>
          <ns3:TrackPointExtension>
            <ns3:hr>156</ns3:hr>
            <ns3:cad>86</ns3:cad>
          </ns3:TrackPointExtension>
        </extensions>
      </trkpt>
      <trkpt lat="32.0020327158272266387939453125" lon="118.74423581175506114959716796875">
        <ele>7.19999980926513671875</ele>
        <time>2024-07-04T00:48:40.000Z</time>
        <extensions>
          <ns3:TrackPointExtension>
            <ns3:hr>156</ns3:hr>
            <ns3:cad>86</ns3:cad>
          </ns3:TrackPointExtension>
        </extensions>
      </trkpt>
      <trkpt lat="32.0020360685884952545166015625" lon="118.74420949257910251617431640625">
        <ele>7.19999980926513671875</ele>
        <time>2024-07-04T00:48:41.000Z</time>
        <extensions>
          <ns3:TrackPointExtension>
            <ns3:hr>156</ns3:hr>
            <ns3:cad>86</ns3:cad>
          </ns3:TrackPointExtension>
        </extensions>
      </trkpt>
      <trkpt lat="32.0020432770252227783203125" lon="118.74418350867927074432373046875">
        <ele>7.19999980926513671875</ele>
        <time>2024-07-04T00:48:42.000Z</time>
        <extensions>
          <ns3:TrackPointExtension>
            <ns3:hr>156</ns3:hr>
            <ns3:cad>86</ns3:cad>
          </ns3:TrackPointExtension>
        </extensions>
      </trkpt>
      <trkpt lat="32.0020513236522674560546875" lon="118.74416674487292766571044921875">
        <ele>7.400000095367431640625</ele>
        <time>2024-07-04T00:48:43.000Z</time>
        <extensions>
          <ns3:TrackPointExtension>
            <ns3:hr>156</ns3:hr>
            <ns3:cad>86</ns3:cad>
          </ns3:TrackPointExtension>
        </extensions>
      </trkpt>
      <trkpt lat="32.00206364504992961883544921875" lon="118.74414034187793731689453125">
        <ele>7.400000095367431640625</ele>
        <time>2024-07-04T00:48:44.000Z</time>
        <extensions>
          <ns3:TrackPointExtension>
            <ns3:hr>156</ns3:hr>
            <ns3:cad>86</ns3:cad>
          </ns3:TrackPointExtension>
        </extensions>
      </trkpt>
      <trkpt lat="32.002079486846923828125" lon="118.74411326833069324493408203125">
        <ele>7.599999904632568359375</ele>
        <time>2024-07-04T00:48:45.000Z</time>
        <extensions>
          <ns3:TrackPointExtension>
            <ns3:hr>156</ns3:hr>
            <ns3:cad>86</ns3:cad>
          </ns3:TrackPointExtension>
        </extensions>
      </trkpt>
      <trkpt lat="32.00207940302789211273193359375" lon="118.74409918673336505889892578125">
        <ele>7.599999904632568359375</ele>
        <time>2024-07-04T00:48:46.000Z</time>
        <extensions>
          <ns3:TrackPointExtension>
            <ns3:hr>156</ns3:hr>
            <ns3:cad>86</ns3:cad>
          </ns3:TrackPointExtension>
        </extensions>
      </trkpt>
      <trkpt lat="32.00207269750535488128662109375" lon="118.74407337047159671783447265625">
        <ele>7.599999904632568359375</ele>
        <time>2024-07-04T00:48:47.000Z</time>
        <extensions>
          <ns3:TrackPointExtension>
            <ns3:hr>156</ns3:hr>
            <ns3:cad>86</ns3:cad>
          </ns3:TrackPointExtension>
        </extensions>
      </trkpt>
      <trkpt lat="32.00206180103123188018798828125" lon="118.744056187570095062255859375">
        <ele>7.599999904632568359375</ele>
        <time>2024-07-04T00:48:48.000Z</time>
        <extensions>
          <ns3:TrackPointExtension>
            <ns3:hr>156</ns3:hr>
            <ns3:cad>85</ns3:cad>
          </ns3:TrackPointExtension>
        </extensions>
      </trkpt>
      <trkpt lat="32.00205107219517230987548828125" lon="118.744029365479946136474609375">
        <ele>7.599999904632568359375</ele>
        <time>2024-07-04T00:48:49.000Z</time>
        <extensions>
          <ns3:TrackPointExtension>
            <ns3:hr>156</ns3:hr>
            <ns3:cad>85</ns3:cad>
          </ns3:TrackPointExtension>
        </extensions>
      </trkpt>
      <trkpt lat="32.002041600644588470458984375" lon="118.74400178901851177215576171875">
        <ele>7.599999904632568359375</ele>
        <time>2024-07-04T00:48:50.000Z</time>
        <extensions>
          <ns3:TrackPointExtension>
            <ns3:hr>156</ns3:hr>
            <ns3:cad>85</ns3:cad>
          </ns3:TrackPointExtension>
        </extensions>
      </trkpt>
      <trkpt lat="32.002030871808528900146484375" lon="118.74396591447293758392333984375">
        <ele>7.599999904632568359375</ele>
        <time>2024-07-04T00:48:51.000Z</time>
        <extensions>
          <ns3:TrackPointExtension>
            <ns3:hr>156</ns3:hr>
            <ns3:cad>85</ns3:cad>
          </ns3:TrackPointExtension>
        </extensions>
      </trkpt>
      <trkpt lat="32.00202827341854572296142578125" lon="118.7439319677650928497314453125">
        <ele>7.400000095367431640625</ele>
        <time>2024-07-04T00:48:52.000Z</time>
        <extensions>
          <ns3:TrackPointExtension>
            <ns3:hr>156</ns3:hr>
            <ns3:cad>85</ns3:cad>
          </ns3:TrackPointExtension>
        </extensions>
      </trkpt>
      <trkpt lat="32.00202844105660915374755859375" lon="118.7438984401524066925048828125">
        <ele>7.400000095367431640625</ele>
        <time>2024-07-04T00:48:53.000Z</time>
        <extensions>
          <ns3:TrackPointExtension>
            <ns3:hr>156</ns3:hr>
            <ns3:cad>85</ns3:cad>
          </ns3:TrackPointExtension>
        </extensions>
      </trkpt>
      <trkpt lat="32.00203464366495609283447265625" lon="118.74386482872068881988525390625">
        <ele>7.400000095367431640625</ele>
        <time>2024-07-04T00:48:54.000Z</time>
        <extensions>
          <ns3:TrackPointExtension>
            <ns3:hr>156</ns3:hr>
            <ns3:cad>85</ns3:cad>
          </ns3:TrackPointExtension>
        </extensions>
      </trkpt>
      <trkpt lat="32.0020407624542713165283203125" lon="118.743838928639888763427734375">
        <ele>7.400000095367431640625</ele>
        <time>2024-07-04T00:48:55.000Z</time>
        <extensions>
          <ns3:TrackPointExtension>
            <ns3:hr>156</ns3:hr>
            <ns3:cad>84</ns3:cad>
          </ns3:TrackPointExtension>
        </extensions>
      </trkpt>
      <trkpt lat="32.002048976719379425048828125" lon="118.74381453730165958404541015625">
        <ele>7.400000095367431640625</ele>
        <time>2024-07-04T00:48:56.000Z</time>
        <extensions>
          <ns3:TrackPointExtension>
            <ns3:hr>156</ns3:hr>
            <ns3:cad>84</ns3:cad>
          </ns3:TrackPointExtension>
        </extensions>
      </trkpt>
      <trkpt lat="32.00206129811704158782958984375" lon="118.74378905631601810455322265625">
        <ele>7.599999904632568359375</ele>
        <time>2024-07-04T00:48:57.000Z</time>
        <extensions>
          <ns3:TrackPointExtension>
            <ns3:hr>156</ns3:hr>
            <ns3:cad>85</ns3:cad>
          </ns3:TrackPointExtension>
        </extensions>
      </trkpt>
      <trkpt lat="32.00207672081887722015380859375" lon="118.74376357533037662506103515625">
        <ele>8.19999980926513671875</ele>
        <time>2024-07-04T00:48:58.000Z</time>
        <extensions>
          <ns3:TrackPointExtension>
            <ns3:hr>157</ns3:hr>
            <ns3:cad>85</ns3:cad>
          </ns3:TrackPointExtension>
        </extensions>
      </trkpt>
      <trkpt lat="32.00209465809166431427001953125" lon="118.74373239465057849884033203125">
        <ele>8.19999980926513671875</ele>
        <time>2024-07-04T00:48:59.000Z</time>
        <extensions>
          <ns3:TrackPointExtension>
            <ns3:hr>157</ns3:hr>
            <ns3:cad>84</ns3:cad>
          </ns3:TrackPointExtension>
        </extensions>
      </trkpt>
      <trkpt lat="32.0021103322505950927734375" lon="118.7437083385884761810302734375">
        <ele>8.19999980926513671875</ele>
        <time>2024-07-04T00:49:00.000Z</time>
        <extensions>
          <ns3:TrackPointExtension>
            <ns3:hr>157</ns3:hr>
            <ns3:cad>84</ns3:cad>
          </ns3:TrackPointExtension>
        </extensions>
      </trkpt>
      <trkpt lat="32.002125419676303863525390625" lon="118.7436769902706146240234375">
        <ele>8.19999980926513671875</ele>
        <time>2024-07-04T00:49:01.000Z</time>
        <extensions>
          <ns3:TrackPointExtension>
            <ns3:hr>157</ns3:hr>
            <ns3:cad>84</ns3:cad>
          </ns3:TrackPointExtension>
        </extensions>
      </trkpt>
      <trkpt lat="32.00213891454041004180908203125" lon="118.74365352094173431396484375">
        <ele>7.599999904632568359375</ele>
        <time>2024-07-04T00:49:02.000Z</time>
        <extensions>
          <ns3:TrackPointExtension>
            <ns3:hr>157</ns3:hr>
            <ns3:cad>84</ns3:cad>
          </ns3:TrackPointExtension>
        </extensions>
      </trkpt>
      <trkpt lat="32.0021545886993408203125" lon="118.743623010814189910888671875">
        <ele>7.400000095367431640625</ele>
        <time>2024-07-04T00:49:03.000Z</time>
        <extensions>
          <ns3:TrackPointExtension>
            <ns3:hr>158</ns3:hr>
            <ns3:cad>84</ns3:cad>
          </ns3:TrackPointExtension>
        </extensions>
      </trkpt>
      <trkpt lat="32.00217529200017452239990234375" lon="118.74359426088631153106689453125">
        <ele>7.19999980926513671875</ele>
        <time>2024-07-04T00:49:04.000Z</time>
        <extensions>
          <ns3:TrackPointExtension>
            <ns3:hr>158</ns3:hr>
            <ns3:cad>84</ns3:cad>
          </ns3:TrackPointExtension>
        </extensions>
      </trkpt>
      <trkpt lat="32.002193145453929901123046875" lon="118.74357162974774837493896484375">
        <ele>7.19999980926513671875</ele>
        <time>2024-07-04T00:49:05.000Z</time>
        <extensions>
          <ns3:TrackPointExtension>
            <ns3:hr>158</ns3:hr>
            <ns3:cad>85</ns3:cad>
          </ns3:TrackPointExtension>
        </extensions>
      </trkpt>
      <trkpt lat="32.0022147707641124725341796875" lon="118.74354313127696514129638671875">
        <ele>7.19999980926513671875</ele>
        <time>2024-07-04T00:49:06.000Z</time>
        <extensions>
          <ns3:TrackPointExtension>
            <ns3:hr>158</ns3:hr>
            <ns3:cad>85</ns3:cad>
          </ns3:TrackPointExtension>
        </extensions>
      </trkpt>
      <trkpt lat="32.0022308640182018280029296875" lon="118.74351396225392818450927734375">
        <ele>7.19999980926513671875</ele>
        <time>2024-07-04T00:49:07.000Z</time>
        <extensions>
          <ns3:TrackPointExtension>
            <ns3:hr>158</ns3:hr>
            <ns3:cad>85</ns3:cad>
          </ns3:TrackPointExtension>
        </extensions>
      </trkpt>
      <trkpt lat="32.002248801290988922119140625" lon="118.74349602498114109039306640625">
        <ele>7.19999980926513671875</ele>
        <time>2024-07-04T00:49:08.000Z</time>
        <extensions>
          <ns3:TrackPointExtension>
            <ns3:hr>158</ns3:hr>
            <ns3:cad>85</ns3:cad>
          </ns3:TrackPointExtension>
        </extensions>
      </trkpt>
      <trkpt lat="32.002269588410854339599609375" lon="118.7434650957584381103515625">
        <ele>7.19999980926513671875</ele>
        <time>2024-07-04T00:49:09.000Z</time>
        <extensions>
          <ns3:TrackPointExtension>
            <ns3:hr>158</ns3:hr>
            <ns3:cad>85</ns3:cad>
          </ns3:TrackPointExtension>
        </extensions>
      </trkpt>
      <trkpt lat="32.0022858493030071258544921875" lon="118.7434438057243824005126953125">
        <ele>7.400000095367431640625</ele>
        <time>2024-07-04T00:49:10.000Z</time>
        <extensions>
          <ns3:TrackPointExtension>
            <ns3:hr>158</ns3:hr>
            <ns3:cad>85</ns3:cad>
          </ns3:TrackPointExtension>
        </extensions>
      </trkpt>
      <trkpt lat="32.0022999309003353118896484375" lon="118.74341237358748912811279296875">
        <ele>7.400000095367431640625</ele>
        <time>2024-07-04T00:49:11.000Z</time>
        <extensions>
          <ns3:TrackPointExtension>
            <ns3:hr>158</ns3:hr>
            <ns3:cad>85</ns3:cad>
          </ns3:TrackPointExtension>
        </extensions>
      </trkpt>
      <trkpt lat="32.0023089833557605743408203125" lon="118.74338907189667224884033203125">
        <ele>7.400000095367431640625</ele>
        <time>2024-07-04T00:49:12.000Z</time>
        <extensions>
          <ns3:TrackPointExtension>
            <ns3:hr>158</ns3:hr>
            <ns3:cad>85</ns3:cad>
          </ns3:TrackPointExtension>
        </extensions>
      </trkpt>
      <trkpt lat="32.00232164002954959869384765625" lon="118.7433583103120326995849609375">
        <ele>7.400000095367431640625</ele>
        <time>2024-07-04T00:49:13.000Z</time>
        <extensions>
          <ns3:TrackPointExtension>
            <ns3:hr>158</ns3:hr>
            <ns3:cad>85</ns3:cad>
          </ns3:TrackPointExtension>
        </extensions>
      </trkpt>
      <trkpt lat="32.002331949770450592041015625" lon="118.74332763254642486572265625">
        <ele>7.400000095367431640625</ele>
        <time>2024-07-04T00:49:14.000Z</time>
        <extensions>
          <ns3:TrackPointExtension>
            <ns3:hr>158</ns3:hr>
            <ns3:cad>84</ns3:cad>
          </ns3:TrackPointExtension>
        </extensions>
      </trkpt>
      <trkpt lat="32.0023468695580959320068359375" lon="118.74330055899918079376220703125">
        <ele>7.599999904632568359375</ele>
        <time>2024-07-04T00:49:15.000Z</time>
        <extensions>
          <ns3:TrackPointExtension>
            <ns3:hr>159</ns3:hr>
            <ns3:cad>84</ns3:cad>
          </ns3:TrackPointExtension>
        </extensions>
      </trkpt>
      <trkpt lat="32.0023592747747898101806640625" lon="118.7432654388248920440673828125">
        <ele>7.400000095367431640625</ele>
        <time>2024-07-04T00:49:16.000Z</time>
        <extensions>
          <ns3:TrackPointExtension>
            <ns3:hr>159</ns3:hr>
            <ns3:cad>84</ns3:cad>
          </ns3:TrackPointExtension>
        </extensions>
      </trkpt>
      <trkpt lat="32.0023656450212001800537109375" lon="118.74323870055377483367919921875">
        <ele>7.400000095367431640625</ele>
        <time>2024-07-04T00:49:17.000Z</time>
        <extensions>
          <ns3:TrackPointExtension>
            <ns3:hr>159</ns3:hr>
            <ns3:cad>84</ns3:cad>
          </ns3:TrackPointExtension>
        </extensions>
      </trkpt>
      <trkpt lat="32.00237679295241832733154296875" lon="118.7432101182639598846435546875">
        <ele>7.400000095367431640625</ele>
        <time>2024-07-04T00:49:18.000Z</time>
        <extensions>
          <ns3:TrackPointExtension>
            <ns3:hr>159</ns3:hr>
            <ns3:cad>84</ns3:cad>
          </ns3:TrackPointExtension>
        </extensions>
      </trkpt>
      <trkpt lat="32.00238551013171672821044921875" lon="118.74318145215511322021484375">
        <ele>7.400000095367431640625</ele>
        <time>2024-07-04T00:49:19.000Z</time>
        <extensions>
          <ns3:TrackPointExtension>
            <ns3:hr>159</ns3:hr>
            <ns3:cad>83</ns3:cad>
          </ns3:TrackPointExtension>
        </extensions>
      </trkpt>
      <trkpt lat="32.00239959172904491424560546875" lon="118.743155635893344879150390625">
        <ele>7.400000095367431640625</ele>
        <time>2024-07-04T00:49:20.000Z</time>
        <extensions>
          <ns3:TrackPointExtension>
            <ns3:hr>159</ns3:hr>
            <ns3:cad>83</ns3:cad>
          </ns3:TrackPointExtension>
        </extensions>
      </trkpt>
      <trkpt lat="32.00241945683956146240234375" lon="118.74312822706997394561767578125">
        <ele>7.599999904632568359375</ele>
        <time>2024-07-04T00:49:21.000Z</time>
        <extensions>
          <ns3:TrackPointExtension>
            <ns3:hr>159</ns3:hr>
            <ns3:cad>84</ns3:cad>
          </ns3:TrackPointExtension>
        </extensions>
      </trkpt>
      <trkpt lat="32.00243580155074596405029296875" lon="118.743106015026569366455078125">
        <ele>7.599999904632568359375</ele>
        <time>2024-07-04T00:49:22.000Z</time>
        <extensions>
          <ns3:TrackPointExtension>
            <ns3:hr>159</ns3:hr>
            <ns3:cad>84</ns3:cad>
          </ns3:TrackPointExtension>
        </extensions>
      </trkpt>
      <trkpt lat="32.0024509727954864501953125" lon="118.74307793565094470977783203125">
        <ele>7.599999904632568359375</ele>
        <time>2024-07-04T00:49:23.000Z</time>
        <extensions>
          <ns3:TrackPointExtension>
            <ns3:hr>159</ns3:hr>
            <ns3:cad>85</ns3:cad>
          </ns3:TrackPointExtension>
        </extensions>
      </trkpt>
      <trkpt lat="32.002468071877956390380859375" lon="118.7430602498352527618408203125">
        <ele>7.599999904632568359375</ele>
        <time>2024-07-04T00:49:24.000Z</time>
        <extensions>
          <ns3:TrackPointExtension>
            <ns3:hr>159</ns3:hr>
            <ns3:cad>85</ns3:cad>
          </ns3:TrackPointExtension>
        </extensions>
      </trkpt>
      <trkpt lat="32.00248257257044315338134765625" lon="118.74303686432540416717529296875">
        <ele>7.599999904632568359375</ele>
        <time>2024-07-04T00:49:25.000Z</time>
        <extensions>
          <ns3:TrackPointExtension>
            <ns3:hr>159</ns3:hr>
            <ns3:cad>85</ns3:cad>
          </ns3:TrackPointExtension>
        </extensions>
      </trkpt>
      <trkpt lat="32.00249321758747100830078125" lon="118.743008114397525787353515625">
        <ele>7.599999904632568359375</ele>
        <time>2024-07-04T00:49:26.000Z</time>
        <extensions>
          <ns3:TrackPointExtension>
            <ns3:hr>159</ns3:hr>
            <ns3:cad>85</ns3:cad>
          </ns3:TrackPointExtension>
        </extensions>
      </trkpt>
      <trkpt lat="32.0025047846138477325439453125" lon="118.74298891983926296234130859375">
        <ele>7.599999904632568359375</ele>
        <time>2024-07-04T00:49:27.000Z</time>
        <extensions>
          <ns3:TrackPointExtension>
            <ns3:hr>159</ns3:hr>
            <ns3:cad>85</ns3:cad>
          </ns3:TrackPointExtension>
        </extensions>
      </trkpt>
      <trkpt lat="32.00251542963087558746337890625" lon="118.74296830035746097564697265625">
        <ele>7.599999904632568359375</ele>
        <time>2024-07-04T00:49:28.000Z</time>
        <extensions>
          <ns3:TrackPointExtension>
            <ns3:hr>159</ns3:hr>
            <ns3:cad>85</ns3:cad>
          </ns3:TrackPointExtension>
        </extensions>
      </trkpt>
      <trkpt lat="32.00250855647027492523193359375" lon="118.74294332228600978851318359375">
        <ele>7.599999904632568359375</ele>
        <time>2024-07-04T00:49:29.000Z</time>
        <extensions>
          <ns3:TrackPointExtension>
            <ns3:hr>159</ns3:hr>
            <ns3:cad>85</ns3:cad>
          </ns3:TrackPointExtension>
        </extensions>
      </trkpt>
      <trkpt lat="32.0024984143674373626708984375" lon="118.74292136169970035552978515625">
        <ele>7.400000095367431640625</ele>
        <time>2024-07-04T00:49:30.000Z</time>
        <extensions>
          <ns3:TrackPointExtension>
            <ns3:hr>159</ns3:hr>
            <ns3:cad>84</ns3:cad>
          </ns3:TrackPointExtension>
        </extensions>
      </trkpt>
      <trkpt lat="32.0024950616061687469482421875" lon="118.74291096813976764678955078125">
        <ele>7.400000095367431640625</ele>
        <time>2024-07-04T00:49:31.000Z</time>
        <extensions>
          <ns3:TrackPointExtension>
            <ns3:hr>159</ns3:hr>
            <ns3:cad>84</ns3:cad>
          </ns3:TrackPointExtension>
        </extensions>
      </trkpt>
      <trkpt lat="32.0024772919714450836181640625" lon="118.74289923347532749176025390625">
        <ele>7.400000095367431640625</ele>
        <time>2024-07-04T00:49:32.000Z</time>
        <extensions>
          <ns3:TrackPointExtension>
            <ns3:hr>159</ns3:hr>
            <ns3:cad>84</ns3:cad>
          </ns3:TrackPointExtension>
        </extensions>
      </trkpt>
      <trkpt lat="32.002478130161762237548828125" lon="118.74287710525095462799072265625">
        <ele>7.400000095367431640625</ele>
        <time>2024-07-04T00:49:33.000Z</time>
        <extensions>
          <ns3:TrackPointExtension>
            <ns3:hr>159</ns3:hr>
            <ns3:cad>83</ns3:cad>
          </ns3:TrackPointExtension>
        </extensions>
      </trkpt>
      <trkpt lat="32.0024424232542514801025390625" lon="118.742854893207550048828125">
        <ele>7.400000095367431640625</ele>
        <time>2024-07-04T00:49:34.000Z</time>
        <extensions>
          <ns3:TrackPointExtension>
            <ns3:hr>159</ns3:hr>
            <ns3:cad>83</ns3:cad>
          </ns3:TrackPointExtension>
        </extensions>
      </trkpt>
      <trkpt lat="32.00241032056510448455810546875" lon="118.74283469282090663909912109375">
        <ele>7.400000095367431640625</ele>
        <time>2024-07-04T00:49:35.000Z</time>
        <extensions>
          <ns3:TrackPointExtension>
            <ns3:hr>159</ns3:hr>
            <ns3:cad>83</ns3:cad>
          </ns3:TrackPointExtension>
        </extensions>
      </trkpt>
      <trkpt lat="32.002389617264270782470703125" lon="118.74280753545463085174560546875">
        <ele>7.80000019073486328125</ele>
        <time>2024-07-04T00:49:36.000Z</time>
        <extensions>
          <ns3:TrackPointExtension>
            <ns3:hr>159</ns3:hr>
            <ns3:cad>83</ns3:cad>
          </ns3:TrackPointExtension>
        </extensions>
      </trkpt>
      <trkpt lat="32.0023488812148571014404296875" lon="118.7428024224936962127685546875">
        <ele>7.80000019073486328125</ele>
        <time>2024-07-04T00:49:37.000Z</time>
        <extensions>
          <ns3:TrackPointExtension>
            <ns3:hr>159</ns3:hr>
            <ns3:cad>83</ns3:cad>
          </ns3:TrackPointExtension>
        </extensions>
      </trkpt>
      <trkpt lat="32.00229884125292301177978515625" lon="118.742823712527751922607421875">
        <ele>7.80000019073486328125</ele>
        <time>2024-07-04T00:49:38.000Z</time>
        <extensions>
          <ns3:TrackPointExtension>
            <ns3:hr>159</ns3:hr>
            <ns3:cad>82</ns3:cad>
          </ns3:TrackPointExtension>
        </extensions>
      </trkpt>
      <trkpt lat="32.00226531364023685455322265625" lon="118.7428295798599720001220703125">
        <ele>7.80000019073486328125</ele>
        <time>2024-07-04T00:49:39.000Z</time>
        <extensions>
          <ns3:TrackPointExtension>
            <ns3:hr>159</ns3:hr>
            <ns3:cad>82</ns3:cad>
          </ns3:TrackPointExtension>
        </extensions>
      </trkpt>
      <trkpt lat="32.0022385753691196441650390625" lon="118.7428315915167331695556640625">
        <ele>7.80000019073486328125</ele>
        <time>2024-07-04T00:49:40.000Z</time>
        <extensions>
          <ns3:TrackPointExtension>
            <ns3:hr>159</ns3:hr>
            <ns3:cad>65</ns3:cad>
          </ns3:TrackPointExtension>
        </extensions>
      </trkpt>
      <trkpt lat="32.0022358931601047515869140625" lon="118.74282228760421276092529296875">
        <ele>7.599999904632568359375</ele>
        <time>2024-07-04T00:49:41.000Z</time>
        <extensions>
          <ns3:TrackPointExtension>
            <ns3:hr>159</ns3:hr>
            <ns3:cad>0</ns3:cad>
          </ns3:TrackPointExtension>
        </extensions>
      </trkpt>
    </trkseg>
  </trk>
</gpx>
