<gpx xmlns:ns3="http://www.garmin.com/xmlschemas/TrackPointExtension/v1" xmlns="http://www.topografix.com/GPX/1/1" xmlns:xsi="http://www.w3.org/2001/XMLSchema-instance" xmlns:ns2="http://www.garmin.com/xmlschemas/GpxExtensions/v3" creator="Garmin Connect" version="1.1" xsi:schemaLocation="http://www.topografix.com/GPX/1/1 http://www.topografix.com/GPX/11.xsd">
  <extensions>
<distance>12000.0</distance>
<average_hr>117.0</average_hr>
<average_speed>5.312503597007644</average_speed>
<start_time>2024-07-22T13:22:56+00:00</start_time>
<end_time>2024-07-22T14:00:34.822000+00:00</end_time>
<moving_time>0.0</moving_time>
<elapsed_time>2258.822</elapsed_time>
</extensions>
<metadata>
    <link href="connect.garmin.com">
      <text>Garmin Connect</text>
    </link>
    <time>2024-07-22T13:22:56.000Z</time>
  </metadata>
  <trk>
    <name>室内骑行</name>
    <type>indoor_cycling</type>
    <trkseg/>
  </trk>
</gpx>
