<gpx xmlns:ns3="http://www.garmin.com/xmlschemas/TrackPointExtension/v1" xmlns="http://www.topografix.com/GPX/1/1" xmlns:xsi="http://www.w3.org/2001/XMLSchema-instance" xmlns:ns2="http://www.garmin.com/xmlschemas/GpxExtensions/v3" creator="Garmin Connect" version="1.1" xsi:schemaLocation="http://www.topografix.com/GPX/1/1 http://www.topografix.com/GPX/11.xsd">
  <extensions>
<distance>686.56</distance>
<average_hr>158.0</average_hr>
<average_speed>2.7060000896453853</average_speed>
<start_time>2024-08-14T12:46:22+00:00</start_time>
<end_time>2024-08-14T12:50:35.742000+00:00</end_time>
<moving_time>253.0</moving_time>
<elapsed_time>253.742</elapsed_time>
</extensions>
<metadata>
    <link href="connect.garmin.com">
      <text>Garmin Connect</text>
    </link>
    <time>2024-08-14T12:46:22.000Z</time>
  </metadata>
  <trk>
    <name>南京市 跑步</name>
    <type>running</type>
    <trkseg>
      <trkpt lat="32.00270636938512325286865234375" lon="118.742787502706050872802734375">
        <ele>4.599999904632568359375</ele>
        <time>2024-08-14T12:46:22.000Z</time>
        <extensions>
          <ns3:TrackPointExtension>
            <ns3:hr>125</ns3:hr>
            <ns3:cad>65</ns3:cad>
          </ns3:TrackPointExtension>
        </extensions>
      </trkpt>
      <trkpt lat="32.00269714929163455963134765625" lon="118.7428111396729946136474609375">
        <ele>5</ele>
        <time>2024-08-14T12:46:23.000Z</time>
        <extensions>
          <ns3:TrackPointExtension>
            <ns3:hr>125</ns3:hr>
            <ns3:cad>65</ns3:cad>
          </ns3:TrackPointExtension>
        </extensions>
      </trkpt>
      <trkpt lat="32.00269178487360477447509765625" lon="118.74282740056514739990234375">
        <ele>5</ele>
        <time>2024-08-14T12:46:24.000Z</time>
        <extensions>
          <ns3:TrackPointExtension>
            <ns3:hr>125</ns3:hr>
            <ns3:cad>65</ns3:cad>
          </ns3:TrackPointExtension>
        </extensions>
      </trkpt>
      <trkpt lat="32.00267703272402286529541015625" lon="118.74284751713275909423828125">
        <ele>5</ele>
        <time>2024-08-14T12:46:25.000Z</time>
        <extensions>
          <ns3:TrackPointExtension>
            <ns3:hr>126</ns3:hr>
            <ns3:cad>0</ns3:cad>
          </ns3:TrackPointExtension>
        </extensions>
      </trkpt>
      <trkpt lat="32.002657167613506317138671875" lon="118.74287811107933521270751953125">
        <ele>5</ele>
        <time>2024-08-14T12:46:26.000Z</time>
        <extensions>
          <ns3:TrackPointExtension>
            <ns3:hr>128</ns3:hr>
            <ns3:cad>0</ns3:cad>
          </ns3:TrackPointExtension>
        </extensions>
      </trkpt>
      <trkpt lat="32.00263981707394123077392578125" lon="118.7428946234285831451416015625">
        <ele>5</ele>
        <time>2024-08-14T12:46:27.000Z</time>
        <extensions>
          <ns3:TrackPointExtension>
            <ns3:hr>130</ns3:hr>
            <ns3:cad>86</ns3:cad>
          </ns3:TrackPointExtension>
        </extensions>
      </trkpt>
      <trkpt lat="32.00261785648763179779052734375" lon="118.74291834421455860137939453125">
        <ele>5</ele>
        <time>2024-08-14T12:46:28.000Z</time>
        <extensions>
          <ns3:TrackPointExtension>
            <ns3:hr>131</ns3:hr>
            <ns3:cad>86</ns3:cad>
          </ns3:TrackPointExtension>
        </extensions>
      </trkpt>
      <trkpt lat="32.00260612182319164276123046875" lon="118.74293661676347255706787109375">
        <ele>5</ele>
        <time>2024-08-14T12:46:29.000Z</time>
        <extensions>
          <ns3:TrackPointExtension>
            <ns3:hr>132</ns3:hr>
            <ns3:cad>86</ns3:cad>
          </ns3:TrackPointExtension>
        </extensions>
      </trkpt>
      <trkpt lat="32.00259053148329257965087890625" lon="118.7429662048816680908203125">
        <ele>5</ele>
        <time>2024-08-14T12:46:30.000Z</time>
        <extensions>
          <ns3:TrackPointExtension>
            <ns3:hr>133</ns3:hr>
            <ns3:cad>86</ns3:cad>
          </ns3:TrackPointExtension>
        </extensions>
      </trkpt>
      <trkpt lat="32.00256354175508022308349609375" lon="118.74299143441021442413330078125">
        <ele>5</ele>
        <time>2024-08-14T12:46:31.000Z</time>
        <extensions>
          <ns3:TrackPointExtension>
            <ns3:hr>134</ns3:hr>
            <ns3:cad>86</ns3:cad>
          </ns3:TrackPointExtension>
        </extensions>
      </trkpt>
      <trkpt lat="32.002551220357418060302734375" lon="118.74303585849702358245849609375">
        <ele>5</ele>
        <time>2024-08-14T12:46:32.000Z</time>
        <extensions>
          <ns3:TrackPointExtension>
            <ns3:hr>134</ns3:hr>
            <ns3:cad>87</ns3:cad>
          </ns3:TrackPointExtension>
        </extensions>
      </trkpt>
      <trkpt lat="32.002534456551074981689453125" lon="118.74306301586329936981201171875">
        <ele>5</ele>
        <time>2024-08-14T12:46:33.000Z</time>
        <extensions>
          <ns3:TrackPointExtension>
            <ns3:hr>134</ns3:hr>
            <ns3:cad>87</ns3:cad>
          </ns3:TrackPointExtension>
        </extensions>
      </trkpt>
      <trkpt lat="32.00252096168696880340576171875" lon="118.74308598227798938751220703125">
        <ele>5</ele>
        <time>2024-08-14T12:46:34.000Z</time>
        <extensions>
          <ns3:TrackPointExtension>
            <ns3:hr>135</ns3:hr>
            <ns3:cad>88</ns3:cad>
          </ns3:TrackPointExtension>
        </extensions>
      </trkpt>
      <trkpt lat="32.0025084726512432098388671875" lon="118.74310643412172794342041015625">
        <ele>5</ele>
        <time>2024-08-14T12:46:35.000Z</time>
        <extensions>
          <ns3:TrackPointExtension>
            <ns3:hr>135</ns3:hr>
            <ns3:cad>88</ns3:cad>
          </ns3:TrackPointExtension>
        </extensions>
      </trkpt>
      <trkpt lat="32.00249078683555126190185546875" lon="118.74313811771571636199951171875">
        <ele>5</ele>
        <time>2024-08-14T12:46:36.000Z</time>
        <extensions>
          <ns3:TrackPointExtension>
            <ns3:hr>136</ns3:hr>
            <ns3:cad>88</ns3:cad>
          </ns3:TrackPointExtension>
        </extensions>
      </trkpt>
      <trkpt lat="32.0024779625236988067626953125" lon="118.7431702204048633575439453125">
        <ele>5</ele>
        <time>2024-08-14T12:46:37.000Z</time>
        <extensions>
          <ns3:TrackPointExtension>
            <ns3:hr>136</ns3:hr>
            <ns3:cad>90</ns3:cad>
          </ns3:TrackPointExtension>
        </extensions>
      </trkpt>
      <trkpt lat="32.00245893560349941253662109375" lon="118.7432020716369152069091796875">
        <ele>5</ele>
        <time>2024-08-14T12:46:38.000Z</time>
        <extensions>
          <ns3:TrackPointExtension>
            <ns3:hr>137</ns3:hr>
            <ns3:cad>90</ns3:cad>
          </ns3:TrackPointExtension>
        </extensions>
      </trkpt>
      <trkpt lat="32.00245005078613758087158203125" lon="118.74321958981454372406005859375">
        <ele>5</ele>
        <time>2024-08-14T12:46:39.000Z</time>
        <extensions>
          <ns3:TrackPointExtension>
            <ns3:hr>138</ns3:hr>
            <ns3:cad>90</ns3:cad>
          </ns3:TrackPointExtension>
        </extensions>
      </trkpt>
      <trkpt lat="32.00243647210299968719482421875" lon="118.74324825592339038848876953125">
        <ele>5</ele>
        <time>2024-08-14T12:46:40.000Z</time>
        <extensions>
          <ns3:TrackPointExtension>
            <ns3:hr>140</ns3:hr>
            <ns3:cad>90</ns3:cad>
          </ns3:TrackPointExtension>
        </extensions>
      </trkpt>
      <trkpt lat="32.00242289341986179351806640625" lon="118.7432751618325710296630859375">
        <ele>5</ele>
        <time>2024-08-14T12:46:41.000Z</time>
        <extensions>
          <ns3:TrackPointExtension>
            <ns3:hr>141</ns3:hr>
            <ns3:cad>90</ns3:cad>
          </ns3:TrackPointExtension>
        </extensions>
      </trkpt>
      <trkpt lat="32.0023973286151885986328125" lon="118.74331782571971416473388671875">
        <ele>5</ele>
        <time>2024-08-14T12:46:42.000Z</time>
        <extensions>
          <ns3:TrackPointExtension>
            <ns3:hr>142</ns3:hr>
            <ns3:cad>90</ns3:cad>
          </ns3:TrackPointExtension>
        </extensions>
      </trkpt>
      <trkpt lat="32.002378888428211212158203125" lon="118.7433562986552715301513671875">
        <ele>5</ele>
        <time>2024-08-14T12:46:43.000Z</time>
        <extensions>
          <ns3:TrackPointExtension>
            <ns3:hr>143</ns3:hr>
            <ns3:cad>91</ns3:cad>
          </ns3:TrackPointExtension>
        </extensions>
      </trkpt>
      <trkpt lat="32.00236522592604160308837890625" lon="118.74339401721954345703125">
        <ele>5.19999980926513671875</ele>
        <time>2024-08-14T12:46:44.000Z</time>
        <extensions>
          <ns3:TrackPointExtension>
            <ns3:hr>143</ns3:hr>
            <ns3:cad>91</ns3:cad>
          </ns3:TrackPointExtension>
        </extensions>
      </trkpt>
      <trkpt lat="32.00236053206026554107666015625" lon="118.74342159368097782135009765625">
        <ele>5.19999980926513671875</ele>
        <time>2024-08-14T12:46:45.000Z</time>
        <extensions>
          <ns3:TrackPointExtension>
            <ns3:hr>144</ns3:hr>
            <ns3:cad>92</ns3:cad>
          </ns3:TrackPointExtension>
        </extensions>
      </trkpt>
      <trkpt lat="32.00234980322420597076416015625" lon="118.74345243908464908599853515625">
        <ele>5.400000095367431640625</ele>
        <time>2024-08-14T12:46:46.000Z</time>
        <extensions>
          <ns3:TrackPointExtension>
            <ns3:hr>145</ns3:hr>
            <ns3:cad>91</ns3:cad>
          </ns3:TrackPointExtension>
        </extensions>
      </trkpt>
      <trkpt lat="32.00234393589198589324951171875" lon="118.743478171527385711669921875">
        <ele>5.400000095367431640625</ele>
        <time>2024-08-14T12:46:47.000Z</time>
        <extensions>
          <ns3:TrackPointExtension>
            <ns3:hr>146</ns3:hr>
            <ns3:cad>92</ns3:cad>
          </ns3:TrackPointExtension>
        </extensions>
      </trkpt>
      <trkpt lat="32.00234058313071727752685546875" lon="118.74351329170167446136474609375">
        <ele>5.400000095367431640625</ele>
        <time>2024-08-14T12:46:48.000Z</time>
        <extensions>
          <ns3:TrackPointExtension>
            <ns3:hr>147</ns3:hr>
            <ns3:cad>92</ns3:cad>
          </ns3:TrackPointExtension>
        </extensions>
      </trkpt>
      <trkpt lat="32.0023418404161930084228515625" lon="118.743547238409519195556640625">
        <ele>5.400000095367431640625</ele>
        <time>2024-08-14T12:46:49.000Z</time>
        <extensions>
          <ns3:TrackPointExtension>
            <ns3:hr>147</ns3:hr>
            <ns3:cad>92</ns3:cad>
          </ns3:TrackPointExtension>
        </extensions>
      </trkpt>
      <trkpt lat="32.0023388229310512542724609375" lon="118.743576072156429290771484375">
        <ele>5.400000095367431640625</ele>
        <time>2024-08-14T12:46:50.000Z</time>
        <extensions>
          <ns3:TrackPointExtension>
            <ns3:hr>148</ns3:hr>
            <ns3:cad>92</ns3:cad>
          </ns3:TrackPointExtension>
        </extensions>
      </trkpt>
      <trkpt lat="32.00233488343656063079833984375" lon="118.743594847619533538818359375">
        <ele>5.400000095367431640625</ele>
        <time>2024-08-14T12:46:51.000Z</time>
        <extensions>
          <ns3:TrackPointExtension>
            <ns3:hr>148</ns3:hr>
            <ns3:cad>92</ns3:cad>
          </ns3:TrackPointExtension>
        </extensions>
      </trkpt>
      <trkpt lat="32.00232868082821369171142578125" lon="118.74361462891101837158203125">
        <ele>5.400000095367431640625</ele>
        <time>2024-08-14T12:46:52.000Z</time>
        <extensions>
          <ns3:TrackPointExtension>
            <ns3:hr>149</ns3:hr>
            <ns3:cad>92</ns3:cad>
          </ns3:TrackPointExtension>
        </extensions>
      </trkpt>
      <trkpt lat="32.00232499279081821441650390625" lon="118.74365142546594142913818359375">
        <ele>5.400000095367431640625</ele>
        <time>2024-08-14T12:46:53.000Z</time>
        <extensions>
          <ns3:TrackPointExtension>
            <ns3:hr>150</ns3:hr>
            <ns3:cad>91</ns3:cad>
          </ns3:TrackPointExtension>
        </extensions>
      </trkpt>
      <trkpt lat="32.002305798232555389404296875" lon="118.74368059448897838592529296875">
        <ele>5.400000095367431640625</ele>
        <time>2024-08-14T12:46:54.000Z</time>
        <extensions>
          <ns3:TrackPointExtension>
            <ns3:hr>150</ns3:hr>
            <ns3:cad>90</ns3:cad>
          </ns3:TrackPointExtension>
        </extensions>
      </trkpt>
      <trkpt lat="32.00229414738714694976806640625" lon="118.74370657838881015777587890625">
        <ele>5.599999904632568359375</ele>
        <time>2024-08-14T12:46:55.000Z</time>
        <extensions>
          <ns3:TrackPointExtension>
            <ns3:hr>151</ns3:hr>
            <ns3:cad>90</ns3:cad>
          </ns3:TrackPointExtension>
        </extensions>
      </trkpt>
      <trkpt lat="32.00225575827062129974365234375" lon="118.74375200830399990081787109375">
        <ele>5.400000095367431640625</ele>
        <time>2024-08-14T12:46:56.000Z</time>
        <extensions>
          <ns3:TrackPointExtension>
            <ns3:hr>151</ns3:hr>
            <ns3:cad>90</ns3:cad>
          </ns3:TrackPointExtension>
        </extensions>
      </trkpt>
      <trkpt lat="32.00224486179649829864501953125" lon="118.74377732165157794952392578125">
        <ele>5.400000095367431640625</ele>
        <time>2024-08-14T12:46:57.000Z</time>
        <extensions>
          <ns3:TrackPointExtension>
            <ns3:hr>151</ns3:hr>
            <ns3:cad>89</ns3:cad>
          </ns3:TrackPointExtension>
        </extensions>
      </trkpt>
      <trkpt lat="32.0022181235253810882568359375" lon="118.7438070774078369140625">
        <ele>5.19999980926513671875</ele>
        <time>2024-08-14T12:46:58.000Z</time>
        <extensions>
          <ns3:TrackPointExtension>
            <ns3:hr>152</ns3:hr>
            <ns3:cad>89</ns3:cad>
          </ns3:TrackPointExtension>
        </extensions>
      </trkpt>
      <trkpt lat="32.002202533185482025146484375" lon="118.743835575878620147705078125">
        <ele>5.19999980926513671875</ele>
        <time>2024-08-14T12:46:59.000Z</time>
        <extensions>
          <ns3:TrackPointExtension>
            <ns3:hr>152</ns3:hr>
            <ns3:cad>89</ns3:cad>
          </ns3:TrackPointExtension>
        </extensions>
      </trkpt>
      <trkpt lat="32.00217981822788715362548828125" lon="118.74386583454906940460205078125">
        <ele>5.19999980926513671875</ele>
        <time>2024-08-14T12:47:00.000Z</time>
        <extensions>
          <ns3:TrackPointExtension>
            <ns3:hr>152</ns3:hr>
            <ns3:cad>89</ns3:cad>
          </ns3:TrackPointExtension>
        </extensions>
      </trkpt>
      <trkpt lat="32.0021715201437473297119140625" lon="118.74388947151601314544677734375">
        <ele>5.19999980926513671875</ele>
        <time>2024-08-14T12:47:01.000Z</time>
        <extensions>
          <ns3:TrackPointExtension>
            <ns3:hr>153</ns3:hr>
            <ns3:cad>89</ns3:cad>
          </ns3:TrackPointExtension>
        </extensions>
      </trkpt>
      <trkpt lat="32.00215199030935764312744140625" lon="118.7439272738993167877197265625">
        <ele>5.400000095367431640625</ele>
        <time>2024-08-14T12:47:02.000Z</time>
        <extensions>
          <ns3:TrackPointExtension>
            <ns3:hr>153</ns3:hr>
            <ns3:cad>90</ns3:cad>
          </ns3:TrackPointExtension>
        </extensions>
      </trkpt>
      <trkpt lat="32.00214344076812267303466796875" lon="118.74395216815173625946044921875">
        <ele>5.19999980926513671875</ele>
        <time>2024-08-14T12:47:03.000Z</time>
        <extensions>
          <ns3:TrackPointExtension>
            <ns3:hr>153</ns3:hr>
            <ns3:cad>90</ns3:cad>
          </ns3:TrackPointExtension>
        </extensions>
      </trkpt>
      <trkpt lat="32.0021259225904941558837890625" lon="118.7439876236021518707275390625">
        <ele>5.19999980926513671875</ele>
        <time>2024-08-14T12:47:04.000Z</time>
        <extensions>
          <ns3:TrackPointExtension>
            <ns3:hr>154</ns3:hr>
            <ns3:cad>89</ns3:cad>
          </ns3:TrackPointExtension>
        </extensions>
      </trkpt>
      <trkpt lat="32.00211611576378345489501953125" lon="118.74401436187326908111572265625">
        <ele>5.400000095367431640625</ele>
        <time>2024-08-14T12:47:05.000Z</time>
        <extensions>
          <ns3:TrackPointExtension>
            <ns3:hr>154</ns3:hr>
            <ns3:cad>89</ns3:cad>
          </ns3:TrackPointExtension>
        </extensions>
      </trkpt>
      <trkpt lat="32.00211209245026111602783203125" lon="118.7440516613423824310302734375">
        <ele>5.19999980926513671875</ele>
        <time>2024-08-14T12:47:06.000Z</time>
        <extensions>
          <ns3:TrackPointExtension>
            <ns3:hr>154</ns3:hr>
            <ns3:cad>88</ns3:cad>
          </ns3:TrackPointExtension>
        </extensions>
      </trkpt>
      <trkpt lat="32.00211326591670513153076171875" lon="118.7440712749958038330078125">
        <ele>5.19999980926513671875</ele>
        <time>2024-08-14T12:47:07.000Z</time>
        <extensions>
          <ns3:TrackPointExtension>
            <ns3:hr>154</ns3:hr>
            <ns3:cad>88</ns3:cad>
          </ns3:TrackPointExtension>
        </extensions>
      </trkpt>
      <trkpt lat="32.00212307274341583251953125" lon="118.74409231357276439666748046875">
        <ele>5.19999980926513671875</ele>
        <time>2024-08-14T12:47:08.000Z</time>
        <extensions>
          <ns3:TrackPointExtension>
            <ns3:hr>155</ns3:hr>
            <ns3:cad>88</ns3:cad>
          </ns3:TrackPointExtension>
        </extensions>
      </trkpt>
      <trkpt lat="32.00214092619717121124267578125" lon="118.74412022531032562255859375">
        <ele>5.19999980926513671875</ele>
        <time>2024-08-14T12:47:09.000Z</time>
        <extensions>
          <ns3:TrackPointExtension>
            <ns3:hr>155</ns3:hr>
            <ns3:cad>87</ns3:cad>
          </ns3:TrackPointExtension>
        </extensions>
      </trkpt>
      <trkpt lat="32.00215735472738742828369140625" lon="118.7441468797624111175537109375">
        <ele>5</ele>
        <time>2024-08-14T12:47:10.000Z</time>
        <extensions>
          <ns3:TrackPointExtension>
            <ns3:hr>155</ns3:hr>
            <ns3:cad>87</ns3:cad>
          </ns3:TrackPointExtension>
        </extensions>
      </trkpt>
      <trkpt lat="32.00215048156678676605224609375" lon="118.74417261220514774322509765625">
        <ele>5</ele>
        <time>2024-08-14T12:47:11.000Z</time>
        <extensions>
          <ns3:TrackPointExtension>
            <ns3:hr>156</ns3:hr>
            <ns3:cad>87</ns3:cad>
          </ns3:TrackPointExtension>
        </extensions>
      </trkpt>
      <trkpt lat="32.00214243493974208831787109375" lon="118.7442042119801044464111328125">
        <ele>5</ele>
        <time>2024-08-14T12:47:12.000Z</time>
        <extensions>
          <ns3:TrackPointExtension>
            <ns3:hr>156</ns3:hr>
            <ns3:cad>86</ns3:cad>
          </ns3:TrackPointExtension>
        </extensions>
      </trkpt>
      <trkpt lat="32.00212516821920871734619140625" lon="118.74422608874738216400146484375">
        <ele>5</ele>
        <time>2024-08-14T12:47:13.000Z</time>
        <extensions>
          <ns3:TrackPointExtension>
            <ns3:hr>156</ns3:hr>
            <ns3:cad>84</ns3:cad>
          </ns3:TrackPointExtension>
        </extensions>
      </trkpt>
      <trkpt lat="32.00211578048765659332275390625" lon="118.7442521564662456512451171875">
        <ele>5</ele>
        <time>2024-08-14T12:47:14.000Z</time>
        <extensions>
          <ns3:TrackPointExtension>
            <ns3:hr>156</ns3:hr>
            <ns3:cad>84</ns3:cad>
          </ns3:TrackPointExtension>
        </extensions>
      </trkpt>
      <trkpt lat="32.002114020287990570068359375" lon="118.74427981674671173095703125">
        <ele>5</ele>
        <time>2024-08-14T12:47:15.000Z</time>
        <extensions>
          <ns3:TrackPointExtension>
            <ns3:hr>156</ns3:hr>
            <ns3:cad>85</ns3:cad>
          </ns3:TrackPointExtension>
        </extensions>
      </trkpt>
      <trkpt lat="32.002107985317707061767578125" lon="118.7443104945123195648193359375">
        <ele>5</ele>
        <time>2024-08-14T12:47:16.000Z</time>
        <extensions>
          <ns3:TrackPointExtension>
            <ns3:hr>156</ns3:hr>
            <ns3:cad>86</ns3:cad>
          </ns3:TrackPointExtension>
        </extensions>
      </trkpt>
      <trkpt lat="32.00210555456578731536865234375" lon="118.74434511177241802215576171875">
        <ele>5</ele>
        <time>2024-08-14T12:47:17.000Z</time>
        <extensions>
          <ns3:TrackPointExtension>
            <ns3:hr>156</ns3:hr>
            <ns3:cad>88</ns3:cad>
          </ns3:TrackPointExtension>
        </extensions>
      </trkpt>
      <trkpt lat="32.00210236944258213043212890625" lon="118.7443765439093112945556640625">
        <ele>5.19999980926513671875</ele>
        <time>2024-08-14T12:47:18.000Z</time>
        <extensions>
          <ns3:TrackPointExtension>
            <ns3:hr>156</ns3:hr>
            <ns3:cad>88</ns3:cad>
          </ns3:TrackPointExtension>
        </extensions>
      </trkpt>
      <trkpt lat="32.00210161507129669189453125" lon="118.74440277926623821258544921875">
        <ele>5</ele>
        <time>2024-08-14T12:47:19.000Z</time>
        <extensions>
          <ns3:TrackPointExtension>
            <ns3:hr>156</ns3:hr>
            <ns3:cad>87</ns3:cad>
          </ns3:TrackPointExtension>
        </extensions>
      </trkpt>
      <trkpt lat="32.0020957477390766143798828125" lon="118.74443010427057743072509765625">
        <ele>5.19999980926513671875</ele>
        <time>2024-08-14T12:47:20.000Z</time>
        <extensions>
          <ns3:TrackPointExtension>
            <ns3:hr>156</ns3:hr>
            <ns3:cad>87</ns3:cad>
          </ns3:TrackPointExtension>
        </extensions>
      </trkpt>
      <trkpt lat="32.00208962894976139068603515625" lon="118.744459860026836395263671875">
        <ele>5.400000095367431640625</ele>
        <time>2024-08-14T12:47:21.000Z</time>
        <extensions>
          <ns3:TrackPointExtension>
            <ns3:hr>156</ns3:hr>
            <ns3:cad>86</ns3:cad>
          </ns3:TrackPointExtension>
        </extensions>
      </trkpt>
      <trkpt lat="32.0020860247313976287841796875" lon="118.7444928847253322601318359375">
        <ele>5.19999980926513671875</ele>
        <time>2024-08-14T12:47:22.000Z</time>
        <extensions>
          <ns3:TrackPointExtension>
            <ns3:hr>157</ns3:hr>
            <ns3:cad>86</ns3:cad>
          </ns3:TrackPointExtension>
        </extensions>
      </trkpt>
      <trkpt lat="32.00208074413239955902099609375" lon="118.74452062882483005523681640625">
        <ele>5.400000095367431640625</ele>
        <time>2024-08-14T12:47:23.000Z</time>
        <extensions>
          <ns3:TrackPointExtension>
            <ns3:hr>157</ns3:hr>
            <ns3:cad>86</ns3:cad>
          </ns3:TrackPointExtension>
        </extensions>
      </trkpt>
      <trkpt lat="32.00207219459116458892822265625" lon="118.74455080367624759674072265625">
        <ele>5.400000095367431640625</ele>
        <time>2024-08-14T12:47:24.000Z</time>
        <extensions>
          <ns3:TrackPointExtension>
            <ns3:hr>157</ns3:hr>
            <ns3:cad>86</ns3:cad>
          </ns3:TrackPointExtension>
        </extensions>
      </trkpt>
      <trkpt lat="32.00205492787063121795654296875" lon="118.74458290636539459228515625">
        <ele>5.400000095367431640625</ele>
        <time>2024-08-14T12:47:25.000Z</time>
        <extensions>
          <ns3:TrackPointExtension>
            <ns3:hr>157</ns3:hr>
            <ns3:cad>86</ns3:cad>
          </ns3:TrackPointExtension>
        </extensions>
      </trkpt>
      <trkpt lat="32.00204637832939624786376953125" lon="118.74460746534168720245361328125">
        <ele>5.400000095367431640625</ele>
        <time>2024-08-14T12:47:26.000Z</time>
        <extensions>
          <ns3:TrackPointExtension>
            <ns3:hr>157</ns3:hr>
            <ns3:cad>86</ns3:cad>
          </ns3:TrackPointExtension>
        </extensions>
      </trkpt>
      <trkpt lat="32.00203229673206806182861328125" lon="118.74462942592799663543701171875">
        <ele>5.599999904632568359375</ele>
        <time>2024-08-14T12:47:27.000Z</time>
        <extensions>
          <ns3:TrackPointExtension>
            <ns3:hr>158</ns3:hr>
            <ns3:cad>87</ns3:cad>
          </ns3:TrackPointExtension>
        </extensions>
      </trkpt>
      <trkpt lat="32.00202123261988162994384765625" lon="118.74465457163751125335693359375">
        <ele>5.400000095367431640625</ele>
        <time>2024-08-14T12:47:28.000Z</time>
        <extensions>
          <ns3:TrackPointExtension>
            <ns3:hr>158</ns3:hr>
            <ns3:cad>88</ns3:cad>
          </ns3:TrackPointExtension>
        </extensions>
      </trkpt>
      <trkpt lat="32.0020057260990142822265625" lon="118.74467569403350353240966796875">
        <ele>5.599999904632568359375</ele>
        <time>2024-08-14T12:47:29.000Z</time>
        <extensions>
          <ns3:TrackPointExtension>
            <ns3:hr>158</ns3:hr>
            <ns3:cad>88</ns3:cad>
          </ns3:TrackPointExtension>
        </extensions>
      </trkpt>
      <trkpt lat="32.0019961707293987274169921875" lon="118.74468474648892879486083984375">
        <ele>5.599999904632568359375</ele>
        <time>2024-08-14T12:47:30.000Z</time>
        <extensions>
          <ns3:TrackPointExtension>
            <ns3:hr>158</ns3:hr>
            <ns3:cad>87</ns3:cad>
          </ns3:TrackPointExtension>
        </extensions>
      </trkpt>
      <trkpt lat="32.0019815862178802490234375" lon="118.7447054497897624969482421875">
        <ele>5.599999904632568359375</ele>
        <time>2024-08-14T12:47:31.000Z</time>
        <extensions>
          <ns3:TrackPointExtension>
            <ns3:hr>158</ns3:hr>
            <ns3:cad>86</ns3:cad>
          </ns3:TrackPointExtension>
        </extensions>
      </trkpt>
      <trkpt lat="32.00196708552539348602294921875" lon="118.744737803936004638671875">
        <ele>5.599999904632568359375</ele>
        <time>2024-08-14T12:47:32.000Z</time>
        <extensions>
          <ns3:TrackPointExtension>
            <ns3:hr>158</ns3:hr>
            <ns3:cad>86</ns3:cad>
          </ns3:TrackPointExtension>
        </extensions>
      </trkpt>
      <trkpt lat="32.00195903889834880828857421875" lon="118.74476957134902477264404296875">
        <ele>5.599999904632568359375</ele>
        <time>2024-08-14T12:47:33.000Z</time>
        <extensions>
          <ns3:TrackPointExtension>
            <ns3:hr>159</ns3:hr>
            <ns3:cad>86</ns3:cad>
          </ns3:TrackPointExtension>
        </extensions>
      </trkpt>
      <trkpt lat="32.00195199809968471527099609375" lon="118.74480091966688632965087890625">
        <ele>5.599999904632568359375</ele>
        <time>2024-08-14T12:47:34.000Z</time>
        <extensions>
          <ns3:TrackPointExtension>
            <ns3:hr>159</ns3:hr>
            <ns3:cad>86</ns3:cad>
          </ns3:TrackPointExtension>
        </extensions>
      </trkpt>
      <trkpt lat="32.001953758299350738525390625" lon="118.74482958577573299407958984375">
        <ele>5.599999904632568359375</ele>
        <time>2024-08-14T12:47:35.000Z</time>
        <extensions>
          <ns3:TrackPointExtension>
            <ns3:hr>159</ns3:hr>
            <ns3:cad>86</ns3:cad>
          </ns3:TrackPointExtension>
        </extensions>
      </trkpt>
      <trkpt lat="32.001952417194843292236328125" lon="118.74486051499843597412109375">
        <ele>5.599999904632568359375</ele>
        <time>2024-08-14T12:47:36.000Z</time>
        <extensions>
          <ns3:TrackPointExtension>
            <ns3:hr>159</ns3:hr>
            <ns3:cad>86</ns3:cad>
          </ns3:TrackPointExtension>
        </extensions>
      </trkpt>
      <trkpt lat="32.0019619725644588470458984375" lon="118.74488322995603084564208984375">
        <ele>5.599999904632568359375</ele>
        <time>2024-08-14T12:47:37.000Z</time>
        <extensions>
          <ns3:TrackPointExtension>
            <ns3:hr>159</ns3:hr>
            <ns3:cad>86</ns3:cad>
          </ns3:TrackPointExtension>
        </extensions>
      </trkpt>
      <trkpt lat="32.0019552670419216156005859375" lon="118.744926564395427703857421875">
        <ele>5.400000095367431640625</ele>
        <time>2024-08-14T12:47:38.000Z</time>
        <extensions>
          <ns3:TrackPointExtension>
            <ns3:hr>159</ns3:hr>
            <ns3:cad>86</ns3:cad>
          </ns3:TrackPointExtension>
        </extensions>
      </trkpt>
      <trkpt lat="32.00195099227130413055419921875" lon="118.74495933763682842254638671875">
        <ele>5.400000095367431640625</ele>
        <time>2024-08-14T12:47:39.000Z</time>
        <extensions>
          <ns3:TrackPointExtension>
            <ns3:hr>159</ns3:hr>
            <ns3:cad>86</ns3:cad>
          </ns3:TrackPointExtension>
        </extensions>
      </trkpt>
      <trkpt lat="32.00194059871137142181396484375" lon="118.744991607964038848876953125">
        <ele>5.400000095367431640625</ele>
        <time>2024-08-14T12:47:40.000Z</time>
        <extensions>
          <ns3:TrackPointExtension>
            <ns3:hr>159</ns3:hr>
            <ns3:cad>86</ns3:cad>
          </ns3:TrackPointExtension>
        </extensions>
      </trkpt>
      <trkpt lat="32.00192064978182315826416015625" lon="118.745013065636157989501953125">
        <ele>5.400000095367431640625</ele>
        <time>2024-08-14T12:47:41.000Z</time>
        <extensions>
          <ns3:TrackPointExtension>
            <ns3:hr>159</ns3:hr>
            <ns3:cad>86</ns3:cad>
          </ns3:TrackPointExtension>
        </extensions>
      </trkpt>
      <trkpt lat="32.00190388597548007965087890625" lon="118.7450422346591949462890625">
        <ele>5.400000095367431640625</ele>
        <time>2024-08-14T12:47:42.000Z</time>
        <extensions>
          <ns3:TrackPointExtension>
            <ns3:hr>160</ns3:hr>
            <ns3:cad>86</ns3:cad>
          </ns3:TrackPointExtension>
        </extensions>
      </trkpt>
      <trkpt lat="32.0018774829804897308349609375" lon="118.74505606479942798614501953125">
        <ele>5.400000095367431640625</ele>
        <time>2024-08-14T12:47:43.000Z</time>
        <extensions>
          <ns3:TrackPointExtension>
            <ns3:hr>160</ns3:hr>
            <ns3:cad>85</ns3:cad>
          </ns3:TrackPointExtension>
        </extensions>
      </trkpt>
      <trkpt lat="32.00185426510870456695556640625" lon="118.7450648657977581024169921875">
        <ele>5.400000095367431640625</ele>
        <time>2024-08-14T12:47:44.000Z</time>
        <extensions>
          <ns3:TrackPointExtension>
            <ns3:hr>160</ns3:hr>
            <ns3:cad>85</ns3:cad>
          </ns3:TrackPointExtension>
        </extensions>
      </trkpt>
      <trkpt lat="32.0018327236175537109375" lon="118.7450645305216312408447265625">
        <ele>5.599999904632568359375</ele>
        <time>2024-08-14T12:47:45.000Z</time>
        <extensions>
          <ns3:TrackPointExtension>
            <ns3:hr>160</ns3:hr>
            <ns3:cad>85</ns3:cad>
          </ns3:TrackPointExtension>
        </extensions>
      </trkpt>
      <trkpt lat="32.00181688182055950164794921875" lon="118.74507182277739048004150390625">
        <ele>5.400000095367431640625</ele>
        <time>2024-08-14T12:47:46.000Z</time>
        <extensions>
          <ns3:TrackPointExtension>
            <ns3:hr>160</ns3:hr>
            <ns3:cad>84</ns3:cad>
          </ns3:TrackPointExtension>
        </extensions>
      </trkpt>
      <trkpt lat="32.00180598534643650054931640625" lon="118.74507919885218143463134765625">
        <ele>5.400000095367431640625</ele>
        <time>2024-08-14T12:47:47.000Z</time>
        <extensions>
          <ns3:TrackPointExtension>
            <ns3:hr>160</ns3:hr>
            <ns3:cad>84</ns3:cad>
          </ns3:TrackPointExtension>
        </extensions>
      </trkpt>
      <trkpt lat="32.0017856173217296600341796875" lon="118.7450905144214630126953125">
        <ele>5.19999980926513671875</ele>
        <time>2024-08-14T12:47:48.000Z</time>
        <extensions>
          <ns3:TrackPointExtension>
            <ns3:hr>160</ns3:hr>
            <ns3:cad>84</ns3:cad>
          </ns3:TrackPointExtension>
        </extensions>
      </trkpt>
      <trkpt lat="32.0017755590379238128662109375" lon="118.74510870315134525299072265625">
        <ele>5.19999980926513671875</ele>
        <time>2024-08-14T12:47:49.000Z</time>
        <extensions>
          <ns3:TrackPointExtension>
            <ns3:hr>160</ns3:hr>
            <ns3:cad>85</ns3:cad>
          </ns3:TrackPointExtension>
        </extensions>
      </trkpt>
      <trkpt lat="32.0017628185451030731201171875" lon="118.74512697570025920867919921875">
        <ele>5</ele>
        <time>2024-08-14T12:47:50.000Z</time>
        <extensions>
          <ns3:TrackPointExtension>
            <ns3:hr>160</ns3:hr>
            <ns3:cad>85</ns3:cad>
          </ns3:TrackPointExtension>
        </extensions>
      </trkpt>
      <trkpt lat="32.00175083242356777191162109375" lon="118.7451476790010929107666015625">
        <ele>5</ele>
        <time>2024-08-14T12:47:51.000Z</time>
        <extensions>
          <ns3:TrackPointExtension>
            <ns3:hr>160</ns3:hr>
            <ns3:cad>85</ns3:cad>
          </ns3:TrackPointExtension>
        </extensions>
      </trkpt>
      <trkpt lat="32.001735158264636993408203125" lon="118.7451842240989208221435546875">
        <ele>4.80000019073486328125</ele>
        <time>2024-08-14T12:47:52.000Z</time>
        <extensions>
          <ns3:TrackPointExtension>
            <ns3:hr>160</ns3:hr>
            <ns3:cad>85</ns3:cad>
          </ns3:TrackPointExtension>
        </extensions>
      </trkpt>
      <trkpt lat="32.00171261094510555267333984375" lon="118.74522051773965358734130859375">
        <ele>4.80000019073486328125</ele>
        <time>2024-08-14T12:47:53.000Z</time>
        <extensions>
          <ns3:TrackPointExtension>
            <ns3:hr>161</ns3:hr>
            <ns3:cad>85</ns3:cad>
          </ns3:TrackPointExtension>
        </extensions>
      </trkpt>
      <trkpt lat="32.00169601477682590484619140625" lon="118.7452529557049274444580078125">
        <ele>4.80000019073486328125</ele>
        <time>2024-08-14T12:47:54.000Z</time>
        <extensions>
          <ns3:TrackPointExtension>
            <ns3:hr>161</ns3:hr>
            <ns3:cad>85</ns3:cad>
          </ns3:TrackPointExtension>
        </extensions>
      </trkpt>
      <trkpt lat="32.0016726292669773101806640625" lon="118.74527684412896633148193359375">
        <ele>4.80000019073486328125</ele>
        <time>2024-08-14T12:47:55.000Z</time>
        <extensions>
          <ns3:TrackPointExtension>
            <ns3:hr>161</ns3:hr>
            <ns3:cad>85</ns3:cad>
          </ns3:TrackPointExtension>
        </extensions>
      </trkpt>
      <trkpt lat="32.0016592182219028472900390625" lon="118.74530039727687835693359375">
        <ele>4.80000019073486328125</ele>
        <time>2024-08-14T12:47:56.000Z</time>
        <extensions>
          <ns3:TrackPointExtension>
            <ns3:hr>160</ns3:hr>
            <ns3:cad>85</ns3:cad>
          </ns3:TrackPointExtension>
        </extensions>
      </trkpt>
      <trkpt lat="32.00162745080888271331787109375" lon="118.7453340925276279449462890625">
        <ele>5</ele>
        <time>2024-08-14T12:47:57.000Z</time>
        <extensions>
          <ns3:TrackPointExtension>
            <ns3:hr>160</ns3:hr>
            <ns3:cad>85</ns3:cad>
          </ns3:TrackPointExtension>
        </extensions>
      </trkpt>
      <trkpt lat="32.0016075856983661651611328125" lon="118.7453560531139373779296875">
        <ele>4.80000019073486328125</ele>
        <time>2024-08-14T12:47:58.000Z</time>
        <extensions>
          <ns3:TrackPointExtension>
            <ns3:hr>160</ns3:hr>
            <ns3:cad>85</ns3:cad>
          </ns3:TrackPointExtension>
        </extensions>
      </trkpt>
      <trkpt lat="32.00158436782658100128173828125" lon="118.745379187166690826416015625">
        <ele>4.80000019073486328125</ele>
        <time>2024-08-14T12:47:59.000Z</time>
        <extensions>
          <ns3:TrackPointExtension>
            <ns3:hr>160</ns3:hr>
            <ns3:cad>86</ns3:cad>
          </ns3:TrackPointExtension>
        </extensions>
      </trkpt>
      <trkpt lat="32.00156441889703273773193359375" lon="118.74539804644882678985595703125">
        <ele>4.80000019073486328125</ele>
        <time>2024-08-14T12:48:00.000Z</time>
        <extensions>
          <ns3:TrackPointExtension>
            <ns3:hr>161</ns3:hr>
            <ns3:cad>86</ns3:cad>
          </ns3:TrackPointExtension>
        </extensions>
      </trkpt>
      <trkpt lat="32.00155603699386119842529296875" lon="118.74541196040809154510498046875">
        <ele>4.80000019073486328125</ele>
        <time>2024-08-14T12:48:01.000Z</time>
        <extensions>
          <ns3:TrackPointExtension>
            <ns3:hr>161</ns3:hr>
            <ns3:cad>86</ns3:cad>
          </ns3:TrackPointExtension>
        </extensions>
      </trkpt>
      <trkpt lat="32.0015323162078857421875" lon="118.745442889630794525146484375">
        <ele>4.80000019073486328125</ele>
        <time>2024-08-14T12:48:02.000Z</time>
        <extensions>
          <ns3:TrackPointExtension>
            <ns3:hr>161</ns3:hr>
            <ns3:cad>86</ns3:cad>
          </ns3:TrackPointExtension>
        </extensions>
      </trkpt>
      <trkpt lat="32.0015163905918598175048828125" lon="118.74546627514064311981201171875">
        <ele>4.80000019073486328125</ele>
        <time>2024-08-14T12:48:03.000Z</time>
        <extensions>
          <ns3:TrackPointExtension>
            <ns3:hr>161</ns3:hr>
            <ns3:cad>85</ns3:cad>
          </ns3:TrackPointExtension>
        </extensions>
      </trkpt>
      <trkpt lat="32.00149945914745330810546875" lon="118.7454920075833797454833984375">
        <ele>4.80000019073486328125</ele>
        <time>2024-08-14T12:48:04.000Z</time>
        <extensions>
          <ns3:TrackPointExtension>
            <ns3:hr>161</ns3:hr>
            <ns3:cad>85</ns3:cad>
          </ns3:TrackPointExtension>
        </extensions>
      </trkpt>
      <trkpt lat="32.001488395035266876220703125" lon="118.74551086686551570892333984375">
        <ele>4.80000019073486328125</ele>
        <time>2024-08-14T12:48:05.000Z</time>
        <extensions>
          <ns3:TrackPointExtension>
            <ns3:hr>161</ns3:hr>
            <ns3:cad>85</ns3:cad>
          </ns3:TrackPointExtension>
        </extensions>
      </trkpt>
      <trkpt lat="32.00147925876080989837646484375" lon="118.74553777277469635009765625">
        <ele>4.80000019073486328125</ele>
        <time>2024-08-14T12:48:06.000Z</time>
        <extensions>
          <ns3:TrackPointExtension>
            <ns3:hr>161</ns3:hr>
            <ns3:cad>85</ns3:cad>
          </ns3:TrackPointExtension>
        </extensions>
      </trkpt>
      <trkpt lat="32.001462243497371673583984375" lon="118.74556316994130611419677734375">
        <ele>5</ele>
        <time>2024-08-14T12:48:07.000Z</time>
        <extensions>
          <ns3:TrackPointExtension>
            <ns3:hr>161</ns3:hr>
            <ns3:cad>85</ns3:cad>
          </ns3:TrackPointExtension>
        </extensions>
      </trkpt>
      <trkpt lat="32.00144992209970951080322265625" lon="118.74558337032794952392578125">
        <ele>5</ele>
        <time>2024-08-14T12:48:08.000Z</time>
        <extensions>
          <ns3:TrackPointExtension>
            <ns3:hr>161</ns3:hr>
            <ns3:cad>85</ns3:cad>
          </ns3:TrackPointExtension>
        </extensions>
      </trkpt>
      <trkpt lat="32.0014335773885250091552734375" lon="118.74561144970357418060302734375">
        <ele>5.19999980926513671875</ele>
        <time>2024-08-14T12:48:09.000Z</time>
        <extensions>
          <ns3:TrackPointExtension>
            <ns3:hr>161</ns3:hr>
            <ns3:cad>86</ns3:cad>
          </ns3:TrackPointExtension>
        </extensions>
      </trkpt>
      <trkpt lat="32.0014215074479579925537109375" lon="118.745633997023105621337890625">
        <ele>5.19999980926513671875</ele>
        <time>2024-08-14T12:48:10.000Z</time>
        <extensions>
          <ns3:TrackPointExtension>
            <ns3:hr>161</ns3:hr>
            <ns3:cad>86</ns3:cad>
          </ns3:TrackPointExtension>
        </extensions>
      </trkpt>
      <trkpt lat="32.001405246555805206298828125" lon="118.74566894955933094024658203125">
        <ele>5.19999980926513671875</ele>
        <time>2024-08-14T12:48:11.000Z</time>
        <extensions>
          <ns3:TrackPointExtension>
            <ns3:hr>161</ns3:hr>
            <ns3:cad>85</ns3:cad>
          </ns3:TrackPointExtension>
        </extensions>
      </trkpt>
      <trkpt lat="32.00138974003493785858154296875" lon="118.74569459818303585052490234375">
        <ele>5.19999980926513671875</ele>
        <time>2024-08-14T12:48:12.000Z</time>
        <extensions>
          <ns3:TrackPointExtension>
            <ns3:hr>161</ns3:hr>
            <ns3:cad>85</ns3:cad>
          </ns3:TrackPointExtension>
        </extensions>
      </trkpt>
      <trkpt lat="32.00137498788535594940185546875" lon="118.74572728760540485382080078125">
        <ele>5.19999980926513671875</ele>
        <time>2024-08-14T12:48:13.000Z</time>
        <extensions>
          <ns3:TrackPointExtension>
            <ns3:hr>161</ns3:hr>
            <ns3:cad>86</ns3:cad>
          </ns3:TrackPointExtension>
        </extensions>
      </trkpt>
      <trkpt lat="32.0013581402599811553955078125" lon="118.7457562051713466644287109375">
        <ele>5.400000095367431640625</ele>
        <time>2024-08-14T12:48:14.000Z</time>
        <extensions>
          <ns3:TrackPointExtension>
            <ns3:hr>162</ns3:hr>
            <ns3:cad>86</ns3:cad>
          </ns3:TrackPointExtension>
        </extensions>
      </trkpt>
      <trkpt lat="32.00134925544261932373046875" lon="118.7457798421382904052734375">
        <ele>5.400000095367431640625</ele>
        <time>2024-08-14T12:48:15.000Z</time>
        <extensions>
          <ns3:TrackPointExtension>
            <ns3:hr>162</ns3:hr>
            <ns3:cad>86</ns3:cad>
          </ns3:TrackPointExtension>
        </extensions>
      </trkpt>
      <trkpt lat="32.00133408419787883758544921875" lon="118.7458178959786891937255859375">
        <ele>5.400000095367431640625</ele>
        <time>2024-08-14T12:48:16.000Z</time>
        <extensions>
          <ns3:TrackPointExtension>
            <ns3:hr>162</ns3:hr>
            <ns3:cad>86</ns3:cad>
          </ns3:TrackPointExtension>
        </extensions>
      </trkpt>
      <trkpt lat="32.00132318772375583648681640625" lon="118.7458447180688381195068359375">
        <ele>5.400000095367431640625</ele>
        <time>2024-08-14T12:48:17.000Z</time>
        <extensions>
          <ns3:TrackPointExtension>
            <ns3:hr>162</ns3:hr>
            <ns3:cad>85</ns3:cad>
          </ns3:TrackPointExtension>
        </extensions>
      </trkpt>
      <trkpt lat="32.00130927376449108123779296875" lon="118.74588067643344402313232421875">
        <ele>5.599999904632568359375</ele>
        <time>2024-08-14T12:48:18.000Z</time>
        <extensions>
          <ns3:TrackPointExtension>
            <ns3:hr>162</ns3:hr>
            <ns3:cad>85</ns3:cad>
          </ns3:TrackPointExtension>
        </extensions>
      </trkpt>
      <trkpt lat="32.00129284523427486419677734375" lon="118.74592535197734832763671875">
        <ele>5.400000095367431640625</ele>
        <time>2024-08-14T12:48:19.000Z</time>
        <extensions>
          <ns3:TrackPointExtension>
            <ns3:hr>162</ns3:hr>
            <ns3:cad>85</ns3:cad>
          </ns3:TrackPointExtension>
        </extensions>
      </trkpt>
      <trkpt lat="32.00128044001758098602294921875" lon="118.74596868641674518585205078125">
        <ele>5.400000095367431640625</ele>
        <time>2024-08-14T12:48:20.000Z</time>
        <extensions>
          <ns3:TrackPointExtension>
            <ns3:hr>162</ns3:hr>
            <ns3:cad>85</ns3:cad>
          </ns3:TrackPointExtension>
        </extensions>
      </trkpt>
      <trkpt lat="32.0012652687728404998779296875" lon="118.74600422568619251251220703125">
        <ele>5.400000095367431640625</ele>
        <time>2024-08-14T12:48:21.000Z</time>
        <extensions>
          <ns3:TrackPointExtension>
            <ns3:hr>162</ns3:hr>
            <ns3:cad>85</ns3:cad>
          </ns3:TrackPointExtension>
        </extensions>
      </trkpt>
      <trkpt lat="32.00125697068870067596435546875" lon="118.74603322707116603851318359375">
        <ele>5.599999904632568359375</ele>
        <time>2024-08-14T12:48:22.000Z</time>
        <extensions>
          <ns3:TrackPointExtension>
            <ns3:hr>162</ns3:hr>
            <ns3:cad>84</ns3:cad>
          </ns3:TrackPointExtension>
        </extensions>
      </trkpt>
      <trkpt lat="32.00124825350940227508544921875" lon="118.74606750905513763427734375">
        <ele>5.599999904632568359375</ele>
        <time>2024-08-14T12:48:23.000Z</time>
        <extensions>
          <ns3:TrackPointExtension>
            <ns3:hr>162</ns3:hr>
            <ns3:cad>84</ns3:cad>
          </ns3:TrackPointExtension>
        </extensions>
      </trkpt>
      <trkpt lat="32.00123819522559642791748046875" lon="118.74610028229653835296630859375">
        <ele>5.80000019073486328125</ele>
        <time>2024-08-14T12:48:24.000Z</time>
        <extensions>
          <ns3:TrackPointExtension>
            <ns3:hr>162</ns3:hr>
            <ns3:cad>84</ns3:cad>
          </ns3:TrackPointExtension>
        </extensions>
      </trkpt>
      <trkpt lat="32.00123417191207408905029296875" lon="118.7461357377469539642333984375">
        <ele>5.80000019073486328125</ele>
        <time>2024-08-14T12:48:25.000Z</time>
        <extensions>
          <ns3:TrackPointExtension>
            <ns3:hr>162</ns3:hr>
            <ns3:cad>84</ns3:cad>
          </ns3:TrackPointExtension>
        </extensions>
      </trkpt>
      <trkpt lat="32.00122260488569736480712890625" lon="118.7461625598371028900146484375">
        <ele>6</ele>
        <time>2024-08-14T12:48:26.000Z</time>
        <extensions>
          <ns3:TrackPointExtension>
            <ns3:hr>163</ns3:hr>
            <ns3:cad>84</ns3:cad>
          </ns3:TrackPointExtension>
        </extensions>
      </trkpt>
      <trkpt lat="32.00121623463928699493408203125" lon="118.74618695117533206939697265625">
        <ele>6.19999980926513671875</ele>
        <time>2024-08-14T12:48:27.000Z</time>
        <extensions>
          <ns3:TrackPointExtension>
            <ns3:hr>163</ns3:hr>
            <ns3:cad>84</ns3:cad>
          </ns3:TrackPointExtension>
        </extensions>
      </trkpt>
      <trkpt lat="32.00119963847100734710693359375" lon="118.74621679075062274932861328125">
        <ele>6</ele>
        <time>2024-08-14T12:48:28.000Z</time>
        <extensions>
          <ns3:TrackPointExtension>
            <ns3:hr>163</ns3:hr>
            <ns3:cad>84</ns3:cad>
          </ns3:TrackPointExtension>
        </extensions>
      </trkpt>
      <trkpt lat="32.001181952655315399169921875" lon="118.746240846812725067138671875">
        <ele>6</ele>
        <time>2024-08-14T12:48:29.000Z</time>
        <extensions>
          <ns3:TrackPointExtension>
            <ns3:hr>163</ns3:hr>
            <ns3:cad>84</ns3:cad>
          </ns3:TrackPointExtension>
        </extensions>
      </trkpt>
      <trkpt lat="32.00116544030606746673583984375" lon="118.7462725304067134857177734375">
        <ele>6.19999980926513671875</ele>
        <time>2024-08-14T12:48:30.000Z</time>
        <extensions>
          <ns3:TrackPointExtension>
            <ns3:hr>163</ns3:hr>
            <ns3:cad>85</ns3:cad>
          </ns3:TrackPointExtension>
        </extensions>
      </trkpt>
      <trkpt lat="32.00115219689905643463134765625" lon="118.746306560933589935302734375">
        <ele>6.19999980926513671875</ele>
        <time>2024-08-14T12:48:31.000Z</time>
        <extensions>
          <ns3:TrackPointExtension>
            <ns3:hr>163</ns3:hr>
            <ns3:cad>85</ns3:cad>
          </ns3:TrackPointExtension>
        </extensions>
      </trkpt>
      <trkpt lat="32.00114666484296321868896484375" lon="118.74633497558534145355224609375">
        <ele>6.19999980926513671875</ele>
        <time>2024-08-14T12:48:32.000Z</time>
        <extensions>
          <ns3:TrackPointExtension>
            <ns3:hr>163</ns3:hr>
            <ns3:cad>85</ns3:cad>
          </ns3:TrackPointExtension>
        </extensions>
      </trkpt>
      <trkpt lat="32.001128308475017547607421875" lon="118.74635391868650913238525390625">
        <ele>6.19999980926513671875</ele>
        <time>2024-08-14T12:48:33.000Z</time>
        <extensions>
          <ns3:TrackPointExtension>
            <ns3:hr>163</ns3:hr>
            <ns3:cad>85</ns3:cad>
          </ns3:TrackPointExtension>
        </extensions>
      </trkpt>
      <trkpt lat="32.001117579638957977294921875" lon="118.74638174660503864288330078125">
        <ele>6.400000095367431640625</ele>
        <time>2024-08-14T12:48:34.000Z</time>
        <extensions>
          <ns3:TrackPointExtension>
            <ns3:hr>163</ns3:hr>
            <ns3:cad>85</ns3:cad>
          </ns3:TrackPointExtension>
        </extensions>
      </trkpt>
      <trkpt lat="32.00110123492777347564697265625" lon="118.74641426838934421539306640625">
        <ele>6.400000095367431640625</ele>
        <time>2024-08-14T12:48:35.000Z</time>
        <extensions>
          <ns3:TrackPointExtension>
            <ns3:hr>163</ns3:hr>
            <ns3:cad>84</ns3:cad>
          </ns3:TrackPointExtension>
        </extensions>
      </trkpt>
      <trkpt lat="32.0010835491120815277099609375" lon="118.7464418448507785797119140625">
        <ele>6.400000095367431640625</ele>
        <time>2024-08-14T12:48:36.000Z</time>
        <extensions>
          <ns3:TrackPointExtension>
            <ns3:hr>163</ns3:hr>
            <ns3:cad>84</ns3:cad>
          </ns3:TrackPointExtension>
        </extensions>
      </trkpt>
      <trkpt lat="32.00107206590473651885986328125" lon="118.746473528444766998291015625">
        <ele>6.400000095367431640625</ele>
        <time>2024-08-14T12:48:37.000Z</time>
        <extensions>
          <ns3:TrackPointExtension>
            <ns3:hr>163</ns3:hr>
            <ns3:cad>84</ns3:cad>
          </ns3:TrackPointExtension>
        </extensions>
      </trkpt>
      <trkpt lat="32.00105044059455394744873046875" lon="118.746491633355617523193359375">
        <ele>6.400000095367431640625</ele>
        <time>2024-08-14T12:48:38.000Z</time>
        <extensions>
          <ns3:TrackPointExtension>
            <ns3:hr>163</ns3:hr>
            <ns3:cad>84</ns3:cad>
          </ns3:TrackPointExtension>
        </extensions>
      </trkpt>
      <trkpt lat="32.00103468261659145355224609375" lon="118.74650739133358001708984375">
        <ele>6.599999904632568359375</ele>
        <time>2024-08-14T12:48:39.000Z</time>
        <extensions>
          <ns3:TrackPointExtension>
            <ns3:hr>163</ns3:hr>
            <ns3:cad>84</ns3:cad>
          </ns3:TrackPointExtension>
        </extensions>
      </trkpt>
      <trkpt lat="32.00101339258253574371337890625" lon="118.74653111211955547332763671875">
        <ele>6.400000095367431640625</ele>
        <time>2024-08-14T12:48:40.000Z</time>
        <extensions>
          <ns3:TrackPointExtension>
            <ns3:hr>164</ns3:hr>
            <ns3:cad>85</ns3:cad>
          </ns3:TrackPointExtension>
        </extensions>
      </trkpt>
      <trkpt lat="32.00099109672009944915771484375" lon="118.7465565092861652374267578125">
        <ele>6.400000095367431640625</ele>
        <time>2024-08-14T12:48:41.000Z</time>
        <extensions>
          <ns3:TrackPointExtension>
            <ns3:hr>164</ns3:hr>
            <ns3:cad>84</ns3:cad>
          </ns3:TrackPointExtension>
        </extensions>
      </trkpt>
      <trkpt lat="32.000978104770183563232421875" lon="118.74658115208148956298828125">
        <ele>6.19999980926513671875</ele>
        <time>2024-08-14T12:48:42.000Z</time>
        <extensions>
          <ns3:TrackPointExtension>
            <ns3:hr>164</ns3:hr>
            <ns3:cad>84</ns3:cad>
          </ns3:TrackPointExtension>
        </extensions>
      </trkpt>
      <trkpt lat="32.00094969011843204498291015625" lon="118.74661375768482685089111328125">
        <ele>6.400000095367431640625</ele>
        <time>2024-08-14T12:48:43.000Z</time>
        <extensions>
          <ns3:TrackPointExtension>
            <ns3:hr>164</ns3:hr>
            <ns3:cad>84</ns3:cad>
          </ns3:TrackPointExtension>
        </extensions>
      </trkpt>
      <trkpt lat="32.0009400509297847747802734375" lon="118.746637813746929168701171875">
        <ele>6.400000095367431640625</ele>
        <time>2024-08-14T12:48:44.000Z</time>
        <extensions>
          <ns3:TrackPointExtension>
            <ns3:hr>164</ns3:hr>
            <ns3:cad>85</ns3:cad>
          </ns3:TrackPointExtension>
        </extensions>
      </trkpt>
      <trkpt lat="32.0009167492389678955078125" lon="118.74666824005544185638427734375">
        <ele>6.19999980926513671875</ele>
        <time>2024-08-14T12:48:45.000Z</time>
        <extensions>
          <ns3:TrackPointExtension>
            <ns3:hr>164</ns3:hr>
            <ns3:cad>85</ns3:cad>
          </ns3:TrackPointExtension>
        </extensions>
      </trkpt>
      <trkpt lat="32.00090057216584682464599609375" lon="118.74670059420168399810791015625">
        <ele>6.19999980926513671875</ele>
        <time>2024-08-14T12:48:46.000Z</time>
        <extensions>
          <ns3:TrackPointExtension>
            <ns3:hr>164</ns3:hr>
            <ns3:cad>85</ns3:cad>
          </ns3:TrackPointExtension>
        </extensions>
      </trkpt>
      <trkpt lat="32.00089101679623126983642578125" lon="118.74672724865376949310302734375">
        <ele>6.400000095367431640625</ele>
        <time>2024-08-14T12:48:47.000Z</time>
        <extensions>
          <ns3:TrackPointExtension>
            <ns3:hr>164</ns3:hr>
            <ns3:cad>85</ns3:cad>
          </ns3:TrackPointExtension>
        </extensions>
      </trkpt>
      <trkpt lat="32.0008753426373004913330078125" lon="118.74675524421036243438720703125">
        <ele>6.400000095367431640625</ele>
        <time>2024-08-14T12:48:48.000Z</time>
        <extensions>
          <ns3:TrackPointExtension>
            <ns3:hr>164</ns3:hr>
            <ns3:cad>85</ns3:cad>
          </ns3:TrackPointExtension>
        </extensions>
      </trkpt>
      <trkpt lat="32.0008676312863826751708984375" lon="118.7467808090150356292724609375">
        <ele>6.599999904632568359375</ele>
        <time>2024-08-14T12:48:49.000Z</time>
        <extensions>
          <ns3:TrackPointExtension>
            <ns3:hr>164</ns3:hr>
            <ns3:cad>84</ns3:cad>
          </ns3:TrackPointExtension>
        </extensions>
      </trkpt>
      <trkpt lat="32.000856734812259674072265625" lon="118.74681240878999233245849609375">
        <ele>6.599999904632568359375</ele>
        <time>2024-08-14T12:48:50.000Z</time>
        <extensions>
          <ns3:TrackPointExtension>
            <ns3:hr>164</ns3:hr>
            <ns3:cad>83</ns3:cad>
          </ns3:TrackPointExtension>
        </extensions>
      </trkpt>
      <trkpt lat="32.00084902346134185791015625" lon="118.746839649975299835205078125">
        <ele>6.599999904632568359375</ele>
        <time>2024-08-14T12:48:51.000Z</time>
        <extensions>
          <ns3:TrackPointExtension>
            <ns3:hr>164</ns3:hr>
            <ns3:cad>83</ns3:cad>
          </ns3:TrackPointExtension>
        </extensions>
      </trkpt>
      <trkpt lat="32.00085145421326160430908203125" lon="118.7468622811138629913330078125">
        <ele>6.80000019073486328125</ele>
        <time>2024-08-14T12:48:52.000Z</time>
        <extensions>
          <ns3:TrackPointExtension>
            <ns3:hr>164</ns3:hr>
            <ns3:cad>83</ns3:cad>
          </ns3:TrackPointExtension>
        </extensions>
      </trkpt>
      <trkpt lat="32.0008609257638454437255859375" lon="118.746874518692493438720703125">
        <ele>6.80000019073486328125</ele>
        <time>2024-08-14T12:48:53.000Z</time>
        <extensions>
          <ns3:TrackPointExtension>
            <ns3:hr>164</ns3:hr>
            <ns3:cad>83</ns3:cad>
          </ns3:TrackPointExtension>
        </extensions>
      </trkpt>
      <trkpt lat="32.000874839723110198974609375" lon="118.74688248150050640106201171875">
        <ele>6.80000019073486328125</ele>
        <time>2024-08-14T12:48:54.000Z</time>
        <extensions>
          <ns3:TrackPointExtension>
            <ns3:hr>164</ns3:hr>
            <ns3:cad>84</ns3:cad>
          </ns3:TrackPointExtension>
        </extensions>
      </trkpt>
      <trkpt lat="32.00088783167302608489990234375" lon="118.7468929588794708251953125">
        <ele>6.80000019073486328125</ele>
        <time>2024-08-14T12:48:55.000Z</time>
        <extensions>
          <ns3:TrackPointExtension>
            <ns3:hr>164</ns3:hr>
            <ns3:cad>84</ns3:cad>
          </ns3:TrackPointExtension>
        </extensions>
      </trkpt>
      <trkpt lat="32.000906355679035186767578125" lon="118.74691382981836795806884765625">
        <ele>6.80000019073486328125</ele>
        <time>2024-08-14T12:48:56.000Z</time>
        <extensions>
          <ns3:TrackPointExtension>
            <ns3:hr>164</ns3:hr>
            <ns3:cad>83</ns3:cad>
          </ns3:TrackPointExtension>
        </extensions>
      </trkpt>
      <trkpt lat="32.0009242929518222808837890625" lon="118.74692673794925212860107421875">
        <ele>6.80000019073486328125</ele>
        <time>2024-08-14T12:48:57.000Z</time>
        <extensions>
          <ns3:TrackPointExtension>
            <ns3:hr>164</ns3:hr>
            <ns3:cad>82</ns3:cad>
          </ns3:TrackPointExtension>
        </extensions>
      </trkpt>
      <trkpt lat="32.00094558298587799072265625" lon="118.74693713150918483734130859375">
        <ele>6.80000019073486328125</ele>
        <time>2024-08-14T12:48:58.000Z</time>
        <extensions>
          <ns3:TrackPointExtension>
            <ns3:hr>164</ns3:hr>
            <ns3:cad>81</ns3:cad>
          </ns3:TrackPointExtension>
        </extensions>
      </trkpt>
      <trkpt lat="32.0009682141244411468505859375" lon="118.74695389531552791595458984375">
        <ele>7</ele>
        <time>2024-08-14T12:48:59.000Z</time>
        <extensions>
          <ns3:TrackPointExtension>
            <ns3:hr>164</ns3:hr>
            <ns3:cad>80</ns3:cad>
          </ns3:TrackPointExtension>
        </extensions>
      </trkpt>
      <trkpt lat="32.0009839721024036407470703125" lon="118.74696512706577777862548828125">
        <ele>7</ele>
        <time>2024-08-14T12:49:00.000Z</time>
        <extensions>
          <ns3:TrackPointExtension>
            <ns3:hr>164</ns3:hr>
            <ns3:cad>80</ns3:cad>
          </ns3:TrackPointExtension>
        </extensions>
      </trkpt>
      <trkpt lat="32.0010027475655078887939453125" lon="118.74697853811085224151611328125">
        <ele>7</ele>
        <time>2024-08-14T12:49:01.000Z</time>
        <extensions>
          <ns3:TrackPointExtension>
            <ns3:hr>164</ns3:hr>
            <ns3:cad>80</ns3:cad>
          </ns3:TrackPointExtension>
        </extensions>
      </trkpt>
      <trkpt lat="32.00102328322827816009521484375" lon="118.7469950504601001739501953125">
        <ele>7</ele>
        <time>2024-08-14T12:49:02.000Z</time>
        <extensions>
          <ns3:TrackPointExtension>
            <ns3:hr>164</ns3:hr>
            <ns3:cad>81</ns3:cad>
          </ns3:TrackPointExtension>
        </extensions>
      </trkpt>
      <trkpt lat="32.00104239396750926971435546875" lon="118.74700804241001605987548828125">
        <ele>7.19999980926513671875</ele>
        <time>2024-08-14T12:49:03.000Z</time>
        <extensions>
          <ns3:TrackPointExtension>
            <ns3:hr>164</ns3:hr>
            <ns3:cad>81</ns3:cad>
          </ns3:TrackPointExtension>
        </extensions>
      </trkpt>
      <trkpt lat="32.00106368400156497955322265625" lon="118.74702480621635913848876953125">
        <ele>7.19999980926513671875</ele>
        <time>2024-08-14T12:49:04.000Z</time>
        <extensions>
          <ns3:TrackPointExtension>
            <ns3:hr>164</ns3:hr>
            <ns3:cad>81</ns3:cad>
          </ns3:TrackPointExtension>
        </extensions>
      </trkpt>
      <trkpt lat="32.001081369817256927490234375" lon="118.7470406480133533477783203125">
        <ele>7.19999980926513671875</ele>
        <time>2024-08-14T12:49:05.000Z</time>
        <extensions>
          <ns3:TrackPointExtension>
            <ns3:hr>164</ns3:hr>
            <ns3:cad>81</ns3:cad>
          </ns3:TrackPointExtension>
        </extensions>
      </trkpt>
      <trkpt lat="32.0011016540229320526123046875" lon="118.74705716036260128021240234375">
        <ele>7.19999980926513671875</ele>
        <time>2024-08-14T12:49:06.000Z</time>
        <extensions>
          <ns3:TrackPointExtension>
            <ns3:hr>164</ns3:hr>
            <ns3:cad>81</ns3:cad>
          </ns3:TrackPointExtension>
        </extensions>
      </trkpt>
      <trkpt lat="32.00112353079020977020263671875" lon="118.7470738403499126434326171875">
        <ele>7.19999980926513671875</ele>
        <time>2024-08-14T12:49:07.000Z</time>
        <extensions>
          <ns3:TrackPointExtension>
            <ns3:hr>164</ns3:hr>
            <ns3:cad>81</ns3:cad>
          </ns3:TrackPointExtension>
        </extensions>
      </trkpt>
      <trkpt lat="32.00114272534847259521484375" lon="118.7470885924994945526123046875">
        <ele>7.599999904632568359375</ele>
        <time>2024-08-14T12:49:08.000Z</time>
        <extensions>
          <ns3:TrackPointExtension>
            <ns3:hr>164</ns3:hr>
            <ns3:cad>81</ns3:cad>
          </ns3:TrackPointExtension>
        </extensions>
      </trkpt>
      <trkpt lat="32.00116309337317943572998046875" lon="118.7471048533916473388671875">
        <ele>7.80000019073486328125</ele>
        <time>2024-08-14T12:49:09.000Z</time>
        <extensions>
          <ns3:TrackPointExtension>
            <ns3:hr>164</ns3:hr>
            <ns3:cad>83</ns3:cad>
          </ns3:TrackPointExtension>
        </extensions>
      </trkpt>
      <trkpt lat="32.0011871494352817535400390625" lon="118.747114576399326324462890625">
        <ele>8.19999980926513671875</ele>
        <time>2024-08-14T12:49:10.000Z</time>
        <extensions>
          <ns3:TrackPointExtension>
            <ns3:hr>164</ns3:hr>
            <ns3:cad>83</ns3:cad>
          </ns3:TrackPointExtension>
        </extensions>
      </trkpt>
      <trkpt lat="32.0012086071074008941650390625" lon="118.74712429940700531005859375">
        <ele>8.19999980926513671875</ele>
        <time>2024-08-14T12:49:11.000Z</time>
        <extensions>
          <ns3:TrackPointExtension>
            <ns3:hr>164</ns3:hr>
            <ns3:cad>82</ns3:cad>
          </ns3:TrackPointExtension>
        </extensions>
      </trkpt>
      <trkpt lat="32.00123366899788379669189453125" lon="118.7471385486423969268798828125">
        <ele>8.19999980926513671875</ele>
        <time>2024-08-14T12:49:12.000Z</time>
        <extensions>
          <ns3:TrackPointExtension>
            <ns3:hr>164</ns3:hr>
            <ns3:cad>82</ns3:cad>
          </ns3:TrackPointExtension>
        </extensions>
      </trkpt>
      <trkpt lat="32.00125881470739841461181640625" lon="118.7471533007919788360595703125">
        <ele>8.19999980926513671875</ele>
        <time>2024-08-14T12:49:13.000Z</time>
        <extensions>
          <ns3:TrackPointExtension>
            <ns3:hr>164</ns3:hr>
            <ns3:cad>82</ns3:cad>
          </ns3:TrackPointExtension>
        </extensions>
      </trkpt>
      <trkpt lat="32.0012850500643253326416015625" lon="118.7471683882176876068115234375">
        <ele>8.19999980926513671875</ele>
        <time>2024-08-14T12:49:14.000Z</time>
        <extensions>
          <ns3:TrackPointExtension>
            <ns3:hr>164</ns3:hr>
            <ns3:cad>82</ns3:cad>
          </ns3:TrackPointExtension>
        </extensions>
      </trkpt>
      <trkpt lat="32.00131036341190338134765625" lon="118.74718858860433101654052734375">
        <ele>8.19999980926513671875</ele>
        <time>2024-08-14T12:49:15.000Z</time>
        <extensions>
          <ns3:TrackPointExtension>
            <ns3:hr>164</ns3:hr>
            <ns3:cad>83</ns3:cad>
          </ns3:TrackPointExtension>
        </extensions>
      </trkpt>
      <trkpt lat="32.00133073143661022186279296875" lon="118.747199736535549163818359375">
        <ele>8</ele>
        <time>2024-08-14T12:49:16.000Z</time>
        <extensions>
          <ns3:TrackPointExtension>
            <ns3:hr>164</ns3:hr>
            <ns3:cad>83</ns3:cad>
          </ns3:TrackPointExtension>
        </extensions>
      </trkpt>
      <trkpt lat="32.001351602375507354736328125" lon="118.74721876345574855804443359375">
        <ele>8</ele>
        <time>2024-08-14T12:49:17.000Z</time>
        <extensions>
          <ns3:TrackPointExtension>
            <ns3:hr>164</ns3:hr>
            <ns3:cad>83</ns3:cad>
          </ns3:TrackPointExtension>
        </extensions>
      </trkpt>
      <trkpt lat="32.0013673603534698486328125" lon="118.74723452143371105194091796875">
        <ele>8</ele>
        <time>2024-08-14T12:49:18.000Z</time>
        <extensions>
          <ns3:TrackPointExtension>
            <ns3:hr>164</ns3:hr>
            <ns3:cad>83</ns3:cad>
          </ns3:TrackPointExtension>
        </extensions>
      </trkpt>
      <trkpt lat="32.00138571672141551971435546875" lon="118.7472491897642612457275390625">
        <ele>8</ele>
        <time>2024-08-14T12:49:19.000Z</time>
        <extensions>
          <ns3:TrackPointExtension>
            <ns3:hr>164</ns3:hr>
            <ns3:cad>83</ns3:cad>
          </ns3:TrackPointExtension>
        </extensions>
      </trkpt>
      <trkpt lat="32.0014054141938686370849609375" lon="118.747265450656414031982421875">
        <ele>8</ele>
        <time>2024-08-14T12:49:20.000Z</time>
        <extensions>
          <ns3:TrackPointExtension>
            <ns3:hr>165</ns3:hr>
            <ns3:cad>83</ns3:cad>
          </ns3:TrackPointExtension>
        </extensions>
      </trkpt>
      <trkpt lat="32.0014248602092266082763671875" lon="118.74728062190115451812744140625">
        <ele>8</ele>
        <time>2024-08-14T12:49:21.000Z</time>
        <extensions>
          <ns3:TrackPointExtension>
            <ns3:hr>165</ns3:hr>
            <ns3:cad>83</ns3:cad>
          </ns3:TrackPointExtension>
        </extensions>
      </trkpt>
      <trkpt lat="32.00145092792809009552001953125" lon="118.747298307716846466064453125">
        <ele>8</ele>
        <time>2024-08-14T12:49:22.000Z</time>
        <extensions>
          <ns3:TrackPointExtension>
            <ns3:hr>165</ns3:hr>
            <ns3:cad>84</ns3:cad>
          </ns3:TrackPointExtension>
        </extensions>
      </trkpt>
      <trkpt lat="32.00147791765630245208740234375" lon="118.74731431715190410614013671875">
        <ele>8.19999980926513671875</ele>
        <time>2024-08-14T12:49:23.000Z</time>
        <extensions>
          <ns3:TrackPointExtension>
            <ns3:hr>165</ns3:hr>
            <ns3:cad>84</ns3:cad>
          </ns3:TrackPointExtension>
        </extensions>
      </trkpt>
      <trkpt lat="32.0015108585357666015625" lon="118.747334182262420654296875">
        <ele>8.19999980926513671875</ele>
        <time>2024-08-14T12:49:24.000Z</time>
        <extensions>
          <ns3:TrackPointExtension>
            <ns3:hr>165</ns3:hr>
            <ns3:cad>86</ns3:cad>
          </ns3:TrackPointExtension>
        </extensions>
      </trkpt>
      <trkpt lat="32.0015415363013744354248046875" lon="118.74735220335423946380615234375">
        <ele>8</ele>
        <time>2024-08-14T12:49:25.000Z</time>
        <extensions>
          <ns3:TrackPointExtension>
            <ns3:hr>165</ns3:hr>
            <ns3:cad>86</ns3:cad>
          </ns3:TrackPointExtension>
        </extensions>
      </trkpt>
      <trkpt lat="32.00157321989536285400390625" lon="118.7473690509796142578125">
        <ele>8</ele>
        <time>2024-08-14T12:49:26.000Z</time>
        <extensions>
          <ns3:TrackPointExtension>
            <ns3:hr>165</ns3:hr>
            <ns3:cad>85</ns3:cad>
          </ns3:TrackPointExtension>
        </extensions>
      </trkpt>
      <trkpt lat="32.00159979052841663360595703125" lon="118.74738640151917934417724609375">
        <ele>8.19999980926513671875</ele>
        <time>2024-08-14T12:49:27.000Z</time>
        <extensions>
          <ns3:TrackPointExtension>
            <ns3:hr>165</ns3:hr>
            <ns3:cad>85</ns3:cad>
          </ns3:TrackPointExtension>
        </extensions>
      </trkpt>
      <trkpt lat="32.00162728317081928253173828125" lon="118.74740534462034702301025390625">
        <ele>8.19999980926513671875</ele>
        <time>2024-08-14T12:49:28.000Z</time>
        <extensions>
          <ns3:TrackPointExtension>
            <ns3:hr>165</ns3:hr>
            <ns3:cad>84</ns3:cad>
          </ns3:TrackPointExtension>
        </extensions>
      </trkpt>
      <trkpt lat="32.0016515068709850311279296875" lon="118.747422695159912109375">
        <ele>8</ele>
        <time>2024-08-14T12:49:29.000Z</time>
        <extensions>
          <ns3:TrackPointExtension>
            <ns3:hr>165</ns3:hr>
            <ns3:cad>84</ns3:cad>
          </ns3:TrackPointExtension>
        </extensions>
      </trkpt>
      <trkpt lat="32.0016679354012012481689453125" lon="118.747446835041046142578125">
        <ele>8</ele>
        <time>2024-08-14T12:49:30.000Z</time>
        <extensions>
          <ns3:TrackPointExtension>
            <ns3:hr>165</ns3:hr>
            <ns3:cad>84</ns3:cad>
          </ns3:TrackPointExtension>
        </extensions>
      </trkpt>
      <trkpt lat="32.0016789995133876800537109375" lon="118.7474714778363704681396484375">
        <ele>8.19999980926513671875</ele>
        <time>2024-08-14T12:49:31.000Z</time>
        <extensions>
          <ns3:TrackPointExtension>
            <ns3:hr>165</ns3:hr>
            <ns3:cad>83</ns3:cad>
          </ns3:TrackPointExtension>
        </extensions>
      </trkpt>
      <trkpt lat="32.00168075971305370330810546875" lon="118.74749176204204559326171875">
        <ele>8.19999980926513671875</ele>
        <time>2024-08-14T12:49:32.000Z</time>
        <extensions>
          <ns3:TrackPointExtension>
            <ns3:hr>165</ns3:hr>
            <ns3:cad>82</ns3:cad>
          </ns3:TrackPointExtension>
        </extensions>
      </trkpt>
      <trkpt lat="32.00168319046497344970703125" lon="118.747511543333530426025390625">
        <ele>8.19999980926513671875</ele>
        <time>2024-08-14T12:49:33.000Z</time>
        <extensions>
          <ns3:TrackPointExtension>
            <ns3:hr>166</ns3:hr>
            <ns3:cad>82</ns3:cad>
          </ns3:TrackPointExtension>
        </extensions>
      </trkpt>
      <trkpt lat="32.00168595649302005767822265625" lon="118.74752587638795375823974609375">
        <ele>8</ele>
        <time>2024-08-14T12:49:34.000Z</time>
        <extensions>
          <ns3:TrackPointExtension>
            <ns3:hr>166</ns3:hr>
            <ns3:cad>82</ns3:cad>
          </ns3:TrackPointExtension>
        </extensions>
      </trkpt>
      <trkpt lat="32.0016910694539546966552734375" lon="118.74754004180431365966796875">
        <ele>7.80000019073486328125</ele>
        <time>2024-08-14T12:49:35.000Z</time>
        <extensions>
          <ns3:TrackPointExtension>
            <ns3:hr>166</ns3:hr>
            <ns3:cad>82</ns3:cad>
          </ns3:TrackPointExtension>
        </extensions>
      </trkpt>
      <trkpt lat="32.001696936786174774169921875" lon="118.74756946228444576263427734375">
        <ele>7.80000019073486328125</ele>
        <time>2024-08-14T12:49:36.000Z</time>
        <extensions>
          <ns3:TrackPointExtension>
            <ns3:hr>166</ns3:hr>
            <ns3:cad>79</ns3:cad>
          </ns3:TrackPointExtension>
        </extensions>
      </trkpt>
      <trkpt lat="32.00170171447098255157470703125" lon="118.747597038745880126953125">
        <ele>7.80000019073486328125</ele>
        <time>2024-08-14T12:49:37.000Z</time>
        <extensions>
          <ns3:TrackPointExtension>
            <ns3:hr>166</ns3:hr>
            <ns3:cad>79</ns3:cad>
          </ns3:TrackPointExtension>
        </extensions>
      </trkpt>
      <trkpt lat="32.0017081685364246368408203125" lon="118.7476265430450439453125">
        <ele>7.80000019073486328125</ele>
        <time>2024-08-14T12:49:38.000Z</time>
        <extensions>
          <ns3:TrackPointExtension>
            <ns3:hr>166</ns3:hr>
            <ns3:cad>79</ns3:cad>
          </ns3:TrackPointExtension>
        </extensions>
      </trkpt>
      <trkpt lat="32.00170657597482204437255859375" lon="118.747657053172588348388671875">
        <ele>7.80000019073486328125</ele>
        <time>2024-08-14T12:49:39.000Z</time>
        <extensions>
          <ns3:TrackPointExtension>
            <ns3:hr>166</ns3:hr>
            <ns3:cad>79</ns3:cad>
          </ns3:TrackPointExtension>
        </extensions>
      </trkpt>
      <trkpt lat="32.00170758180320262908935546875" lon="118.7476880662143230438232421875">
        <ele>8</ele>
        <time>2024-08-14T12:49:40.000Z</time>
        <extensions>
          <ns3:TrackPointExtension>
            <ns3:hr>166</ns3:hr>
            <ns3:cad>83</ns3:cad>
          </ns3:TrackPointExtension>
        </extensions>
      </trkpt>
      <trkpt lat="32.0017041452229022979736328125" lon="118.747721426188945770263671875">
        <ele>8.19999980926513671875</ele>
        <time>2024-08-14T12:49:41.000Z</time>
        <extensions>
          <ns3:TrackPointExtension>
            <ns3:hr>166</ns3:hr>
            <ns3:cad>83</ns3:cad>
          </ns3:TrackPointExtension>
        </extensions>
      </trkpt>
      <trkpt lat="32.0017064921557903289794921875" lon="118.74775134958326816558837890625">
        <ele>8.19999980926513671875</ele>
        <time>2024-08-14T12:49:42.000Z</time>
        <extensions>
          <ns3:TrackPointExtension>
            <ns3:hr>166</ns3:hr>
            <ns3:cad>82</ns3:cad>
          </ns3:TrackPointExtension>
        </extensions>
      </trkpt>
      <trkpt lat="32.0017142035067081451416015625" lon="118.7477780878543853759765625">
        <ele>8.19999980926513671875</ele>
        <time>2024-08-14T12:49:43.000Z</time>
        <extensions>
          <ns3:TrackPointExtension>
            <ns3:hr>166</ns3:hr>
            <ns3:cad>82</ns3:cad>
          </ns3:TrackPointExtension>
        </extensions>
      </trkpt>
      <trkpt lat="32.0017205737531185150146484375" lon="118.7478064186871051788330078125">
        <ele>8.19999980926513671875</ele>
        <time>2024-08-14T12:49:44.000Z</time>
        <extensions>
          <ns3:TrackPointExtension>
            <ns3:hr>166</ns3:hr>
            <ns3:cad>82</ns3:cad>
          </ns3:TrackPointExtension>
        </extensions>
      </trkpt>
      <trkpt lat="32.00172954238951206207275390625" lon="118.74782745726406574249267578125">
        <ele>8.19999980926513671875</ele>
        <time>2024-08-14T12:49:45.000Z</time>
        <extensions>
          <ns3:TrackPointExtension>
            <ns3:hr>166</ns3:hr>
            <ns3:cad>82</ns3:cad>
          </ns3:TrackPointExtension>
        </extensions>
      </trkpt>
      <trkpt lat="32.00174077413976192474365234375" lon="118.74785293824970722198486328125">
        <ele>8.19999980926513671875</ele>
        <time>2024-08-14T12:49:46.000Z</time>
        <extensions>
          <ns3:TrackPointExtension>
            <ns3:hr>167</ns3:hr>
            <ns3:cad>81</ns3:cad>
          </ns3:TrackPointExtension>
        </extensions>
      </trkpt>
      <trkpt lat="32.0017514191567897796630859375" lon="118.747875988483428955078125">
        <ele>8.19999980926513671875</ele>
        <time>2024-08-14T12:49:47.000Z</time>
        <extensions>
          <ns3:TrackPointExtension>
            <ns3:hr>167</ns3:hr>
            <ns3:cad>81</ns3:cad>
          </ns3:TrackPointExtension>
        </extensions>
      </trkpt>
      <trkpt lat="32.00176759622991085052490234375" lon="118.7478909082710742950439453125">
        <ele>8.3999996185302734375</ele>
        <time>2024-08-14T12:49:48.000Z</time>
        <extensions>
          <ns3:TrackPointExtension>
            <ns3:hr>167</ns3:hr>
            <ns3:cad>82</ns3:cad>
          </ns3:TrackPointExtension>
        </extensions>
      </trkpt>
      <trkpt lat="32.00178335420787334442138671875" lon="118.74791244976222515106201171875">
        <ele>8.3999996185302734375</ele>
        <time>2024-08-14T12:49:49.000Z</time>
        <extensions>
          <ns3:TrackPointExtension>
            <ns3:hr>167</ns3:hr>
            <ns3:cad>83</ns3:cad>
          </ns3:TrackPointExtension>
        </extensions>
      </trkpt>
      <trkpt lat="32.00179508887231349945068359375" lon="118.74792904593050479888916015625">
        <ele>8.3999996185302734375</ele>
        <time>2024-08-14T12:49:50.000Z</time>
        <extensions>
          <ns3:TrackPointExtension>
            <ns3:hr>167</ns3:hr>
            <ns3:cad>83</ns3:cad>
          </ns3:TrackPointExtension>
        </extensions>
      </trkpt>
      <trkpt lat="32.00180430896580219268798828125" lon="118.7479438818991184234619140625">
        <ele>8.3999996185302734375</ele>
        <time>2024-08-14T12:49:51.000Z</time>
        <extensions>
          <ns3:TrackPointExtension>
            <ns3:hr>167</ns3:hr>
            <ns3:cad>83</ns3:cad>
          </ns3:TrackPointExtension>
        </extensions>
      </trkpt>
      <trkpt lat="32.0018152892589569091796875" lon="118.74795050360262393951416015625">
        <ele>8.3999996185302734375</ele>
        <time>2024-08-14T12:49:52.000Z</time>
        <extensions>
          <ns3:TrackPointExtension>
            <ns3:hr>167</ns3:hr>
            <ns3:cad>83</ns3:cad>
          </ns3:TrackPointExtension>
        </extensions>
      </trkpt>
      <trkpt lat="32.00182593427598476409912109375" lon="118.747959472239017486572265625">
        <ele>8.3999996185302734375</ele>
        <time>2024-08-14T12:49:53.000Z</time>
        <extensions>
          <ns3:TrackPointExtension>
            <ns3:hr>167</ns3:hr>
            <ns3:cad>83</ns3:cad>
          </ns3:TrackPointExtension>
        </extensions>
      </trkpt>
      <trkpt lat="32.001837752759456634521484375" lon="118.7479698657989501953125">
        <ele>8.3999996185302734375</ele>
        <time>2024-08-14T12:49:54.000Z</time>
        <extensions>
          <ns3:TrackPointExtension>
            <ns3:hr>167</ns3:hr>
            <ns3:cad>83</ns3:cad>
          </ns3:TrackPointExtension>
        </extensions>
      </trkpt>
      <trkpt lat="32.001849152147769927978515625" lon="118.74798034317791461944580078125">
        <ele>8.3999996185302734375</ele>
        <time>2024-08-14T12:49:55.000Z</time>
        <extensions>
          <ns3:TrackPointExtension>
            <ns3:hr>167</ns3:hr>
            <ns3:cad>83</ns3:cad>
          </ns3:TrackPointExtension>
        </extensions>
      </trkpt>
      <trkpt lat="32.00185946188867092132568359375" lon="118.7479901500046253204345703125">
        <ele>8.3999996185302734375</ele>
        <time>2024-08-14T12:49:56.000Z</time>
        <extensions>
          <ns3:TrackPointExtension>
            <ns3:hr>167</ns3:hr>
            <ns3:cad>83</ns3:cad>
          </ns3:TrackPointExtension>
        </extensions>
      </trkpt>
      <trkpt lat="32.0018714480102062225341796875" lon="118.74800213612616062164306640625">
        <ele>8.3999996185302734375</ele>
        <time>2024-08-14T12:49:57.000Z</time>
        <extensions>
          <ns3:TrackPointExtension>
            <ns3:hr>167</ns3:hr>
            <ns3:cad>67</ns3:cad>
          </ns3:TrackPointExtension>
        </extensions>
      </trkpt>
      <trkpt lat="32.001882679760456085205078125" lon="118.74801336787641048431396484375">
        <ele>8.3999996185302734375</ele>
        <time>2024-08-14T12:49:58.000Z</time>
        <extensions>
          <ns3:TrackPointExtension>
            <ns3:hr>167</ns3:hr>
            <ns3:cad>67</ns3:cad>
          </ns3:TrackPointExtension>
        </extensions>
      </trkpt>
      <trkpt lat="32.00189399532973766326904296875" lon="118.74802342616021633148193359375">
        <ele>8.3999996185302734375</ele>
        <time>2024-08-14T12:49:59.000Z</time>
        <extensions>
          <ns3:TrackPointExtension>
            <ns3:hr>166</ns3:hr>
            <ns3:cad>63</ns3:cad>
          </ns3:TrackPointExtension>
        </extensions>
      </trkpt>
      <trkpt lat="32.0019066520035266876220703125" lon="118.74803298152983188629150390625">
        <ele>8.19999980926513671875</ele>
        <time>2024-08-14T12:50:00.000Z</time>
        <extensions>
          <ns3:TrackPointExtension>
            <ns3:hr>165</ns3:hr>
            <ns3:cad>62</ns3:cad>
          </ns3:TrackPointExtension>
        </extensions>
      </trkpt>
      <trkpt lat="32.00192098505795001983642578125" lon="118.74804119579493999481201171875">
        <ele>7.80000019073486328125</ele>
        <time>2024-08-14T12:50:01.000Z</time>
        <extensions>
          <ns3:TrackPointExtension>
            <ns3:hr>163</ns3:hr>
            <ns3:cad>62</ns3:cad>
          </ns3:TrackPointExtension>
        </extensions>
      </trkpt>
      <trkpt lat="32.00193531811237335205078125" lon="118.74804873950779438018798828125">
        <ele>7.80000019073486328125</ele>
        <time>2024-08-14T12:50:02.000Z</time>
        <extensions>
          <ns3:TrackPointExtension>
            <ns3:hr>163</ns3:hr>
            <ns3:cad>63</ns3:cad>
          </ns3:TrackPointExtension>
        </extensions>
      </trkpt>
      <trkpt lat="32.00195115990936756134033203125" lon="118.748060725629329681396484375">
        <ele>7.80000019073486328125</ele>
        <time>2024-08-14T12:50:03.000Z</time>
        <extensions>
          <ns3:TrackPointExtension>
            <ns3:hr>164</ns3:hr>
            <ns3:cad>63</ns3:cad>
          </ns3:TrackPointExtension>
        </extensions>
      </trkpt>
      <trkpt lat="32.00196373276412487030029296875" lon="118.74807002954185009002685546875">
        <ele>7.80000019073486328125</ele>
        <time>2024-08-14T12:50:04.000Z</time>
        <extensions>
          <ns3:TrackPointExtension>
            <ns3:hr>164</ns3:hr>
            <ns3:cad>63</ns3:cad>
          </ns3:TrackPointExtension>
        </extensions>
      </trkpt>
      <trkpt lat="32.00197764672338962554931640625" lon="118.748079501092433929443359375">
        <ele>7.80000019073486328125</ele>
        <time>2024-08-14T12:50:05.000Z</time>
        <extensions>
          <ns3:TrackPointExtension>
            <ns3:hr>164</ns3:hr>
            <ns3:cad>63</ns3:cad>
          </ns3:TrackPointExtension>
        </extensions>
      </trkpt>
      <trkpt lat="32.001987956464290618896484375" lon="118.74808746390044689178466796875">
        <ele>8.3999996185302734375</ele>
        <time>2024-08-14T12:50:06.000Z</time>
        <extensions>
          <ns3:TrackPointExtension>
            <ns3:hr>164</ns3:hr>
            <ns3:cad>63</ns3:cad>
          </ns3:TrackPointExtension>
        </extensions>
      </trkpt>
      <trkpt lat="32.00199893675744533538818359375" lon="118.7480954267084598541259765625">
        <ele>8.6000003814697265625</ele>
        <time>2024-08-14T12:50:07.000Z</time>
        <extensions>
          <ns3:TrackPointExtension>
            <ns3:hr>165</ns3:hr>
            <ns3:cad>61</ns3:cad>
          </ns3:TrackPointExtension>
        </extensions>
      </trkpt>
      <trkpt lat="32.002011425793170928955078125" lon="118.748102299869060516357421875">
        <ele>8.6000003814697265625</ele>
        <time>2024-08-14T12:50:08.000Z</time>
        <extensions>
          <ns3:TrackPointExtension>
            <ns3:hr>165</ns3:hr>
            <ns3:cad>61</ns3:cad>
          </ns3:TrackPointExtension>
        </extensions>
      </trkpt>
      <trkpt lat="32.00202257372438907623291015625" lon="118.74810925684869289398193359375">
        <ele>8.80000019073486328125</ele>
        <time>2024-08-14T12:50:09.000Z</time>
        <extensions>
          <ns3:TrackPointExtension>
            <ns3:hr>165</ns3:hr>
            <ns3:cad>62</ns3:cad>
          </ns3:TrackPointExtension>
        </extensions>
      </trkpt>
      <trkpt lat="32.0020343922078609466552734375" lon="118.7481155432760715484619140625">
        <ele>8.80000019073486328125</ele>
        <time>2024-08-14T12:50:10.000Z</time>
        <extensions>
          <ns3:TrackPointExtension>
            <ns3:hr>164</ns3:hr>
            <ns3:cad>62</ns3:cad>
          </ns3:TrackPointExtension>
        </extensions>
      </trkpt>
      <trkpt lat="32.00204721651971340179443359375" lon="118.74812367372214794158935546875">
        <ele>8.80000019073486328125</ele>
        <time>2024-08-14T12:50:11.000Z</time>
        <extensions>
          <ns3:TrackPointExtension>
            <ns3:hr>164</ns3:hr>
            <ns3:cad>62</ns3:cad>
          </ns3:TrackPointExtension>
        </extensions>
      </trkpt>
      <trkpt lat="32.00205861590802669525146484375" lon="118.74813306145370006561279296875">
        <ele>8.80000019073486328125</ele>
        <time>2024-08-14T12:50:12.000Z</time>
        <extensions>
          <ns3:TrackPointExtension>
            <ns3:hr>164</ns3:hr>
            <ns3:cad>61</ns3:cad>
          </ns3:TrackPointExtension>
        </extensions>
      </trkpt>
      <trkpt lat="32.00207068584859371185302734375" lon="118.74813976697623729705810546875">
        <ele>8.80000019073486328125</ele>
        <time>2024-08-14T12:50:13.000Z</time>
        <extensions>
          <ns3:TrackPointExtension>
            <ns3:hr>163</ns3:hr>
            <ns3:cad>61</ns3:cad>
          </ns3:TrackPointExtension>
        </extensions>
      </trkpt>
      <trkpt lat="32.0020833425223827362060546875" lon="118.74814915470778942108154296875">
        <ele>8.80000019073486328125</ele>
        <time>2024-08-14T12:50:14.000Z</time>
        <extensions>
          <ns3:TrackPointExtension>
            <ns3:hr>163</ns3:hr>
            <ns3:cad>61</ns3:cad>
          </ns3:TrackPointExtension>
        </extensions>
      </trkpt>
      <trkpt lat="32.0020950771868228912353515625" lon="118.74815736897289752960205078125">
        <ele>8.80000019073486328125</ele>
        <time>2024-08-14T12:50:15.000Z</time>
        <extensions>
          <ns3:TrackPointExtension>
            <ns3:hr>163</ns3:hr>
            <ns3:cad>61</ns3:cad>
          </ns3:TrackPointExtension>
        </extensions>
      </trkpt>
      <trkpt lat="32.0021084882318973541259765625" lon="118.74816742725670337677001953125">
        <ele>8.80000019073486328125</ele>
        <time>2024-08-14T12:50:16.000Z</time>
        <extensions>
          <ns3:TrackPointExtension>
            <ns3:hr>162</ns3:hr>
            <ns3:cad>61</ns3:cad>
          </ns3:TrackPointExtension>
        </extensions>
      </trkpt>
      <trkpt lat="32.00212265364825725555419921875" lon="118.748176731169223785400390625">
        <ele>8.80000019073486328125</ele>
        <time>2024-08-14T12:50:17.000Z</time>
        <extensions>
          <ns3:TrackPointExtension>
            <ns3:hr>162</ns3:hr>
            <ns3:cad>61</ns3:cad>
          </ns3:TrackPointExtension>
        </extensions>
      </trkpt>
      <trkpt lat="32.0021379925310611724853515625" lon="118.7481857836246490478515625">
        <ele>8.80000019073486328125</ele>
        <time>2024-08-14T12:50:18.000Z</time>
        <extensions>
          <ns3:TrackPointExtension>
            <ns3:hr>161</ns3:hr>
            <ns3:cad>61</ns3:cad>
          </ns3:TrackPointExtension>
        </extensions>
      </trkpt>
      <trkpt lat="32.0021520741283893585205078125" lon="118.74819307588040828704833984375">
        <ele>8.80000019073486328125</ele>
        <time>2024-08-14T12:50:19.000Z</time>
        <extensions>
          <ns3:TrackPointExtension>
            <ns3:hr>160</ns3:hr>
            <ns3:cad>61</ns3:cad>
          </ns3:TrackPointExtension>
        </extensions>
      </trkpt>
      <trkpt lat="32.002166993916034698486328125" lon="118.74820229597389698028564453125">
        <ele>8.80000019073486328125</ele>
        <time>2024-08-14T12:50:20.000Z</time>
        <extensions>
          <ns3:TrackPointExtension>
            <ns3:hr>159</ns3:hr>
            <ns3:cad>61</ns3:cad>
          </ns3:TrackPointExtension>
        </extensions>
      </trkpt>
      <trkpt lat="32.00218149460852146148681640625" lon="118.74821151606738567352294921875">
        <ele>8.80000019073486328125</ele>
        <time>2024-08-14T12:50:21.000Z</time>
        <extensions>
          <ns3:TrackPointExtension>
            <ns3:hr>158</ns3:hr>
            <ns3:cad>61</ns3:cad>
          </ns3:TrackPointExtension>
        </extensions>
      </trkpt>
      <trkpt lat="32.002195157110691070556640625" lon="118.748219311237335205078125">
        <ele>8.80000019073486328125</ele>
        <time>2024-08-14T12:50:22.000Z</time>
        <extensions>
          <ns3:TrackPointExtension>
            <ns3:hr>158</ns3:hr>
            <ns3:cad>61</ns3:cad>
          </ns3:TrackPointExtension>
        </extensions>
      </trkpt>
      <trkpt lat="32.002208568155765533447265625" lon="118.74822895042598247528076171875">
        <ele>8.6000003814697265625</ele>
        <time>2024-08-14T12:50:23.000Z</time>
        <extensions>
          <ns3:TrackPointExtension>
            <ns3:hr>157</ns3:hr>
            <ns3:cad>61</ns3:cad>
          </ns3:TrackPointExtension>
        </extensions>
      </trkpt>
      <trkpt lat="32.00222156010568141937255859375" lon="118.74823649413883686065673828125">
        <ele>8.6000003814697265625</ele>
        <time>2024-08-14T12:50:24.000Z</time>
        <extensions>
          <ns3:TrackPointExtension>
            <ns3:hr>156</ns3:hr>
            <ns3:cad>62</ns3:cad>
          </ns3:TrackPointExtension>
        </extensions>
      </trkpt>
      <trkpt lat="32.00223430059850215911865234375" lon="118.748244456946849822998046875">
        <ele>8.80000019073486328125</ele>
        <time>2024-08-14T12:50:25.000Z</time>
        <extensions>
          <ns3:TrackPointExtension>
            <ns3:hr>155</ns3:hr>
            <ns3:cad>62</ns3:cad>
          </ns3:TrackPointExtension>
        </extensions>
      </trkpt>
      <trkpt lat="32.00224804691970348358154296875" lon="118.74825376085937023162841796875">
        <ele>8.80000019073486328125</ele>
        <time>2024-08-14T12:50:26.000Z</time>
        <extensions>
          <ns3:TrackPointExtension>
            <ns3:hr>154</ns3:hr>
            <ns3:cad>62</ns3:cad>
          </ns3:TrackPointExtension>
        </extensions>
      </trkpt>
      <trkpt lat="32.00225927866995334625244140625" lon="118.74826465733349323272705078125">
        <ele>8.80000019073486328125</ele>
        <time>2024-08-14T12:50:27.000Z</time>
        <extensions>
          <ns3:TrackPointExtension>
            <ns3:hr>153</ns3:hr>
            <ns3:cad>62</ns3:cad>
          </ns3:TrackPointExtension>
        </extensions>
      </trkpt>
      <trkpt lat="32.00227168388664722442626953125" lon="118.7482754699885845184326171875">
        <ele>8.80000019073486328125</ele>
        <time>2024-08-14T12:50:28.000Z</time>
        <extensions>
          <ns3:TrackPointExtension>
            <ns3:hr>153</ns3:hr>
            <ns3:cad>61</ns3:cad>
          </ns3:TrackPointExtension>
        </extensions>
      </trkpt>
      <trkpt lat="32.0022835023701190948486328125" lon="118.7482858635485172271728515625">
        <ele>8.80000019073486328125</ele>
        <time>2024-08-14T12:50:29.000Z</time>
        <extensions>
          <ns3:TrackPointExtension>
            <ns3:hr>152</ns3:hr>
            <ns3:cad>61</ns3:cad>
          </ns3:TrackPointExtension>
        </extensions>
      </trkpt>
      <trkpt lat="32.002297081053256988525390625" lon="118.74829583801329135894775390625">
        <ele>8.80000019073486328125</ele>
        <time>2024-08-14T12:50:30.000Z</time>
        <extensions>
          <ns3:TrackPointExtension>
            <ns3:hr>151</ns3:hr>
            <ns3:cad>61</ns3:cad>
          </ns3:TrackPointExtension>
        </extensions>
      </trkpt>
      <trkpt lat="32.0023076422512531280517578125" lon="118.74830438755452632904052734375">
        <ele>8.80000019073486328125</ele>
        <time>2024-08-14T12:50:31.000Z</time>
        <extensions>
          <ns3:TrackPointExtension>
            <ns3:hr>150</ns3:hr>
            <ns3:cad>61</ns3:cad>
          </ns3:TrackPointExtension>
        </extensions>
      </trkpt>
      <trkpt lat="32.00232046656310558319091796875" lon="118.7483136914670467376708984375">
        <ele>8.80000019073486328125</ele>
        <time>2024-08-14T12:50:32.000Z</time>
        <extensions>
          <ns3:TrackPointExtension>
            <ns3:hr>149</ns3:hr>
            <ns3:cad>61</ns3:cad>
          </ns3:TrackPointExtension>
        </extensions>
      </trkpt>
      <trkpt lat="32.00233119539916515350341796875" lon="118.7483198940753936767578125">
        <ele>8.80000019073486328125</ele>
        <time>2024-08-14T12:50:33.000Z</time>
        <extensions>
          <ns3:TrackPointExtension>
            <ns3:hr>149</ns3:hr>
            <ns3:cad>61</ns3:cad>
          </ns3:TrackPointExtension>
        </extensions>
      </trkpt>
      <trkpt lat="32.0023448579013347625732421875" lon="118.748328946530818939208984375">
        <ele>8.80000019073486328125</ele>
        <time>2024-08-14T12:50:34.000Z</time>
        <extensions>
          <ns3:TrackPointExtension>
            <ns3:hr>148</ns3:hr>
            <ns3:cad>61</ns3:cad>
          </ns3:TrackPointExtension>
        </extensions>
      </trkpt>
      <trkpt lat="32.0023586042225360870361328125" lon="118.7483374960720539093017578125">
        <ele>8.6000003814697265625</ele>
        <time>2024-08-14T12:50:35.000Z</time>
        <extensions>
          <ns3:TrackPointExtension>
            <ns3:hr>148</ns3:hr>
            <ns3:cad>62</ns3:cad>
          </ns3:TrackPointExtension>
        </extensions>
      </trkpt>
    </trkseg>
  </trk>
</gpx>
