<gpx xmlns:ns3="http://www.garmin.com/xmlschemas/TrackPointExtension/v1" xmlns="http://www.topografix.com/GPX/1/1" xmlns:xsi="http://www.w3.org/2001/XMLSchema-instance" xmlns:ns2="http://www.garmin.com/xmlschemas/GpxExtensions/v3" creator="Garmin Connect" version="1.1" xsi:schemaLocation="http://www.topografix.com/GPX/1/1 http://www.topografix.com/GPX/11.xsd">
  <extensions>
<distance>10935.66</distance>
<average_hr>153.0</average_hr>
<average_speed>2.693000078201294</average_speed>
<start_time>2024-09-11T10:02:56+00:00</start_time>
<end_time>2024-09-11T11:10:36.684000+00:00</end_time>
<moving_time>3805.46</moving_time>
<elapsed_time>4060.684</elapsed_time>
</extensions>
<metadata>
    <link href="connect.garmin.com">
      <text>Garmin Connect</text>
    </link>
    <time>2024-09-11T10:02:56.000Z</time>
  </metadata>
  <trk>
    <name>重复目标速度</name>
    <type>treadmill_running</type>
    <trkseg/>
  </trk>
</gpx>
