<gpx xmlns:ns3="http://www.garmin.com/xmlschemas/TrackPointExtension/v1" xmlns="http://www.topografix.com/GPX/1/1" xmlns:xsi="http://www.w3.org/2001/XMLSchema-instance" xmlns:ns2="http://www.garmin.com/xmlschemas/GpxExtensions/v3" creator="Garmin Connect" version="1.1" xsi:schemaLocation="http://www.topografix.com/GPX/1/1 http://www.topografix.com/GPX/11.xsd">
  <extensions>
<distance>29285.0</distance>
<average_hr>131.0</average_hr>
<average_speed>1.2319999933242798</average_speed>
<start_time>2024-12-08T00:00:51+00:00</start_time>
<end_time>2024-12-08T06:37:09.643000+00:00</end_time>
<moving_time></moving_time>
<elapsed_time>23778.643</elapsed_time>
</extensions>
<metadata>
    <link href="connect.garmin.com">
      <text>Garmin Connect</text>
    </link>
    <time>2024-12-08T00:00:51.000Z</time>
  </metadata>
  <trk>
    <name>镇江市 越野跑</name>
    <type>trail_running</type>
    <trkseg/>
  </trk>
</gpx>
