<gpx xmlns:ns3="http://www.garmin.com/xmlschemas/TrackPointExtension/v1" xmlns="http://www.topografix.com/GPX/1/1" xmlns:xsi="http://www.w3.org/2001/XMLSchema-instance" xmlns:ns2="http://www.garmin.com/xmlschemas/GpxExtensions/v3" creator="Garmin Connect" version="1.1" xsi:schemaLocation="http://www.topografix.com/GPX/1/1 http://www.topografix.com/GPX/11.xsd">
  <extensions>
<distance>2243.97</distance>
<average_hr>128.0</average_hr>
<average_speed>4.210000038146973</average_speed>
<start_time>2025-03-15T22:48:46+00:00</start_time>
<end_time>2025-03-15T22:57:38.982000+00:00</end_time>
<moving_time>483.0</moving_time>
<elapsed_time>532.982</elapsed_time>
</extensions>
<metadata>
    <link href="connect.garmin.com">
      <text>Garmin Connect</text>
    </link>
    <time>2025-03-15T22:48:46.000Z</time>
  </metadata>
  <trk>
    <name>南京市 骑行</name>
    <type>cycling</type>
    <trkseg>
      <trkpt lat="32.003026306629180908203125" lon="118.74197990633547306060791015625">
        <ele>5.80000019073486328125</ele>
        <time>2025-03-15T22:48:46.000Z</time>
        <extensions>
          <ns3:TrackPointExtension>
            <ns3:hr>110</ns3:hr>
          </ns3:TrackPointExtension>
        </extensions>
      </trkpt>
      <trkpt lat="32.00262657366693019866943359375" lon="118.7420279346406459808349609375">
        <ele>5.80000019073486328125</ele>
        <time>2025-03-15T22:48:47.000Z</time>
        <extensions>
          <ns3:TrackPointExtension>
            <ns3:hr>107</ns3:hr>
          </ns3:TrackPointExtension>
        </extensions>
      </trkpt>
      <trkpt lat="32.00245390646159648895263671875" lon="118.74204260297119617462158203125">
        <ele>5.599999904632568359375</ele>
        <time>2025-03-15T22:48:52.000Z</time>
        <extensions>
          <ns3:TrackPointExtension>
            <ns3:hr>105</ns3:hr>
          </ns3:TrackPointExtension>
        </extensions>
      </trkpt>
      <trkpt lat="32.0023109950125217437744140625" lon="118.74202768318355083465576171875">
        <ele>5.400000095367431640625</ele>
        <time>2025-03-15T22:48:56.000Z</time>
        <extensions>
          <ns3:TrackPointExtension>
            <ns3:hr>110</ns3:hr>
          </ns3:TrackPointExtension>
        </extensions>
      </trkpt>
      <trkpt lat="32.0020451210439205169677734375" lon="118.74187597073614597320556640625">
        <ele>5.400000095367431640625</ele>
        <time>2025-03-15T22:49:00.000Z</time>
        <extensions>
          <ns3:TrackPointExtension>
            <ns3:hr>111</ns3:hr>
          </ns3:TrackPointExtension>
        </extensions>
      </trkpt>
      <trkpt lat="32.0019991882145404815673828125" lon="118.7418277747929096221923828125">
        <ele>5.400000095367431640625</ele>
        <time>2025-03-15T22:49:01.000Z</time>
        <extensions>
          <ns3:TrackPointExtension>
            <ns3:hr>110</ns3:hr>
          </ns3:TrackPointExtension>
        </extensions>
      </trkpt>
      <trkpt lat="32.0018865354359149932861328125" lon="118.741799779236316680908203125">
        <ele>5.19999980926513671875</ele>
        <time>2025-03-15T22:49:03.000Z</time>
        <extensions>
          <ns3:TrackPointExtension>
            <ns3:hr>111</ns3:hr>
          </ns3:TrackPointExtension>
        </extensions>
      </trkpt>
      <trkpt lat="32.00171562843024730682373046875" lon="118.74164714477956295013427734375">
        <ele>5.400000095367431640625</ele>
        <time>2025-03-15T22:49:06.000Z</time>
        <extensions>
          <ns3:TrackPointExtension>
            <ns3:hr>110</ns3:hr>
          </ns3:TrackPointExtension>
        </extensions>
      </trkpt>
      <trkpt lat="32.0015777461230754852294921875" lon="118.74150264076888561248779296875">
        <ele>5.400000095367431640625</ele>
        <time>2025-03-15T22:49:11.000Z</time>
        <extensions>
          <ns3:TrackPointExtension>
            <ns3:hr>110</ns3:hr>
          </ns3:TrackPointExtension>
        </extensions>
      </trkpt>
      <trkpt lat="32.00142678804695606231689453125" lon="118.7413614057004451751708984375">
        <ele>5</ele>
        <time>2025-03-15T22:49:15.000Z</time>
        <extensions>
          <ns3:TrackPointExtension>
            <ns3:hr>111</ns3:hr>
          </ns3:TrackPointExtension>
        </extensions>
      </trkpt>
      <trkpt lat="32.00127323158085346221923828125" lon="118.74121296219527721405029296875">
        <ele>5.400000095367431640625</ele>
        <time>2025-03-15T22:49:19.000Z</time>
        <extensions>
          <ns3:TrackPointExtension>
            <ns3:hr>112</ns3:hr>
          </ns3:TrackPointExtension>
        </extensions>
      </trkpt>
      <trkpt lat="32.00098640285432338714599609375" lon="118.74096955172717571258544921875">
        <ele>5.599999904632568359375</ele>
        <time>2025-03-15T22:49:24.000Z</time>
        <extensions>
          <ns3:TrackPointExtension>
            <ns3:hr>111</ns3:hr>
          </ns3:TrackPointExtension>
        </extensions>
      </trkpt>
      <trkpt lat="32.0008577406406402587890625" lon="118.74086293391883373260498046875">
        <ele>5.599999904632568359375</ele>
        <time>2025-03-15T22:49:27.000Z</time>
        <extensions>
          <ns3:TrackPointExtension>
            <ns3:hr>113</ns3:hr>
          </ns3:TrackPointExtension>
        </extensions>
      </trkpt>
      <trkpt lat="32.0008228719234466552734375" lon="118.7408333458006381988525390625">
        <ele>5.599999904632568359375</ele>
        <time>2025-03-15T22:49:28.000Z</time>
        <extensions>
          <ns3:TrackPointExtension>
            <ns3:hr>116</ns3:hr>
          </ns3:TrackPointExtension>
        </extensions>
      </trkpt>
      <trkpt lat="32.00073377229273319244384765625" lon="118.7407740019261837005615234375">
        <ele>5.400000095367431640625</ele>
        <time>2025-03-15T22:49:30.000Z</time>
        <extensions>
          <ns3:TrackPointExtension>
            <ns3:hr>118</ns3:hr>
          </ns3:TrackPointExtension>
        </extensions>
      </trkpt>
      <trkpt lat="32.0005712471902370452880859375" lon="118.740651123225688934326171875">
        <ele>5.400000095367431640625</ele>
        <time>2025-03-15T22:49:35.000Z</time>
        <extensions>
          <ns3:TrackPointExtension>
            <ns3:hr>118</ns3:hr>
          </ns3:TrackPointExtension>
        </extensions>
      </trkpt>
      <trkpt lat="32.00046119280159473419189453125" lon="118.74063092283904552459716796875">
        <ele>5.19999980926513671875</ele>
        <time>2025-03-15T22:49:37.000Z</time>
        <extensions>
          <ns3:TrackPointExtension>
            <ns3:hr>118</ns3:hr>
          </ns3:TrackPointExtension>
        </extensions>
      </trkpt>
      <trkpt lat="32.0003320276737213134765625" lon="118.74054375104606151580810546875">
        <ele>5.19999980926513671875</ele>
        <time>2025-03-15T22:49:40.000Z</time>
        <extensions>
          <ns3:TrackPointExtension>
            <ns3:hr>120</ns3:hr>
          </ns3:TrackPointExtension>
        </extensions>
      </trkpt>
      <trkpt lat="32.00017319060862064361572265625" lon="118.74038097448647022247314453125">
        <ele>5.400000095367431640625</ele>
        <time>2025-03-15T22:49:44.000Z</time>
        <extensions>
          <ns3:TrackPointExtension>
            <ns3:hr>120</ns3:hr>
          </ns3:TrackPointExtension>
        </extensions>
      </trkpt>
      <trkpt lat="32.0001977495849132537841796875" lon="118.74025273136794567108154296875">
        <ele>5.19999980926513671875</ele>
        <time>2025-03-15T22:49:48.000Z</time>
        <extensions>
          <ns3:TrackPointExtension>
            <ns3:hr>121</ns3:hr>
          </ns3:TrackPointExtension>
        </extensions>
      </trkpt>
      <trkpt lat="32.000237815082073211669921875" lon="118.74014896340668201446533203125">
        <ele>4.80000019073486328125</ele>
        <time>2025-03-15T22:49:51.000Z</time>
        <extensions>
          <ns3:TrackPointExtension>
            <ns3:hr>122</ns3:hr>
          </ns3:TrackPointExtension>
        </extensions>
      </trkpt>
      <trkpt lat="32.00030394829809665679931640625" lon="118.7400219775736331939697265625">
        <ele>4.599999904632568359375</ele>
        <time>2025-03-15T22:49:53.000Z</time>
        <extensions>
          <ns3:TrackPointExtension>
            <ns3:hr>122</ns3:hr>
          </ns3:TrackPointExtension>
        </extensions>
      </trkpt>
      <trkpt lat="32.00034367851912975311279296875" lon="118.739875964820384979248046875">
        <ele>4.400000095367431640625</ele>
        <time>2025-03-15T22:49:55.000Z</time>
        <extensions>
          <ns3:TrackPointExtension>
            <ns3:hr>123</ns3:hr>
          </ns3:TrackPointExtension>
        </extensions>
      </trkpt>
      <trkpt lat="32.00037905015051364898681640625" lon="118.73973338864743709564208984375">
        <ele>4.400000095367431640625</ele>
        <time>2025-03-15T22:49:57.000Z</time>
        <extensions>
          <ns3:TrackPointExtension>
            <ns3:hr>123</ns3:hr>
          </ns3:TrackPointExtension>
        </extensions>
      </trkpt>
      <trkpt lat="32.000440992414951324462890625" lon="118.73957614414393901824951171875">
        <ele>4.400000095367431640625</ele>
        <time>2025-03-15T22:49:59.000Z</time>
        <extensions>
          <ns3:TrackPointExtension>
            <ns3:hr>126</ns3:hr>
          </ns3:TrackPointExtension>
        </extensions>
      </trkpt>
      <trkpt lat="32.00052137486636638641357421875" lon="118.73944605700671672821044921875">
        <ele>4.400000095367431640625</ele>
        <time>2025-03-15T22:50:01.000Z</time>
        <extensions>
          <ns3:TrackPointExtension>
            <ns3:hr>128</ns3:hr>
          </ns3:TrackPointExtension>
        </extensions>
      </trkpt>
      <trkpt lat="32.00068549253046512603759765625" lon="118.7391770817339420318603515625">
        <ele>5</ele>
        <time>2025-03-15T22:50:05.000Z</time>
        <extensions>
          <ns3:TrackPointExtension>
            <ns3:hr>129</ns3:hr>
          </ns3:TrackPointExtension>
        </extensions>
      </trkpt>
      <trkpt lat="32.0009098760783672332763671875" lon="118.73878573067486286163330078125">
        <ele>5.599999904632568359375</ele>
        <time>2025-03-15T22:50:11.000Z</time>
        <extensions>
          <ns3:TrackPointExtension>
            <ns3:hr>132</ns3:hr>
          </ns3:TrackPointExtension>
        </extensions>
      </trkpt>
      <trkpt lat="32.0009397156536579132080078125" lon="118.738746754825115203857421875">
        <ele>5.400000095367431640625</ele>
        <time>2025-03-15T22:50:12.000Z</time>
        <extensions>
          <ns3:TrackPointExtension>
            <ns3:hr>136</ns3:hr>
          </ns3:TrackPointExtension>
        </extensions>
      </trkpt>
      <trkpt lat="32.0009695552289485931396484375" lon="118.73869478702545166015625">
        <ele>5.400000095367431640625</ele>
        <time>2025-03-15T22:50:13.000Z</time>
        <extensions>
          <ns3:TrackPointExtension>
            <ns3:hr>139</ns3:hr>
          </ns3:TrackPointExtension>
        </extensions>
      </trkpt>
      <trkpt lat="32.00101506896317005157470703125" lon="118.73861541040241718292236328125">
        <ele>5.599999904632568359375</ele>
        <time>2025-03-15T22:50:14.000Z</time>
        <extensions>
          <ns3:TrackPointExtension>
            <ns3:hr>140</ns3:hr>
          </ns3:TrackPointExtension>
        </extensions>
      </trkpt>
      <trkpt lat="32.0010946132242679595947265625" lon="118.73847979120910167694091796875">
        <ele>6</ele>
        <time>2025-03-15T22:50:16.000Z</time>
        <extensions>
          <ns3:TrackPointExtension>
            <ns3:hr>141</ns3:hr>
          </ns3:TrackPointExtension>
        </extensions>
      </trkpt>
      <trkpt lat="32.00122528709471225738525390625" lon="118.73826236464083194732666015625">
        <ele>6.80000019073486328125</ele>
        <time>2025-03-15T22:50:20.000Z</time>
        <extensions>
          <ns3:TrackPointExtension>
            <ns3:hr>143</ns3:hr>
          </ns3:TrackPointExtension>
        </extensions>
      </trkpt>
      <trkpt lat="32.0012974552810192108154296875" lon="118.738156668841838836669921875">
        <ele>7.19999980926513671875</ele>
        <time>2025-03-15T22:50:22.000Z</time>
        <extensions>
          <ns3:TrackPointExtension>
            <ns3:hr>144</ns3:hr>
          </ns3:TrackPointExtension>
        </extensions>
      </trkpt>
      <trkpt lat="32.0014075934886932373046875" lon="118.7379851751029491424560546875">
        <ele>7.400000095367431640625</ele>
        <time>2025-03-15T22:50:25.000Z</time>
        <extensions>
          <ns3:TrackPointExtension>
            <ns3:hr>144</ns3:hr>
          </ns3:TrackPointExtension>
        </extensions>
      </trkpt>
      <trkpt lat="32.00142678804695606231689453125" lon="118.73791895806789398193359375">
        <ele>7.400000095367431640625</ele>
        <time>2025-03-15T22:50:26.000Z</time>
        <extensions>
          <ns3:TrackPointExtension>
            <ns3:hr>144</ns3:hr>
          </ns3:TrackPointExtension>
        </extensions>
      </trkpt>
      <trkpt lat="32.00145813636481761932373046875" lon="118.73777671717107295989990234375">
        <ele>6.599999904632568359375</ele>
        <time>2025-03-15T22:50:29.000Z</time>
        <extensions>
          <ns3:TrackPointExtension>
            <ns3:hr>144</ns3:hr>
          </ns3:TrackPointExtension>
        </extensions>
      </trkpt>
      <trkpt lat="32.00146190822124481201171875" lon="118.737723827362060546875">
        <ele>5.19999980926513671875</ele>
        <time>2025-03-15T22:50:30.000Z</time>
        <extensions>
          <ns3:TrackPointExtension>
            <ns3:hr>144</ns3:hr>
          </ns3:TrackPointExtension>
        </extensions>
      </trkpt>
      <trkpt lat="32.001462243497371673583984375" lon="118.7375687621533870697021484375">
        <ele>5.400000095367431640625</ele>
        <time>2025-03-15T22:50:34.000Z</time>
        <extensions>
          <ns3:TrackPointExtension>
            <ns3:hr>143</ns3:hr>
          </ns3:TrackPointExtension>
        </extensions>
      </trkpt>
      <trkpt lat="32.00139082968235015869140625" lon="118.73746423982083797454833984375">
        <ele>5.599999904632568359375</ele>
        <time>2025-03-15T22:50:37.000Z</time>
        <extensions>
          <ns3:TrackPointExtension>
            <ns3:hr>141</ns3:hr>
          </ns3:TrackPointExtension>
        </extensions>
      </trkpt>
      <trkpt lat="32.0013554580509662628173828125" lon="118.73738327063620090484619140625">
        <ele>5.599999904632568359375</ele>
        <time>2025-03-15T22:50:39.000Z</time>
        <extensions>
          <ns3:TrackPointExtension>
            <ns3:hr>138</ns3:hr>
          </ns3:TrackPointExtension>
        </extensions>
      </trkpt>
      <trkpt lat="32.00134078972041606903076171875" lon="118.73731973581016063690185546875">
        <ele>5.400000095367431640625</ele>
        <time>2025-03-15T22:50:41.000Z</time>
        <extensions>
          <ns3:TrackPointExtension>
            <ns3:hr>137</ns3:hr>
          </ns3:TrackPointExtension>
        </extensions>
      </trkpt>
      <trkpt lat="32.00122294016182422637939453125" lon="118.7371637485921382904052734375">
        <ele>5.599999904632568359375</ele>
        <time>2025-03-15T22:50:46.000Z</time>
        <extensions>
          <ns3:TrackPointExtension>
            <ns3:hr>138</ns3:hr>
          </ns3:TrackPointExtension>
        </extensions>
      </trkpt>
      <trkpt lat="32.0011281408369541168212890625" lon="118.73707783408463001251220703125">
        <ele>5.599999904632568359375</ele>
        <time>2025-03-15T22:50:49.000Z</time>
        <extensions>
          <ns3:TrackPointExtension>
            <ns3:hr>141</ns3:hr>
          </ns3:TrackPointExtension>
        </extensions>
      </trkpt>
      <trkpt lat="32.00106854550540447235107421875" lon="118.73702703975141048431396484375">
        <ele>5.599999904632568359375</ele>
        <time>2025-03-15T22:50:51.000Z</time>
        <extensions>
          <ns3:TrackPointExtension>
            <ns3:hr>143</ns3:hr>
          </ns3:TrackPointExtension>
        </extensions>
      </trkpt>
      <trkpt lat="32.00093108229339122772216796875" lon="118.7369196675717830657958984375">
        <ele>5.599999904632568359375</ele>
        <time>2025-03-15T22:50:55.000Z</time>
        <extensions>
          <ns3:TrackPointExtension>
            <ns3:hr>144</ns3:hr>
          </ns3:TrackPointExtension>
        </extensions>
      </trkpt>
      <trkpt lat="32.0008783601224422454833984375" lon="118.7368894927203655242919921875">
        <ele>5.599999904632568359375</ele>
        <time>2025-03-15T22:50:56.000Z</time>
        <extensions>
          <ns3:TrackPointExtension>
            <ns3:hr>143</ns3:hr>
          </ns3:TrackPointExtension>
        </extensions>
      </trkpt>
      <trkpt lat="32.00078272260725498199462890625" lon="118.73676083050668239593505859375">
        <ele>5.599999904632568359375</ele>
        <time>2025-03-15T22:50:59.000Z</time>
        <extensions>
          <ns3:TrackPointExtension>
            <ns3:hr>144</ns3:hr>
          </ns3:TrackPointExtension>
        </extensions>
      </trkpt>
      <trkpt lat="32.00061055831611156463623046875" lon="118.736614398658275604248046875">
        <ele>5</ele>
        <time>2025-03-15T22:51:03.000Z</time>
        <extensions>
          <ns3:TrackPointExtension>
            <ns3:hr>142</ns3:hr>
          </ns3:TrackPointExtension>
        </extensions>
      </trkpt>
      <trkpt lat="32.00049639679491519927978515625" lon="118.73652823269367218017578125">
        <ele>5.19999980926513671875</ele>
        <time>2025-03-15T22:51:06.000Z</time>
        <extensions>
          <ns3:TrackPointExtension>
            <ns3:hr>142</ns3:hr>
          </ns3:TrackPointExtension>
        </extensions>
      </trkpt>
      <trkpt lat="32.0004482008516788482666015625" lon="118.736494369804859161376953125">
        <ele>5.19999980926513671875</ele>
        <time>2025-03-15T22:51:07.000Z</time>
        <extensions>
          <ns3:TrackPointExtension>
            <ns3:hr>142</ns3:hr>
          </ns3:TrackPointExtension>
        </extensions>
      </trkpt>
      <trkpt lat="32.00039112009108066558837890625" lon="118.73646243475377559661865234375">
        <ele>5.19999980926513671875</ele>
        <time>2025-03-15T22:51:08.000Z</time>
        <extensions>
          <ns3:TrackPointExtension>
            <ns3:hr>143</ns3:hr>
          </ns3:TrackPointExtension>
        </extensions>
      </trkpt>
      <trkpt lat="32.00027645565569400787353515625" lon="118.73634450137615203857421875">
        <ele>5.400000095367431640625</ele>
        <time>2025-03-15T22:51:11.000Z</time>
        <extensions>
          <ns3:TrackPointExtension>
            <ns3:hr>145</ns3:hr>
          </ns3:TrackPointExtension>
        </extensions>
      </trkpt>
      <trkpt lat="32.00017972849309444427490234375" lon="118.736273087561130523681640625">
        <ele>5.599999904632568359375</ele>
        <time>2025-03-15T22:51:13.000Z</time>
        <extensions>
          <ns3:TrackPointExtension>
            <ns3:hr>145</ns3:hr>
          </ns3:TrackPointExtension>
        </extensions>
      </trkpt>
      <trkpt lat="32.000021897256374359130859375" lon="118.7361790426075458526611328125">
        <ele>5.80000019073486328125</ele>
        <time>2025-03-15T22:51:16.000Z</time>
        <extensions>
          <ns3:TrackPointExtension>
            <ns3:hr>146</ns3:hr>
          </ns3:TrackPointExtension>
        </extensions>
      </trkpt>
      <trkpt lat="31.9998480565845966339111328125" lon="118.73605742119252681732177734375">
        <ele>6</ele>
        <time>2025-03-15T22:51:20.000Z</time>
        <extensions>
          <ns3:TrackPointExtension>
            <ns3:hr>146</ns3:hr>
          </ns3:TrackPointExtension>
        </extensions>
      </trkpt>
      <trkpt lat="31.99976482428610324859619140625" lon="118.7360114045441150665283203125">
        <ele>6</ele>
        <time>2025-03-15T22:51:22.000Z</time>
        <extensions>
          <ns3:TrackPointExtension>
            <ns3:hr>147</ns3:hr>
          </ns3:TrackPointExtension>
        </extensions>
      </trkpt>
      <trkpt lat="31.99969676323235034942626953125" lon="118.73589280061423778533935546875">
        <ele>5.80000019073486328125</ele>
        <time>2025-03-15T22:51:25.000Z</time>
        <extensions>
          <ns3:TrackPointExtension>
            <ns3:hr>146</ns3:hr>
          </ns3:TrackPointExtension>
        </extensions>
      </trkpt>
      <trkpt lat="31.9997115992009639739990234375" lon="118.73583245091140270233154296875">
        <ele>5.400000095367431640625</ele>
        <time>2025-03-15T22:51:26.000Z</time>
        <extensions>
          <ns3:TrackPointExtension>
            <ns3:hr>146</ns3:hr>
          </ns3:TrackPointExtension>
        </extensions>
      </trkpt>
      <trkpt lat="31.99975191615521907806396484375" lon="118.73574192635715007781982421875">
        <ele>5</ele>
        <time>2025-03-15T22:51:29.000Z</time>
        <extensions>
          <ns3:TrackPointExtension>
            <ns3:hr>145</ns3:hr>
          </ns3:TrackPointExtension>
        </extensions>
      </trkpt>
      <trkpt lat="31.99975199997425079345703125" lon="118.7357188761234283447265625">
        <ele>5</ele>
        <time>2025-03-15T22:51:30.000Z</time>
        <extensions>
          <ns3:TrackPointExtension>
            <ns3:hr>145</ns3:hr>
          </ns3:TrackPointExtension>
        </extensions>
      </trkpt>
      <trkpt lat="31.99979499913752079010009765625" lon="118.735575713217258453369140625">
        <ele>5.400000095367431640625</ele>
        <time>2025-03-15T22:51:33.000Z</time>
        <extensions>
          <ns3:TrackPointExtension>
            <ns3:hr>145</ns3:hr>
          </ns3:TrackPointExtension>
        </extensions>
      </trkpt>
      <trkpt lat="31.9998574443161487579345703125" lon="118.73540413565933704376220703125">
        <ele>5.80000019073486328125</ele>
        <time>2025-03-15T22:51:37.000Z</time>
        <extensions>
          <ns3:TrackPointExtension>
            <ns3:hr>146</ns3:hr>
          </ns3:TrackPointExtension>
        </extensions>
      </trkpt>
      <trkpt lat="31.9998933188617229461669921875" lon="118.73531319200992584228515625">
        <ele>6.19999980926513671875</ele>
        <time>2025-03-15T22:51:39.000Z</time>
        <extensions>
          <ns3:TrackPointExtension>
            <ns3:hr>145</ns3:hr>
          </ns3:TrackPointExtension>
        </extensions>
      </trkpt>
      <trkpt lat="31.99997856281697750091552734375" lon="118.73511864803731441497802734375">
        <ele>6.19999980926513671875</ele>
        <time>2025-03-15T22:51:43.000Z</time>
        <extensions>
          <ns3:TrackPointExtension>
            <ns3:hr>144</ns3:hr>
          </ns3:TrackPointExtension>
        </extensions>
      </trkpt>
      <trkpt lat="32.0000344701111316680908203125" lon="118.7348714657127857208251953125">
        <ele>6.400000095367431640625</ele>
        <time>2025-03-15T22:51:48.000Z</time>
        <extensions>
          <ns3:TrackPointExtension>
            <ns3:hr>145</ns3:hr>
          </ns3:TrackPointExtension>
        </extensions>
      </trkpt>
      <trkpt lat="32.000109069049358367919921875" lon="118.73465077020227909088134765625">
        <ele>5.19999980926513671875</ele>
        <time>2025-03-15T22:51:53.000Z</time>
        <extensions>
          <ns3:TrackPointExtension>
            <ns3:hr>143</ns3:hr>
          </ns3:TrackPointExtension>
        </extensions>
      </trkpt>
      <trkpt lat="32.00018408708274364471435546875" lon="118.7344439886510372161865234375">
        <ele>5.19999980926513671875</ele>
        <time>2025-03-15T22:51:58.000Z</time>
        <extensions>
          <ns3:TrackPointExtension>
            <ns3:hr>141</ns3:hr>
          </ns3:TrackPointExtension>
        </extensions>
      </trkpt>
      <trkpt lat="32.00030847452580928802490234375" lon="118.7342780269682407379150390625">
        <ele>5.80000019073486328125</ele>
        <time>2025-03-15T22:52:02.000Z</time>
        <extensions>
          <ns3:TrackPointExtension>
            <ns3:hr>140</ns3:hr>
          </ns3:TrackPointExtension>
        </extensions>
      </trkpt>
      <trkpt lat="32.00034485198557376861572265625" lon="118.7342146597802639007568359375">
        <ele>5.80000019073486328125</ele>
        <time>2025-03-15T22:52:03.000Z</time>
        <extensions>
          <ns3:TrackPointExtension>
            <ns3:hr>140</ns3:hr>
          </ns3:TrackPointExtension>
        </extensions>
      </trkpt>
      <trkpt lat="32.0005172677338123321533203125" lon="118.73396529816091060638427734375">
        <ele>6.19999980926513671875</ele>
        <time>2025-03-15T22:52:09.000Z</time>
        <extensions>
          <ns3:TrackPointExtension>
            <ns3:hr>140</ns3:hr>
          </ns3:TrackPointExtension>
        </extensions>
      </trkpt>
      <trkpt lat="32.00058281421661376953125" lon="118.733902685344219207763671875">
        <ele>6.19999980926513671875</ele>
        <time>2025-03-15T22:52:12.000Z</time>
        <extensions>
          <ns3:TrackPointExtension>
            <ns3:hr>141</ns3:hr>
          </ns3:TrackPointExtension>
        </extensions>
      </trkpt>
      <trkpt lat="32.00064643286168575286865234375" lon="118.73383319936692714691162109375">
        <ele>6.400000095367431640625</ele>
        <time>2025-03-15T22:52:15.000Z</time>
        <extensions>
          <ns3:TrackPointExtension>
            <ns3:hr>141</ns3:hr>
          </ns3:TrackPointExtension>
        </extensions>
      </trkpt>
      <trkpt lat="32.00074709951877593994140625" lon="118.73371283523738384246826171875">
        <ele>6.19999980926513671875</ele>
        <time>2025-03-15T22:52:20.000Z</time>
        <extensions>
          <ns3:TrackPointExtension>
            <ns3:hr>139</ns3:hr>
          </ns3:TrackPointExtension>
        </extensions>
      </trkpt>
      <trkpt lat="32.0007915236055850982666015625" lon="118.73364494182169437408447265625">
        <ele>6</ele>
        <time>2025-03-15T22:52:22.000Z</time>
        <extensions>
          <ns3:TrackPointExtension>
            <ns3:hr>136</ns3:hr>
          </ns3:TrackPointExtension>
        </extensions>
      </trkpt>
      <trkpt lat="32.00082379393279552459716796875" lon="118.7335596978664398193359375">
        <ele>6.19999980926513671875</ele>
        <time>2025-03-15T22:52:24.000Z</time>
        <extensions>
          <ns3:TrackPointExtension>
            <ns3:hr>133</ns3:hr>
          </ns3:TrackPointExtension>
        </extensions>
      </trkpt>
      <trkpt lat="32.000845335423946380615234375" lon="118.73351954855024814605712890625">
        <ele>6.19999980926513671875</ele>
        <time>2025-03-15T22:52:25.000Z</time>
        <extensions>
          <ns3:TrackPointExtension>
            <ns3:hr>132</ns3:hr>
          </ns3:TrackPointExtension>
        </extensions>
      </trkpt>
      <trkpt lat="32.00100685469806194305419921875" lon="118.73323171399533748626708984375">
        <ele>7</ele>
        <time>2025-03-15T22:52:31.000Z</time>
        <extensions>
          <ns3:TrackPointExtension>
            <ns3:hr>134</ns3:hr>
          </ns3:TrackPointExtension>
        </extensions>
      </trkpt>
      <trkpt lat="32.001098133623600006103515625" lon="118.7330753915011882781982421875">
        <ele>6.19999980926513671875</ele>
        <time>2025-03-15T22:52:34.000Z</time>
        <extensions>
          <ns3:TrackPointExtension>
            <ns3:hr>137</ns3:hr>
          </ns3:TrackPointExtension>
        </extensions>
      </trkpt>
      <trkpt lat="32.0011335052549839019775390625" lon="118.732982017099857330322265625">
        <ele>6.19999980926513671875</ele>
        <time>2025-03-15T22:52:36.000Z</time>
        <extensions>
          <ns3:TrackPointExtension>
            <ns3:hr>138</ns3:hr>
          </ns3:TrackPointExtension>
        </extensions>
      </trkpt>
      <trkpt lat="32.00123836286365985870361328125" lon="118.732755370438098907470703125">
        <ele>6.599999904632568359375</ele>
        <time>2025-03-15T22:52:42.000Z</time>
        <extensions>
          <ns3:TrackPointExtension>
            <ns3:hr>137</ns3:hr>
          </ns3:TrackPointExtension>
        </extensions>
      </trkpt>
      <trkpt lat="32.00141924433410167694091796875" lon="118.73255051672458648681640625">
        <ele>6.599999904632568359375</ele>
        <time>2025-03-15T22:52:47.000Z</time>
        <extensions>
          <ns3:TrackPointExtension>
            <ns3:hr>137</ns3:hr>
          </ns3:TrackPointExtension>
        </extensions>
      </trkpt>
      <trkpt lat="32.00148403644561767578125" lon="118.732467703521251678466796875">
        <ele>6.599999904632568359375</ele>
        <time>2025-03-15T22:52:49.000Z</time>
        <extensions>
          <ns3:TrackPointExtension>
            <ns3:hr>137</ns3:hr>
          </ns3:TrackPointExtension>
        </extensions>
      </trkpt>
      <trkpt lat="32.00157514773309230804443359375" lon="118.73232713900506496429443359375">
        <ele>6.599999904632568359375</ele>
        <time>2025-03-15T22:52:52.000Z</time>
        <extensions>
          <ns3:TrackPointExtension>
            <ns3:hr>138</ns3:hr>
          </ns3:TrackPointExtension>
        </extensions>
      </trkpt>
      <trkpt lat="32.00170934200286865234375" lon="118.7321054376661777496337890625">
        <ele>7.19999980926513671875</ele>
        <time>2025-03-15T22:52:57.000Z</time>
        <extensions>
          <ns3:TrackPointExtension>
            <ns3:hr>139</ns3:hr>
          </ns3:TrackPointExtension>
        </extensions>
      </trkpt>
      <trkpt lat="32.0017946697771549224853515625" lon="118.731944002211093902587890625">
        <ele>7.19999980926513671875</ele>
        <time>2025-03-15T22:53:02.000Z</time>
        <extensions>
          <ns3:TrackPointExtension>
            <ns3:hr>138</ns3:hr>
          </ns3:TrackPointExtension>
        </extensions>
      </trkpt>
      <trkpt lat="32.00181889347732067108154296875" lon="118.73190552927553653717041015625">
        <ele>7.19999980926513671875</ele>
        <time>2025-03-15T22:53:07.000Z</time>
        <extensions>
          <ns3:TrackPointExtension>
            <ns3:hr>137</ns3:hr>
          </ns3:TrackPointExtension>
        </extensions>
      </trkpt>
      <trkpt lat="32.00184437446296215057373046875" lon="118.7318940460681915283203125">
        <ele>7</ele>
        <time>2025-03-15T22:53:12.000Z</time>
        <extensions>
          <ns3:TrackPointExtension>
            <ns3:hr>135</ns3:hr>
          </ns3:TrackPointExtension>
        </extensions>
      </trkpt>
      <trkpt lat="32.00184253044426441192626953125" lon="118.73186076991260051727294921875">
        <ele>7.19999980926513671875</ele>
        <time>2025-03-15T22:53:18.000Z</time>
        <extensions>
          <ns3:TrackPointExtension>
            <ns3:hr>135</ns3:hr>
          </ns3:TrackPointExtension>
        </extensions>
      </trkpt>
      <trkpt lat="32.00185208581387996673583984375" lon="118.73183763585984706878662109375">
        <ele>7</ele>
        <time>2025-03-15T22:53:23.000Z</time>
        <extensions>
          <ns3:TrackPointExtension>
            <ns3:hr>133</ns3:hr>
          </ns3:TrackPointExtension>
        </extensions>
      </trkpt>
      <trkpt lat="32.00185661204159259796142578125" lon="118.73183964751660823822021484375">
        <ele>7</ele>
        <time>2025-03-15T22:53:29.000Z</time>
        <extensions>
          <ns3:TrackPointExtension>
            <ns3:hr>130</ns3:hr>
          </ns3:TrackPointExtension>
        </extensions>
      </trkpt>
      <trkpt lat="32.00185962952673435211181640625" lon="118.731841407716274261474609375">
        <ele>7</ele>
        <time>2025-03-15T22:53:32.000Z</time>
        <extensions>
          <ns3:TrackPointExtension>
            <ns3:hr>125</ns3:hr>
          </ns3:TrackPointExtension>
        </extensions>
      </trkpt>
      <trkpt lat="32.00186063535511493682861328125" lon="118.73184199444949626922607421875">
        <ele>7</ele>
        <time>2025-03-15T22:53:33.000Z</time>
        <extensions>
          <ns3:TrackPointExtension>
            <ns3:hr>115</ns3:hr>
          </ns3:TrackPointExtension>
        </extensions>
      </trkpt>
      <trkpt lat="32.00186147354543209075927734375" lon="118.73184232972562313079833984375">
        <ele>7</ele>
        <time>2025-03-15T22:53:34.000Z</time>
        <extensions>
          <ns3:TrackPointExtension>
            <ns3:hr>107</ns3:hr>
          </ns3:TrackPointExtension>
        </extensions>
      </trkpt>
      <trkpt lat="32.0018620602786540985107421875" lon="118.7318425811827182769775390625">
        <ele>7</ele>
        <time>2025-03-15T22:53:35.000Z</time>
        <extensions>
          <ns3:TrackPointExtension>
            <ns3:hr>103</ns3:hr>
          </ns3:TrackPointExtension>
        </extensions>
      </trkpt>
      <trkpt lat="32.00188376940786838531494140625" lon="118.73181953094899654388427734375">
        <ele>7</ele>
        <time>2025-03-15T22:53:36.000Z</time>
        <extensions>
          <ns3:TrackPointExtension>
            <ns3:hr>104</ns3:hr>
          </ns3:TrackPointExtension>
        </extensions>
      </trkpt>
      <trkpt lat="32.0019089989364147186279296875" lon="118.731797151267528533935546875">
        <ele>7.19999980926513671875</ele>
        <time>2025-03-15T22:53:38.000Z</time>
        <extensions>
          <ns3:TrackPointExtension>
            <ns3:hr>105</ns3:hr>
          </ns3:TrackPointExtension>
        </extensions>
      </trkpt>
      <trkpt lat="32.00199709273874759674072265625" lon="118.73168676160275936126708984375">
        <ele>6.80000019073486328125</ele>
        <time>2025-03-15T22:53:43.000Z</time>
        <extensions>
          <ns3:TrackPointExtension>
            <ns3:hr>106</ns3:hr>
          </ns3:TrackPointExtension>
        </extensions>
      </trkpt>
      <trkpt lat="32.00207822956144809722900390625" lon="118.7315535731613636016845703125">
        <ele>6.80000019073486328125</ele>
        <time>2025-03-15T22:53:47.000Z</time>
        <extensions>
          <ns3:TrackPointExtension>
            <ns3:hr>109</ns3:hr>
          </ns3:TrackPointExtension>
        </extensions>
      </trkpt>
      <trkpt lat="32.0021383278071880340576171875" lon="118.73146715573966503143310546875">
        <ele>6.80000019073486328125</ele>
        <time>2025-03-15T22:53:49.000Z</time>
        <extensions>
          <ns3:TrackPointExtension>
            <ns3:hr>114</ns3:hr>
          </ns3:TrackPointExtension>
        </extensions>
      </trkpt>
      <trkpt lat="32.0021701790392398834228515625" lon="118.73141770251095294952392578125">
        <ele>6.80000019073486328125</ele>
        <time>2025-03-15T22:53:50.000Z</time>
        <extensions>
          <ns3:TrackPointExtension>
            <ns3:hr>114</ns3:hr>
          </ns3:TrackPointExtension>
        </extensions>
      </trkpt>
      <trkpt lat="32.0023358054459095001220703125" lon="118.731136322021484375">
        <ele>6.80000019073486328125</ele>
        <time>2025-03-15T22:53:56.000Z</time>
        <extensions>
          <ns3:TrackPointExtension>
            <ns3:hr>114</ns3:hr>
          </ns3:TrackPointExtension>
        </extensions>
      </trkpt>
      <trkpt lat="32.00236455537378787994384765625" lon="118.73108804225921630859375">
        <ele>6.80000019073486328125</ele>
        <time>2025-03-15T22:53:57.000Z</time>
        <extensions>
          <ns3:TrackPointExtension>
            <ns3:hr>115</ns3:hr>
          </ns3:TrackPointExtension>
        </extensions>
      </trkpt>
      <trkpt lat="32.00250285677611827850341796875" lon="118.73086751438677310943603515625">
        <ele>6.80000019073486328125</ele>
        <time>2025-03-15T22:54:02.000Z</time>
        <extensions>
          <ns3:TrackPointExtension>
            <ns3:hr>113</ns3:hr>
          </ns3:TrackPointExtension>
        </extensions>
      </trkpt>
      <trkpt lat="32.002552561461925506591796875" lon="118.73078822158277034759521484375">
        <ele>6.599999904632568359375</ele>
        <time>2025-03-15T22:54:04.000Z</time>
        <extensions>
          <ns3:TrackPointExtension>
            <ns3:hr>116</ns3:hr>
          </ns3:TrackPointExtension>
        </extensions>
      </trkpt>
      <trkpt lat="32.0026285015046596527099609375" lon="118.7306684441864490509033203125">
        <ele>6.19999980926513671875</ele>
        <time>2025-03-15T22:54:07.000Z</time>
        <extensions>
          <ns3:TrackPointExtension>
            <ns3:hr>119</ns3:hr>
          </ns3:TrackPointExtension>
        </extensions>
      </trkpt>
      <trkpt lat="32.002681978046894073486328125" lon="118.7305819429457187652587890625">
        <ele>6.400000095367431640625</ele>
        <time>2025-03-15T22:54:09.000Z</time>
        <extensions>
          <ns3:TrackPointExtension>
            <ns3:hr>119</ns3:hr>
          </ns3:TrackPointExtension>
        </extensions>
      </trkpt>
      <trkpt lat="32.00271357782185077667236328125" lon="118.7305393628776073455810546875">
        <ele>6.599999904632568359375</ele>
        <time>2025-03-15T22:54:10.000Z</time>
        <extensions>
          <ns3:TrackPointExtension>
            <ns3:hr>119</ns3:hr>
          </ns3:TrackPointExtension>
        </extensions>
      </trkpt>
      <trkpt lat="32.0028762705624103546142578125" lon="118.73028363101184368133544921875">
        <ele>7.19999980926513671875</ele>
        <time>2025-03-15T22:54:16.000Z</time>
        <extensions>
          <ns3:TrackPointExtension>
            <ns3:hr>121</ns3:hr>
          </ns3:TrackPointExtension>
        </extensions>
      </trkpt>
      <trkpt lat="32.00290518812835216522216796875" lon="118.73024381697177886962890625">
        <ele>7.599999904632568359375</ele>
        <time>2025-03-15T22:54:17.000Z</time>
        <extensions>
          <ns3:TrackPointExtension>
            <ns3:hr>121</ns3:hr>
          </ns3:TrackPointExtension>
        </extensions>
      </trkpt>
      <trkpt lat="32.003090344369411468505859375" lon="118.72995841316878795623779296875">
        <ele>7.80000019073486328125</ele>
        <time>2025-03-15T22:54:24.000Z</time>
        <extensions>
          <ns3:TrackPointExtension>
            <ns3:hr>121</ns3:hr>
          </ns3:TrackPointExtension>
        </extensions>
      </trkpt>
      <trkpt lat="32.0032511092722415924072265625" lon="118.72969538904726505279541015625">
        <ele>6.80000019073486328125</ele>
        <time>2025-03-15T22:54:30.000Z</time>
        <extensions>
          <ns3:TrackPointExtension>
            <ns3:hr>123</ns3:hr>
          </ns3:TrackPointExtension>
        </extensions>
      </trkpt>
      <trkpt lat="32.00335697270929813385009765625" lon="118.72953177429735660552978515625">
        <ele>7</ele>
        <time>2025-03-15T22:54:34.000Z</time>
        <extensions>
          <ns3:TrackPointExtension>
            <ns3:hr>125</ns3:hr>
          </ns3:TrackPointExtension>
        </extensions>
      </trkpt>
      <trkpt lat="32.00344297103583812713623046875" lon="118.72940269298851490020751953125">
        <ele>7.19999980926513671875</ele>
        <time>2025-03-15T22:54:37.000Z</time>
        <extensions>
          <ns3:TrackPointExtension>
            <ns3:hr>125</ns3:hr>
          </ns3:TrackPointExtension>
        </extensions>
      </trkpt>
      <trkpt lat="32.00359770096838474273681640625" lon="118.72917721979320049285888671875">
        <ele>7.599999904632568359375</ele>
        <time>2025-03-15T22:54:43.000Z</time>
        <extensions>
          <ns3:TrackPointExtension>
            <ns3:hr>125</ns3:hr>
          </ns3:TrackPointExtension>
        </extensions>
      </trkpt>
      <trkpt lat="32.0036906562745571136474609375" lon="118.72902114875614643096923828125">
        <ele>7.19999980926513671875</ele>
        <time>2025-03-15T22:54:47.000Z</time>
        <extensions>
          <ns3:TrackPointExtension>
            <ns3:hr>128</ns3:hr>
          </ns3:TrackPointExtension>
        </extensions>
      </trkpt>
      <trkpt lat="32.0037630759179592132568359375" lon="118.728912435472011566162109375">
        <ele>7</ele>
        <time>2025-03-15T22:54:50.000Z</time>
        <extensions>
          <ns3:TrackPointExtension>
            <ns3:hr>129</ns3:hr>
          </ns3:TrackPointExtension>
        </extensions>
      </trkpt>
      <trkpt lat="32.00394404120743274688720703125" lon="118.7286150455474853515625">
        <ele>7.19999980926513671875</ele>
        <time>2025-03-15T22:54:57.000Z</time>
        <extensions>
          <ns3:TrackPointExtension>
            <ns3:hr>128</ns3:hr>
          </ns3:TrackPointExtension>
        </extensions>
      </trkpt>
      <trkpt lat="32.00408619828522205352783203125" lon="118.7283661030232906341552734375">
        <ele>7.400000095367431640625</ele>
        <time>2025-03-15T22:55:03.000Z</time>
        <extensions>
          <ns3:TrackPointExtension>
            <ns3:hr>126</ns3:hr>
          </ns3:TrackPointExtension>
        </extensions>
      </trkpt>
      <trkpt lat="32.00423070229589939117431640625" lon="118.728150017559528350830078125">
        <ele>7.400000095367431640625</ele>
        <time>2025-03-15T22:55:09.000Z</time>
        <extensions>
          <ns3:TrackPointExtension>
            <ns3:hr>126</ns3:hr>
          </ns3:TrackPointExtension>
        </extensions>
      </trkpt>
      <trkpt lat="32.00433497317135334014892578125" lon="118.72799218632280826568603515625">
        <ele>7</ele>
        <time>2025-03-15T22:55:13.000Z</time>
        <extensions>
          <ns3:TrackPointExtension>
            <ns3:hr>125</ns3:hr>
          </ns3:TrackPointExtension>
        </extensions>
      </trkpt>
      <trkpt lat="32.004488445818424224853515625" lon="118.72770250774919986724853515625">
        <ele>8.19999980926513671875</ele>
        <time>2025-03-15T22:55:20.000Z</time>
        <extensions>
          <ns3:TrackPointExtension>
            <ns3:hr>125</ns3:hr>
          </ns3:TrackPointExtension>
        </extensions>
      </trkpt>
      <trkpt lat="32.00459875166416168212890625" lon="118.727498911321163177490234375">
        <ele>7.19999980926513671875</ele>
        <time>2025-03-15T22:55:25.000Z</time>
        <extensions>
          <ns3:TrackPointExtension>
            <ns3:hr>124</ns3:hr>
          </ns3:TrackPointExtension>
        </extensions>
      </trkpt>
      <trkpt lat="32.00474266894161701202392578125" lon="118.7272670678794384002685546875">
        <ele>7.400000095367431640625</ele>
        <time>2025-03-15T22:55:31.000Z</time>
        <extensions>
          <ns3:TrackPointExtension>
            <ns3:hr>127</ns3:hr>
          </ns3:TrackPointExtension>
        </extensions>
      </trkpt>
      <trkpt lat="32.0047658868134021759033203125" lon="118.72723479755222797393798828125">
        <ele>7.400000095367431640625</ele>
        <time>2025-03-15T22:55:32.000Z</time>
        <extensions>
          <ns3:TrackPointExtension>
            <ns3:hr>127</ns3:hr>
          </ns3:TrackPointExtension>
        </extensions>
      </trkpt>
      <trkpt lat="32.0049653761088848114013671875" lon="118.7269827537238597869873046875">
        <ele>7.19999980926513671875</ele>
        <time>2025-03-15T22:55:40.000Z</time>
        <extensions>
          <ns3:TrackPointExtension>
            <ns3:hr>126</ns3:hr>
          </ns3:TrackPointExtension>
        </extensions>
      </trkpt>
      <trkpt lat="32.00511851347982883453369140625" lon="118.72679843567311763763427734375">
        <ele>7.19999980926513671875</ele>
        <time>2025-03-15T22:55:46.000Z</time>
        <extensions>
          <ns3:TrackPointExtension>
            <ns3:hr>127</ns3:hr>
          </ns3:TrackPointExtension>
        </extensions>
      </trkpt>
      <trkpt lat="32.0051853172481060028076171875" lon="118.7267081625759601593017578125">
        <ele>7.400000095367431640625</ele>
        <time>2025-03-15T22:55:50.000Z</time>
        <extensions>
          <ns3:TrackPointExtension>
            <ns3:hr>124</ns3:hr>
          </ns3:TrackPointExtension>
        </extensions>
      </trkpt>
      <trkpt lat="32.005209624767303466796875" lon="118.72660682536661624908447265625">
        <ele>7.400000095367431640625</ele>
        <time>2025-03-15T22:55:53.000Z</time>
        <extensions>
          <ns3:TrackPointExtension>
            <ns3:hr>121</ns3:hr>
          </ns3:TrackPointExtension>
        </extensions>
      </trkpt>
      <trkpt lat="32.0052463375031948089599609375" lon="118.72654505074024200439453125">
        <ele>7.400000095367431640625</ele>
        <time>2025-03-15T22:55:55.000Z</time>
        <extensions>
          <ns3:TrackPointExtension>
            <ns3:hr>120</ns3:hr>
          </ns3:TrackPointExtension>
        </extensions>
      </trkpt>
      <trkpt lat="32.00538103468716144561767578125" lon="118.7263262830674648284912109375">
        <ele>8</ele>
        <time>2025-03-15T22:56:02.000Z</time>
        <extensions>
          <ns3:TrackPointExtension>
            <ns3:hr>118</ns3:hr>
          </ns3:TrackPointExtension>
        </extensions>
      </trkpt>
      <trkpt lat="32.00548882596194744110107421875" lon="118.72613995335996150970458984375">
        <ele>8</ele>
        <time>2025-03-15T22:56:07.000Z</time>
        <extensions>
          <ns3:TrackPointExtension>
            <ns3:hr>121</ns3:hr>
          </ns3:TrackPointExtension>
        </extensions>
      </trkpt>
      <trkpt lat="32.0055323280394077301025390625" lon="118.72607675381004810333251953125">
        <ele>8</ele>
        <time>2025-03-15T22:56:09.000Z</time>
        <extensions>
          <ns3:TrackPointExtension>
            <ns3:hr>124</ns3:hr>
          </ns3:TrackPointExtension>
        </extensions>
      </trkpt>
      <trkpt lat="32.0056832022964954376220703125" lon="118.7258639372885227203369140625">
        <ele>8</ele>
        <time>2025-03-15T22:56:16.000Z</time>
        <extensions>
          <ns3:TrackPointExtension>
            <ns3:hr>126</ns3:hr>
          </ns3:TrackPointExtension>
        </extensions>
      </trkpt>
      <trkpt lat="32.00585980899631977081298828125" lon="118.72559563256800174713134765625">
        <ele>7.80000019073486328125</ele>
        <time>2025-03-15T22:56:24.000Z</time>
        <extensions>
          <ns3:TrackPointExtension>
            <ns3:hr>127</ns3:hr>
          </ns3:TrackPointExtension>
        </extensions>
      </trkpt>
      <trkpt lat="32.006005235016345977783203125" lon="118.72536487877368927001953125">
        <ele>7.599999904632568359375</ele>
        <time>2025-03-15T22:56:31.000Z</time>
        <extensions>
          <ns3:TrackPointExtension>
            <ns3:hr>127</ns3:hr>
          </ns3:TrackPointExtension>
        </extensions>
      </trkpt>
      <trkpt lat="32.0061318017542362213134765625" lon="118.7251568399369716644287109375">
        <ele>7.80000019073486328125</ele>
        <time>2025-03-15T22:56:38.000Z</time>
        <extensions>
          <ns3:TrackPointExtension>
            <ns3:hr>124</ns3:hr>
          </ns3:TrackPointExtension>
        </extensions>
      </trkpt>
      <trkpt lat="32.00614864937961101531982421875" lon="118.72512054629623889923095703125">
        <ele>7.80000019073486328125</ele>
        <time>2025-03-15T22:56:39.000Z</time>
        <extensions>
          <ns3:TrackPointExtension>
            <ns3:hr>125</ns3:hr>
          </ns3:TrackPointExtension>
        </extensions>
      </trkpt>
      <trkpt lat="32.00628711842000484466552734375" lon="118.72489306144416332244873046875">
        <ele>7.80000019073486328125</ele>
        <time>2025-03-15T22:56:46.000Z</time>
        <extensions>
          <ns3:TrackPointExtension>
            <ns3:hr>126</ns3:hr>
          </ns3:TrackPointExtension>
        </extensions>
      </trkpt>
      <trkpt lat="32.00636004097759723663330078125" lon="118.72473598457872867584228515625">
        <ele>7.400000095367431640625</ele>
        <time>2025-03-15T22:56:52.000Z</time>
        <extensions>
          <ns3:TrackPointExtension>
            <ns3:hr>125</ns3:hr>
          </ns3:TrackPointExtension>
        </extensions>
      </trkpt>
      <trkpt lat="32.00640857219696044921875" lon="118.72465199790894985198974609375">
        <ele>7.19999980926513671875</ele>
        <time>2025-03-15T22:56:57.000Z</time>
        <extensions>
          <ns3:TrackPointExtension>
            <ns3:hr>125</ns3:hr>
          </ns3:TrackPointExtension>
        </extensions>
      </trkpt>
      <trkpt lat="32.00645475648343563079833984375" lon="118.7245657481253147125244140625">
        <ele>7.19999980926513671875</ele>
        <time>2025-03-15T22:57:01.000Z</time>
        <extensions>
          <ns3:TrackPointExtension>
            <ns3:hr>122</ns3:hr>
          </ns3:TrackPointExtension>
        </extensions>
      </trkpt>
      <trkpt lat="32.006467916071414947509765625" lon="118.724550493061542510986328125">
        <ele>7</ele>
        <time>2025-03-15T22:57:02.000Z</time>
        <extensions>
          <ns3:TrackPointExtension>
            <ns3:hr>121</ns3:hr>
          </ns3:TrackPointExtension>
        </extensions>
      </trkpt>
      <trkpt lat="32.006480656564235687255859375" lon="118.724508248269557952880859375">
        <ele>7</ele>
        <time>2025-03-15T22:57:06.000Z</time>
        <extensions>
          <ns3:TrackPointExtension>
            <ns3:hr>121</ns3:hr>
          </ns3:TrackPointExtension>
        </extensions>
      </trkpt>
      <trkpt lat="32.00648526661098003387451171875" lon="118.724485449492931365966796875">
        <ele>7.400000095367431640625</ele>
        <time>2025-03-15T22:57:12.000Z</time>
        <extensions>
          <ns3:TrackPointExtension>
            <ns3:hr>120</ns3:hr>
          </ns3:TrackPointExtension>
        </extensions>
      </trkpt>
      <trkpt lat="32.00648493133485317230224609375" lon="118.72447849251329898834228515625">
        <ele>7.400000095367431640625</ele>
        <time>2025-03-15T22:57:21.000Z</time>
        <extensions>
          <ns3:TrackPointExtension>
            <ns3:hr>120</ns3:hr>
          </ns3:TrackPointExtension>
        </extensions>
      </trkpt>
      <trkpt lat="32.0064855180680751800537109375" lon="118.7244758941233158111572265625">
        <ele>7.400000095367431640625</ele>
        <time>2025-03-15T22:57:25.000Z</time>
        <extensions>
          <ns3:TrackPointExtension>
            <ns3:hr>116</ns3:hr>
          </ns3:TrackPointExtension>
        </extensions>
      </trkpt>
      <trkpt lat="32.00648426078259944915771484375" lon="118.72445829212665557861328125">
        <ele>7.400000095367431640625</ele>
        <time>2025-03-15T22:57:29.000Z</time>
        <extensions>
          <ns3:TrackPointExtension>
            <ns3:hr>114</ns3:hr>
          </ns3:TrackPointExtension>
        </extensions>
      </trkpt>
      <trkpt lat="32.00651544146239757537841796875" lon="118.72441403567790985107421875">
        <ele>7.19999980926513671875</ele>
        <time>2025-03-15T22:57:39.000Z</time>
        <extensions>
          <ns3:TrackPointExtension>
            <ns3:hr>111</ns3:hr>
          </ns3:TrackPointExtension>
        </extensions>
      </trkpt>
    </trkseg>
  </trk>
</gpx>
