<gpx xmlns:ns3="http://www.garmin.com/xmlschemas/TrackPointExtension/v1" xmlns="http://www.topografix.com/GPX/1/1" xmlns:xsi="http://www.w3.org/2001/XMLSchema-instance" xmlns:ns2="http://www.garmin.com/xmlschemas/GpxExtensions/v3" creator="Garmin Connect" version="1.1" xsi:schemaLocation="http://www.topografix.com/GPX/1/1 http://www.topografix.com/GPX/11.xsd">
  <extensions>
<distance>4536.86</distance>
<average_hr>137.0</average_hr>
<average_speed>5.854000091552734</average_speed>
<start_time>2025-08-04T13:37:55+00:00</start_time>
<end_time>2025-08-04T13:50:49.990000+00:00</end_time>
<moving_time>772.0</moving_time>
<elapsed_time>774.99</elapsed_time>
</extensions>
<metadata>
    <link href="connect.garmin.com">
      <text>Garmin Connect</text>
    </link>
    <time>2025-08-04T13:37:55.000Z</time>
  </metadata>
  <trk>
    <name>南京市 骑行</name>
    <type>cycling</type>
    <trkseg>
      <trkpt lat="31.96881799958646297454833984375" lon="118.82390462793409824371337890625">
        <ele>9</ele>
        <time>2025-08-04T13:37:55.000Z</time>
        <extensions>
          <ns3:TrackPointExtension>
            <ns3:hr>94</ns3:hr>
          </ns3:TrackPointExtension>
        </extensions>
      </trkpt>
      <trkpt lat="31.96885923855006694793701171875" lon="118.82390655577182769775390625">
        <ele>9</ele>
        <time>2025-08-04T13:37:56.000Z</time>
        <extensions>
          <ns3:TrackPointExtension>
            <ns3:hr>95</ns3:hr>
          </ns3:TrackPointExtension>
        </extensions>
      </trkpt>
      <trkpt lat="31.9688578136265277862548828125" lon="118.823931030929088592529296875">
        <ele>9</ele>
        <time>2025-08-04T13:37:58.000Z</time>
        <extensions>
          <ns3:TrackPointExtension>
            <ns3:hr>96</ns3:hr>
          </ns3:TrackPointExtension>
        </extensions>
      </trkpt>
      <trkpt lat="31.96882051415741443634033203125" lon="118.82405349053442478179931640625">
        <ele>8.19999980926513671875</ele>
        <time>2025-08-04T13:38:03.000Z</time>
        <extensions>
          <ns3:TrackPointExtension>
            <ns3:hr>98</ns3:hr>
          </ns3:TrackPointExtension>
        </extensions>
      </trkpt>
      <trkpt lat="31.96877508424222469329833984375" lon="118.82416815496981143951416015625">
        <ele>8</ele>
        <time>2025-08-04T13:38:06.000Z</time>
        <extensions>
          <ns3:TrackPointExtension>
            <ns3:hr>99</ns3:hr>
          </ns3:TrackPointExtension>
        </extensions>
      </trkpt>
      <trkpt lat="31.96875815279781818389892578125" lon="118.82421140559017658233642578125">
        <ele>8</ele>
        <time>2025-08-04T13:38:07.000Z</time>
        <extensions>
          <ns3:TrackPointExtension>
            <ns3:hr>100</ns3:hr>
          </ns3:TrackPointExtension>
        </extensions>
      </trkpt>
      <trkpt lat="31.96874692104756832122802734375" lon="118.82425750605762004852294921875">
        <ele>8</ele>
        <time>2025-08-04T13:38:08.000Z</time>
        <extensions>
          <ns3:TrackPointExtension>
            <ns3:hr>102</ns3:hr>
          </ns3:TrackPointExtension>
        </extensions>
      </trkpt>
      <trkpt lat="31.9686807878315448760986328125" lon="118.82447074167430400848388671875">
        <ele>9.3999996185302734375</ele>
        <time>2025-08-04T13:38:12.000Z</time>
        <extensions>
          <ns3:TrackPointExtension>
            <ns3:hr>103</ns3:hr>
          </ns3:TrackPointExtension>
        </extensions>
      </trkpt>
      <trkpt lat="31.96866544894874095916748046875" lon="118.824531175196170806884765625">
        <ele>9.3999996185302734375</ele>
        <time>2025-08-04T13:38:13.000Z</time>
        <extensions>
          <ns3:TrackPointExtension>
            <ns3:hr>104</ns3:hr>
          </ns3:TrackPointExtension>
        </extensions>
      </trkpt>
      <trkpt lat="31.968597471714019775390625" lon="118.82471817545592784881591796875">
        <ele>9.3999996185302734375</ele>
        <time>2025-08-04T13:38:16.000Z</time>
        <extensions>
          <ns3:TrackPointExtension>
            <ns3:hr>107</ns3:hr>
          </ns3:TrackPointExtension>
        </extensions>
      </trkpt>
      <trkpt lat="31.9685336016118526458740234375" lon="118.82490810938179492950439453125">
        <ele>9.3999996185302734375</ele>
        <time>2025-08-04T13:38:19.000Z</time>
        <extensions>
          <ns3:TrackPointExtension>
            <ns3:hr>110</ns3:hr>
          </ns3:TrackPointExtension>
        </extensions>
      </trkpt>
      <trkpt lat="31.968476437032222747802734375" lon="118.82510793395340442657470703125">
        <ele>8.80000019073486328125</ele>
        <time>2025-08-04T13:38:22.000Z</time>
        <extensions>
          <ns3:TrackPointExtension>
            <ns3:hr>113</ns3:hr>
          </ns3:TrackPointExtension>
        </extensions>
      </trkpt>
      <trkpt lat="31.96843628771603107452392578125" lon="118.82522829808294773101806640625">
        <ele>8.3999996185302734375</ele>
        <time>2025-08-04T13:38:24.000Z</time>
        <extensions>
          <ns3:TrackPointExtension>
            <ns3:hr>117</ns3:hr>
          </ns3:TrackPointExtension>
        </extensions>
      </trkpt>
      <trkpt lat="31.96833754889667034149169921875" lon="118.82552199997007846832275390625">
        <ele>8.80000019073486328125</ele>
        <time>2025-08-04T13:38:29.000Z</time>
        <extensions>
          <ns3:TrackPointExtension>
            <ns3:hr>119</ns3:hr>
          </ns3:TrackPointExtension>
        </extensions>
      </trkpt>
      <trkpt lat="31.96831407956779003143310546875" lon="118.82563867606222629547119140625">
        <ele>8.80000019073486328125</ele>
        <time>2025-08-04T13:38:31.000Z</time>
        <extensions>
          <ns3:TrackPointExtension>
            <ns3:hr>121</ns3:hr>
          </ns3:TrackPointExtension>
        </extensions>
      </trkpt>
      <trkpt lat="31.9682764448225498199462890625" lon="118.82577245123684406280517578125">
        <ele>8.3999996185302734375</ele>
        <time>2025-08-04T13:38:33.000Z</time>
        <extensions>
          <ns3:TrackPointExtension>
            <ns3:hr>122</ns3:hr>
          </ns3:TrackPointExtension>
        </extensions>
      </trkpt>
      <trkpt lat="31.96821047924458980560302734375" lon="118.82598132826387882232666015625">
        <ele>8.6000003814697265625</ele>
        <time>2025-08-04T13:38:36.000Z</time>
        <extensions>
          <ns3:TrackPointExtension>
            <ns3:hr>123</ns3:hr>
          </ns3:TrackPointExtension>
        </extensions>
      </trkpt>
      <trkpt lat="31.9681178592145442962646484375" lon="118.82629380561411380767822265625">
        <ele>8</ele>
        <time>2025-08-04T13:38:40.000Z</time>
        <extensions>
          <ns3:TrackPointExtension>
            <ns3:hr>125</ns3:hr>
          </ns3:TrackPointExtension>
        </extensions>
      </trkpt>
      <trkpt lat="31.96806530468165874481201171875" lon="118.82643696852028369903564453125">
        <ele>8.3999996185302734375</ele>
        <time>2025-08-04T13:38:42.000Z</time>
        <extensions>
          <ns3:TrackPointExtension>
            <ns3:hr>126</ns3:hr>
          </ns3:TrackPointExtension>
        </extensions>
      </trkpt>
      <trkpt lat="31.96798668242990970611572265625" lon="118.82666093297302722930908203125">
        <ele>9.6000003814697265625</ele>
        <time>2025-08-04T13:38:45.000Z</time>
        <extensions>
          <ns3:TrackPointExtension>
            <ns3:hr>125</ns3:hr>
          </ns3:TrackPointExtension>
        </extensions>
      </trkpt>
      <trkpt lat="31.9679294340312480926513671875" lon="118.82679571397602558135986328125">
        <ele>9.6000003814697265625</ele>
        <time>2025-08-04T13:38:47.000Z</time>
        <extensions>
          <ns3:TrackPointExtension>
            <ns3:hr>132</ns3:hr>
          </ns3:TrackPointExtension>
        </extensions>
      </trkpt>
      <trkpt lat="31.96790202520787715911865234375" lon="118.82686293683946132659912109375">
        <ele>9.6000003814697265625</ele>
        <time>2025-08-04T13:38:48.000Z</time>
        <extensions>
          <ns3:TrackPointExtension>
            <ns3:hr>138</ns3:hr>
          </ns3:TrackPointExtension>
        </extensions>
      </trkpt>
      <trkpt lat="31.96785793639719486236572265625" lon="118.82700392045080661773681640625">
        <ele>9.3999996185302734375</ele>
        <time>2025-08-04T13:38:50.000Z</time>
        <extensions>
          <ns3:TrackPointExtension>
            <ns3:hr>141</ns3:hr>
          </ns3:TrackPointExtension>
        </extensions>
      </trkpt>
      <trkpt lat="31.96779926307499408721923828125" lon="118.8272651843726634979248046875">
        <ele>9.6000003814697265625</ele>
        <time>2025-08-04T13:38:54.000Z</time>
        <extensions>
          <ns3:TrackPointExtension>
            <ns3:hr>144</ns3:hr>
          </ns3:TrackPointExtension>
        </extensions>
      </trkpt>
      <trkpt lat="31.96778585202991962432861328125" lon="118.82736635394394397735595703125">
        <ele>9.80000019073486328125</ele>
        <time>2025-08-04T13:38:55.000Z</time>
        <extensions>
          <ns3:TrackPointExtension>
            <ns3:hr>144</ns3:hr>
          </ns3:TrackPointExtension>
        </extensions>
      </trkpt>
      <trkpt lat="31.96772818453609943389892578125" lon="118.82760406471788883209228515625">
        <ele>9.80000019073486328125</ele>
        <time>2025-08-04T13:38:58.000Z</time>
        <extensions>
          <ns3:TrackPointExtension>
            <ns3:hr>144</ns3:hr>
          </ns3:TrackPointExtension>
        </extensions>
      </trkpt>
      <trkpt lat="31.967733800411224365234375" lon="118.82776759564876556396484375">
        <ele>9.80000019073486328125</ele>
        <time>2025-08-04T13:39:00.000Z</time>
        <extensions>
          <ns3:TrackPointExtension>
            <ns3:hr>143</ns3:hr>
          </ns3:TrackPointExtension>
        </extensions>
      </trkpt>
      <trkpt lat="31.9678254984319210052490234375" lon="118.82818333804607391357421875">
        <ele>10</ele>
        <time>2025-08-04T13:39:05.000Z</time>
        <extensions>
          <ns3:TrackPointExtension>
            <ns3:hr>143</ns3:hr>
          </ns3:TrackPointExtension>
        </extensions>
      </trkpt>
      <trkpt lat="31.96785978041589260101318359375" lon="118.82825232110917568206787109375">
        <ele>10</ele>
        <time>2025-08-04T13:39:06.000Z</time>
        <extensions>
          <ns3:TrackPointExtension>
            <ns3:hr>144</ns3:hr>
          </ns3:TrackPointExtension>
        </extensions>
      </trkpt>
      <trkpt lat="31.9678995944559574127197265625" lon="118.828313760459423065185546875">
        <ele>10</ele>
        <time>2025-08-04T13:39:07.000Z</time>
        <extensions>
          <ns3:TrackPointExtension>
            <ns3:hr>144</ns3:hr>
          </ns3:TrackPointExtension>
        </extensions>
      </trkpt>
      <trkpt lat="31.96803043596446514129638671875" lon="118.82847611792385578155517578125">
        <ele>10</ele>
        <time>2025-08-04T13:39:10.000Z</time>
        <extensions>
          <ns3:TrackPointExtension>
            <ns3:hr>143</ns3:hr>
          </ns3:TrackPointExtension>
        </extensions>
      </trkpt>
      <trkpt lat="31.968349032104015350341796875" lon="118.82879395969212055206298828125">
        <ele>10</ele>
        <time>2025-08-04T13:39:17.000Z</time>
        <extensions>
          <ns3:TrackPointExtension>
            <ns3:hr>144</ns3:hr>
          </ns3:TrackPointExtension>
        </extensions>
      </trkpt>
      <trkpt lat="31.96842522360384464263916015625" lon="118.8288746774196624755859375">
        <ele>9.80000019073486328125</ele>
        <time>2025-08-04T13:39:19.000Z</time>
        <extensions>
          <ns3:TrackPointExtension>
            <ns3:hr>143</ns3:hr>
          </ns3:TrackPointExtension>
        </extensions>
      </trkpt>
      <trkpt lat="31.96844819001853466033935546875" lon="118.8289807923138141632080078125">
        <ele>9.6000003814697265625</ele>
        <time>2025-08-04T13:39:21.000Z</time>
        <extensions>
          <ns3:TrackPointExtension>
            <ns3:hr>141</ns3:hr>
          </ns3:TrackPointExtension>
        </extensions>
      </trkpt>
      <trkpt lat="31.9684169255197048187255859375" lon="118.8293482549488544464111328125">
        <ele>9.6000003814697265625</ele>
        <time>2025-08-04T13:39:27.000Z</time>
        <extensions>
          <ns3:TrackPointExtension>
            <ns3:hr>140</ns3:hr>
          </ns3:TrackPointExtension>
        </extensions>
      </trkpt>
      <trkpt lat="31.96836034767329692840576171875" lon="118.8295863009989261627197265625">
        <ele>8.80000019073486328125</ele>
        <time>2025-08-04T13:39:31.000Z</time>
        <extensions>
          <ns3:TrackPointExtension>
            <ns3:hr>138</ns3:hr>
          </ns3:TrackPointExtension>
        </extensions>
      </trkpt>
      <trkpt lat="31.96832011453807353973388671875" lon="118.8297023065388202667236328125">
        <ele>8.80000019073486328125</ele>
        <time>2025-08-04T13:39:33.000Z</time>
        <extensions>
          <ns3:TrackPointExtension>
            <ns3:hr>138</ns3:hr>
          </ns3:TrackPointExtension>
        </extensions>
      </trkpt>
      <trkpt lat="31.96833956055343151092529296875" lon="118.8298308849334716796875">
        <ele>9.19999980926513671875</ele>
        <time>2025-08-04T13:39:35.000Z</time>
        <extensions>
          <ns3:TrackPointExtension>
            <ns3:hr>138</ns3:hr>
          </ns3:TrackPointExtension>
        </extensions>
      </trkpt>
      <trkpt lat="31.96836923249065876007080078125" lon="118.829888217151165008544921875">
        <ele>9.3999996185302734375</ele>
        <time>2025-08-04T13:39:36.000Z</time>
        <extensions>
          <ns3:TrackPointExtension>
            <ns3:hr>138</ns3:hr>
          </ns3:TrackPointExtension>
        </extensions>
      </trkpt>
      <trkpt lat="31.9684102199971675872802734375" lon="118.82993691600859165191650390625">
        <ele>9.3999996185302734375</ele>
        <time>2025-08-04T13:39:37.000Z</time>
        <extensions>
          <ns3:TrackPointExtension>
            <ns3:hr>138</ns3:hr>
          </ns3:TrackPointExtension>
        </extensions>
      </trkpt>
      <trkpt lat="31.9685201905667781829833984375" lon="118.829982765018939971923828125">
        <ele>9.6000003814697265625</ele>
        <time>2025-08-04T13:39:39.000Z</time>
        <extensions>
          <ns3:TrackPointExtension>
            <ns3:hr>139</ns3:hr>
          </ns3:TrackPointExtension>
        </extensions>
      </trkpt>
      <trkpt lat="31.96896987967193126678466796875" lon="118.8300580345094203948974609375">
        <ele>9.19999980926513671875</ele>
        <time>2025-08-04T13:39:46.000Z</time>
        <extensions>
          <ns3:TrackPointExtension>
            <ns3:hr>140</ns3:hr>
          </ns3:TrackPointExtension>
        </extensions>
      </trkpt>
      <trkpt lat="31.969517804682254791259765625" lon="118.830116204917430877685546875">
        <ele>9.19999980926513671875</ele>
        <time>2025-08-04T13:39:54.000Z</time>
        <extensions>
          <ns3:TrackPointExtension>
            <ns3:hr>142</ns3:hr>
          </ns3:TrackPointExtension>
        </extensions>
      </trkpt>
      <trkpt lat="31.969668678939342498779296875" lon="118.830121569335460662841796875">
        <ele>8.19999980926513671875</ele>
        <time>2025-08-04T13:39:56.000Z</time>
        <extensions>
          <ns3:TrackPointExtension>
            <ns3:hr>142</ns3:hr>
          </ns3:TrackPointExtension>
        </extensions>
      </trkpt>
      <trkpt lat="31.96998509578406810760498046875" lon="118.830153755843639373779296875">
        <ele>7</ele>
        <time>2025-08-04T13:40:00.000Z</time>
        <extensions>
          <ns3:TrackPointExtension>
            <ns3:hr>144</ns3:hr>
          </ns3:TrackPointExtension>
        </extensions>
      </trkpt>
      <trkpt lat="31.9701358862221240997314453125" lon="118.83017110638320446014404296875">
        <ele>7.19999980926513671875</ele>
        <time>2025-08-04T13:40:02.000Z</time>
        <extensions>
          <ns3:TrackPointExtension>
            <ns3:hr>147</ns3:hr>
          </ns3:TrackPointExtension>
        </extensions>
      </trkpt>
      <trkpt lat="31.97034719400107860565185546875" lon="118.8301988504827022552490234375">
        <ele>8.80000019073486328125</ele>
        <time>2025-08-04T13:40:05.000Z</time>
        <extensions>
          <ns3:TrackPointExtension>
            <ns3:hr>150</ns3:hr>
          </ns3:TrackPointExtension>
        </extensions>
      </trkpt>
      <trkpt lat="31.97055053897202014923095703125" lon="118.83021737448871135711669921875">
        <ele>10.19999980926513671875</ele>
        <time>2025-08-04T13:40:08.000Z</time>
        <extensions>
          <ns3:TrackPointExtension>
            <ns3:hr>152</ns3:hr>
          </ns3:TrackPointExtension>
        </extensions>
      </trkpt>
      <trkpt lat="31.9706163369119167327880859375" lon="118.83022810332477092742919921875">
        <ele>9.6000003814697265625</ele>
        <time>2025-08-04T13:40:09.000Z</time>
        <extensions>
          <ns3:TrackPointExtension>
            <ns3:hr>153</ns3:hr>
          </ns3:TrackPointExtension>
        </extensions>
      </trkpt>
      <trkpt lat="31.97068163193762302398681640625" lon="118.8302410952746868133544921875">
        <ele>9.19999980926513671875</ele>
        <time>2025-08-04T13:40:10.000Z</time>
        <extensions>
          <ns3:TrackPointExtension>
            <ns3:hr>153</ns3:hr>
          </ns3:TrackPointExtension>
        </extensions>
      </trkpt>
      <trkpt lat="31.9707901775836944580078125" lon="118.8302481360733509063720703125">
        <ele>8.19999980926513671875</ele>
        <time>2025-08-04T13:40:12.000Z</time>
        <extensions>
          <ns3:TrackPointExtension>
            <ns3:hr>154</ns3:hr>
          </ns3:TrackPointExtension>
        </extensions>
      </trkpt>
      <trkpt lat="31.970832757651805877685546875" lon="118.83023564703762531280517578125">
        <ele>8</ele>
        <time>2025-08-04T13:40:13.000Z</time>
        <extensions>
          <ns3:TrackPointExtension>
            <ns3:hr>155</ns3:hr>
          </ns3:TrackPointExtension>
        </extensions>
      </trkpt>
      <trkpt lat="31.970871649682521820068359375" lon="118.8302146084606647491455078125">
        <ele>8.19999980926513671875</ele>
        <time>2025-08-04T13:40:14.000Z</time>
        <extensions>
          <ns3:TrackPointExtension>
            <ns3:hr>155</ns3:hr>
          </ns3:TrackPointExtension>
        </extensions>
      </trkpt>
      <trkpt lat="31.97093912400305271148681640625" lon="118.83014763705432415008544921875">
        <ele>9</ele>
        <time>2025-08-04T13:40:16.000Z</time>
        <extensions>
          <ns3:TrackPointExtension>
            <ns3:hr>155</ns3:hr>
          </ns3:TrackPointExtension>
        </extensions>
      </trkpt>
      <trkpt lat="31.97096996940672397613525390625" lon="118.83010958321392536163330078125">
        <ele>9.3999996185302734375</ele>
        <time>2025-08-04T13:40:17.000Z</time>
        <extensions>
          <ns3:TrackPointExtension>
            <ns3:hr>155</ns3:hr>
          </ns3:TrackPointExtension>
        </extensions>
      </trkpt>
      <trkpt lat="31.97100919671356678009033203125" lon="118.83007957600057125091552734375">
        <ele>9.80000019073486328125</ele>
        <time>2025-08-04T13:40:18.000Z</time>
        <extensions>
          <ns3:TrackPointExtension>
            <ns3:hr>154</ns3:hr>
          </ns3:TrackPointExtension>
        </extensions>
      </trkpt>
      <trkpt lat="31.97109502740204334259033203125" lon="118.83004437200725078582763671875">
        <ele>9.80000019073486328125</ele>
        <time>2025-08-04T13:40:20.000Z</time>
        <extensions>
          <ns3:TrackPointExtension>
            <ns3:hr>153</ns3:hr>
          </ns3:TrackPointExtension>
        </extensions>
      </trkpt>
      <trkpt lat="31.97114045731723308563232421875" lon="118.83003364317119121551513671875">
        <ele>9.6000003814697265625</ele>
        <time>2025-08-04T13:40:21.000Z</time>
        <extensions>
          <ns3:TrackPointExtension>
            <ns3:hr>153</ns3:hr>
          </ns3:TrackPointExtension>
        </extensions>
      </trkpt>
      <trkpt lat="31.97141085751354694366455078125" lon="118.8299752213060855865478515625">
        <ele>10.19999980926513671875</ele>
        <time>2025-08-04T13:40:26.000Z</time>
        <extensions>
          <ns3:TrackPointExtension>
            <ns3:hr>151</ns3:hr>
          </ns3:TrackPointExtension>
        </extensions>
      </trkpt>
      <trkpt lat="31.97146986611187458038330078125" lon="118.82996843196451663970947265625">
        <ele>10.3999996185302734375</ele>
        <time>2025-08-04T13:40:27.000Z</time>
        <extensions>
          <ns3:TrackPointExtension>
            <ns3:hr>150</ns3:hr>
          </ns3:TrackPointExtension>
        </extensions>
      </trkpt>
      <trkpt lat="31.971907652914524078369140625" lon="118.83000346831977367401123046875">
        <ele>10.6000003814697265625</ele>
        <time>2025-08-04T13:40:34.000Z</time>
        <extensions>
          <ns3:TrackPointExtension>
            <ns3:hr>149</ns3:hr>
          </ns3:TrackPointExtension>
        </extensions>
      </trkpt>
      <trkpt lat="31.972183249890804290771484375" lon="118.83003674447536468505859375">
        <ele>9.19999980926513671875</ele>
        <time>2025-08-04T13:40:38.000Z</time>
        <extensions>
          <ns3:TrackPointExtension>
            <ns3:hr>150</ns3:hr>
          </ns3:TrackPointExtension>
        </extensions>
      </trkpt>
      <trkpt lat="31.97232046164572238922119140625" lon="118.83006214164197444915771484375">
        <ele>8.6000003814697265625</ele>
        <time>2025-08-04T13:40:40.000Z</time>
        <extensions>
          <ns3:TrackPointExtension>
            <ns3:hr>150</ns3:hr>
          </ns3:TrackPointExtension>
        </extensions>
      </trkpt>
      <trkpt lat="31.9727631099522113800048828125" lon="118.8301438651978969573974609375">
        <ele>10.3999996185302734375</ele>
        <time>2025-08-04T13:40:47.000Z</time>
        <extensions>
          <ns3:TrackPointExtension>
            <ns3:hr>150</ns3:hr>
          </ns3:TrackPointExtension>
        </extensions>
      </trkpt>
      <trkpt lat="31.97313367389142513275146484375" lon="118.8302072323858737945556640625">
        <ele>10.19999980926513671875</ele>
        <time>2025-08-04T13:40:53.000Z</time>
        <extensions>
          <ns3:TrackPointExtension>
            <ns3:hr>151</ns3:hr>
          </ns3:TrackPointExtension>
        </extensions>
      </trkpt>
      <trkpt lat="31.9735054112970829010009765625" lon="118.83029515855014324188232421875">
        <ele>11</ele>
        <time>2025-08-04T13:40:59.000Z</time>
        <extensions>
          <ns3:TrackPointExtension>
            <ns3:hr>149</ns3:hr>
          </ns3:TrackPointExtension>
        </extensions>
      </trkpt>
      <trkpt lat="31.97375326417386531829833984375" lon="118.83036808110773563385009765625">
        <ele>10.3999996185302734375</ele>
        <time>2025-08-04T13:41:03.000Z</time>
        <extensions>
          <ns3:TrackPointExtension>
            <ns3:hr>150</ns3:hr>
          </ns3:TrackPointExtension>
        </extensions>
      </trkpt>
      <trkpt lat="31.9741483032703399658203125" lon="118.83052130229771137237548828125">
        <ele>10.6000003814697265625</ele>
        <time>2025-08-04T13:41:10.000Z</time>
        <extensions>
          <ns3:TrackPointExtension>
            <ns3:hr>151</ns3:hr>
          </ns3:TrackPointExtension>
        </extensions>
      </trkpt>
      <trkpt lat="31.9746433384716510772705078125" lon="118.83072431199252605438232421875">
        <ele>10</ele>
        <time>2025-08-04T13:41:19.000Z</time>
        <extensions>
          <ns3:TrackPointExtension>
            <ns3:hr>149</ns3:hr>
          </ns3:TrackPointExtension>
        </extensions>
      </trkpt>
      <trkpt lat="31.97502161376178264617919921875" lon="118.8308648765087127685546875">
        <ele>9.6000003814697265625</ele>
        <time>2025-08-04T13:41:26.000Z</time>
        <extensions>
          <ns3:TrackPointExtension>
            <ns3:hr>147</ns3:hr>
          </ns3:TrackPointExtension>
        </extensions>
      </trkpt>
      <trkpt lat="31.9753303192555904388427734375" lon="118.831009380519390106201171875">
        <ele>9.6000003814697265625</ele>
        <time>2025-08-04T13:41:32.000Z</time>
        <extensions>
          <ns3:TrackPointExtension>
            <ns3:hr>144</ns3:hr>
          </ns3:TrackPointExtension>
        </extensions>
      </trkpt>
      <trkpt lat="31.975382454693317413330078125" lon="118.831033520400524139404296875">
        <ele>9.80000019073486328125</ele>
        <time>2025-08-04T13:41:33.000Z</time>
        <extensions>
          <ns3:TrackPointExtension>
            <ns3:hr>143</ns3:hr>
          </ns3:TrackPointExtension>
        </extensions>
      </trkpt>
      <trkpt lat="31.97577497921884059906005859375" lon="118.8312087021768093109130859375">
        <ele>9.80000019073486328125</ele>
        <time>2025-08-04T13:41:41.000Z</time>
        <extensions>
          <ns3:TrackPointExtension>
            <ns3:hr>144</ns3:hr>
          </ns3:TrackPointExtension>
        </extensions>
      </trkpt>
      <trkpt lat="31.97609801776707172393798828125" lon="118.8313642702996730804443359375">
        <ele>10.80000019073486328125</ele>
        <time>2025-08-04T13:41:48.000Z</time>
        <extensions>
          <ns3:TrackPointExtension>
            <ns3:hr>144</ns3:hr>
          </ns3:TrackPointExtension>
        </extensions>
      </trkpt>
      <trkpt lat="31.97640680707991123199462890625" lon="118.83149008266627788543701171875">
        <ele>10.3999996185302734375</ele>
        <time>2025-08-04T13:41:54.000Z</time>
        <extensions>
          <ns3:TrackPointExtension>
            <ns3:hr>145</ns3:hr>
          </ns3:TrackPointExtension>
        </extensions>
      </trkpt>
      <trkpt lat="31.97651593945920467376708984375" lon="118.831535093486309051513671875">
        <ele>9</ele>
        <time>2025-08-04T13:41:56.000Z</time>
        <extensions>
          <ns3:TrackPointExtension>
            <ns3:hr>145</ns3:hr>
          </ns3:TrackPointExtension>
        </extensions>
      </trkpt>
      <trkpt lat="31.9766117446124553680419921875" lon="118.83158530108630657196044921875">
        <ele>8.19999980926513671875</ele>
        <time>2025-08-04T13:41:58.000Z</time>
        <extensions>
          <ns3:TrackPointExtension>
            <ns3:hr>144</ns3:hr>
          </ns3:TrackPointExtension>
        </extensions>
      </trkpt>
      <trkpt lat="31.97666396386921405792236328125" lon="118.8316076807677745819091796875">
        <ele>8</ele>
        <time>2025-08-04T13:41:59.000Z</time>
        <extensions>
          <ns3:TrackPointExtension>
            <ns3:hr>144</ns3:hr>
          </ns3:TrackPointExtension>
        </extensions>
      </trkpt>
      <trkpt lat="31.9769688136875629425048828125" lon="118.8317558728158473968505859375">
        <ele>8.80000019073486328125</ele>
        <time>2025-08-04T13:42:05.000Z</time>
        <extensions>
          <ns3:TrackPointExtension>
            <ns3:hr>145</ns3:hr>
          </ns3:TrackPointExtension>
        </extensions>
      </trkpt>
      <trkpt lat="31.97702120058238506317138671875" lon="118.83177858777344226837158203125">
        <ele>9</ele>
        <time>2025-08-04T13:42:06.000Z</time>
        <extensions>
          <ns3:TrackPointExtension>
            <ns3:hr>143</ns3:hr>
          </ns3:TrackPointExtension>
        </extensions>
      </trkpt>
      <trkpt lat="31.9772356934845447540283203125" lon="118.83187782950699329376220703125">
        <ele>9</ele>
        <time>2025-08-04T13:42:10.000Z</time>
        <extensions>
          <ns3:TrackPointExtension>
            <ns3:hr>140</ns3:hr>
          </ns3:TrackPointExtension>
        </extensions>
      </trkpt>
      <trkpt lat="31.97734625078737735748291015625" lon="118.83192862384021282196044921875">
        <ele>9</ele>
        <time>2025-08-04T13:42:12.000Z</time>
        <extensions>
          <ns3:TrackPointExtension>
            <ns3:hr>139</ns3:hr>
          </ns3:TrackPointExtension>
        </extensions>
      </trkpt>
      <trkpt lat="31.9777781702578067779541015625" lon="118.8321246765553951263427734375">
        <ele>9.3999996185302734375</ele>
        <time>2025-08-04T13:42:20.000Z</time>
        <extensions>
          <ns3:TrackPointExtension>
            <ns3:hr>139</ns3:hr>
          </ns3:TrackPointExtension>
        </extensions>
      </trkpt>
      <trkpt lat="31.97796299122273921966552734375" lon="118.8322225771844387054443359375">
        <ele>10</ele>
        <time>2025-08-04T13:42:24.000Z</time>
        <extensions>
          <ns3:TrackPointExtension>
            <ns3:hr>139</ns3:hr>
          </ns3:TrackPointExtension>
        </extensions>
      </trkpt>
      <trkpt lat="31.97810179553925991058349609375" lon="118.83227094076573848724365234375">
        <ele>10.3999996185302734375</ele>
        <time>2025-08-04T13:42:27.000Z</time>
        <extensions>
          <ns3:TrackPointExtension>
            <ns3:hr>139</ns3:hr>
          </ns3:TrackPointExtension>
        </extensions>
      </trkpt>
      <trkpt lat="31.97829432785511016845703125" lon="118.8323489762842655181884765625">
        <ele>9.19999980926513671875</ele>
        <time>2025-08-04T13:42:31.000Z</time>
        <extensions>
          <ns3:TrackPointExtension>
            <ns3:hr>139</ns3:hr>
          </ns3:TrackPointExtension>
        </extensions>
      </trkpt>
      <trkpt lat="31.97834285907447338104248046875" lon="118.83236733265221118927001953125">
        <ele>8.80000019073486328125</ele>
        <time>2025-08-04T13:42:32.000Z</time>
        <extensions>
          <ns3:TrackPointExtension>
            <ns3:hr>139</ns3:hr>
          </ns3:TrackPointExtension>
        </extensions>
      </trkpt>
      <trkpt lat="31.97871744632720947265625" lon="118.83252860046923160552978515625">
        <ele>9</ele>
        <time>2025-08-04T13:42:40.000Z</time>
        <extensions>
          <ns3:TrackPointExtension>
            <ns3:hr>138</ns3:hr>
          </ns3:TrackPointExtension>
        </extensions>
      </trkpt>
      <trkpt lat="31.97898156009614467620849609375" lon="118.8326450251042842864990234375">
        <ele>9.80000019073486328125</ele>
        <time>2025-08-04T13:42:47.000Z</time>
        <extensions>
          <ns3:TrackPointExtension>
            <ns3:hr>138</ns3:hr>
          </ns3:TrackPointExtension>
        </extensions>
      </trkpt>
      <trkpt lat="31.97909756563603878021240234375" lon="118.832680396735668182373046875">
        <ele>9.6000003814697265625</ele>
        <time>2025-08-04T13:42:50.000Z</time>
        <extensions>
          <ns3:TrackPointExtension>
            <ns3:hr>135</ns3:hr>
          </ns3:TrackPointExtension>
        </extensions>
      </trkpt>
      <trkpt lat="31.97921122424304485321044921875" lon="118.83273915387690067291259765625">
        <ele>9.3999996185302734375</ele>
        <time>2025-08-04T13:42:53.000Z</time>
        <extensions>
          <ns3:TrackPointExtension>
            <ns3:hr>132</ns3:hr>
          </ns3:TrackPointExtension>
        </extensions>
      </trkpt>
      <trkpt lat="31.9792503677308559417724609375" lon="118.83276077918708324432373046875">
        <ele>9.3999996185302734375</ele>
        <time>2025-08-04T13:42:54.000Z</time>
        <extensions>
          <ns3:TrackPointExtension>
            <ns3:hr>132</ns3:hr>
          </ns3:TrackPointExtension>
        </extensions>
      </trkpt>
      <trkpt lat="31.9796000607311725616455078125" lon="118.832917101681232452392578125">
        <ele>9.19999980926513671875</ele>
        <time>2025-08-04T13:43:02.000Z</time>
        <extensions>
          <ns3:TrackPointExtension>
            <ns3:hr>134</ns3:hr>
          </ns3:TrackPointExtension>
        </extensions>
      </trkpt>
      <trkpt lat="31.9799185730516910552978515625" lon="118.8330669701099395751953125">
        <ele>9.19999980926513671875</ele>
        <time>2025-08-04T13:43:09.000Z</time>
        <extensions>
          <ns3:TrackPointExtension>
            <ns3:hr>135</ns3:hr>
          </ns3:TrackPointExtension>
        </extensions>
      </trkpt>
      <trkpt lat="31.9802555255591869354248046875" lon="118.83323670364916324615478515625">
        <ele>9.3999996185302734375</ele>
        <time>2025-08-04T13:43:16.000Z</time>
        <extensions>
          <ns3:TrackPointExtension>
            <ns3:hr>136</ns3:hr>
          </ns3:TrackPointExtension>
        </extensions>
      </trkpt>
      <trkpt lat="31.980394832789897918701171875" lon="118.8332994841039180755615234375">
        <ele>9.80000019073486328125</ele>
        <time>2025-08-04T13:43:19.000Z</time>
        <extensions>
          <ns3:TrackPointExtension>
            <ns3:hr>137</ns3:hr>
          </ns3:TrackPointExtension>
        </extensions>
      </trkpt>
      <trkpt lat="31.9805358164012432098388671875" lon="118.83335891179740428924560546875">
        <ele>10</ele>
        <time>2025-08-04T13:43:22.000Z</time>
        <extensions>
          <ns3:TrackPointExtension>
            <ns3:hr>138</ns3:hr>
          </ns3:TrackPointExtension>
        </extensions>
      </trkpt>
      <trkpt lat="31.98062256909906864166259765625" lon="118.8333928585052490234375">
        <ele>9.6000003814697265625</ele>
        <time>2025-08-04T13:43:24.000Z</time>
        <extensions>
          <ns3:TrackPointExtension>
            <ns3:hr>139</ns3:hr>
          </ns3:TrackPointExtension>
        </extensions>
      </trkpt>
      <trkpt lat="31.98090076446533203125" lon="118.8334934413433074951171875">
        <ele>9.80000019073486328125</ele>
        <time>2025-08-04T13:43:31.000Z</time>
        <extensions>
          <ns3:TrackPointExtension>
            <ns3:hr>139</ns3:hr>
          </ns3:TrackPointExtension>
        </extensions>
      </trkpt>
      <trkpt lat="31.9810791313648223876953125" lon="118.8335563056170940399169921875">
        <ele>10.80000019073486328125</ele>
        <time>2025-08-04T13:43:35.000Z</time>
        <extensions>
          <ns3:TrackPointExtension>
            <ns3:hr>140</ns3:hr>
          </ns3:TrackPointExtension>
        </extensions>
      </trkpt>
      <trkpt lat="31.98124484159052371978759765625" lon="118.8336119614541530609130859375">
        <ele>10.3999996185302734375</ele>
        <time>2025-08-04T13:43:38.000Z</time>
        <extensions>
          <ns3:TrackPointExtension>
            <ns3:hr>139</ns3:hr>
          </ns3:TrackPointExtension>
        </extensions>
      </trkpt>
      <trkpt lat="31.98136151768267154693603515625" lon="118.83365076966583728790283203125">
        <ele>9.6000003814697265625</ele>
        <time>2025-08-04T13:43:40.000Z</time>
        <extensions>
          <ns3:TrackPointExtension>
            <ns3:hr>138</ns3:hr>
          </ns3:TrackPointExtension>
        </extensions>
      </trkpt>
      <trkpt lat="31.981701068580150604248046875" lon="118.83377708494663238525390625">
        <ele>9.6000003814697265625</ele>
        <time>2025-08-04T13:43:46.000Z</time>
        <extensions>
          <ns3:TrackPointExtension>
            <ns3:hr>138</ns3:hr>
          </ns3:TrackPointExtension>
        </extensions>
      </trkpt>
      <trkpt lat="31.98211672715842723846435546875" lon="118.83395033888518810272216796875">
        <ele>9.19999980926513671875</ele>
        <time>2025-08-04T13:43:54.000Z</time>
        <extensions>
          <ns3:TrackPointExtension>
            <ns3:hr>137</ns3:hr>
          </ns3:TrackPointExtension>
        </extensions>
      </trkpt>
      <trkpt lat="31.982269026339054107666015625" lon="118.83400817401707172393798828125">
        <ele>9.6000003814697265625</ele>
        <time>2025-08-04T13:43:57.000Z</time>
        <extensions>
          <ns3:TrackPointExtension>
            <ns3:hr>136</ns3:hr>
          </ns3:TrackPointExtension>
        </extensions>
      </trkpt>
      <trkpt lat="31.98236365802586078643798828125" lon="118.83404807187616825103759765625">
        <ele>10</ele>
        <time>2025-08-04T13:43:59.000Z</time>
        <extensions>
          <ns3:TrackPointExtension>
            <ns3:hr>136</ns3:hr>
          </ns3:TrackPointExtension>
        </extensions>
      </trkpt>
      <trkpt lat="31.9824965111911296844482421875" lon="118.834106661379337310791015625">
        <ele>9.3999996185302734375</ele>
        <time>2025-08-04T13:44:02.000Z</time>
        <extensions>
          <ns3:TrackPointExtension>
            <ns3:hr>133</ns3:hr>
          </ns3:TrackPointExtension>
        </extensions>
      </trkpt>
      <trkpt lat="31.98258141987025737762451171875" lon="118.8341520912945270538330078125">
        <ele>9.6000003814697265625</ele>
        <time>2025-08-04T13:44:05.000Z</time>
        <extensions>
          <ns3:TrackPointExtension>
            <ns3:hr>130</ns3:hr>
          </ns3:TrackPointExtension>
        </extensions>
      </trkpt>
      <trkpt lat="31.98263875208795070648193359375" lon="118.8341655023396015167236328125">
        <ele>9.6000003814697265625</ele>
        <time>2025-08-04T13:44:08.000Z</time>
        <extensions>
          <ns3:TrackPointExtension>
            <ns3:hr>130</ns3:hr>
          </ns3:TrackPointExtension>
        </extensions>
      </trkpt>
      <trkpt lat="31.9826514087617397308349609375" lon="118.83415125310420989990234375">
        <ele>9.6000003814697265625</ele>
        <time>2025-08-04T13:44:09.000Z</time>
        <extensions>
          <ns3:TrackPointExtension>
            <ns3:hr>131</ns3:hr>
          </ns3:TrackPointExtension>
        </extensions>
      </trkpt>
      <trkpt lat="31.9826121814548969268798828125" lon="118.8341245986521244049072265625">
        <ele>9.6000003814697265625</ele>
        <time>2025-08-04T13:44:12.000Z</time>
        <extensions>
          <ns3:TrackPointExtension>
            <ns3:hr>130</ns3:hr>
          </ns3:TrackPointExtension>
        </extensions>
      </trkpt>
      <trkpt lat="31.98254873044788837432861328125" lon="118.83409601636230945587158203125">
        <ele>9.80000019073486328125</ele>
        <time>2025-08-04T13:44:15.000Z</time>
        <extensions>
          <ns3:TrackPointExtension>
            <ns3:hr>127</ns3:hr>
          </ns3:TrackPointExtension>
        </extensions>
      </trkpt>
      <trkpt lat="31.982496343553066253662109375" lon="118.83405494503676891326904296875">
        <ele>9.80000019073486328125</ele>
        <time>2025-08-04T13:44:17.000Z</time>
        <extensions>
          <ns3:TrackPointExtension>
            <ns3:hr>124</ns3:hr>
          </ns3:TrackPointExtension>
        </extensions>
      </trkpt>
      <trkpt lat="31.98230666108429431915283203125" lon="118.83399543352425098419189453125">
        <ele>10</ele>
        <time>2025-08-04T13:44:22.000Z</time>
        <extensions>
          <ns3:TrackPointExtension>
            <ns3:hr>124</ns3:hr>
          </ns3:TrackPointExtension>
        </extensions>
      </trkpt>
      <trkpt lat="31.9821444712579250335693359375" lon="118.8339422084391117095947265625">
        <ele>9.80000019073486328125</ele>
        <time>2025-08-04T13:44:26.000Z</time>
        <extensions>
          <ns3:TrackPointExtension>
            <ns3:hr>126</ns3:hr>
          </ns3:TrackPointExtension>
        </extensions>
      </trkpt>
      <trkpt lat="31.9820237718522548675537109375" lon="118.8338781706988811492919921875">
        <ele>9.3999996185302734375</ele>
        <time>2025-08-04T13:44:29.000Z</time>
        <extensions>
          <ns3:TrackPointExtension>
            <ns3:hr>126</ns3:hr>
          </ns3:TrackPointExtension>
        </extensions>
      </trkpt>
      <trkpt lat="31.9818980433046817779541015625" lon="118.8338231854140758514404296875">
        <ele>9.3999996185302734375</ele>
        <time>2025-08-04T13:44:32.000Z</time>
        <extensions>
          <ns3:TrackPointExtension>
            <ns3:hr>125</ns3:hr>
          </ns3:TrackPointExtension>
        </extensions>
      </trkpt>
      <trkpt lat="31.981770135462284088134765625" lon="118.83376576937735080718994140625">
        <ele>9.19999980926513671875</ele>
        <time>2025-08-04T13:44:35.000Z</time>
        <extensions>
          <ns3:TrackPointExtension>
            <ns3:hr>125</ns3:hr>
          </ns3:TrackPointExtension>
        </extensions>
      </trkpt>
      <trkpt lat="31.98149059899151325225830078125" lon="118.8336709700524806976318359375">
        <ele>9.19999980926513671875</ele>
        <time>2025-08-04T13:44:41.000Z</time>
        <extensions>
          <ns3:TrackPointExtension>
            <ns3:hr>128</ns3:hr>
          </ns3:TrackPointExtension>
        </extensions>
      </trkpt>
      <trkpt lat="31.98144483380019664764404296875" lon="118.83365630172193050384521484375">
        <ele>9.19999980926513671875</ele>
        <time>2025-08-04T13:44:42.000Z</time>
        <extensions>
          <ns3:TrackPointExtension>
            <ns3:hr>128</ns3:hr>
          </ns3:TrackPointExtension>
        </extensions>
      </trkpt>
      <trkpt lat="31.98112145997583866119384765625" lon="118.83353945799171924591064453125">
        <ele>10.19999980926513671875</ele>
        <time>2025-08-04T13:44:48.000Z</time>
        <extensions>
          <ns3:TrackPointExtension>
            <ns3:hr>128</ns3:hr>
          </ns3:TrackPointExtension>
        </extensions>
      </trkpt>
      <trkpt lat="31.98078031651675701141357421875" lon="118.83341498672962188720703125">
        <ele>9.3999996185302734375</ele>
        <time>2025-08-04T13:44:54.000Z</time>
        <extensions>
          <ns3:TrackPointExtension>
            <ns3:hr>131</ns3:hr>
          </ns3:TrackPointExtension>
        </extensions>
      </trkpt>
      <trkpt lat="31.98066917248070240020751953125" lon="118.83337718434631824493408203125">
        <ele>10.3999996185302734375</ele>
        <time>2025-08-04T13:44:56.000Z</time>
        <extensions>
          <ns3:TrackPointExtension>
            <ns3:hr>134</ns3:hr>
          </ns3:TrackPointExtension>
        </extensions>
      </trkpt>
      <trkpt lat="31.9806146062910556793212890625" lon="118.833356313407421112060546875">
        <ele>10.80000019073486328125</ele>
        <time>2025-08-04T13:44:57.000Z</time>
        <extensions>
          <ns3:TrackPointExtension>
            <ns3:hr>135</ns3:hr>
          </ns3:TrackPointExtension>
        </extensions>
      </trkpt>
      <trkpt lat="31.98055836372077465057373046875" lon="118.83333594538271427154541015625">
        <ele>11.19999980926513671875</ele>
        <time>2025-08-04T13:44:58.000Z</time>
        <extensions>
          <ns3:TrackPointExtension>
            <ns3:hr>138</ns3:hr>
          </ns3:TrackPointExtension>
        </extensions>
      </trkpt>
      <trkpt lat="31.98044386692345142364501953125" lon="118.83329068310558795928955078125">
        <ele>11.3999996185302734375</ele>
        <time>2025-08-04T13:45:00.000Z</time>
        <extensions>
          <ns3:TrackPointExtension>
            <ns3:hr>141</ns3:hr>
          </ns3:TrackPointExtension>
        </extensions>
      </trkpt>
      <trkpt lat="31.9803276099264621734619140625" lon="118.8332424871623516082763671875">
        <ele>11.3999996185302734375</ele>
        <time>2025-08-04T13:45:02.000Z</time>
        <extensions>
          <ns3:TrackPointExtension>
            <ns3:hr>143</ns3:hr>
          </ns3:TrackPointExtension>
        </extensions>
      </trkpt>
      <trkpt lat="31.9801599718630313873291015625" lon="118.83316579274833202362060546875">
        <ele>11.3999996185302734375</ele>
        <time>2025-08-04T13:45:05.000Z</time>
        <extensions>
          <ns3:TrackPointExtension>
            <ns3:hr>146</ns3:hr>
          </ns3:TrackPointExtension>
        </extensions>
      </trkpt>
      <trkpt lat="31.979920081794261932373046875" lon="118.83303939364850521087646484375">
        <ele>11.19999980926513671875</ele>
        <time>2025-08-04T13:45:10.000Z</time>
        <extensions>
          <ns3:TrackPointExtension>
            <ns3:hr>146</ns3:hr>
          </ns3:TrackPointExtension>
        </extensions>
      </trkpt>
      <trkpt lat="31.97983617894351482391357421875" lon="118.8329430855810642242431640625">
        <ele>10.6000003814697265625</ele>
        <time>2025-08-04T13:45:13.000Z</time>
        <extensions>
          <ns3:TrackPointExtension>
            <ns3:hr>146</ns3:hr>
          </ns3:TrackPointExtension>
        </extensions>
      </trkpt>
      <trkpt lat="31.97979594580829143524169921875" lon="118.83291198872029781341552734375">
        <ele>10</ele>
        <time>2025-08-04T13:45:14.000Z</time>
        <extensions>
          <ns3:TrackPointExtension>
            <ns3:hr>146</ns3:hr>
          </ns3:TrackPointExtension>
        </extensions>
      </trkpt>
      <trkpt lat="31.97974934242665767669677734375" lon="118.8328773714601993560791015625">
        <ele>9.3999996185302734375</ele>
        <time>2025-08-04T13:45:15.000Z</time>
        <extensions>
          <ns3:TrackPointExtension>
            <ns3:hr>146</ns3:hr>
          </ns3:TrackPointExtension>
        </extensions>
      </trkpt>
      <trkpt lat="31.97964490391314029693603515625" lon="118.83279179222881793975830078125">
        <ele>8</ele>
        <time>2025-08-04T13:45:17.000Z</time>
        <extensions>
          <ns3:TrackPointExtension>
            <ns3:hr>146</ns3:hr>
          </ns3:TrackPointExtension>
        </extensions>
      </trkpt>
      <trkpt lat="31.97958455421030521392822265625" lon="118.8327456079423427581787109375">
        <ele>7.19999980926513671875</ele>
        <time>2025-08-04T13:45:18.000Z</time>
        <extensions>
          <ns3:TrackPointExtension>
            <ns3:hr>146</ns3:hr>
          </ns3:TrackPointExtension>
        </extensions>
      </trkpt>
      <trkpt lat="31.97951816953718662261962890625" lon="118.832698501646518707275390625">
        <ele>6</ele>
        <time>2025-08-04T13:45:19.000Z</time>
        <extensions>
          <ns3:TrackPointExtension>
            <ns3:hr>145</ns3:hr>
          </ns3:TrackPointExtension>
        </extensions>
      </trkpt>
      <trkpt lat="31.97944809682667255401611328125" lon="118.83265986107289791107177734375">
        <ele>5</ele>
        <time>2025-08-04T13:45:20.000Z</time>
        <extensions>
          <ns3:TrackPointExtension>
            <ns3:hr>144</ns3:hr>
          </ns3:TrackPointExtension>
        </extensions>
      </trkpt>
      <trkpt lat="31.97930493392050266265869140625" lon="118.8326021097600460052490234375">
        <ele>4.19999980926513671875</ele>
        <time>2025-08-04T13:45:22.000Z</time>
        <extensions>
          <ns3:TrackPointExtension>
            <ns3:hr>142</ns3:hr>
          </ns3:TrackPointExtension>
        </extensions>
      </trkpt>
      <trkpt lat="31.97923444211483001708984375" lon="118.832573108375072479248046875">
        <ele>4</ele>
        <time>2025-08-04T13:45:23.000Z</time>
        <extensions>
          <ns3:TrackPointExtension>
            <ns3:hr>141</ns3:hr>
          </ns3:TrackPointExtension>
        </extensions>
      </trkpt>
      <trkpt lat="31.97886220179498195648193359375" lon="118.83240136317908763885498046875">
        <ele>4.80000019073486328125</ele>
        <time>2025-08-04T13:45:29.000Z</time>
        <extensions>
          <ns3:TrackPointExtension>
            <ns3:hr>138</ns3:hr>
          </ns3:TrackPointExtension>
        </extensions>
      </trkpt>
      <trkpt lat="31.9786991737782955169677734375" lon="118.8323372416198253631591796875">
        <ele>4.80000019073486328125</ele>
        <time>2025-08-04T13:45:32.000Z</time>
        <extensions>
          <ns3:TrackPointExtension>
            <ns3:hr>135</ns3:hr>
          </ns3:TrackPointExtension>
        </extensions>
      </trkpt>
      <trkpt lat="31.97864410467445850372314453125" lon="118.8323132693767547607421875">
        <ele>5</ele>
        <time>2025-08-04T13:45:33.000Z</time>
        <extensions>
          <ns3:TrackPointExtension>
            <ns3:hr>133</ns3:hr>
          </ns3:TrackPointExtension>
        </extensions>
      </trkpt>
      <trkpt lat="31.9785345532000064849853515625" lon="118.83226272650063037872314453125">
        <ele>5.400000095367431640625</ele>
        <time>2025-08-04T13:45:35.000Z</time>
        <extensions>
          <ns3:TrackPointExtension>
            <ns3:hr>130</ns3:hr>
          </ns3:TrackPointExtension>
        </extensions>
      </trkpt>
      <trkpt lat="31.9783699326217174530029296875" lon="118.83219634182751178741455078125">
        <ele>6</ele>
        <time>2025-08-04T13:45:38.000Z</time>
        <extensions>
          <ns3:TrackPointExtension>
            <ns3:hr>129</ns3:hr>
          </ns3:TrackPointExtension>
        </extensions>
      </trkpt>
      <trkpt lat="31.9781650789082050323486328125" lon="118.8321062363684177398681640625">
        <ele>5.599999904632568359375</ele>
        <time>2025-08-04T13:45:42.000Z</time>
        <extensions>
          <ns3:TrackPointExtension>
            <ns3:hr>126</ns3:hr>
          </ns3:TrackPointExtension>
        </extensions>
      </trkpt>
      <trkpt lat="31.9780638255178928375244140625" lon="118.8320572860538959503173828125">
        <ele>5.400000095367431640625</ele>
        <time>2025-08-04T13:45:44.000Z</time>
        <extensions>
          <ns3:TrackPointExtension>
            <ns3:hr>123</ns3:hr>
          </ns3:TrackPointExtension>
        </extensions>
      </trkpt>
      <trkpt lat="31.97791202925145626068115234375" lon="118.831989057362079620361328125">
        <ele>5.80000019073486328125</ele>
        <time>2025-08-04T13:45:47.000Z</time>
        <extensions>
          <ns3:TrackPointExtension>
            <ns3:hr>123</ns3:hr>
          </ns3:TrackPointExtension>
        </extensions>
      </trkpt>
      <trkpt lat="31.97786542586982250213623046875" lon="118.83196793496608734130859375">
        <ele>6.19999980926513671875</ele>
        <time>2025-08-04T13:45:48.000Z</time>
        <extensions>
          <ns3:TrackPointExtension>
            <ns3:hr>123</ns3:hr>
          </ns3:TrackPointExtension>
        </extensions>
      </trkpt>
      <trkpt lat="31.97769887745380401611328125" lon="118.83188973180949687957763671875">
        <ele>7.400000095367431640625</ele>
        <time>2025-08-04T13:45:51.000Z</time>
        <extensions>
          <ns3:TrackPointExtension>
            <ns3:hr>124</ns3:hr>
          </ns3:TrackPointExtension>
        </extensions>
      </trkpt>
      <trkpt lat="31.9776464067399501800537109375" lon="118.831864334642887115478515625">
        <ele>8</ele>
        <time>2025-08-04T13:45:52.000Z</time>
        <extensions>
          <ns3:TrackPointExtension>
            <ns3:hr>123</ns3:hr>
          </ns3:TrackPointExtension>
        </extensions>
      </trkpt>
      <trkpt lat="31.97732361964881420135498046875" lon="118.831716477870941162109375">
        <ele>6.80000019073486328125</ele>
        <time>2025-08-04T13:45:58.000Z</time>
        <extensions>
          <ns3:TrackPointExtension>
            <ns3:hr>124</ns3:hr>
          </ns3:TrackPointExtension>
        </extensions>
      </trkpt>
      <trkpt lat="31.977214403450489044189453125" lon="118.83167020976543426513671875">
        <ele>6.400000095367431640625</ele>
        <time>2025-08-04T13:46:00.000Z</time>
        <extensions>
          <ns3:TrackPointExtension>
            <ns3:hr>123</ns3:hr>
          </ns3:TrackPointExtension>
        </extensions>
      </trkpt>
      <trkpt lat="31.97695598937571048736572265625" lon="118.831555880606174468994140625">
        <ele>6.80000019073486328125</ele>
        <time>2025-08-04T13:46:05.000Z</time>
        <extensions>
          <ns3:TrackPointExtension>
            <ns3:hr>125</ns3:hr>
          </ns3:TrackPointExtension>
        </extensions>
      </trkpt>
      <trkpt lat="31.9769071228802204132080078125" lon="118.8315305672585964202880859375">
        <ele>6.80000019073486328125</ele>
        <time>2025-08-04T13:46:06.000Z</time>
        <extensions>
          <ns3:TrackPointExtension>
            <ns3:hr>130</ns3:hr>
          </ns3:TrackPointExtension>
        </extensions>
      </trkpt>
      <trkpt lat="31.97650018148124217987060546875" lon="118.8313481770455837249755859375">
        <ele>5.80000019073486328125</ele>
        <time>2025-08-04T13:46:14.000Z</time>
        <extensions>
          <ns3:TrackPointExtension>
            <ns3:hr>132</ns3:hr>
          </ns3:TrackPointExtension>
        </extensions>
      </trkpt>
      <trkpt lat="31.97616088204085826873779296875" lon="118.83119286037981510162353515625">
        <ele>6.19999980926513671875</ele>
        <time>2025-08-04T13:46:20.000Z</time>
        <extensions>
          <ns3:TrackPointExtension>
            <ns3:hr>132</ns3:hr>
          </ns3:TrackPointExtension>
        </extensions>
      </trkpt>
      <trkpt lat="31.9757564552128314971923828125" lon="118.8310088776051998138427734375">
        <ele>5.80000019073486328125</ele>
        <time>2025-08-04T13:46:27.000Z</time>
        <extensions>
          <ns3:TrackPointExtension>
            <ns3:hr>135</ns3:hr>
          </ns3:TrackPointExtension>
        </extensions>
      </trkpt>
      <trkpt lat="31.97563064284622669219970703125" lon="118.8309475220739841461181640625">
        <ele>5.80000019073486328125</ele>
        <time>2025-08-04T13:46:29.000Z</time>
        <extensions>
          <ns3:TrackPointExtension>
            <ns3:hr>135</ns3:hr>
          </ns3:TrackPointExtension>
        </extensions>
      </trkpt>
      <trkpt lat="31.9754288904368877410888671875" lon="118.83085708133876323699951171875">
        <ele>6.599999904632568359375</ele>
        <time>2025-08-04T13:46:33.000Z</time>
        <extensions>
          <ns3:TrackPointExtension>
            <ns3:hr>137</ns3:hr>
          </ns3:TrackPointExtension>
        </extensions>
      </trkpt>
      <trkpt lat="31.9753946922719478607177734375" lon="118.83086982183158397674560546875">
        <ele>6.80000019073486328125</ele>
        <time>2025-08-04T13:46:34.000Z</time>
        <extensions>
          <ns3:TrackPointExtension>
            <ns3:hr>137</ns3:hr>
          </ns3:TrackPointExtension>
        </extensions>
      </trkpt>
      <trkpt lat="31.9753286428749561309814453125" lon="118.83087920956313610076904296875">
        <ele>7.400000095367431640625</ele>
        <time>2025-08-04T13:46:36.000Z</time>
        <extensions>
          <ns3:TrackPointExtension>
            <ns3:hr>137</ns3:hr>
          </ns3:TrackPointExtension>
        </extensions>
      </trkpt>
      <trkpt lat="31.97529888711869716644287109375" lon="118.83087049238383769989013671875">
        <ele>7.599999904632568359375</ele>
        <time>2025-08-04T13:46:37.000Z</time>
        <extensions>
          <ns3:TrackPointExtension>
            <ns3:hr>136</ns3:hr>
          </ns3:TrackPointExtension>
        </extensions>
      </trkpt>
      <trkpt lat="31.9751871563494205474853515625" lon="118.8308244757354259490966796875">
        <ele>8.6000003814697265625</ele>
        <time>2025-08-04T13:46:41.000Z</time>
        <extensions>
          <ns3:TrackPointExtension>
            <ns3:hr>137</ns3:hr>
          </ns3:TrackPointExtension>
        </extensions>
      </trkpt>
      <trkpt lat="31.9751596637070178985595703125" lon="118.8308197818696498870849609375">
        <ele>9</ele>
        <time>2025-08-04T13:46:42.000Z</time>
        <extensions>
          <ns3:TrackPointExtension>
            <ns3:hr>137</ns3:hr>
          </ns3:TrackPointExtension>
        </extensions>
      </trkpt>
      <trkpt lat="31.97506017051637172698974609375" lon="118.83079983294010162353515625">
        <ele>9.80000019073486328125</ele>
        <time>2025-08-04T13:46:46.000Z</time>
        <extensions>
          <ns3:TrackPointExtension>
            <ns3:hr>139</ns3:hr>
          </ns3:TrackPointExtension>
        </extensions>
      </trkpt>
      <trkpt lat="31.9750104658305644989013671875" lon="118.83079119957983493804931640625">
        <ele>10.19999980926513671875</ele>
        <time>2025-08-04T13:46:48.000Z</time>
        <extensions>
          <ns3:TrackPointExtension>
            <ns3:hr>140</ns3:hr>
          </ns3:TrackPointExtension>
        </extensions>
      </trkpt>
      <trkpt lat="31.97488398291170597076416015625" lon="118.8307751901447772979736328125">
        <ele>10.80000019073486328125</ele>
        <time>2025-08-04T13:46:53.000Z</time>
        <extensions>
          <ns3:TrackPointExtension>
            <ns3:hr>142</ns3:hr>
          </ns3:TrackPointExtension>
        </extensions>
      </trkpt>
      <trkpt lat="31.97474936954677104949951171875" lon="118.8307188637554645538330078125">
        <ele>10.6000003814697265625</ele>
        <time>2025-08-04T13:46:58.000Z</time>
        <extensions>
          <ns3:TrackPointExtension>
            <ns3:hr>143</ns3:hr>
          </ns3:TrackPointExtension>
        </extensions>
      </trkpt>
      <trkpt lat="31.97457066737115383148193359375" lon="118.83064921014010906219482421875">
        <ele>10.6000003814697265625</ele>
        <time>2025-08-04T13:47:04.000Z</time>
        <extensions>
          <ns3:TrackPointExtension>
            <ns3:hr>143</ns3:hr>
          </ns3:TrackPointExtension>
        </extensions>
      </trkpt>
      <trkpt lat="31.9743945635855197906494140625" lon="118.83056371472775936126708984375">
        <ele>11.19999980926513671875</ele>
        <time>2025-08-04T13:47:09.000Z</time>
        <extensions>
          <ns3:TrackPointExtension>
            <ns3:hr>144</ns3:hr>
          </ns3:TrackPointExtension>
        </extensions>
      </trkpt>
      <trkpt lat="31.974278725683689117431640625" lon="118.83051325567066669464111328125">
        <ele>11</ele>
        <time>2025-08-04T13:47:12.000Z</time>
        <extensions>
          <ns3:TrackPointExtension>
            <ns3:hr>147</ns3:hr>
          </ns3:TrackPointExtension>
        </extensions>
      </trkpt>
      <trkpt lat="31.97405098937451839447021484375" lon="118.83043781854212284088134765625">
        <ele>10.80000019073486328125</ele>
        <time>2025-08-04T13:47:17.000Z</time>
        <extensions>
          <ns3:TrackPointExtension>
            <ns3:hr>149</ns3:hr>
          </ns3:TrackPointExtension>
        </extensions>
      </trkpt>
      <trkpt lat="31.97367480956017971038818359375" lon="118.83030974306166172027587890625">
        <ele>11.3999996185302734375</ele>
        <time>2025-08-04T13:47:24.000Z</time>
        <extensions>
          <ns3:TrackPointExtension>
            <ns3:hr>150</ns3:hr>
          </ns3:TrackPointExtension>
        </extensions>
      </trkpt>
      <trkpt lat="31.97329712100327014923095703125" lon="118.8302317075431346893310546875">
        <ele>10.19999980926513671875</ele>
        <time>2025-08-04T13:47:31.000Z</time>
        <extensions>
          <ns3:TrackPointExtension>
            <ns3:hr>150</ns3:hr>
          </ns3:TrackPointExtension>
        </extensions>
      </trkpt>
      <trkpt lat="31.9731151498854160308837890625" lon="118.83018434979021549224853515625">
        <ele>10.80000019073486328125</ele>
        <time>2025-08-04T13:47:35.000Z</time>
        <extensions>
          <ns3:TrackPointExtension>
            <ns3:hr>148</ns3:hr>
          </ns3:TrackPointExtension>
        </extensions>
      </trkpt>
      <trkpt lat="31.9730152375996112823486328125" lon="118.83016825653612613677978515625">
        <ele>11.19999980926513671875</ele>
        <time>2025-08-04T13:47:37.000Z</time>
        <extensions>
          <ns3:TrackPointExtension>
            <ns3:hr>146</ns3:hr>
          </ns3:TrackPointExtension>
        </extensions>
      </trkpt>
      <trkpt lat="31.9726521335542201995849609375" lon="118.830124251544475555419921875">
        <ele>11.3999996185302734375</ele>
        <time>2025-08-04T13:47:44.000Z</time>
        <extensions>
          <ns3:TrackPointExtension>
            <ns3:hr>144</ns3:hr>
          </ns3:TrackPointExtension>
        </extensions>
      </trkpt>
      <trkpt lat="31.97231140919029712677001953125" lon="118.83007295429706573486328125">
        <ele>11.6000003814697265625</ele>
        <time>2025-08-04T13:47:50.000Z</time>
        <extensions>
          <ns3:TrackPointExtension>
            <ns3:hr>145</ns3:hr>
          </ns3:TrackPointExtension>
        </extensions>
      </trkpt>
      <trkpt lat="31.97204620577394962310791015625" lon="118.83001671172678470611572265625">
        <ele>11.80000019073486328125</ele>
        <time>2025-08-04T13:47:55.000Z</time>
        <extensions>
          <ns3:TrackPointExtension>
            <ns3:hr>144</ns3:hr>
          </ns3:TrackPointExtension>
        </extensions>
      </trkpt>
      <trkpt lat="31.9719421863555908203125" lon="118.829994834959506988525390625">
        <ele>11.6000003814697265625</ele>
        <time>2025-08-04T13:47:57.000Z</time>
        <extensions>
          <ns3:TrackPointExtension>
            <ns3:hr>144</ns3:hr>
          </ns3:TrackPointExtension>
        </extensions>
      </trkpt>
      <trkpt lat="31.97151462547481060028076171875" lon="118.8299594633281230926513671875">
        <ele>11.80000019073486328125</ele>
        <time>2025-08-04T13:48:05.000Z</time>
        <extensions>
          <ns3:TrackPointExtension>
            <ns3:hr>141</ns3:hr>
          </ns3:TrackPointExtension>
        </extensions>
      </trkpt>
      <trkpt lat="31.97115554474294185638427734375" lon="118.8300164602696895599365234375">
        <ele>11.19999980926513671875</ele>
        <time>2025-08-04T13:48:12.000Z</time>
        <extensions>
          <ns3:TrackPointExtension>
            <ns3:hr>139</ns3:hr>
          </ns3:TrackPointExtension>
        </extensions>
      </trkpt>
      <trkpt lat="31.97099863551557064056396484375" lon="118.8300709426403045654296875">
        <ele>11.19999980926513671875</ele>
        <time>2025-08-04T13:48:16.000Z</time>
        <extensions>
          <ns3:TrackPointExtension>
            <ns3:hr>137</ns3:hr>
          </ns3:TrackPointExtension>
        </extensions>
      </trkpt>
      <trkpt lat="31.9709650240838527679443359375" lon="118.83009650744497776031494140625">
        <ele>11.19999980926513671875</ele>
        <time>2025-08-04T13:48:17.000Z</time>
        <extensions>
          <ns3:TrackPointExtension>
            <ns3:hr>135</ns3:hr>
          </ns3:TrackPointExtension>
        </extensions>
      </trkpt>
      <trkpt lat="31.9708594121038913726806640625" lon="118.8302032090723514556884765625">
        <ele>11.19999980926513671875</ele>
        <time>2025-08-04T13:48:20.000Z</time>
        <extensions>
          <ns3:TrackPointExtension>
            <ns3:hr>132</ns3:hr>
          </ns3:TrackPointExtension>
        </extensions>
      </trkpt>
      <trkpt lat="31.97076394222676753997802734375" lon="118.830219805240631103515625">
        <ele>11.19999980926513671875</ele>
        <time>2025-08-04T13:48:22.000Z</time>
        <extensions>
          <ns3:TrackPointExtension>
            <ns3:hr>130</ns3:hr>
          </ns3:TrackPointExtension>
        </extensions>
      </trkpt>
      <trkpt lat="31.9707102142274379730224609375" lon="118.83021913468837738037109375">
        <ele>11</ele>
        <time>2025-08-04T13:48:23.000Z</time>
        <extensions>
          <ns3:TrackPointExtension>
            <ns3:hr>129</ns3:hr>
          </ns3:TrackPointExtension>
        </extensions>
      </trkpt>
      <trkpt lat="31.9706602580845355987548828125" lon="118.83021016605198383331298828125">
        <ele>10.80000019073486328125</ele>
        <time>2025-08-04T13:48:24.000Z</time>
        <extensions>
          <ns3:TrackPointExtension>
            <ns3:hr>129</ns3:hr>
          </ns3:TrackPointExtension>
        </extensions>
      </trkpt>
      <trkpt lat="31.97050561197102069854736328125" lon="118.8301908038556575775146484375">
        <ele>10</ele>
        <time>2025-08-04T13:48:27.000Z</time>
        <extensions>
          <ns3:TrackPointExtension>
            <ns3:hr>128</ns3:hr>
          </ns3:TrackPointExtension>
        </extensions>
      </trkpt>
      <trkpt lat="31.97044325061142444610595703125" lon="118.83017663843929767608642578125">
        <ele>9.6000003814697265625</ele>
        <time>2025-08-04T13:48:28.000Z</time>
        <extensions>
          <ns3:TrackPointExtension>
            <ns3:hr>128</ns3:hr>
          </ns3:TrackPointExtension>
        </extensions>
      </trkpt>
      <trkpt lat="31.97003991343080997467041015625" lon="118.830127604305744171142578125">
        <ele>10.3999996185302734375</ele>
        <time>2025-08-04T13:48:35.000Z</time>
        <extensions>
          <ns3:TrackPointExtension>
            <ns3:hr>131</ns3:hr>
          </ns3:TrackPointExtension>
        </extensions>
      </trkpt>
      <trkpt lat="31.9698512367904186248779296875" lon="118.83010690100491046905517578125">
        <ele>10.3999996185302734375</ele>
        <time>2025-08-04T13:48:39.000Z</time>
        <extensions>
          <ns3:TrackPointExtension>
            <ns3:hr>134</ns3:hr>
          </ns3:TrackPointExtension>
        </extensions>
      </trkpt>
      <trkpt lat="31.9697550125420093536376953125" lon="118.83010606281459331512451171875">
        <ele>10.3999996185302734375</ele>
        <time>2025-08-04T13:48:41.000Z</time>
        <extensions>
          <ns3:TrackPointExtension>
            <ns3:hr>135</ns3:hr>
          </ns3:TrackPointExtension>
        </extensions>
      </trkpt>
      <trkpt lat="31.9696088321506977081298828125" lon="118.8301079906523227691650390625">
        <ele>10.80000019073486328125</ele>
        <time>2025-08-04T13:48:44.000Z</time>
        <extensions>
          <ns3:TrackPointExtension>
            <ns3:hr>134</ns3:hr>
          </ns3:TrackPointExtension>
        </extensions>
      </trkpt>
      <trkpt lat="31.96940456517040729522705078125" lon="118.83008695207536220550537109375">
        <ele>10.80000019073486328125</ele>
        <time>2025-08-04T13:48:48.000Z</time>
        <extensions>
          <ns3:TrackPointExtension>
            <ns3:hr>134</ns3:hr>
          </ns3:TrackPointExtension>
        </extensions>
      </trkpt>
      <trkpt lat="31.96935242973268032073974609375" lon="118.83007085882127285003662109375">
        <ele>10.80000019073486328125</ele>
        <time>2025-08-04T13:48:49.000Z</time>
        <extensions>
          <ns3:TrackPointExtension>
            <ns3:hr>134</ns3:hr>
          </ns3:TrackPointExtension>
        </extensions>
      </trkpt>
      <trkpt lat="31.9689624197781085968017578125" lon="118.83002006448805332183837890625">
        <ele>11.19999980926513671875</ele>
        <time>2025-08-04T13:48:56.000Z</time>
        <extensions>
          <ns3:TrackPointExtension>
            <ns3:hr>135</ns3:hr>
          </ns3:TrackPointExtension>
        </extensions>
      </trkpt>
      <trkpt lat="31.968709789216518402099609375" lon="118.8299923203885555267333984375">
        <ele>11</ele>
        <time>2025-08-04T13:49:01.000Z</time>
        <extensions>
          <ns3:TrackPointExtension>
            <ns3:hr>135</ns3:hr>
          </ns3:TrackPointExtension>
        </extensions>
      </trkpt>
      <trkpt lat="31.9684863276779651641845703125" lon="118.8299551047384738922119140625">
        <ele>10.80000019073486328125</ele>
        <time>2025-08-04T13:49:05.000Z</time>
        <extensions>
          <ns3:TrackPointExtension>
            <ns3:hr>135</ns3:hr>
          </ns3:TrackPointExtension>
        </extensions>
      </trkpt>
      <trkpt lat="31.968395970761775970458984375" lon="118.8298957608640193939208984375">
        <ele>11.19999980926513671875</ele>
        <time>2025-08-04T13:49:07.000Z</time>
        <extensions>
          <ns3:TrackPointExtension>
            <ns3:hr>137</ns3:hr>
          </ns3:TrackPointExtension>
        </extensions>
      </trkpt>
      <trkpt lat="31.96832665242254734039306640625" lon="118.82976676337420940399169921875">
        <ele>11.19999980926513671875</ele>
        <time>2025-08-04T13:49:10.000Z</time>
        <extensions>
          <ns3:TrackPointExtension>
            <ns3:hr>137</ns3:hr>
          </ns3:TrackPointExtension>
        </extensions>
      </trkpt>
      <trkpt lat="31.9683240540325641632080078125" lon="118.8297147117555141448974609375">
        <ele>11.19999980926513671875</ele>
        <time>2025-08-04T13:49:11.000Z</time>
        <extensions>
          <ns3:TrackPointExtension>
            <ns3:hr>137</ns3:hr>
          </ns3:TrackPointExtension>
        </extensions>
      </trkpt>
      <trkpt lat="31.9683378003537654876708984375" lon="118.82966584526002407073974609375">
        <ele>11</ele>
        <time>2025-08-04T13:49:12.000Z</time>
        <extensions>
          <ns3:TrackPointExtension>
            <ns3:hr>137</ns3:hr>
          </ns3:TrackPointExtension>
        </extensions>
      </trkpt>
      <trkpt lat="31.96838901378214359283447265625" lon="118.8295782543718814849853515625">
        <ele>11</ele>
        <time>2025-08-04T13:49:14.000Z</time>
        <extensions>
          <ns3:TrackPointExtension>
            <ns3:hr>136</ns3:hr>
          </ns3:TrackPointExtension>
        </extensions>
      </trkpt>
      <trkpt lat="31.968409381806850433349609375" lon="118.8295232690870761871337890625">
        <ele>11</ele>
        <time>2025-08-04T13:49:15.000Z</time>
        <extensions>
          <ns3:TrackPointExtension>
            <ns3:hr>135</ns3:hr>
          </ns3:TrackPointExtension>
        </extensions>
      </trkpt>
      <trkpt lat="31.96842522360384464263916015625" lon="118.82940240204334259033203125">
        <ele>11</ele>
        <time>2025-08-04T13:49:17.000Z</time>
        <extensions>
          <ns3:TrackPointExtension>
            <ns3:hr>133</ns3:hr>
          </ns3:TrackPointExtension>
        </extensions>
      </trkpt>
      <trkpt lat="31.96843192912638187408447265625" lon="118.82933895103633403778076171875">
        <ele>11</ele>
        <time>2025-08-04T13:49:18.000Z</time>
        <extensions>
          <ns3:TrackPointExtension>
            <ns3:hr>133</ns3:hr>
          </ns3:TrackPointExtension>
        </extensions>
      </trkpt>
      <trkpt lat="31.96846545673906803131103515625" lon="118.82890225388109683990478515625">
        <ele>10.80000019073486328125</ele>
        <time>2025-08-04T13:49:25.000Z</time>
        <extensions>
          <ns3:TrackPointExtension>
            <ns3:hr>133</ns3:hr>
          </ns3:TrackPointExtension>
        </extensions>
      </trkpt>
      <trkpt lat="31.9683994911611080169677734375" lon="118.82880150340497493743896484375">
        <ele>10.3999996185302734375</ele>
        <time>2025-08-04T13:49:27.000Z</time>
        <extensions>
          <ns3:TrackPointExtension>
            <ns3:hr>133</ns3:hr>
          </ns3:TrackPointExtension>
        </extensions>
      </trkpt>
      <trkpt lat="31.968355737626552581787109375" lon="118.82875674404203891754150390625">
        <ele>10.3999996185302734375</ele>
        <time>2025-08-04T13:49:28.000Z</time>
        <extensions>
          <ns3:TrackPointExtension>
            <ns3:hr>132</ns3:hr>
          </ns3:TrackPointExtension>
        </extensions>
      </trkpt>
      <trkpt lat="31.96804921142756938934326171875" lon="118.8284403271973133087158203125">
        <ele>11.3999996185302734375</ele>
        <time>2025-08-04T13:49:34.000Z</time>
        <extensions>
          <ns3:TrackPointExtension>
            <ns3:hr>133</ns3:hr>
          </ns3:TrackPointExtension>
        </extensions>
      </trkpt>
      <trkpt lat="31.967876292765140533447265625" lon="118.82820135913789272308349609375">
        <ele>11.19999980926513671875</ele>
        <time>2025-08-04T13:49:38.000Z</time>
        <extensions>
          <ns3:TrackPointExtension>
            <ns3:hr>136</ns3:hr>
          </ns3:TrackPointExtension>
        </extensions>
      </trkpt>
      <trkpt lat="31.96784921921789646148681640625" lon="118.82813598029315471649169921875">
        <ele>11.19999980926513671875</ele>
        <time>2025-08-04T13:49:39.000Z</time>
        <extensions>
          <ns3:TrackPointExtension>
            <ns3:hr>138</ns3:hr>
          </ns3:TrackPointExtension>
        </extensions>
      </trkpt>
      <trkpt lat="31.96777311153709888458251953125" lon="118.82780003361403942108154296875">
        <ele>11.6000003814697265625</ele>
        <time>2025-08-04T13:49:44.000Z</time>
        <extensions>
          <ns3:TrackPointExtension>
            <ns3:hr>138</ns3:hr>
          </ns3:TrackPointExtension>
        </extensions>
      </trkpt>
      <trkpt lat="31.96776808239519596099853515625" lon="118.82758813910186290740966796875">
        <ele>11.6000003814697265625</ele>
        <time>2025-08-04T13:49:47.000Z</time>
        <extensions>
          <ns3:TrackPointExtension>
            <ns3:hr>140</ns3:hr>
          </ns3:TrackPointExtension>
        </extensions>
      </trkpt>
      <trkpt lat="31.96778434328734874725341796875" lon="118.82746056653559207916259765625">
        <ele>11.80000019073486328125</ele>
        <time>2025-08-04T13:49:49.000Z</time>
        <extensions>
          <ns3:TrackPointExtension>
            <ns3:hr>140</ns3:hr>
          </ns3:TrackPointExtension>
        </extensions>
      </trkpt>
      <trkpt lat="31.96779943071305751800537109375" lon="118.827400468289852142333984375">
        <ele>11.3999996185302734375</ele>
        <time>2025-08-04T13:49:50.000Z</time>
        <extensions>
          <ns3:TrackPointExtension>
            <ns3:hr>140</ns3:hr>
          </ns3:TrackPointExtension>
        </extensions>
      </trkpt>
      <trkpt lat="31.96784519590437412261962890625" lon="118.82717692293226718902587890625">
        <ele>9.3999996185302734375</ele>
        <time>2025-08-04T13:49:54.000Z</time>
        <extensions>
          <ns3:TrackPointExtension>
            <ns3:hr>139</ns3:hr>
          </ns3:TrackPointExtension>
        </extensions>
      </trkpt>
      <trkpt lat="31.96789213456213474273681640625" lon="118.82701314054429531097412109375">
        <ele>9.6000003814697265625</ele>
        <time>2025-08-04T13:49:57.000Z</time>
        <extensions>
          <ns3:TrackPointExtension>
            <ns3:hr>140</ns3:hr>
          </ns3:TrackPointExtension>
        </extensions>
      </trkpt>
      <trkpt lat="31.96800143457949161529541015625" lon="118.82660678587853908538818359375">
        <ele>9.80000019073486328125</ele>
        <time>2025-08-04T13:50:04.000Z</time>
        <extensions>
          <ns3:TrackPointExtension>
            <ns3:hr>141</ns3:hr>
          </ns3:TrackPointExtension>
        </extensions>
      </trkpt>
      <trkpt lat="31.9681441783905029296875" lon="118.8261923007667064666748046875">
        <ele>9.6000003814697265625</ele>
        <time>2025-08-04T13:50:11.000Z</time>
        <extensions>
          <ns3:TrackPointExtension>
            <ns3:hr>142</ns3:hr>
          </ns3:TrackPointExtension>
        </extensions>
      </trkpt>
      <trkpt lat="31.9682794623076915740966796875" lon="118.8257259316742420196533203125">
        <ele>9.3999996185302734375</ele>
        <time>2025-08-04T13:50:18.000Z</time>
        <extensions>
          <ns3:TrackPointExtension>
            <ns3:hr>139</ns3:hr>
          </ns3:TrackPointExtension>
        </extensions>
      </trkpt>
      <trkpt lat="31.96829974651336669921875" lon="118.825662396848201751708984375">
        <ele>9.3999996185302734375</ele>
        <time>2025-08-04T13:50:19.000Z</time>
        <extensions>
          <ns3:TrackPointExtension>
            <ns3:hr>139</ns3:hr>
          </ns3:TrackPointExtension>
        </extensions>
      </trkpt>
      <trkpt lat="31.96843184530735015869140625" lon="118.82524774409830570220947265625">
        <ele>10.3999996185302734375</ele>
        <time>2025-08-04T13:50:26.000Z</time>
        <extensions>
          <ns3:TrackPointExtension>
            <ns3:hr>138</ns3:hr>
          </ns3:TrackPointExtension>
        </extensions>
      </trkpt>
      <trkpt lat="31.96844835765659809112548828125" lon="118.82519007660448551177978515625">
        <ele>10.6000003814697265625</ele>
        <time>2025-08-04T13:50:27.000Z</time>
        <extensions>
          <ns3:TrackPointExtension>
            <ns3:hr>137</ns3:hr>
          </ns3:TrackPointExtension>
        </extensions>
      </trkpt>
      <trkpt lat="31.968529410660266876220703125" lon="118.8249048404395580291748046875">
        <ele>10.80000019073486328125</ele>
        <time>2025-08-04T13:50:32.000Z</time>
        <extensions>
          <ns3:TrackPointExtension>
            <ns3:hr>134</ns3:hr>
          </ns3:TrackPointExtension>
        </extensions>
      </trkpt>
      <trkpt lat="31.96857609786093235015869140625" lon="118.82472538389265537261962890625">
        <ele>11</ele>
        <time>2025-08-04T13:50:35.000Z</time>
        <extensions>
          <ns3:TrackPointExtension>
            <ns3:hr>133</ns3:hr>
          </ns3:TrackPointExtension>
        </extensions>
      </trkpt>
      <trkpt lat="31.96870668791234493255615234375" lon="118.82431400008499622344970703125">
        <ele>11.19999980926513671875</ele>
        <time>2025-08-04T13:50:43.000Z</time>
        <extensions>
          <ns3:TrackPointExtension>
            <ns3:hr>131</ns3:hr>
          </ns3:TrackPointExtension>
        </extensions>
      </trkpt>
      <trkpt lat="31.96877726353704929351806640625" lon="118.824191875755786895751953125">
        <ele>11</ele>
        <time>2025-08-04T13:50:47.000Z</time>
        <extensions>
          <ns3:TrackPointExtension>
            <ns3:hr>129</ns3:hr>
          </ns3:TrackPointExtension>
        </extensions>
      </trkpt>
      <trkpt lat="31.96877650916576385498046875" lon="118.82419983856379985809326171875">
        <ele>11</ele>
        <time>2025-08-04T13:50:50.000Z</time>
        <extensions>
          <ns3:TrackPointExtension>
            <ns3:hr>128</ns3:hr>
          </ns3:TrackPointExtension>
        </extensions>
      </trkpt>
    </trkseg>
  </trk>
</gpx>
