<gpx xmlns:ns3="http://www.garmin.com/xmlschemas/TrackPointExtension/v1" xmlns="http://www.topografix.com/GPX/1/1" xmlns:xsi="http://www.w3.org/2001/XMLSchema-instance" xmlns:ns2="http://www.garmin.com/xmlschemas/GpxExtensions/v3" creator="Garmin Connect" version="1.1" xsi:schemaLocation="http://www.topografix.com/GPX/1/1 http://www.topografix.com/GPX/11.xsd">
  <extensions>
<distance>2114.77</distance>
<average_hr>141.0</average_hr>
<average_speed>5.040999889373779</average_speed>
<start_time>2025-08-07T11:51:32+00:00</start_time>
<end_time>2025-08-07T11:58:31.518000+00:00</end_time>
<moving_time>419.0</moving_time>
<elapsed_time>419.518</elapsed_time>
</extensions>
<metadata>
    <link href="connect.garmin.com">
      <text>Garmin Connect</text>
    </link>
    <time>2025-08-07T11:51:32.000Z</time>
  </metadata>
  <trk>
    <name>南京市 骑行</name>
    <type>cycling</type>
    <trkseg>
      <trkpt lat="32.02350388281047344207763671875" lon="118.82537665776908397674560546875">
        <ele>16.799999237060546875</ele>
        <time>2025-08-07T11:51:32.000Z</time>
        <extensions>
          <ns3:TrackPointExtension>
            <ns3:atemp>33.0</ns3:atemp>
            <ns3:hr>152</ns3:hr>
          </ns3:TrackPointExtension>
        </extensions>
      </trkpt>
      <trkpt lat="32.02352835796773433685302734375" lon="118.825335167348384857177734375">
        <ele>16.799999237060546875</ele>
        <time>2025-08-07T11:51:33.000Z</time>
        <extensions>
          <ns3:TrackPointExtension>
            <ns3:atemp>33.0</ns3:atemp>
            <ns3:hr>151</ns3:hr>
          </ns3:TrackPointExtension>
        </extensions>
      </trkpt>
      <trkpt lat="32.02347211539745330810546875" lon="118.82533080875873565673828125">
        <ele>16.799999237060546875</ele>
        <time>2025-08-07T11:51:35.000Z</time>
        <extensions>
          <ns3:TrackPointExtension>
            <ns3:atemp>33.0</ns3:atemp>
            <ns3:hr>148</ns3:hr>
          </ns3:TrackPointExtension>
        </extensions>
      </trkpt>
      <trkpt lat="32.02345962636172771453857421875" lon="118.82532334886491298675537109375">
        <ele>16.799999237060546875</ele>
        <time>2025-08-07T11:51:36.000Z</time>
        <extensions>
          <ns3:TrackPointExtension>
            <ns3:atemp>33.0</ns3:atemp>
            <ns3:hr>148</ns3:hr>
          </ns3:TrackPointExtension>
        </extensions>
      </trkpt>
      <trkpt lat="32.02329106628894805908203125" lon="118.82528495974838733673095703125">
        <ele>16.3999996185302734375</ele>
        <time>2025-08-07T11:51:42.000Z</time>
        <extensions>
          <ns3:TrackPointExtension>
            <ns3:atemp>33.0</ns3:atemp>
            <ns3:hr>145</ns3:hr>
          </ns3:TrackPointExtension>
        </extensions>
      </trkpt>
      <trkpt lat="32.0230374298989772796630859375" lon="118.8252790085971355438232421875">
        <ele>16.799999237060546875</ele>
        <time>2025-08-07T11:51:48.000Z</time>
        <extensions>
          <ns3:TrackPointExtension>
            <ns3:atemp>33.0</ns3:atemp>
            <ns3:hr>141</ns3:hr>
          </ns3:TrackPointExtension>
        </extensions>
      </trkpt>
      <trkpt lat="32.02280801720917224884033203125" lon="118.825262747704982757568359375">
        <ele>15.6000003814697265625</ele>
        <time>2025-08-07T11:51:53.000Z</time>
        <extensions>
          <ns3:TrackPointExtension>
            <ns3:atemp>33.0</ns3:atemp>
            <ns3:hr>142</ns3:hr>
          </ns3:TrackPointExtension>
        </extensions>
      </trkpt>
      <trkpt lat="32.02267675660550594329833984375" lon="118.82525034248828887939453125">
        <ele>15.3999996185302734375</ele>
        <time>2025-08-07T11:51:56.000Z</time>
        <extensions>
          <ns3:TrackPointExtension>
            <ns3:atemp>33.0</ns3:atemp>
            <ns3:hr>143</ns3:hr>
          </ns3:TrackPointExtension>
        </extensions>
      </trkpt>
      <trkpt lat="32.02259905636310577392578125" lon="118.82524103857576847076416015625">
        <ele>15.19999980926513671875</ele>
        <time>2025-08-07T11:51:58.000Z</time>
        <extensions>
          <ns3:TrackPointExtension>
            <ns3:atemp>33.0</ns3:atemp>
            <ns3:hr>143</ns3:hr>
          </ns3:TrackPointExtension>
        </extensions>
      </trkpt>
      <trkpt lat="32.022522948682308197021484375" lon="118.82520985789597034454345703125">
        <ele>15</ele>
        <time>2025-08-07T11:52:00.000Z</time>
        <extensions>
          <ns3:TrackPointExtension>
            <ns3:atemp>33.0</ns3:atemp>
            <ns3:hr>143</ns3:hr>
          </ns3:TrackPointExtension>
        </extensions>
      </trkpt>
      <trkpt lat="32.0224815420806407928466796875" lon="118.82520432583987712860107421875">
        <ele>14.80000019073486328125</ele>
        <time>2025-08-07T11:52:01.000Z</time>
        <extensions>
          <ns3:TrackPointExtension>
            <ns3:atemp>33.0</ns3:atemp>
            <ns3:hr>142</ns3:hr>
          </ns3:TrackPointExtension>
        </extensions>
      </trkpt>
      <trkpt lat="32.0223128981888294219970703125" lon="118.8251898251473903656005859375">
        <ele>14.6000003814697265625</ele>
        <time>2025-08-07T11:52:05.000Z</time>
        <extensions>
          <ns3:TrackPointExtension>
            <ns3:atemp>33.0</ns3:atemp>
            <ns3:hr>142</ns3:hr>
          </ns3:TrackPointExtension>
        </extensions>
      </trkpt>
      <trkpt lat="32.0221881754696369171142578125" lon="118.8251807726919651031494140625">
        <ele>14.80000019073486328125</ele>
        <time>2025-08-07T11:52:08.000Z</time>
        <extensions>
          <ns3:TrackPointExtension>
            <ns3:atemp>33.0</ns3:atemp>
            <ns3:hr>143</ns3:hr>
          </ns3:TrackPointExtension>
        </extensions>
      </trkpt>
      <trkpt lat="32.02188684605062007904052734375" lon="118.82515990175306797027587890625">
        <ele>14.6000003814697265625</ele>
        <time>2025-08-07T11:52:16.000Z</time>
        <extensions>
          <ns3:TrackPointExtension>
            <ns3:atemp>33.0</ns3:atemp>
            <ns3:hr>142</ns3:hr>
          </ns3:TrackPointExtension>
        </extensions>
      </trkpt>
      <trkpt lat="32.02173664234578609466552734375" lon="118.8251341693103313446044921875">
        <ele>14.3999996185302734375</ele>
        <time>2025-08-07T11:52:22.000Z</time>
        <extensions>
          <ns3:TrackPointExtension>
            <ns3:atemp>33.0</ns3:atemp>
            <ns3:hr>141</ns3:hr>
          </ns3:TrackPointExtension>
        </extensions>
      </trkpt>
      <trkpt lat="32.02173261903226375579833984375" lon="118.82514129392802715301513671875">
        <ele>14.19999980926513671875</ele>
        <time>2025-08-07T11:52:23.000Z</time>
        <extensions>
          <ns3:TrackPointExtension>
            <ns3:atemp>33.0</ns3:atemp>
            <ns3:hr>141</ns3:hr>
          </ns3:TrackPointExtension>
        </extensions>
      </trkpt>
      <trkpt lat="32.0217251591384410858154296875" lon="118.8251723907887935638427734375">
        <ele>14.19999980926513671875</ele>
        <time>2025-08-07T11:52:25.000Z</time>
        <extensions>
          <ns3:TrackPointExtension>
            <ns3:atemp>33.0</ns3:atemp>
            <ns3:hr>138</ns3:hr>
          </ns3:TrackPointExtension>
        </extensions>
      </trkpt>
      <trkpt lat="32.021720297634601593017578125" lon="118.82519275881350040435791015625">
        <ele>14.19999980926513671875</ele>
        <time>2025-08-07T11:52:26.000Z</time>
        <extensions>
          <ns3:TrackPointExtension>
            <ns3:atemp>33.0</ns3:atemp>
            <ns3:hr>137</ns3:hr>
          </ns3:TrackPointExtension>
        </extensions>
      </trkpt>
      <trkpt lat="32.021712251007556915283203125" lon="118.82536458782851696014404296875">
        <ele>14.6000003814697265625</ele>
        <time>2025-08-07T11:52:32.000Z</time>
        <extensions>
          <ns3:TrackPointExtension>
            <ns3:atemp>33.0</ns3:atemp>
            <ns3:hr>137</ns3:hr>
          </ns3:TrackPointExtension>
        </extensions>
      </trkpt>
      <trkpt lat="32.0216752029955387115478515625" lon="118.82546567358076572418212890625">
        <ele>14.3999996185302734375</ele>
        <time>2025-08-07T11:52:37.000Z</time>
        <extensions>
          <ns3:TrackPointExtension>
            <ns3:atemp>33.0</ns3:atemp>
            <ns3:hr>137</ns3:hr>
          </ns3:TrackPointExtension>
        </extensions>
      </trkpt>
      <trkpt lat="32.02161200344562530517578125" lon="118.82548193447291851043701171875">
        <ele>14.6000003814697265625</ele>
        <time>2025-08-07T11:52:41.000Z</time>
        <extensions>
          <ns3:TrackPointExtension>
            <ns3:atemp>33.0</ns3:atemp>
            <ns3:hr>136</ns3:hr>
          </ns3:TrackPointExtension>
        </extensions>
      </trkpt>
      <trkpt lat="32.0215980894863605499267578125" lon="118.82546885870397090911865234375">
        <ele>14.6000003814697265625</ele>
        <time>2025-08-07T11:52:42.000Z</time>
        <extensions>
          <ns3:TrackPointExtension>
            <ns3:atemp>33.0</ns3:atemp>
            <ns3:hr>136</ns3:hr>
          </ns3:TrackPointExtension>
        </extensions>
      </trkpt>
      <trkpt lat="32.02150069177150726318359375" lon="118.82535654120147228240966796875">
        <ele>13.6000003814697265625</ele>
        <time>2025-08-07T11:52:47.000Z</time>
        <extensions>
          <ns3:TrackPointExtension>
            <ns3:atemp>33.0</ns3:atemp>
            <ns3:hr>134</ns3:hr>
          </ns3:TrackPointExtension>
        </extensions>
      </trkpt>
      <trkpt lat="32.0214800722897052764892578125" lon="118.82532385177910327911376953125">
        <ele>13.19999980926513671875</ele>
        <time>2025-08-07T11:52:48.000Z</time>
        <extensions>
          <ns3:TrackPointExtension>
            <ns3:atemp>33.0</ns3:atemp>
            <ns3:hr>134</ns3:hr>
          </ns3:TrackPointExtension>
        </extensions>
      </trkpt>
      <trkpt lat="32.02136465348303318023681640625" lon="118.82516526617109775543212890625">
        <ele>13</ele>
        <time>2025-08-07T11:52:53.000Z</time>
        <extensions>
          <ns3:TrackPointExtension>
            <ns3:atemp>33.0</ns3:atemp>
            <ns3:hr>131</ns3:hr>
          </ns3:TrackPointExtension>
        </extensions>
      </trkpt>
      <trkpt lat="32.02129960991442203521728515625" lon="118.8251133821904659271240234375">
        <ele>13.19999980926513671875</ele>
        <time>2025-08-07T11:52:55.000Z</time>
        <extensions>
          <ns3:TrackPointExtension>
            <ns3:atemp>33.0</ns3:atemp>
            <ns3:hr>131</ns3:hr>
          </ns3:TrackPointExtension>
        </extensions>
      </trkpt>
      <trkpt lat="32.02121101319789886474609375" lon="118.82509209215641021728515625">
        <ele>13.19999980926513671875</ele>
        <time>2025-08-07T11:52:57.000Z</time>
        <extensions>
          <ns3:TrackPointExtension>
            <ns3:atemp>33.0</ns3:atemp>
            <ns3:hr>131</ns3:hr>
          </ns3:TrackPointExtension>
        </extensions>
      </trkpt>
      <trkpt lat="32.0211126096546649932861328125" lon="118.82508228532969951629638671875">
        <ele>13.19999980926513671875</ele>
        <time>2025-08-07T11:52:59.000Z</time>
        <extensions>
          <ns3:TrackPointExtension>
            <ns3:atemp>33.0</ns3:atemp>
            <ns3:hr>133</ns3:hr>
          </ns3:TrackPointExtension>
        </extensions>
      </trkpt>
      <trkpt lat="32.02073165215551853179931640625" lon="118.8250496797263622283935546875">
        <ele>13</ele>
        <time>2025-08-07T11:53:06.000Z</time>
        <extensions>
          <ns3:TrackPointExtension>
            <ns3:atemp>33.0</ns3:atemp>
            <ns3:hr>135</ns3:hr>
          </ns3:TrackPointExtension>
        </extensions>
      </trkpt>
      <trkpt lat="32.0205087773501873016357421875" lon="118.82503920234739780426025390625">
        <ele>12.80000019073486328125</ele>
        <time>2025-08-07T11:53:10.000Z</time>
        <extensions>
          <ns3:TrackPointExtension>
            <ns3:atemp>33.0</ns3:atemp>
            <ns3:hr>139</ns3:hr>
          </ns3:TrackPointExtension>
        </extensions>
      </trkpt>
      <trkpt lat="32.02038891613483428955078125" lon="118.825027048587799072265625">
        <ele>12.3999996185302734375</ele>
        <time>2025-08-07T11:53:12.000Z</time>
        <extensions>
          <ns3:TrackPointExtension>
            <ns3:atemp>33.0</ns3:atemp>
            <ns3:hr>140</ns3:hr>
          </ns3:TrackPointExtension>
        </extensions>
      </trkpt>
      <trkpt lat="32.02032965607941150665283203125" lon="118.82501992397010326385498046875">
        <ele>12.3999996185302734375</ele>
        <time>2025-08-07T11:53:13.000Z</time>
        <extensions>
          <ns3:TrackPointExtension>
            <ns3:atemp>33.0</ns3:atemp>
            <ns3:hr>141</ns3:hr>
          </ns3:TrackPointExtension>
        </extensions>
      </trkpt>
      <trkpt lat="32.0200122334063053131103515625" lon="118.82498287595808506011962890625">
        <ele>12.19999980926513671875</ele>
        <time>2025-08-07T11:53:18.000Z</time>
        <extensions>
          <ns3:TrackPointExtension>
            <ns3:atemp>33.0</ns3:atemp>
            <ns3:hr>144</ns3:hr>
          </ns3:TrackPointExtension>
        </extensions>
      </trkpt>
      <trkpt lat="32.01989295892417430877685546875" lon="118.82496912963688373565673828125">
        <ele>12.19999980926513671875</ele>
        <time>2025-08-07T11:53:20.000Z</time>
        <extensions>
          <ns3:TrackPointExtension>
            <ns3:atemp>33.0</ns3:atemp>
            <ns3:hr>144</ns3:hr>
          </ns3:TrackPointExtension>
        </extensions>
      </trkpt>
      <trkpt lat="32.019555084407329559326171875" lon="118.82491833530366420745849609375">
        <ele>12.3999996185302734375</ele>
        <time>2025-08-07T11:53:26.000Z</time>
        <extensions>
          <ns3:TrackPointExtension>
            <ns3:atemp>33.0</ns3:atemp>
            <ns3:hr>145</ns3:hr>
          </ns3:TrackPointExtension>
        </extensions>
      </trkpt>
      <trkpt lat="32.01934042386710643768310546875" lon="118.8248996436595916748046875">
        <ele>12.80000019073486328125</ele>
        <time>2025-08-07T11:53:30.000Z</time>
        <extensions>
          <ns3:TrackPointExtension>
            <ns3:atemp>33.0</ns3:atemp>
            <ns3:hr>148</ns3:hr>
          </ns3:TrackPointExtension>
        </extensions>
      </trkpt>
      <trkpt lat="32.0191918127238750457763671875" lon="118.82488598115742206573486328125">
        <ele>13</ele>
        <time>2025-08-07T11:53:33.000Z</time>
        <extensions>
          <ns3:TrackPointExtension>
            <ns3:atemp>33.0</ns3:atemp>
            <ns3:hr>148</ns3:hr>
          </ns3:TrackPointExtension>
        </extensions>
      </trkpt>
      <trkpt lat="32.0191423594951629638671875" lon="118.82489067502319812774658203125">
        <ele>13</ele>
        <time>2025-08-07T11:53:34.000Z</time>
        <extensions>
          <ns3:TrackPointExtension>
            <ns3:atemp>33.0</ns3:atemp>
            <ns3:hr>149</ns3:hr>
          </ns3:TrackPointExtension>
        </extensions>
      </trkpt>
      <trkpt lat="32.0189872942864894866943359375" lon="118.82489687763154506683349609375">
        <ele>13</ele>
        <time>2025-08-07T11:53:37.000Z</time>
        <extensions>
          <ns3:TrackPointExtension>
            <ns3:atemp>33.0</ns3:atemp>
            <ns3:hr>149</ns3:hr>
          </ns3:TrackPointExtension>
        </extensions>
      </trkpt>
      <trkpt lat="32.01888126321136951446533203125" lon="118.82489369250833988189697265625">
        <ele>13</ele>
        <time>2025-08-07T11:53:39.000Z</time>
        <extensions>
          <ns3:TrackPointExtension>
            <ns3:atemp>33.0</ns3:atemp>
            <ns3:hr>149</ns3:hr>
          </ns3:TrackPointExtension>
        </extensions>
      </trkpt>
      <trkpt lat="32.0186067558825016021728515625" lon="118.82486435584723949432373046875">
        <ele>13</ele>
        <time>2025-08-07T11:53:45.000Z</time>
        <extensions>
          <ns3:TrackPointExtension>
            <ns3:atemp>33.0</ns3:atemp>
            <ns3:hr>148</ns3:hr>
          </ns3:TrackPointExtension>
        </extensions>
      </trkpt>
      <trkpt lat="32.0184783451259136199951171875" lon="118.82484725676476955413818359375">
        <ele>12.6000003814697265625</ele>
        <time>2025-08-07T11:53:48.000Z</time>
        <extensions>
          <ns3:TrackPointExtension>
            <ns3:atemp>33.0</ns3:atemp>
            <ns3:hr>147</ns3:hr>
          </ns3:TrackPointExtension>
        </extensions>
      </trkpt>
      <trkpt lat="32.018424533307552337646484375" lon="118.82486385293304920196533203125">
        <ele>12.6000003814697265625</ele>
        <time>2025-08-07T11:53:50.000Z</time>
        <extensions>
          <ns3:TrackPointExtension>
            <ns3:atemp>33.0</ns3:atemp>
            <ns3:hr>146</ns3:hr>
          </ns3:TrackPointExtension>
        </extensions>
      </trkpt>
      <trkpt lat="32.01839192770421504974365234375" lon="118.824866451323032379150390625">
        <ele>12.6000003814697265625</ele>
        <time>2025-08-07T11:53:51.000Z</time>
        <extensions>
          <ns3:TrackPointExtension>
            <ns3:atemp>33.0</ns3:atemp>
            <ns3:hr>145</ns3:hr>
          </ns3:TrackPointExtension>
        </extensions>
      </trkpt>
      <trkpt lat="32.01831179670989513397216796875" lon="118.82494532503187656402587890625">
        <ele>12</ele>
        <time>2025-08-07T11:53:56.000Z</time>
        <extensions>
          <ns3:TrackPointExtension>
            <ns3:atemp>33.0</ns3:atemp>
            <ns3:hr>143</ns3:hr>
          </ns3:TrackPointExtension>
        </extensions>
      </trkpt>
      <trkpt lat="32.01822311617434024810791015625" lon="118.8249397091567516326904296875">
        <ele>11.3999996185302734375</ele>
        <time>2025-08-07T11:54:00.000Z</time>
        <extensions>
          <ns3:TrackPointExtension>
            <ns3:atemp>33.0</ns3:atemp>
            <ns3:hr>143</ns3:hr>
          </ns3:TrackPointExtension>
        </extensions>
      </trkpt>
      <trkpt lat="32.018134184181690216064453125" lon="118.8249001465737819671630859375">
        <ele>9.6000003814697265625</ele>
        <time>2025-08-07T11:54:05.000Z</time>
        <extensions>
          <ns3:TrackPointExtension>
            <ns3:atemp>33.0</ns3:atemp>
            <ns3:hr>141</ns3:hr>
          </ns3:TrackPointExtension>
        </extensions>
      </trkpt>
      <trkpt lat="32.0179536379873752593994140625" lon="118.82498924620449542999267578125">
        <ele>9.19999980926513671875</ele>
        <time>2025-08-07T11:54:06.000Z</time>
        <extensions>
          <ns3:TrackPointExtension>
            <ns3:atemp>33.0</ns3:atemp>
            <ns3:hr>140</ns3:hr>
          </ns3:TrackPointExtension>
        </extensions>
      </trkpt>
      <trkpt lat="32.0177058689296245574951171875" lon="118.82494683377444744110107421875">
        <ele>8</ele>
        <time>2025-08-07T11:54:09.000Z</time>
        <extensions>
          <ns3:TrackPointExtension>
            <ns3:atemp>33.0</ns3:atemp>
            <ns3:hr>138</ns3:hr>
          </ns3:TrackPointExtension>
        </extensions>
      </trkpt>
      <trkpt lat="32.01763621531426906585693359375" lon="118.8249380327761173248291015625">
        <ele>7.599999904632568359375</ele>
        <time>2025-08-07T11:54:10.000Z</time>
        <extensions>
          <ns3:TrackPointExtension>
            <ns3:atemp>33.0</ns3:atemp>
            <ns3:hr>138</ns3:hr>
          </ns3:TrackPointExtension>
        </extensions>
      </trkpt>
      <trkpt lat="32.01741962693631649017333984375" lon="118.82494130171835422515869140625">
        <ele>7</ele>
        <time>2025-08-07T11:54:13.000Z</time>
        <extensions>
          <ns3:TrackPointExtension>
            <ns3:atemp>33.0</ns3:atemp>
            <ns3:hr>138</ns3:hr>
          </ns3:TrackPointExtension>
        </extensions>
      </trkpt>
      <trkpt lat="32.01700019650161266326904296875" lon="118.82492579519748687744140625">
        <ele>5.80000019073486328125</ele>
        <time>2025-08-07T11:54:18.000Z</time>
        <extensions>
          <ns3:TrackPointExtension>
            <ns3:atemp>33.0</ns3:atemp>
            <ns3:hr>138</ns3:hr>
          </ns3:TrackPointExtension>
        </extensions>
      </trkpt>
      <trkpt lat="32.01642570085823535919189453125" lon="118.82485228590667247772216796875">
        <ele>5.80000019073486328125</ele>
        <time>2025-08-07T11:54:26.000Z</time>
        <extensions>
          <ns3:TrackPointExtension>
            <ns3:atemp>33.0</ns3:atemp>
            <ns3:hr>135</ns3:hr>
          </ns3:TrackPointExtension>
        </extensions>
      </trkpt>
      <trkpt lat="32.01616133563220500946044921875" lon="118.82481004111468791961669921875">
        <ele>6</ele>
        <time>2025-08-07T11:54:31.000Z</time>
        <extensions>
          <ns3:TrackPointExtension>
            <ns3:atemp>33.0</ns3:atemp>
            <ns3:hr>132</ns3:hr>
          </ns3:TrackPointExtension>
        </extensions>
      </trkpt>
      <trkpt lat="32.01611959375441074371337890625" lon="118.82480333559215068817138671875">
        <ele>6.19999980926513671875</ele>
        <time>2025-08-07T11:54:32.000Z</time>
        <extensions>
          <ns3:TrackPointExtension>
            <ns3:atemp>33.0</ns3:atemp>
            <ns3:hr>130</ns3:hr>
          </ns3:TrackPointExtension>
        </extensions>
      </trkpt>
      <trkpt lat="32.01595648191869258880615234375" lon="118.8248035870492458343505859375">
        <ele>6.80000019073486328125</ele>
        <time>2025-08-07T11:54:35.000Z</time>
        <extensions>
          <ns3:TrackPointExtension>
            <ns3:atemp>33.0</ns3:atemp>
            <ns3:hr>127</ns3:hr>
          </ns3:TrackPointExtension>
        </extensions>
      </trkpt>
      <trkpt lat="32.01589713804423809051513671875" lon="118.82478774525225162506103515625">
        <ele>7.19999980926513671875</ele>
        <time>2025-08-07T11:54:36.000Z</time>
        <extensions>
          <ns3:TrackPointExtension>
            <ns3:atemp>33.0</ns3:atemp>
            <ns3:hr>127</ns3:hr>
          </ns3:TrackPointExtension>
        </extensions>
      </trkpt>
      <trkpt lat="32.01580594293773174285888671875" lon="118.82477165199816226959228515625">
        <ele>7.599999904632568359375</ele>
        <time>2025-08-07T11:54:38.000Z</time>
        <extensions>
          <ns3:TrackPointExtension>
            <ns3:atemp>33.0</ns3:atemp>
            <ns3:hr>127</ns3:hr>
          </ns3:TrackPointExtension>
        </extensions>
      </trkpt>
      <trkpt lat="32.01567334122955799102783203125" lon="118.824758827686309814453125">
        <ele>8.3999996185302734375</ele>
        <time>2025-08-07T11:54:41.000Z</time>
        <extensions>
          <ns3:TrackPointExtension>
            <ns3:atemp>33.0</ns3:atemp>
            <ns3:hr>128</ns3:hr>
          </ns3:TrackPointExtension>
        </extensions>
      </trkpt>
      <trkpt lat="32.01548139564692974090576171875" lon="118.82473242469131946563720703125">
        <ele>9</ele>
        <time>2025-08-07T11:54:45.000Z</time>
        <extensions>
          <ns3:TrackPointExtension>
            <ns3:atemp>32.0</ns3:atemp>
            <ns3:hr>131</ns3:hr>
          </ns3:TrackPointExtension>
        </extensions>
      </trkpt>
      <trkpt lat="32.0153746940195560455322265625" lon="118.82472689263522624969482421875">
        <ele>9.19999980926513671875</ele>
        <time>2025-08-07T11:54:47.000Z</time>
        <extensions>
          <ns3:TrackPointExtension>
            <ns3:atemp>33.0</ns3:atemp>
            <ns3:hr>132</ns3:hr>
          </ns3:TrackPointExtension>
        </extensions>
      </trkpt>
      <trkpt lat="32.015278637409210205078125" lon="118.82473460398614406585693359375">
        <ele>9.3999996185302734375</ele>
        <time>2025-08-07T11:54:49.000Z</time>
        <extensions>
          <ns3:TrackPointExtension>
            <ns3:atemp>33.0</ns3:atemp>
            <ns3:hr>135</ns3:hr>
          </ns3:TrackPointExtension>
        </extensions>
      </trkpt>
      <trkpt lat="32.01515148393809795379638671875" lon="118.8247274793684482574462890625">
        <ele>10</ele>
        <time>2025-08-07T11:54:52.000Z</time>
        <extensions>
          <ns3:TrackPointExtension>
            <ns3:atemp>33.0</ns3:atemp>
            <ns3:hr>138</ns3:hr>
          </ns3:TrackPointExtension>
        </extensions>
      </trkpt>
      <trkpt lat="32.015117369592189788818359375" lon="118.8247211091220378875732421875">
        <ele>10.19999980926513671875</ele>
        <time>2025-08-07T11:54:53.000Z</time>
        <extensions>
          <ns3:TrackPointExtension>
            <ns3:atemp>33.0</ns3:atemp>
            <ns3:hr>138</ns3:hr>
          </ns3:TrackPointExtension>
        </extensions>
      </trkpt>
      <trkpt lat="32.0149542577564716339111328125" lon="118.82470794953405857086181640625">
        <ele>10.19999980926513671875</ele>
        <time>2025-08-07T11:54:57.000Z</time>
        <extensions>
          <ns3:TrackPointExtension>
            <ns3:atemp>33.0</ns3:atemp>
            <ns3:hr>141</ns3:hr>
          </ns3:TrackPointExtension>
        </extensions>
      </trkpt>
      <trkpt lat="32.0149136893451213836669921875" lon="118.82470208220183849334716796875">
        <ele>10</ele>
        <time>2025-08-07T11:54:58.000Z</time>
        <extensions>
          <ns3:TrackPointExtension>
            <ns3:atemp>33.0</ns3:atemp>
            <ns3:hr>143</ns3:hr>
          </ns3:TrackPointExtension>
        </extensions>
      </trkpt>
      <trkpt lat="32.01472953893244266510009765625" lon="118.82468163035809993743896484375">
        <ele>10</ele>
        <time>2025-08-07T11:55:04.000Z</time>
        <extensions>
          <ns3:TrackPointExtension>
            <ns3:atemp>33.0</ns3:atemp>
            <ns3:hr>145</ns3:hr>
          </ns3:TrackPointExtension>
        </extensions>
      </trkpt>
      <trkpt lat="32.0144738070666790008544921875" lon="118.824823200702667236328125">
        <ele>10.3999996185302734375</ele>
        <time>2025-08-07T11:55:11.000Z</time>
        <extensions>
          <ns3:TrackPointExtension>
            <ns3:atemp>33.0</ns3:atemp>
            <ns3:hr>146</ns3:hr>
          </ns3:TrackPointExtension>
        </extensions>
      </trkpt>
      <trkpt lat="32.0144154690206050872802734375" lon="118.824871815741062164306640625">
        <ele>10.3999996185302734375</ele>
        <time>2025-08-07T11:55:12.000Z</time>
        <extensions>
          <ns3:TrackPointExtension>
            <ns3:atemp>33.0</ns3:atemp>
            <ns3:hr>146</ns3:hr>
          </ns3:TrackPointExtension>
        </extensions>
      </trkpt>
      <trkpt lat="32.0142741501331329345703125" lon="118.825067616999149322509765625">
        <ele>10.19999980926513671875</ele>
        <time>2025-08-07T11:55:17.000Z</time>
        <extensions>
          <ns3:TrackPointExtension>
            <ns3:atemp>33.0</ns3:atemp>
            <ns3:hr>146</ns3:hr>
          </ns3:TrackPointExtension>
        </extensions>
      </trkpt>
      <trkpt lat="32.01423282735049724578857421875" lon="118.8251678645610809326171875">
        <ele>10</ele>
        <time>2025-08-07T11:55:19.000Z</time>
        <extensions>
          <ns3:TrackPointExtension>
            <ns3:atemp>33.0</ns3:atemp>
            <ns3:hr>146</ns3:hr>
          </ns3:TrackPointExtension>
        </extensions>
      </trkpt>
      <trkpt lat="32.01420818455517292022705078125" lon="118.825338520109653472900390625">
        <ele>10</ele>
        <time>2025-08-07T11:55:22.000Z</time>
        <extensions>
          <ns3:TrackPointExtension>
            <ns3:atemp>33.0</ns3:atemp>
            <ns3:hr>147</ns3:hr>
          </ns3:TrackPointExtension>
        </extensions>
      </trkpt>
      <trkpt lat="32.01419971883296966552734375" lon="118.82539912126958370208740234375">
        <ele>10</ele>
        <time>2025-08-07T11:55:23.000Z</time>
        <extensions>
          <ns3:TrackPointExtension>
            <ns3:atemp>32.0</ns3:atemp>
            <ns3:hr>149</ns3:hr>
          </ns3:TrackPointExtension>
        </extensions>
      </trkpt>
      <trkpt lat="32.01416828669607639312744140625" lon="118.82576423697173595428466796875">
        <ele>10.19999980926513671875</ele>
        <time>2025-08-07T11:55:29.000Z</time>
        <extensions>
          <ns3:TrackPointExtension>
            <ns3:atemp>33.0</ns3:atemp>
            <ns3:hr>152</ns3:hr>
          </ns3:TrackPointExtension>
        </extensions>
      </trkpt>
      <trkpt lat="32.01415772549808025360107421875" lon="118.82588225416839122772216796875">
        <ele>10.3999996185302734375</ele>
        <time>2025-08-07T11:55:31.000Z</time>
        <extensions>
          <ns3:TrackPointExtension>
            <ns3:atemp>33.0</ns3:atemp>
            <ns3:hr>151</ns3:hr>
          </ns3:TrackPointExtension>
        </extensions>
      </trkpt>
      <trkpt lat="32.01413978822529315948486328125" lon="118.82615466602146625518798828125">
        <ele>10.3999996185302734375</ele>
        <time>2025-08-07T11:55:35.000Z</time>
        <extensions>
          <ns3:TrackPointExtension>
            <ns3:atemp>33.0</ns3:atemp>
            <ns3:hr>150</ns3:hr>
          </ns3:TrackPointExtension>
        </extensions>
      </trkpt>
      <trkpt lat="32.0141422189772129058837890625" lon="118.8266244716942310333251953125">
        <ele>10.80000019073486328125</ele>
        <time>2025-08-07T11:55:42.000Z</time>
        <extensions>
          <ns3:TrackPointExtension>
            <ns3:atemp>33.0</ns3:atemp>
            <ns3:hr>151</ns3:hr>
          </ns3:TrackPointExtension>
        </extensions>
      </trkpt>
      <trkpt lat="32.01413266360759735107421875" lon="118.82696284912526607513427734375">
        <ele>11.3999996185302734375</ele>
        <time>2025-08-07T11:55:48.000Z</time>
        <extensions>
          <ns3:TrackPointExtension>
            <ns3:atemp>33.0</ns3:atemp>
            <ns3:hr>150</ns3:hr>
          </ns3:TrackPointExtension>
        </extensions>
      </trkpt>
      <trkpt lat="32.0140956155955791473388671875" lon="118.827373981475830078125">
        <ele>11.3999996185302734375</ele>
        <time>2025-08-07T11:55:55.000Z</time>
        <extensions>
          <ns3:TrackPointExtension>
            <ns3:atemp>33.0</ns3:atemp>
            <ns3:hr>149</ns3:hr>
          </ns3:TrackPointExtension>
        </extensions>
      </trkpt>
      <trkpt lat="32.014070637524127960205078125" lon="118.82783138193190097808837890625">
        <ele>9.80000019073486328125</ele>
        <time>2025-08-07T11:56:02.000Z</time>
        <extensions>
          <ns3:TrackPointExtension>
            <ns3:atemp>33.0</ns3:atemp>
            <ns3:hr>146</ns3:hr>
          </ns3:TrackPointExtension>
        </extensions>
      </trkpt>
      <trkpt lat="32.0140654407441616058349609375" lon="118.82790078409016132354736328125">
        <ele>9.3999996185302734375</ele>
        <time>2025-08-07T11:56:03.000Z</time>
        <extensions>
          <ns3:TrackPointExtension>
            <ns3:atemp>33.0</ns3:atemp>
            <ns3:hr>146</ns3:hr>
          </ns3:TrackPointExtension>
        </extensions>
      </trkpt>
      <trkpt lat="32.0140537060797214508056640625" lon="118.82818744517862796783447265625">
        <ele>8.19999980926513671875</ele>
        <time>2025-08-07T11:56:07.000Z</time>
        <extensions>
          <ns3:TrackPointExtension>
            <ns3:atemp>33.0</ns3:atemp>
            <ns3:hr>147</ns3:hr>
          </ns3:TrackPointExtension>
        </extensions>
      </trkpt>
      <trkpt lat="32.01403484679758548736572265625" lon="118.828463293612003326416015625">
        <ele>7.80000019073486328125</ele>
        <time>2025-08-07T11:56:11.000Z</time>
        <extensions>
          <ns3:TrackPointExtension>
            <ns3:atemp>33.0</ns3:atemp>
            <ns3:hr>149</ns3:hr>
          </ns3:TrackPointExtension>
        </extensions>
      </trkpt>
      <trkpt lat="32.0139879919588565826416015625" lon="118.82893259637057781219482421875">
        <ele>7.400000095367431640625</ele>
        <time>2025-08-07T11:56:18.000Z</time>
        <extensions>
          <ns3:TrackPointExtension>
            <ns3:atemp>33.0</ns3:atemp>
            <ns3:hr>150</ns3:hr>
          </ns3:TrackPointExtension>
        </extensions>
      </trkpt>
      <trkpt lat="32.01397986151278018951416015625" lon="118.82899613119661808013916015625">
        <ele>7.400000095367431640625</ele>
        <time>2025-08-07T11:56:19.000Z</time>
        <extensions>
          <ns3:TrackPointExtension>
            <ns3:atemp>32.0</ns3:atemp>
            <ns3:hr>149</ns3:hr>
          </ns3:TrackPointExtension>
        </extensions>
      </trkpt>
      <trkpt lat="32.0139403827488422393798828125" lon="118.8292268849909305572509765625">
        <ele>8</ele>
        <time>2025-08-07T11:56:23.000Z</time>
        <extensions>
          <ns3:TrackPointExtension>
            <ns3:atemp>32.0</ns3:atemp>
            <ns3:hr>148</ns3:hr>
          </ns3:TrackPointExtension>
        </extensions>
      </trkpt>
      <trkpt lat="32.01391867361962795257568359375" lon="118.8293817825615406036376953125">
        <ele>8.19999980926513671875</ele>
        <time>2025-08-07T11:56:26.000Z</time>
        <extensions>
          <ns3:TrackPointExtension>
            <ns3:atemp>32.0</ns3:atemp>
            <ns3:hr>144</ns3:hr>
          </ns3:TrackPointExtension>
        </extensions>
      </trkpt>
      <trkpt lat="32.01390325091779232025146484375" lon="118.82948647253215312957763671875">
        <ele>8.19999980926513671875</ele>
        <time>2025-08-07T11:56:28.000Z</time>
        <extensions>
          <ns3:TrackPointExtension>
            <ns3:atemp>32.0</ns3:atemp>
            <ns3:hr>141</ns3:hr>
          </ns3:TrackPointExtension>
        </extensions>
      </trkpt>
      <trkpt lat="32.01386100612580776214599609375" lon="118.8296453095972537994384765625">
        <ele>8.3999996185302734375</ele>
        <time>2025-08-07T11:56:31.000Z</time>
        <extensions>
          <ns3:TrackPointExtension>
            <ns3:atemp>33.0</ns3:atemp>
            <ns3:hr>141</ns3:hr>
          </ns3:TrackPointExtension>
        </extensions>
      </trkpt>
      <trkpt lat="32.013804428279399871826171875" lon="118.8298759795725345611572265625">
        <ele>8.80000019073486328125</ele>
        <time>2025-08-07T11:56:35.000Z</time>
        <extensions>
          <ns3:TrackPointExtension>
            <ns3:atemp>32.0</ns3:atemp>
            <ns3:hr>137</ns3:hr>
          </ns3:TrackPointExtension>
        </extensions>
      </trkpt>
      <trkpt lat="32.01377299614250659942626953125" lon="118.8300607167184352874755859375">
        <ele>8.3999996185302734375</ele>
        <time>2025-08-07T11:56:38.000Z</time>
        <extensions>
          <ns3:TrackPointExtension>
            <ns3:atemp>32.0</ns3:atemp>
            <ns3:hr>134</ns3:hr>
          </ns3:TrackPointExtension>
        </extensions>
      </trkpt>
      <trkpt lat="32.013762183487415313720703125" lon="118.83011796511709690093994140625">
        <ele>8.3999996185302734375</ele>
        <time>2025-08-07T11:56:39.000Z</time>
        <extensions>
          <ns3:TrackPointExtension>
            <ns3:atemp>32.0</ns3:atemp>
            <ns3:hr>134</ns3:hr>
          </ns3:TrackPointExtension>
        </extensions>
      </trkpt>
      <trkpt lat="32.0137006603181362152099609375" lon="118.83052758872509002685546875">
        <ele>8.6000003814697265625</ele>
        <time>2025-08-07T11:56:46.000Z</time>
        <extensions>
          <ns3:TrackPointExtension>
            <ns3:atemp>33.0</ns3:atemp>
            <ns3:hr>135</ns3:hr>
          </ns3:TrackPointExtension>
        </extensions>
      </trkpt>
      <trkpt lat="32.01362849213182926177978515625" lon="118.83088474161922931671142578125">
        <ele>8.6000003814697265625</ele>
        <time>2025-08-07T11:56:52.000Z</time>
        <extensions>
          <ns3:TrackPointExtension>
            <ns3:atemp>32.0</ns3:atemp>
            <ns3:hr>136</ns3:hr>
          </ns3:TrackPointExtension>
        </extensions>
      </trkpt>
      <trkpt lat="32.013547606766223907470703125" lon="118.83126460947096347808837890625">
        <ele>8.80000019073486328125</ele>
        <time>2025-08-07T11:56:59.000Z</time>
        <extensions>
          <ns3:TrackPointExtension>
            <ns3:atemp>32.0</ns3:atemp>
            <ns3:hr>137</ns3:hr>
          </ns3:TrackPointExtension>
        </extensions>
      </trkpt>
      <trkpt lat="32.01350226067006587982177734375" lon="118.83148320950567722320556640625">
        <ele>8.6000003814697265625</ele>
        <time>2025-08-07T11:57:03.000Z</time>
        <extensions>
          <ns3:TrackPointExtension>
            <ns3:atemp>32.0</ns3:atemp>
            <ns3:hr>138</ns3:hr>
          </ns3:TrackPointExtension>
        </extensions>
      </trkpt>
      <trkpt lat="32.01348013244569301605224609375" lon="118.831599466502666473388671875">
        <ele>8.6000003814697265625</ele>
        <time>2025-08-07T11:57:05.000Z</time>
        <extensions>
          <ns3:TrackPointExtension>
            <ns3:atemp>32.0</ns3:atemp>
            <ns3:hr>138</ns3:hr>
          </ns3:TrackPointExtension>
        </extensions>
      </trkpt>
      <trkpt lat="32.013426907360553741455078125" lon="118.831912614405155181884765625">
        <ele>8.6000003814697265625</ele>
        <time>2025-08-07T11:57:10.000Z</time>
        <extensions>
          <ns3:TrackPointExtension>
            <ns3:atemp>32.0</ns3:atemp>
            <ns3:hr>139</ns3:hr>
          </ns3:TrackPointExtension>
        </extensions>
      </trkpt>
      <trkpt lat="32.013374604284763336181640625" lon="118.832255266606807708740234375">
        <ele>8.6000003814697265625</ele>
        <time>2025-08-07T11:57:16.000Z</time>
        <extensions>
          <ns3:TrackPointExtension>
            <ns3:atemp>32.0</ns3:atemp>
            <ns3:hr>139</ns3:hr>
          </ns3:TrackPointExtension>
        </extensions>
      </trkpt>
      <trkpt lat="32.013336382806301116943359375" lon="118.83246640674769878387451171875">
        <ele>8.6000003814697265625</ele>
        <time>2025-08-07T11:57:20.000Z</time>
        <extensions>
          <ns3:TrackPointExtension>
            <ns3:atemp>32.0</ns3:atemp>
            <ns3:hr>136</ns3:hr>
          </ns3:TrackPointExtension>
        </extensions>
      </trkpt>
      <trkpt lat="32.01330360956490039825439453125" lon="118.83257268927991390228271484375">
        <ele>8.3999996185302734375</ele>
        <time>2025-08-07T11:57:22.000Z</time>
        <extensions>
          <ns3:TrackPointExtension>
            <ns3:atemp>33.0</ns3:atemp>
            <ns3:hr>135</ns3:hr>
          </ns3:TrackPointExtension>
        </extensions>
      </trkpt>
      <trkpt lat="32.013281397521495819091796875" lon="118.83262348361313343048095703125">
        <ele>8</ele>
        <time>2025-08-07T11:57:23.000Z</time>
        <extensions>
          <ns3:TrackPointExtension>
            <ns3:atemp>33.0</ns3:atemp>
            <ns3:hr>135</ns3:hr>
          </ns3:TrackPointExtension>
        </extensions>
      </trkpt>
      <trkpt lat="32.01321559958159923553466796875" lon="118.83269841782748699188232421875">
        <ele>7.400000095367431640625</ele>
        <time>2025-08-07T11:57:25.000Z</time>
        <extensions>
          <ns3:TrackPointExtension>
            <ns3:atemp>32.0</ns3:atemp>
            <ns3:hr>136</ns3:hr>
          </ns3:TrackPointExtension>
        </extensions>
      </trkpt>
      <trkpt lat="32.013176791369915008544921875" lon="118.8327073864638805389404296875">
        <ele>7</ele>
        <time>2025-08-07T11:57:26.000Z</time>
        <extensions>
          <ns3:TrackPointExtension>
            <ns3:atemp>32.0</ns3:atemp>
            <ns3:hr>136</ns3:hr>
          </ns3:TrackPointExtension>
        </extensions>
      </trkpt>
      <trkpt lat="32.013020552694797515869140625" lon="118.83268148638308048248291015625">
        <ele>7.400000095367431640625</ele>
        <time>2025-08-07T11:57:30.000Z</time>
        <extensions>
          <ns3:TrackPointExtension>
            <ns3:atemp>33.0</ns3:atemp>
            <ns3:hr>135</ns3:hr>
          </ns3:TrackPointExtension>
        </extensions>
      </trkpt>
      <trkpt lat="32.012924663722515106201171875" lon="118.832647539675235748291015625">
        <ele>7.599999904632568359375</ele>
        <time>2025-08-07T11:57:32.000Z</time>
        <extensions>
          <ns3:TrackPointExtension>
            <ns3:atemp>33.0</ns3:atemp>
            <ns3:hr>135</ns3:hr>
          </ns3:TrackPointExtension>
        </extensions>
      </trkpt>
      <trkpt lat="32.0127954147756099700927734375" lon="118.8325618766248226165771484375">
        <ele>7.400000095367431640625</ele>
        <time>2025-08-07T11:57:35.000Z</time>
        <extensions>
          <ns3:TrackPointExtension>
            <ns3:atemp>33.0</ns3:atemp>
            <ns3:hr>136</ns3:hr>
          </ns3:TrackPointExtension>
        </extensions>
      </trkpt>
      <trkpt lat="32.01251369901001453399658203125" lon="118.832448385655879974365234375">
        <ele>7.599999904632568359375</ele>
        <time>2025-08-07T11:57:41.000Z</time>
        <extensions>
          <ns3:TrackPointExtension>
            <ns3:atemp>33.0</ns3:atemp>
            <ns3:hr>135</ns3:hr>
          </ns3:TrackPointExtension>
        </extensions>
      </trkpt>
      <trkpt lat="32.012419737875461578369140625" lon="118.8324151933193206787109375">
        <ele>7.80000019073486328125</ele>
        <time>2025-08-07T11:57:43.000Z</time>
        <extensions>
          <ns3:TrackPointExtension>
            <ns3:atemp>33.0</ns3:atemp>
            <ns3:hr>135</ns3:hr>
          </ns3:TrackPointExtension>
        </extensions>
      </trkpt>
      <trkpt lat="32.0122807659208774566650390625" lon="118.83235258050262928009033203125">
        <ele>7.80000019073486328125</ele>
        <time>2025-08-07T11:57:46.000Z</time>
        <extensions>
          <ns3:TrackPointExtension>
            <ns3:atemp>33.0</ns3:atemp>
            <ns3:hr>138</ns3:hr>
          </ns3:TrackPointExtension>
        </extensions>
      </trkpt>
      <trkpt lat="32.01223441399633884429931640625" lon="118.83233271539211273193359375">
        <ele>7.80000019073486328125</ele>
        <time>2025-08-07T11:57:47.000Z</time>
        <extensions>
          <ns3:TrackPointExtension>
            <ns3:atemp>33.0</ns3:atemp>
            <ns3:hr>139</ns3:hr>
          </ns3:TrackPointExtension>
        </extensions>
      </trkpt>
      <trkpt lat="32.011941634118556976318359375" lon="118.83221603929996490478515625">
        <ele>8</ele>
        <time>2025-08-07T11:57:53.000Z</time>
        <extensions>
          <ns3:TrackPointExtension>
            <ns3:atemp>33.0</ns3:atemp>
            <ns3:hr>137</ns3:hr>
          </ns3:TrackPointExtension>
        </extensions>
      </trkpt>
      <trkpt lat="32.01165698468685150146484375" lon="118.8321461342275142669677734375">
        <ele>7.80000019073486328125</ele>
        <time>2025-08-07T11:57:59.000Z</time>
        <extensions>
          <ns3:TrackPointExtension>
            <ns3:atemp>33.0</ns3:atemp>
            <ns3:hr>139</ns3:hr>
          </ns3:TrackPointExtension>
        </extensions>
      </trkpt>
      <trkpt lat="32.0114553160965442657470703125" lon="118.83206273429095745086669921875">
        <ele>7.80000019073486328125</ele>
        <time>2025-08-07T11:58:04.000Z</time>
        <extensions>
          <ns3:TrackPointExtension>
            <ns3:atemp>33.0</ns3:atemp>
            <ns3:hr>142</ns3:hr>
          </ns3:TrackPointExtension>
        </extensions>
      </trkpt>
      <trkpt lat="32.01138096861541271209716796875" lon="118.83202082477509975433349609375">
        <ele>7.599999904632568359375</ele>
        <time>2025-08-07T11:58:06.000Z</time>
        <extensions>
          <ns3:TrackPointExtension>
            <ns3:atemp>33.0</ns3:atemp>
            <ns3:hr>142</ns3:hr>
          </ns3:TrackPointExtension>
        </extensions>
      </trkpt>
      <trkpt lat="32.01117812655866146087646484375" lon="118.83195075206458568572998046875">
        <ele>8.19999980926513671875</ele>
        <time>2025-08-07T11:58:11.000Z</time>
        <extensions>
          <ns3:TrackPointExtension>
            <ns3:atemp>33.0</ns3:atemp>
            <ns3:hr>142</ns3:hr>
          </ns3:TrackPointExtension>
        </extensions>
      </trkpt>
      <trkpt lat="32.0111378096044063568115234375" lon="118.831956200301647186279296875">
        <ele>8.19999980926513671875</ele>
        <time>2025-08-07T11:58:12.000Z</time>
        <extensions>
          <ns3:TrackPointExtension>
            <ns3:atemp>33.0</ns3:atemp>
            <ns3:hr>142</ns3:hr>
          </ns3:TrackPointExtension>
        </extensions>
      </trkpt>
      <trkpt lat="32.01097528450191020965576171875" lon="118.83200942538678646087646484375">
        <ele>8.3999996185302734375</ele>
        <time>2025-08-07T11:58:17.000Z</time>
        <extensions>
          <ns3:TrackPointExtension>
            <ns3:atemp>33.0</ns3:atemp>
            <ns3:hr>140</ns3:hr>
          </ns3:TrackPointExtension>
        </extensions>
      </trkpt>
      <trkpt lat="32.0108471252024173736572265625" lon="118.83206977508962154388427734375">
        <ele>8</ele>
        <time>2025-08-07T11:58:22.000Z</time>
        <extensions>
          <ns3:TrackPointExtension>
            <ns3:atemp>33.0</ns3:atemp>
            <ns3:hr>138</ns3:hr>
          </ns3:TrackPointExtension>
        </extensions>
      </trkpt>
      <trkpt lat="32.01082575134932994842529296875" lon="118.83207346312701702117919921875">
        <ele>7.80000019073486328125</ele>
        <time>2025-08-07T11:58:23.000Z</time>
        <extensions>
          <ns3:TrackPointExtension>
            <ns3:atemp>33.0</ns3:atemp>
            <ns3:hr>138</ns3:hr>
          </ns3:TrackPointExtension>
        </extensions>
      </trkpt>
      <trkpt lat="32.0107953250408172607421875" lon="118.8320445455610752105712890625">
        <ele>8</ele>
        <time>2025-08-07T11:58:25.000Z</time>
        <extensions>
          <ns3:TrackPointExtension>
            <ns3:atemp>33.0</ns3:atemp>
            <ns3:hr>138</ns3:hr>
          </ns3:TrackPointExtension>
        </extensions>
      </trkpt>
      <trkpt lat="32.01078317128121852874755859375" lon="118.8320254348218441009521484375">
        <ele>8</ele>
        <time>2025-08-07T11:58:27.000Z</time>
        <extensions>
          <ns3:TrackPointExtension>
            <ns3:atemp>33.0</ns3:atemp>
            <ns3:hr>137</ns3:hr>
          </ns3:TrackPointExtension>
        </extensions>
      </trkpt>
      <trkpt lat="32.01077411882579326629638671875" lon="118.83202333934605121612548828125">
        <ele>8</ele>
        <time>2025-08-07T11:58:31.000Z</time>
        <extensions>
          <ns3:TrackPointExtension>
            <ns3:atemp>33.0</ns3:atemp>
            <ns3:hr>137</ns3:hr>
          </ns3:TrackPointExtension>
        </extensions>
      </trkpt>
    </trkseg>
  </trk>
</gpx>
