<gpx xmlns:ns3="http://www.garmin.com/xmlschemas/TrackPointExtension/v1" xmlns="http://www.topografix.com/GPX/1/1" xmlns:xsi="http://www.w3.org/2001/XMLSchema-instance" xmlns:ns2="http://www.garmin.com/xmlschemas/GpxExtensions/v3" creator="Garmin Connect" version="1.1" xsi:schemaLocation="http://www.topografix.com/GPX/1/1 http://www.topografix.com/GPX/11.xsd">
  <extensions>
<distance>1858.52</distance>
<average_hr>108.0</average_hr>
<average_speed>4.927000045776367</average_speed>
<start_time>2025-08-20T12:02:50+00:00</start_time>
<end_time>2025-08-20T12:09:07.231000+00:00</end_time>
<moving_time>371.0</moving_time>
<elapsed_time>449.23</elapsed_time>
</extensions>
<metadata>
    <link href="connect.garmin.com">
      <text>Garmin Connect</text>
    </link>
    <time>2025-08-20T12:02:50.000Z</time>
  </metadata>
  <trk>
    <name>南京市 骑行</name>
    <type>cycling</type>
    <trkseg>
      <trkpt lat="31.9666728191077709197998046875" lon="118.82438289932906627655029296875">
        <ele>5.19999980926513671875</ele>
        <time>2025-08-20T12:02:50.000Z</time>
        <extensions>
          <ns3:TrackPointExtension>
            <ns3:atemp>33.0</ns3:atemp>
            <ns3:hr>93</ns3:hr>
          </ns3:TrackPointExtension>
        </extensions>
      </trkpt>
      <trkpt lat="31.9666174985468387603759765625" lon="118.82442631758749485015869140625">
        <ele>5.19999980926513671875</ele>
        <time>2025-08-20T12:02:51.000Z</time>
        <extensions>
          <ns3:TrackPointExtension>
            <ns3:atemp>33.0</ns3:atemp>
            <ns3:hr>94</ns3:hr>
          </ns3:TrackPointExtension>
        </extensions>
      </trkpt>
      <trkpt lat="31.966608278453350067138671875" lon="118.82448348216712474822998046875">
        <ele>5.19999980926513671875</ele>
        <time>2025-08-20T12:02:53.000Z</time>
        <extensions>
          <ns3:TrackPointExtension>
            <ns3:atemp>33.0</ns3:atemp>
            <ns3:hr>93</ns3:hr>
          </ns3:TrackPointExtension>
        </extensions>
      </trkpt>
      <trkpt lat="31.966594867408275604248046875" lon="118.8245045207440853118896484375">
        <ele>5.19999980926513671875</ele>
        <time>2025-08-20T12:02:54.000Z</time>
        <extensions>
          <ns3:TrackPointExtension>
            <ns3:atemp>33.0</ns3:atemp>
            <ns3:hr>93</ns3:hr>
          </ns3:TrackPointExtension>
        </extensions>
      </trkpt>
      <trkpt lat="31.96652806363999843597412109375" lon="118.82451969198882579803466796875">
        <ele>4.80000019073486328125</ele>
        <time>2025-08-20T12:02:56.000Z</time>
        <extensions>
          <ns3:TrackPointExtension>
            <ns3:atemp>33.0</ns3:atemp>
            <ns3:hr>93</ns3:hr>
          </ns3:TrackPointExtension>
        </extensions>
      </trkpt>
      <trkpt lat="31.96640803478658199310302734375" lon="118.824466802179813385009765625">
        <ele>4.599999904632568359375</ele>
        <time>2025-08-20T12:03:00.000Z</time>
        <extensions>
          <ns3:TrackPointExtension>
            <ns3:atemp>33.0</ns3:atemp>
            <ns3:hr>94</ns3:hr>
          </ns3:TrackPointExtension>
        </extensions>
      </trkpt>
      <trkpt lat="31.9662597589194774627685546875" lon="118.82441022433340549468994140625">
        <ele>5</ele>
        <time>2025-08-20T12:03:05.000Z</time>
        <extensions>
          <ns3:TrackPointExtension>
            <ns3:atemp>33.0</ns3:atemp>
            <ns3:hr>97</ns3:hr>
          </ns3:TrackPointExtension>
        </extensions>
      </trkpt>
      <trkpt lat="31.96611986495554447174072265625" lon="118.824423216283321380615234375">
        <ele>5</ele>
        <time>2025-08-20T12:03:08.000Z</time>
        <extensions>
          <ns3:TrackPointExtension>
            <ns3:atemp>33.0</ns3:atemp>
            <ns3:hr>97</ns3:hr>
          </ns3:TrackPointExtension>
        </extensions>
      </trkpt>
      <trkpt lat="31.9660726748406887054443359375" lon="118.82449488155543804168701171875">
        <ele>4.80000019073486328125</ele>
        <time>2025-08-20T12:03:10.000Z</time>
        <extensions>
          <ns3:TrackPointExtension>
            <ns3:atemp>33.0</ns3:atemp>
            <ns3:hr>97</ns3:hr>
          </ns3:TrackPointExtension>
        </extensions>
      </trkpt>
      <trkpt lat="31.96606471203267574310302734375" lon="118.82459848187863826751708984375">
        <ele>4.400000095367431640625</ele>
        <time>2025-08-20T12:03:12.000Z</time>
        <extensions>
          <ns3:TrackPointExtension>
            <ns3:atemp>33.0</ns3:atemp>
            <ns3:hr>97</ns3:hr>
          </ns3:TrackPointExtension>
        </extensions>
      </trkpt>
      <trkpt lat="31.96606437675654888153076171875" lon="118.82465095259249210357666015625">
        <ele>4.19999980926513671875</ele>
        <time>2025-08-20T12:03:13.000Z</time>
        <extensions>
          <ns3:TrackPointExtension>
            <ns3:atemp>33.0</ns3:atemp>
            <ns3:hr>97</ns3:hr>
          </ns3:TrackPointExtension>
        </extensions>
      </trkpt>
      <trkpt lat="31.9660652987658977508544921875" lon="118.8247097097337245941162109375">
        <ele>4.400000095367431640625</ele>
        <time>2025-08-20T12:03:14.000Z</time>
        <extensions>
          <ns3:TrackPointExtension>
            <ns3:atemp>33.0</ns3:atemp>
            <ns3:hr>98</ns3:hr>
          </ns3:TrackPointExtension>
        </extensions>
      </trkpt>
      <trkpt lat="31.9660528935492038726806640625" lon="118.82476930506527423858642578125">
        <ele>4.400000095367431640625</ele>
        <time>2025-08-20T12:03:15.000Z</time>
        <extensions>
          <ns3:TrackPointExtension>
            <ns3:atemp>33.0</ns3:atemp>
            <ns3:hr>98</ns3:hr>
          </ns3:TrackPointExtension>
        </extensions>
      </trkpt>
      <trkpt lat="31.96604727767407894134521484375" lon="118.824970722198486328125">
        <ele>5.19999980926513671875</ele>
        <time>2025-08-20T12:03:18.000Z</time>
        <extensions>
          <ns3:TrackPointExtension>
            <ns3:atemp>33.0</ns3:atemp>
            <ns3:hr>98</ns3:hr>
          </ns3:TrackPointExtension>
        </extensions>
      </trkpt>
      <trkpt lat="31.966035626828670501708984375" lon="118.82518018595874309539794921875">
        <ele>4.400000095367431640625</ele>
        <time>2025-08-20T12:03:21.000Z</time>
        <extensions>
          <ns3:TrackPointExtension>
            <ns3:atemp>33.0</ns3:atemp>
            <ns3:hr>98</ns3:hr>
          </ns3:TrackPointExtension>
        </extensions>
      </trkpt>
      <trkpt lat="31.9660220481455326080322265625" lon="118.8253128714859485626220703125">
        <ele>4</ele>
        <time>2025-08-20T12:03:23.000Z</time>
        <extensions>
          <ns3:TrackPointExtension>
            <ns3:atemp>33.0</ns3:atemp>
            <ns3:hr>97</ns3:hr>
          </ns3:TrackPointExtension>
        </extensions>
      </trkpt>
      <trkpt lat="31.96599279530346393585205078125" lon="118.8255237601697444915771484375">
        <ele>4.80000019073486328125</ele>
        <time>2025-08-20T12:03:26.000Z</time>
        <extensions>
          <ns3:TrackPointExtension>
            <ns3:atemp>33.0</ns3:atemp>
            <ns3:hr>96</ns3:hr>
          </ns3:TrackPointExtension>
        </extensions>
      </trkpt>
      <trkpt lat="31.965965889394283294677734375" lon="118.82567010819911956787109375">
        <ele>5</ele>
        <time>2025-08-20T12:03:28.000Z</time>
        <extensions>
          <ns3:TrackPointExtension>
            <ns3:atemp>33.0</ns3:atemp>
            <ns3:hr>93</ns3:hr>
          </ns3:TrackPointExtension>
        </extensions>
      </trkpt>
      <trkpt lat="31.96595390327274799346923828125" lon="118.82574294693768024444580078125">
        <ele>5</ele>
        <time>2025-08-20T12:03:29.000Z</time>
        <extensions>
          <ns3:TrackPointExtension>
            <ns3:atemp>33.0</ns3:atemp>
            <ns3:hr>94</ns3:hr>
          </ns3:TrackPointExtension>
        </extensions>
      </trkpt>
      <trkpt lat="31.96589740924537181854248046875" lon="118.82620696909725666046142578125">
        <ele>4.599999904632568359375</ele>
        <time>2025-08-20T12:03:35.000Z</time>
        <extensions>
          <ns3:TrackPointExtension>
            <ns3:atemp>33.0</ns3:atemp>
            <ns3:hr>95</ns3:hr>
          </ns3:TrackPointExtension>
        </extensions>
      </trkpt>
      <trkpt lat="31.965881399810314178466796875" lon="118.82643177174031734466552734375">
        <ele>4.400000095367431640625</ele>
        <time>2025-08-20T12:03:38.000Z</time>
        <extensions>
          <ns3:TrackPointExtension>
            <ns3:atemp>33.0</ns3:atemp>
            <ns3:hr>96</ns3:hr>
          </ns3:TrackPointExtension>
        </extensions>
      </trkpt>
      <trkpt lat="31.96587109006941318511962890625" lon="118.82658071815967559814453125">
        <ele>4.400000095367431640625</ele>
        <time>2025-08-20T12:03:40.000Z</time>
        <extensions>
          <ns3:TrackPointExtension>
            <ns3:atemp>33.0</ns3:atemp>
            <ns3:hr>95</ns3:hr>
          </ns3:TrackPointExtension>
        </extensions>
      </trkpt>
      <trkpt lat="31.96581895463168621063232421875" lon="118.8269778527319431304931640625">
        <ele>4.599999904632568359375</ele>
        <time>2025-08-20T12:03:45.000Z</time>
        <extensions>
          <ns3:TrackPointExtension>
            <ns3:atemp>33.0</ns3:atemp>
            <ns3:hr>95</ns3:hr>
          </ns3:TrackPointExtension>
        </extensions>
      </trkpt>
      <trkpt lat="31.965763382613658905029296875" lon="118.82743089459836483001708984375">
        <ele>4.599999904632568359375</ele>
        <time>2025-08-20T12:03:51.000Z</time>
        <extensions>
          <ns3:TrackPointExtension>
            <ns3:atemp>33.0</ns3:atemp>
            <ns3:hr>97</ns3:hr>
          </ns3:TrackPointExtension>
        </extensions>
      </trkpt>
      <trkpt lat="31.9657420925796031951904296875" lon="118.82766206748783588409423828125">
        <ele>4.599999904632568359375</ele>
        <time>2025-08-20T12:03:54.000Z</time>
        <extensions>
          <ns3:TrackPointExtension>
            <ns3:atemp>33.0</ns3:atemp>
            <ns3:hr>100</ns3:hr>
          </ns3:TrackPointExtension>
        </extensions>
      </trkpt>
      <trkpt lat="31.9657239876687526702880859375" lon="118.82781813852488994598388671875">
        <ele>4.599999904632568359375</ele>
        <time>2025-08-20T12:03:56.000Z</time>
        <extensions>
          <ns3:TrackPointExtension>
            <ns3:atemp>33.0</ns3:atemp>
            <ns3:hr>104</ns3:hr>
          </ns3:TrackPointExtension>
        </extensions>
      </trkpt>
      <trkpt lat="31.965721137821674346923828125" lon="118.82790028117597103118896484375">
        <ele>4.599999904632568359375</ele>
        <time>2025-08-20T12:03:57.000Z</time>
        <extensions>
          <ns3:TrackPointExtension>
            <ns3:atemp>33.0</ns3:atemp>
            <ns3:hr>107</ns3:hr>
          </ns3:TrackPointExtension>
        </extensions>
      </trkpt>
      <trkpt lat="31.9657025299966335296630859375" lon="118.82801511324942111968994140625">
        <ele>4.599999904632568359375</ele>
        <time>2025-08-20T12:03:58.000Z</time>
        <extensions>
          <ns3:TrackPointExtension>
            <ns3:atemp>33.0</ns3:atemp>
            <ns3:hr>112</ns3:hr>
          </ns3:TrackPointExtension>
        </extensions>
      </trkpt>
      <trkpt lat="31.9657025299966335296630859375" lon="118.82801511324942111968994140625">
        <ele>4.599999904632568359375</ele>
        <time>2025-08-20T12:03:59.000Z</time>
        <extensions>
          <ns3:TrackPointExtension>
            <ns3:atemp>33.0</ns3:atemp>
            <ns3:hr>117</ns3:hr>
          </ns3:TrackPointExtension>
        </extensions>
      </trkpt>
      <trkpt lat="31.96567210368812084197998046875" lon="118.82810714654624462127685546875">
        <ele>4.599999904632568359375</ele>
        <time>2025-08-20T12:04:00.000Z</time>
        <extensions>
          <ns3:TrackPointExtension>
            <ns3:atemp>33.0</ns3:atemp>
            <ns3:hr>119</ns3:hr>
          </ns3:TrackPointExtension>
        </extensions>
      </trkpt>
      <trkpt lat="31.965640000998973846435546875" lon="118.828168250620365142822265625">
        <ele>4.599999904632568359375</ele>
        <time>2025-08-20T12:04:01.000Z</time>
        <extensions>
          <ns3:TrackPointExtension>
            <ns3:atemp>33.0</ns3:atemp>
            <ns3:hr>122</ns3:hr>
          </ns3:TrackPointExtension>
        </extensions>
      </trkpt>
      <trkpt lat="31.96554402820765972137451171875" lon="118.82827327586710453033447265625">
        <ele>4.599999904632568359375</ele>
        <time>2025-08-20T12:04:02.000Z</time>
        <extensions>
          <ns3:TrackPointExtension>
            <ns3:atemp>33.0</ns3:atemp>
            <ns3:hr>125</ns3:hr>
          </ns3:TrackPointExtension>
        </extensions>
      </trkpt>
      <trkpt lat="31.96542114950716495513916015625" lon="118.82837972603738307952880859375">
        <ele>4.599999904632568359375</ele>
        <time>2025-08-20T12:04:04.000Z</time>
        <extensions>
          <ns3:TrackPointExtension>
            <ns3:atemp>33.0</ns3:atemp>
            <ns3:hr>127</ns3:hr>
          </ns3:TrackPointExtension>
        </extensions>
      </trkpt>
      <trkpt lat="31.96529173292219638824462890625" lon="118.8284346275031566619873046875">
        <ele>4.599999904632568359375</ele>
        <time>2025-08-20T12:04:06.000Z</time>
        <extensions>
          <ns3:TrackPointExtension>
            <ns3:atemp>33.0</ns3:atemp>
            <ns3:hr>127</ns3:hr>
          </ns3:TrackPointExtension>
        </extensions>
      </trkpt>
      <trkpt lat="31.96504698134958744049072265625" lon="118.82846035994589328765869140625">
        <ele>4.599999904632568359375</ele>
        <time>2025-08-20T12:04:10.000Z</time>
        <extensions>
          <ns3:TrackPointExtension>
            <ns3:atemp>33.0</ns3:atemp>
            <ns3:hr>126</ns3:hr>
          </ns3:TrackPointExtension>
        </extensions>
      </trkpt>
      <trkpt lat="31.964627802371978759765625" lon="118.82846740074455738067626953125">
        <ele>4.80000019073486328125</ele>
        <time>2025-08-20T12:04:17.000Z</time>
        <extensions>
          <ns3:TrackPointExtension>
            <ns3:atemp>33.0</ns3:atemp>
            <ns3:hr>126</ns3:hr>
          </ns3:TrackPointExtension>
        </extensions>
      </trkpt>
      <trkpt lat="31.9642155803740024566650390625" lon="118.82848265580832958221435546875">
        <ele>5</ele>
        <time>2025-08-20T12:04:24.000Z</time>
        <extensions>
          <ns3:TrackPointExtension>
            <ns3:atemp>33.0</ns3:atemp>
            <ns3:hr>126</ns3:hr>
          </ns3:TrackPointExtension>
        </extensions>
      </trkpt>
      <trkpt lat="31.96397937834262847900390625" lon="118.828486762940883636474609375">
        <ele>5.19999980926513671875</ele>
        <time>2025-08-20T12:04:28.000Z</time>
        <extensions>
          <ns3:TrackPointExtension>
            <ns3:atemp>33.0</ns3:atemp>
            <ns3:hr>126</ns3:hr>
          </ns3:TrackPointExtension>
        </extensions>
      </trkpt>
      <trkpt lat="31.96386245079338550567626953125" lon="118.8284933008253574371337890625">
        <ele>5.19999980926513671875</ele>
        <time>2025-08-20T12:04:30.000Z</time>
        <extensions>
          <ns3:TrackPointExtension>
            <ns3:atemp>33.0</ns3:atemp>
            <ns3:hr>125</ns3:hr>
          </ns3:TrackPointExtension>
        </extensions>
      </trkpt>
      <trkpt lat="31.9635725207626819610595703125" lon="118.828506208956241607666015625">
        <ele>5.19999980926513671875</ele>
        <time>2025-08-20T12:04:35.000Z</time>
        <extensions>
          <ns3:TrackPointExtension>
            <ns3:atemp>33.0</ns3:atemp>
            <ns3:hr>122</ns3:hr>
          </ns3:TrackPointExtension>
        </extensions>
      </trkpt>
      <trkpt lat="31.96351627819240093231201171875" lon="118.82850922644138336181640625">
        <ele>5.19999980926513671875</ele>
        <time>2025-08-20T12:04:36.000Z</time>
        <extensions>
          <ns3:TrackPointExtension>
            <ns3:atemp>33.0</ns3:atemp>
            <ns3:hr>122</ns3:hr>
          </ns3:TrackPointExtension>
        </extensions>
      </trkpt>
      <trkpt lat="31.96335718967020511627197265625" lon="118.8285137526690959930419921875">
        <ele>4</ele>
        <time>2025-08-20T12:04:39.000Z</time>
        <extensions>
          <ns3:TrackPointExtension>
            <ns3:atemp>33.0</ns3:atemp>
            <ns3:hr>121</ns3:hr>
          </ns3:TrackPointExtension>
        </extensions>
      </trkpt>
      <trkpt lat="31.963254176080226898193359375" lon="118.82849992252886295318603515625">
        <ele>3.400000095367431640625</ele>
        <time>2025-08-20T12:04:41.000Z</time>
        <extensions>
          <ns3:TrackPointExtension>
            <ns3:atemp>33.0</ns3:atemp>
            <ns3:hr>120</ns3:hr>
          </ns3:TrackPointExtension>
        </extensions>
      </trkpt>
      <trkpt lat="31.9632214866578578948974609375" lon="118.828469999134540557861328125">
        <ele>3.400000095367431640625</ele>
        <time>2025-08-20T12:04:42.000Z</time>
        <extensions>
          <ns3:TrackPointExtension>
            <ns3:atemp>33.0</ns3:atemp>
            <ns3:hr>119</ns3:hr>
          </ns3:TrackPointExtension>
        </extensions>
      </trkpt>
      <trkpt lat="31.9632080756127834320068359375" lon="118.82842884398996829986572265625">
        <ele>3.7999999523162841796875</ele>
        <time>2025-08-20T12:04:43.000Z</time>
        <extensions>
          <ns3:TrackPointExtension>
            <ns3:atemp>33.0</ns3:atemp>
            <ns3:hr>119</ns3:hr>
          </ns3:TrackPointExtension>
        </extensions>
      </trkpt>
      <trkpt lat="31.96315317414700984954833984375" lon="118.82835424505174160003662109375">
        <ele>4</ele>
        <time>2025-08-20T12:04:46.000Z</time>
        <extensions>
          <ns3:TrackPointExtension>
            <ns3:atemp>33.0</ns3:atemp>
            <ns3:hr>116</ns3:hr>
          </ns3:TrackPointExtension>
        </extensions>
      </trkpt>
      <trkpt lat="31.96312869898974895477294921875" lon="118.82837419398128986358642578125">
        <ele>3.599999904632568359375</ele>
        <time>2025-08-20T12:04:48.000Z</time>
        <extensions>
          <ns3:TrackPointExtension>
            <ns3:atemp>33.0</ns3:atemp>
            <ns3:hr>115</ns3:hr>
          </ns3:TrackPointExtension>
        </extensions>
      </trkpt>
      <trkpt lat="31.96311679668724536895751953125" lon="118.8283731043338775634765625">
        <ele>3.599999904632568359375</ele>
        <time>2025-08-20T12:04:49.000Z</time>
        <extensions>
          <ns3:TrackPointExtension>
            <ns3:atemp>33.0</ns3:atemp>
            <ns3:hr>114</ns3:hr>
          </ns3:TrackPointExtension>
        </extensions>
      </trkpt>
      <trkpt lat="31.96302342228591442108154296875" lon="118.82832306437194347381591796875">
        <ele>3.400000095367431640625</ele>
        <time>2025-08-20T12:04:54.000Z</time>
        <extensions>
          <ns3:TrackPointExtension>
            <ns3:atemp>33.0</ns3:atemp>
            <ns3:hr>112</ns3:hr>
          </ns3:TrackPointExtension>
        </extensions>
      </trkpt>
      <trkpt lat="31.9628453068435192108154296875" lon="118.8282629661262035369873046875">
        <ele>3.400000095367431640625</ele>
        <time>2025-08-20T12:05:00.000Z</time>
        <extensions>
          <ns3:TrackPointExtension>
            <ns3:atemp>33.0</ns3:atemp>
            <ns3:hr>111</ns3:hr>
          </ns3:TrackPointExtension>
        </extensions>
      </trkpt>
      <trkpt lat="31.96282493881881237030029296875" lon="118.82823555730283260345458984375">
        <ele>3.400000095367431640625</ele>
        <time>2025-08-20T12:05:03.000Z</time>
        <extensions>
          <ns3:TrackPointExtension>
            <ns3:atemp>33.0</ns3:atemp>
            <ns3:hr>111</ns3:hr>
          </ns3:TrackPointExtension>
        </extensions>
      </trkpt>
      <trkpt lat="31.962794177234172821044921875" lon="118.82826983928680419921875">
        <ele>3.400000095367431640625</ele>
        <time>2025-08-20T12:05:06.000Z</time>
        <extensions>
          <ns3:TrackPointExtension>
            <ns3:atemp>33.0</ns3:atemp>
            <ns3:hr>108</ns3:hr>
          </ns3:TrackPointExtension>
        </extensions>
      </trkpt>
      <trkpt lat="31.9628456421196460723876953125" lon="118.82821862585842609405517578125">
        <ele>4.599999904632568359375</ele>
        <time>2025-08-20T12:05:15.000Z</time>
        <extensions>
          <ns3:TrackPointExtension>
            <ns3:atemp>33.0</ns3:atemp>
            <ns3:hr>104</ns3:hr>
          </ns3:TrackPointExtension>
        </extensions>
      </trkpt>
      <trkpt lat="31.96284237317740917205810546875" lon="118.82822566665709018707275390625">
        <ele>4.599999904632568359375</ele>
        <time>2025-08-20T12:05:16.000Z</time>
        <extensions>
          <ns3:TrackPointExtension>
            <ns3:atemp>33.0</ns3:atemp>
            <ns3:hr>104</ns3:hr>
          </ns3:TrackPointExtension>
        </extensions>
      </trkpt>
      <trkpt lat="31.96279576979577541351318359375" lon="118.82835231721401214599609375">
        <ele>4.19999980926513671875</ele>
        <time>2025-08-20T12:05:21.000Z</time>
        <extensions>
          <ns3:TrackPointExtension>
            <ns3:atemp>33.0</ns3:atemp>
            <ns3:hr>103</ns3:hr>
          </ns3:TrackPointExtension>
        </extensions>
      </trkpt>
      <trkpt lat="31.9629831053316593170166015625" lon="118.8283273391425609588623046875">
        <ele>2.7999999523162841796875</ele>
        <time>2025-08-20T12:06:24.000Z</time>
        <extensions>
          <ns3:TrackPointExtension>
            <ns3:atemp>33.0</ns3:atemp>
            <ns3:hr>83</ns3:hr>
          </ns3:TrackPointExtension>
        </extensions>
      </trkpt>
      <trkpt lat="31.9630116038024425506591796875" lon="118.8283313624560832977294921875">
        <ele>2.7999999523162841796875</ele>
        <time>2025-08-20T12:06:25.000Z</time>
        <extensions>
          <ns3:TrackPointExtension>
            <ns3:atemp>33.0</ns3:atemp>
            <ns3:hr>84</ns3:hr>
          </ns3:TrackPointExtension>
        </extensions>
      </trkpt>
      <trkpt lat="31.963042952120304107666015625" lon="118.82833530195057392120361328125">
        <ele>2.599999904632568359375</ele>
        <time>2025-08-20T12:06:26.000Z</time>
        <extensions>
          <ns3:TrackPointExtension>
            <ns3:atemp>33.0</ns3:atemp>
            <ns3:hr>84</ns3:hr>
          </ns3:TrackPointExtension>
        </extensions>
      </trkpt>
      <trkpt lat="31.9631886295974254608154296875" lon="118.828366063535213470458984375">
        <ele>2.400000095367431640625</ele>
        <time>2025-08-20T12:06:31.000Z</time>
        <extensions>
          <ns3:TrackPointExtension>
            <ns3:atemp>33.0</ns3:atemp>
            <ns3:hr>86</ns3:hr>
          </ns3:TrackPointExtension>
        </extensions>
      </trkpt>
      <trkpt lat="31.9632241688668727874755859375" lon="118.8284128345549106597900390625">
        <ele>2.400000095367431640625</ele>
        <time>2025-08-20T12:06:33.000Z</time>
        <extensions>
          <ns3:TrackPointExtension>
            <ns3:atemp>33.0</ns3:atemp>
            <ns3:hr>86</ns3:hr>
          </ns3:TrackPointExtension>
        </extensions>
      </trkpt>
      <trkpt lat="31.96322995238006114959716796875" lon="118.82844376377761363983154296875">
        <ele>2.2000000476837158203125</ele>
        <time>2025-08-20T12:06:34.000Z</time>
        <extensions>
          <ns3:TrackPointExtension>
            <ns3:atemp>33.0</ns3:atemp>
            <ns3:hr>86</ns3:hr>
          </ns3:TrackPointExtension>
        </extensions>
      </trkpt>
      <trkpt lat="31.96326314471662044525146484375" lon="118.82847796194255352020263671875">
        <ele>2.599999904632568359375</ele>
        <time>2025-08-20T12:06:37.000Z</time>
        <extensions>
          <ns3:TrackPointExtension>
            <ns3:atemp>33.0</ns3:atemp>
            <ns3:hr>89</ns3:hr>
          </ns3:TrackPointExtension>
        </extensions>
      </trkpt>
      <trkpt lat="31.963280327618122100830078125" lon="118.828485421836376190185546875">
        <ele>2.599999904632568359375</ele>
        <time>2025-08-20T12:06:38.000Z</time>
        <extensions>
          <ns3:TrackPointExtension>
            <ns3:atemp>33.0</ns3:atemp>
            <ns3:hr>91</ns3:hr>
          </ns3:TrackPointExtension>
        </extensions>
      </trkpt>
      <trkpt lat="31.96339574642479419708251953125" lon="118.8284839130938053131103515625">
        <ele>2.2000000476837158203125</ele>
        <time>2025-08-20T12:06:42.000Z</time>
        <extensions>
          <ns3:TrackPointExtension>
            <ns3:atemp>33.0</ns3:atemp>
            <ns3:hr>93</ns3:hr>
          </ns3:TrackPointExtension>
        </extensions>
      </trkpt>
      <trkpt lat="31.96351024322211742401123046875" lon="118.82848374545574188232421875">
        <ele>1.7999999523162841796875</ele>
        <time>2025-08-20T12:06:45.000Z</time>
        <extensions>
          <ns3:TrackPointExtension>
            <ns3:atemp>33.0</ns3:atemp>
            <ns3:hr>94</ns3:hr>
          </ns3:TrackPointExtension>
        </extensions>
      </trkpt>
      <trkpt lat="31.96359448134899139404296875" lon="118.8284822367131710052490234375">
        <ele>1.39999997615814208984375</ele>
        <time>2025-08-20T12:06:47.000Z</time>
        <extensions>
          <ns3:TrackPointExtension>
            <ns3:atemp>33.0</ns3:atemp>
            <ns3:hr>95</ns3:hr>
          </ns3:TrackPointExtension>
        </extensions>
      </trkpt>
      <trkpt lat="31.9638432562351226806640625" lon="118.8284785486757755279541015625">
        <ele>1</ele>
        <time>2025-08-20T12:06:52.000Z</time>
        <extensions>
          <ns3:TrackPointExtension>
            <ns3:atemp>33.0</ns3:atemp>
            <ns3:hr>96</ns3:hr>
          </ns3:TrackPointExtension>
        </extensions>
      </trkpt>
      <trkpt lat="31.96394853293895721435546875" lon="118.82847913540899753570556640625">
        <ele>1</ele>
        <time>2025-08-20T12:06:54.000Z</time>
        <extensions>
          <ns3:TrackPointExtension>
            <ns3:atemp>33.0</ns3:atemp>
            <ns3:hr>97</ns3:hr>
          </ns3:TrackPointExtension>
        </extensions>
      </trkpt>
      <trkpt lat="31.9643138162791728973388671875" lon="118.8284825719892978668212890625">
        <ele>1</ele>
        <time>2025-08-20T12:07:01.000Z</time>
        <extensions>
          <ns3:TrackPointExtension>
            <ns3:atemp>33.0</ns3:atemp>
            <ns3:hr>99</ns3:hr>
          </ns3:TrackPointExtension>
        </extensions>
      </trkpt>
      <trkpt lat="31.96447290480136871337890625" lon="118.82847544737160205841064453125">
        <ele>1.2000000476837158203125</ele>
        <time>2025-08-20T12:07:04.000Z</time>
        <extensions>
          <ns3:TrackPointExtension>
            <ns3:atemp>33.0</ns3:atemp>
            <ns3:hr>103</ns3:hr>
          </ns3:TrackPointExtension>
        </extensions>
      </trkpt>
      <trkpt lat="31.9645743258297443389892578125" lon="118.82847242988646030426025390625">
        <ele>1.2000000476837158203125</ele>
        <time>2025-08-20T12:07:06.000Z</time>
        <extensions>
          <ns3:TrackPointExtension>
            <ns3:atemp>33.0</ns3:atemp>
            <ns3:hr>106</ns3:hr>
          </ns3:TrackPointExtension>
        </extensions>
      </trkpt>
      <trkpt lat="31.96462470106780529022216796875" lon="118.8284614495933055877685546875">
        <ele>1.2000000476837158203125</ele>
        <time>2025-08-20T12:07:07.000Z</time>
        <extensions>
          <ns3:TrackPointExtension>
            <ns3:atemp>33.0</ns3:atemp>
            <ns3:hr>108</ns3:hr>
          </ns3:TrackPointExtension>
        </extensions>
      </trkpt>
      <trkpt lat="31.964729391038417816162109375" lon="118.82844979874789714813232421875">
        <ele>1.2000000476837158203125</ele>
        <time>2025-08-20T12:07:09.000Z</time>
        <extensions>
          <ns3:TrackPointExtension>
            <ns3:atemp>33.0</ns3:atemp>
            <ns3:hr>110</ns3:hr>
          </ns3:TrackPointExtension>
        </extensions>
      </trkpt>
      <trkpt lat="31.96487531997263431549072265625" lon="118.8284591026604175567626953125">
        <ele>1.2000000476837158203125</ele>
        <time>2025-08-20T12:07:12.000Z</time>
        <extensions>
          <ns3:TrackPointExtension>
            <ns3:atemp>33.0</ns3:atemp>
            <ns3:hr>111</ns3:hr>
          </ns3:TrackPointExtension>
        </extensions>
      </trkpt>
      <trkpt lat="31.96498411707580089569091796875" lon="118.82845968939363956451416015625">
        <ele>1.2000000476837158203125</ele>
        <time>2025-08-20T12:07:14.000Z</time>
        <extensions>
          <ns3:TrackPointExtension>
            <ns3:atemp>33.0</ns3:atemp>
            <ns3:hr>112</ns3:hr>
          </ns3:TrackPointExtension>
        </extensions>
      </trkpt>
      <trkpt lat="31.9650940038263797760009765625" lon="118.828449882566928863525390625">
        <ele>1.39999997615814208984375</ele>
        <time>2025-08-20T12:07:16.000Z</time>
        <extensions>
          <ns3:TrackPointExtension>
            <ns3:atemp>33.0</ns3:atemp>
            <ns3:hr>113</ns3:hr>
          </ns3:TrackPointExtension>
        </extensions>
      </trkpt>
      <trkpt lat="31.96514840237796306610107421875" lon="118.828445188701152801513671875">
        <ele>1.2000000476837158203125</ele>
        <time>2025-08-20T12:07:17.000Z</time>
        <extensions>
          <ns3:TrackPointExtension>
            <ns3:atemp>33.0</ns3:atemp>
            <ns3:hr>113</ns3:hr>
          </ns3:TrackPointExtension>
        </extensions>
      </trkpt>
      <trkpt lat="31.96531034074723720550537109375" lon="118.82843739353120326995849609375">
        <ele>1.2000000476837158203125</ele>
        <time>2025-08-20T12:07:20.000Z</time>
        <extensions>
          <ns3:TrackPointExtension>
            <ns3:atemp>33.0</ns3:atemp>
            <ns3:hr>116</ns3:hr>
          </ns3:TrackPointExtension>
        </extensions>
      </trkpt>
      <trkpt lat="31.965411342680454254150390625" lon="118.828395567834377288818359375">
        <ele>1.2000000476837158203125</ele>
        <time>2025-08-20T12:07:22.000Z</time>
        <extensions>
          <ns3:TrackPointExtension>
            <ns3:atemp>33.0</ns3:atemp>
            <ns3:hr>117</ns3:hr>
          </ns3:TrackPointExtension>
        </extensions>
      </trkpt>
      <trkpt lat="31.96550379507243633270263671875" lon="118.828326165676116943359375">
        <ele>1.2000000476837158203125</ele>
        <time>2025-08-20T12:07:24.000Z</time>
        <extensions>
          <ns3:TrackPointExtension>
            <ns3:atemp>33.0</ns3:atemp>
            <ns3:hr>117</ns3:hr>
          </ns3:TrackPointExtension>
        </extensions>
      </trkpt>
      <trkpt lat="31.9655694253742694854736328125" lon="118.82825282402336597442626953125">
        <ele>1.60000002384185791015625</ele>
        <time>2025-08-20T12:07:26.000Z</time>
        <extensions>
          <ns3:TrackPointExtension>
            <ns3:atemp>33.0</ns3:atemp>
            <ns3:hr>117</ns3:hr>
          </ns3:TrackPointExtension>
        </extensions>
      </trkpt>
      <trkpt lat="31.965618543326854705810546875" lon="118.828160874545574188232421875">
        <ele>2</ele>
        <time>2025-08-20T12:07:28.000Z</time>
        <extensions>
          <ns3:TrackPointExtension>
            <ns3:atemp>33.0</ns3:atemp>
            <ns3:hr>117</ns3:hr>
          </ns3:TrackPointExtension>
        </extensions>
      </trkpt>
      <trkpt lat="31.9656488858163356781005859375" lon="118.82805417291820049285888671875">
        <ele>2.400000095367431640625</ele>
        <time>2025-08-20T12:07:30.000Z</time>
        <extensions>
          <ns3:TrackPointExtension>
            <ns3:atemp>33.0</ns3:atemp>
            <ns3:hr>118</ns3:hr>
          </ns3:TrackPointExtension>
        </extensions>
      </trkpt>
      <trkpt lat="31.9656921364367008209228515625" lon="118.8277111016213893890380859375">
        <ele>2.400000095367431640625</ele>
        <time>2025-08-20T12:07:36.000Z</time>
        <extensions>
          <ns3:TrackPointExtension>
            <ns3:atemp>33.0</ns3:atemp>
            <ns3:hr>115</ns3:hr>
          </ns3:TrackPointExtension>
        </extensions>
      </trkpt>
      <trkpt lat="31.965696997940540313720703125" lon="118.82767732255160808563232421875">
        <ele>2.599999904632568359375</ele>
        <time>2025-08-20T12:07:37.000Z</time>
        <extensions>
          <ns3:TrackPointExtension>
            <ns3:atemp>33.0</ns3:atemp>
            <ns3:hr>115</ns3:hr>
          </ns3:TrackPointExtension>
        </extensions>
      </trkpt>
      <trkpt lat="31.96569926105439662933349609375" lon="118.82761714048683643341064453125">
        <ele>2.7999999523162841796875</ele>
        <time>2025-08-20T12:07:39.000Z</time>
        <extensions>
          <ns3:TrackPointExtension>
            <ns3:atemp>33.0</ns3:atemp>
            <ns3:hr>115</ns3:hr>
          </ns3:TrackPointExtension>
        </extensions>
      </trkpt>
      <trkpt lat="31.96570672094821929931640625" lon="118.827498368918895721435546875">
        <ele>2.2000000476837158203125</ele>
        <time>2025-08-20T12:07:42.000Z</time>
        <extensions>
          <ns3:TrackPointExtension>
            <ns3:atemp>33.0</ns3:atemp>
            <ns3:hr>113</ns3:hr>
          </ns3:TrackPointExtension>
        </extensions>
      </trkpt>
      <trkpt lat="31.96574888192117214202880859375" lon="118.827181197702884674072265625">
        <ele>2.400000095367431640625</ele>
        <time>2025-08-20T12:07:48.000Z</time>
        <extensions>
          <ns3:TrackPointExtension>
            <ns3:atemp>33.0</ns3:atemp>
            <ns3:hr>112</ns3:hr>
          </ns3:TrackPointExtension>
        </extensions>
      </trkpt>
      <trkpt lat="31.965788193047046661376953125" lon="118.826780878007411956787109375">
        <ele>2</ele>
        <time>2025-08-20T12:07:55.000Z</time>
        <extensions>
          <ns3:TrackPointExtension>
            <ns3:atemp>33.0</ns3:atemp>
            <ns3:hr>112</ns3:hr>
          </ns3:TrackPointExtension>
        </extensions>
      </trkpt>
      <trkpt lat="31.96584024466574192047119140625" lon="118.8263364695012569427490234375">
        <ele>2.2000000476837158203125</ele>
        <time>2025-08-20T12:08:03.000Z</time>
        <extensions>
          <ns3:TrackPointExtension>
            <ns3:atemp>33.0</ns3:atemp>
            <ns3:hr>114</ns3:hr>
          </ns3:TrackPointExtension>
        </extensions>
      </trkpt>
      <trkpt lat="31.96585432626307010650634765625" lon="118.8262301869690418243408203125">
        <ele>2.599999904632568359375</ele>
        <time>2025-08-20T12:08:05.000Z</time>
        <extensions>
          <ns3:TrackPointExtension>
            <ns3:atemp>33.0</ns3:atemp>
            <ns3:hr>115</ns3:hr>
          </ns3:TrackPointExtension>
        </extensions>
      </trkpt>
      <trkpt lat="31.965862624347209930419921875" lon="118.82611728273332118988037109375">
        <ele>2.7999999523162841796875</ele>
        <time>2025-08-20T12:08:07.000Z</time>
        <extensions>
          <ns3:TrackPointExtension>
            <ns3:atemp>33.0</ns3:atemp>
            <ns3:hr>115</ns3:hr>
          </ns3:TrackPointExtension>
        </extensions>
      </trkpt>
      <trkpt lat="31.96587125770747661590576171875" lon="118.826003372669219970703125">
        <ele>2.7999999523162841796875</ele>
        <time>2025-08-20T12:08:09.000Z</time>
        <extensions>
          <ns3:TrackPointExtension>
            <ns3:atemp>33.0</ns3:atemp>
            <ns3:hr>114</ns3:hr>
          </ns3:TrackPointExtension>
        </extensions>
      </trkpt>
      <trkpt lat="31.96594049222767353057861328125" lon="118.82540549151599407196044921875">
        <ele>2.7999999523162841796875</ele>
        <time>2025-08-20T12:08:19.000Z</time>
        <extensions>
          <ns3:TrackPointExtension>
            <ns3:atemp>33.0</ns3:atemp>
            <ns3:hr>113</ns3:hr>
          </ns3:TrackPointExtension>
        </extensions>
      </trkpt>
      <trkpt lat="31.9659432582557201385498046875" lon="118.82534162141382694244384765625">
        <ele>2.7999999523162841796875</ele>
        <time>2025-08-20T12:08:20.000Z</time>
        <extensions>
          <ns3:TrackPointExtension>
            <ns3:atemp>33.0</ns3:atemp>
            <ns3:hr>113</ns3:hr>
          </ns3:TrackPointExtension>
        </extensions>
      </trkpt>
      <trkpt lat="31.96596027351915836334228515625" lon="118.8250981271266937255859375">
        <ele>2.400000095367431640625</ele>
        <time>2025-08-20T12:08:24.000Z</time>
        <extensions>
          <ns3:TrackPointExtension>
            <ns3:atemp>33.0</ns3:atemp>
            <ns3:hr>110</ns3:hr>
          </ns3:TrackPointExtension>
        </extensions>
      </trkpt>
      <trkpt lat="31.96596597321331501007080078125" lon="118.8250366039574146270751953125">
        <ele>2.400000095367431640625</ele>
        <time>2025-08-20T12:08:25.000Z</time>
        <extensions>
          <ns3:TrackPointExtension>
            <ns3:atemp>33.0</ns3:atemp>
            <ns3:hr>110</ns3:hr>
          </ns3:TrackPointExtension>
        </extensions>
      </trkpt>
      <trkpt lat="31.9660250656306743621826171875" lon="118.82462211884558200836181640625">
        <ele>3.400000095367431640625</ele>
        <time>2025-08-20T12:08:32.000Z</time>
        <extensions>
          <ns3:TrackPointExtension>
            <ns3:atemp>33.0</ns3:atemp>
            <ns3:hr>113</ns3:hr>
          </ns3:TrackPointExtension>
        </extensions>
      </trkpt>
      <trkpt lat="31.96603822521865367889404296875" lon="118.82448163814842700958251953125">
        <ele>3.599999904632568359375</ele>
        <time>2025-08-20T12:08:35.000Z</time>
        <extensions>
          <ns3:TrackPointExtension>
            <ns3:atemp>33.0</ns3:atemp>
            <ns3:hr>112</ns3:hr>
          </ns3:TrackPointExtension>
        </extensions>
      </trkpt>
      <trkpt lat="31.96608223021030426025390625" lon="118.8244186900556087493896484375">
        <ele>3.599999904632568359375</ele>
        <time>2025-08-20T12:08:37.000Z</time>
        <extensions>
          <ns3:TrackPointExtension>
            <ns3:atemp>33.0</ns3:atemp>
            <ns3:hr>111</ns3:hr>
          </ns3:TrackPointExtension>
        </extensions>
      </trkpt>
      <trkpt lat="31.96613796986639499664306640625" lon="118.82441340945661067962646484375">
        <ele>3.7999999523162841796875</ele>
        <time>2025-08-20T12:08:39.000Z</time>
        <extensions>
          <ns3:TrackPointExtension>
            <ns3:atemp>33.0</ns3:atemp>
            <ns3:hr>108</ns3:hr>
          </ns3:TrackPointExtension>
        </extensions>
      </trkpt>
      <trkpt lat="31.966192536056041717529296875" lon="118.82444241084158420562744140625">
        <ele>4</ele>
        <time>2025-08-20T12:08:41.000Z</time>
        <extensions>
          <ns3:TrackPointExtension>
            <ns3:atemp>33.0</ns3:atemp>
            <ns3:hr>108</ns3:hr>
          </ns3:TrackPointExtension>
        </extensions>
      </trkpt>
      <trkpt lat="31.9663725793361663818359375" lon="118.82447862066328525543212890625">
        <ele>3.7999999523162841796875</ele>
        <time>2025-08-20T12:08:46.000Z</time>
        <extensions>
          <ns3:TrackPointExtension>
            <ns3:atemp>33.0</ns3:atemp>
            <ns3:hr>105</ns3:hr>
          </ns3:TrackPointExtension>
        </extensions>
      </trkpt>
      <trkpt lat="31.9664102979004383087158203125" lon="118.82448901422321796417236328125">
        <ele>3.7999999523162841796875</ele>
        <time>2025-08-20T12:08:47.000Z</time>
        <extensions>
          <ns3:TrackPointExtension>
            <ns3:atemp>33.0</ns3:atemp>
            <ns3:hr>104</ns3:hr>
          </ns3:TrackPointExtension>
        </extensions>
      </trkpt>
      <trkpt lat="31.96657366119325160980224609375" lon="118.82446303032338619232177734375">
        <ele>3.599999904632568359375</ele>
        <time>2025-08-20T12:08:52.000Z</time>
        <extensions>
          <ns3:TrackPointExtension>
            <ns3:atemp>33.0</ns3:atemp>
            <ns3:hr>105</ns3:hr>
          </ns3:TrackPointExtension>
        </extensions>
      </trkpt>
      <trkpt lat="31.96669469587504863739013671875" lon="118.824441321194171905517578125">
        <ele>3.7999999523162841796875</ele>
        <time>2025-08-20T12:08:56.000Z</time>
        <extensions>
          <ns3:TrackPointExtension>
            <ns3:atemp>33.0</ns3:atemp>
            <ns3:hr>106</ns3:hr>
          </ns3:TrackPointExtension>
        </extensions>
      </trkpt>
      <trkpt lat="31.966739706695079803466796875" lon="118.824436627328395843505859375">
        <ele>3.7999999523162841796875</ele>
        <time>2025-08-20T12:08:58.000Z</time>
        <extensions>
          <ns3:TrackPointExtension>
            <ns3:atemp>33.0</ns3:atemp>
            <ns3:hr>106</ns3:hr>
          </ns3:TrackPointExtension>
        </extensions>
      </trkpt>
      <trkpt lat="31.96675890125334262847900390625" lon="118.824374265968799591064453125">
        <ele>3.7999999523162841796875</ele>
        <time>2025-08-20T12:09:00.000Z</time>
        <extensions>
          <ns3:TrackPointExtension>
            <ns3:atemp>33.0</ns3:atemp>
            <ns3:hr>106</ns3:hr>
          </ns3:TrackPointExtension>
        </extensions>
      </trkpt>
      <trkpt lat="31.96678170002996921539306640625" lon="118.82408819161355495452880859375">
        <ele>4.19999980926513671875</ele>
        <time>2025-08-20T12:09:06.000Z</time>
        <extensions>
          <ns3:TrackPointExtension>
            <ns3:atemp>33.0</ns3:atemp>
            <ns3:hr>107</ns3:hr>
          </ns3:TrackPointExtension>
        </extensions>
      </trkpt>
      <trkpt lat="31.9668394513428211212158203125" lon="118.8237489759922027587890625">
        <ele>3.599999904632568359375</ele>
        <time>2025-08-20T12:09:12.000Z</time>
        <extensions>
          <ns3:TrackPointExtension>
            <ns3:atemp>33.0</ns3:atemp>
            <ns3:hr>106</ns3:hr>
          </ns3:TrackPointExtension>
        </extensions>
      </trkpt>
      <trkpt lat="31.9668602384626865386962890625" lon="118.82370413281023502349853515625">
        <ele>3.599999904632568359375</ele>
        <time>2025-08-20T12:09:13.000Z</time>
        <extensions>
          <ns3:TrackPointExtension>
            <ns3:atemp>33.0</ns3:atemp>
            <ns3:hr>106</ns3:hr>
          </ns3:TrackPointExtension>
        </extensions>
      </trkpt>
      <trkpt lat="31.96691773831844329833984375" lon="118.8235878758132457733154296875">
        <ele>3.7999999523162841796875</ele>
        <time>2025-08-20T12:09:16.000Z</time>
        <extensions>
          <ns3:TrackPointExtension>
            <ns3:atemp>33.0</ns3:atemp>
            <ns3:hr>107</ns3:hr>
          </ns3:TrackPointExtension>
        </extensions>
      </trkpt>
      <trkpt lat="31.966938860714435577392578125" lon="118.82354269735515117645263671875">
        <ele>4</ele>
        <time>2025-08-20T12:09:18.000Z</time>
        <extensions>
          <ns3:TrackPointExtension>
            <ns3:atemp>33.0</ns3:atemp>
            <ns3:hr>107</ns3:hr>
          </ns3:TrackPointExtension>
        </extensions>
      </trkpt>
      <trkpt lat="31.967030726373195648193359375" lon="118.82337623275816440582275390625">
        <ele>4</ele>
        <time>2025-08-20T12:09:23.000Z</time>
        <extensions>
          <ns3:TrackPointExtension>
            <ns3:atemp>33.0</ns3:atemp>
            <ns3:hr>105</ns3:hr>
          </ns3:TrackPointExtension>
        </extensions>
      </trkpt>
      <trkpt lat="31.96713491342961788177490234375" lon="118.82327715866267681121826171875">
        <ele>3.599999904632568359375</ele>
        <time>2025-08-20T12:09:26.000Z</time>
        <extensions>
          <ns3:TrackPointExtension>
            <ns3:atemp>33.0</ns3:atemp>
            <ns3:hr>108</ns3:hr>
          </ns3:TrackPointExtension>
        </extensions>
      </trkpt>
      <trkpt lat="31.9671764038503170013427734375" lon="118.8232465647161006927490234375">
        <ele>3.400000095367431640625</ele>
        <time>2025-08-20T12:09:27.000Z</time>
        <extensions>
          <ns3:TrackPointExtension>
            <ns3:atemp>33.0</ns3:atemp>
            <ns3:hr>109</ns3:hr>
          </ns3:TrackPointExtension>
        </extensions>
      </trkpt>
      <trkpt lat="31.96726835332810878753662109375" lon="118.82320515811443328857421875">
        <ele>3.599999904632568359375</ele>
        <time>2025-08-20T12:09:29.000Z</time>
        <extensions>
          <ns3:TrackPointExtension>
            <ns3:atemp>33.0</ns3:atemp>
            <ns3:hr>109</ns3:hr>
          </ns3:TrackPointExtension>
        </extensions>
      </trkpt>
      <trkpt lat="31.9676427729427814483642578125" lon="118.82305704988539218902587890625">
        <ele>3.7999999523162841796875</ele>
        <time>2025-08-20T12:09:37.000Z</time>
        <extensions>
          <ns3:TrackPointExtension>
            <ns3:atemp>33.0</ns3:atemp>
            <ns3:hr>111</ns3:hr>
          </ns3:TrackPointExtension>
        </extensions>
      </trkpt>
      <trkpt lat="31.96792599745094776153564453125" lon="118.823092840611934661865234375">
        <ele>4.599999904632568359375</ele>
        <time>2025-08-20T12:09:43.000Z</time>
        <extensions>
          <ns3:TrackPointExtension>
            <ns3:atemp>33.0</ns3:atemp>
            <ns3:hr>112</ns3:hr>
          </ns3:TrackPointExtension>
        </extensions>
      </trkpt>
      <trkpt lat="31.9680591858923435211181640625" lon="118.8231188245117664337158203125">
        <ele>4.400000095367431640625</ele>
        <time>2025-08-20T12:09:46.000Z</time>
        <extensions>
          <ns3:TrackPointExtension>
            <ns3:atemp>33.0</ns3:atemp>
            <ns3:hr>110</ns3:hr>
          </ns3:TrackPointExtension>
        </extensions>
      </trkpt>
      <trkpt lat="31.96814141236245632171630859375" lon="118.82317791692912578582763671875">
        <ele>4.400000095367431640625</ele>
        <time>2025-08-20T12:09:48.000Z</time>
        <extensions>
          <ns3:TrackPointExtension>
            <ns3:atemp>33.0</ns3:atemp>
            <ns3:hr>110</ns3:hr>
          </ns3:TrackPointExtension>
        </extensions>
      </trkpt>
      <trkpt lat="31.96829513646662235260009765625" lon="118.82333365269005298614501953125">
        <ele>4.80000019073486328125</ele>
        <time>2025-08-20T12:09:52.000Z</time>
        <extensions>
          <ns3:TrackPointExtension>
            <ns3:atemp>33.0</ns3:atemp>
            <ns3:hr>109</ns3:hr>
          </ns3:TrackPointExtension>
        </extensions>
      </trkpt>
      <trkpt lat="31.9683264009654521942138671875" lon="118.823380172252655029296875">
        <ele>4.80000019073486328125</ele>
        <time>2025-08-20T12:09:53.000Z</time>
        <extensions>
          <ns3:TrackPointExtension>
            <ns3:atemp>33.0</ns3:atemp>
            <ns3:hr>109</ns3:hr>
          </ns3:TrackPointExtension>
        </extensions>
      </trkpt>
      <trkpt lat="31.96838951669633388519287109375" lon="118.82347295992076396942138671875">
        <ele>4.80000019073486328125</ele>
        <time>2025-08-20T12:09:55.000Z</time>
        <extensions>
          <ns3:TrackPointExtension>
            <ns3:atemp>33.0</ns3:atemp>
            <ns3:hr>110</ns3:hr>
          </ns3:TrackPointExtension>
        </extensions>
      </trkpt>
      <trkpt lat="31.9684700667858123779296875" lon="118.82360271178185939788818359375">
        <ele>5</ele>
        <time>2025-08-20T12:09:58.000Z</time>
        <extensions>
          <ns3:TrackPointExtension>
            <ns3:atemp>33.0</ns3:atemp>
            <ns3:hr>109</ns3:hr>
          </ns3:TrackPointExtension>
        </extensions>
      </trkpt>
      <trkpt lat="31.9685049355030059814453125" lon="118.82369273342192173004150390625">
        <ele>5</ele>
        <time>2025-08-20T12:10:00.000Z</time>
        <extensions>
          <ns3:TrackPointExtension>
            <ns3:atemp>33.0</ns3:atemp>
            <ns3:hr>107</ns3:hr>
          </ns3:TrackPointExtension>
        </extensions>
      </trkpt>
      <trkpt lat="31.9685413129627704620361328125" lon="118.8238871097564697265625">
        <ele>5.400000095367431640625</ele>
        <time>2025-08-20T12:10:04.000Z</time>
        <extensions>
          <ns3:TrackPointExtension>
            <ns3:atemp>33.0</ns3:atemp>
            <ns3:hr>107</ns3:hr>
          </ns3:TrackPointExtension>
        </extensions>
      </trkpt>
      <trkpt lat="31.9685379602015018463134765625" lon="118.82398878224194049835205078125">
        <ele>5.19999980926513671875</ele>
        <time>2025-08-20T12:10:06.000Z</time>
        <extensions>
          <ns3:TrackPointExtension>
            <ns3:atemp>33.0</ns3:atemp>
            <ns3:hr>107</ns3:hr>
          </ns3:TrackPointExtension>
        </extensions>
      </trkpt>
      <trkpt lat="31.96851876564323902130126953125" lon="118.82406069897115230560302734375">
        <ele>5</ele>
        <time>2025-08-20T12:10:08.000Z</time>
        <extensions>
          <ns3:TrackPointExtension>
            <ns3:atemp>33.0</ns3:atemp>
            <ns3:hr>107</ns3:hr>
          </ns3:TrackPointExtension>
        </extensions>
      </trkpt>
      <trkpt lat="31.96849462576210498809814453125" lon="118.824064470827579498291015625">
        <ele>5</ele>
        <time>2025-08-20T12:10:09.000Z</time>
        <extensions>
          <ns3:TrackPointExtension>
            <ns3:atemp>33.0</ns3:atemp>
            <ns3:hr>107</ns3:hr>
          </ns3:TrackPointExtension>
        </extensions>
      </trkpt>
      <trkpt lat="31.96845598518848419189453125" lon="118.824083246290683746337890625">
        <ele>5.19999980926513671875</ele>
        <time>2025-08-20T12:10:14.000Z</time>
        <extensions>
          <ns3:TrackPointExtension>
            <ns3:atemp>33.0</ns3:atemp>
            <ns3:hr>106</ns3:hr>
          </ns3:TrackPointExtension>
        </extensions>
      </trkpt>
      <trkpt lat="31.96845690719783306121826171875" lon="118.8240830786526203155517578125">
        <ele>5.400000095367431640625</ele>
        <time>2025-08-20T12:10:18.000Z</time>
        <extensions>
          <ns3:TrackPointExtension>
            <ns3:atemp>33.0</ns3:atemp>
            <ns3:hr>105</ns3:hr>
          </ns3:TrackPointExtension>
        </extensions>
      </trkpt>
    </trkseg>
  </trk>
</gpx>
