<gpx xmlns:ns3="http://www.garmin.com/xmlschemas/TrackPointExtension/v1" xmlns="http://www.topografix.com/GPX/1/1" xmlns:xsi="http://www.w3.org/2001/XMLSchema-instance" xmlns:ns2="http://www.garmin.com/xmlschemas/GpxExtensions/v3" creator="Garmin Connect" version="1.1" xsi:schemaLocation="http://www.topografix.com/GPX/1/1 http://www.topografix.com/GPX/11.xsd">
  <extensions>
<distance>3317.95</distance>
<average_hr>121.0</average_hr>
<average_speed>5.308000087738037</average_speed>
<start_time>2025-08-21T09:14:31+00:00</start_time>
<end_time>2025-08-21T09:24:56.044000+00:00</end_time>
<moving_time>589.0</moving_time>
<elapsed_time>681.042</elapsed_time>
</extensions>
<metadata>
    <link href="connect.garmin.com">
      <text>Garmin Connect</text>
    </link>
    <time>2025-08-21T09:14:31.000Z</time>
  </metadata>
  <trk>
    <name>南京市 骑行</name>
    <type>cycling</type>
    <trkseg>
      <trkpt lat="31.969359554350376129150390625" lon="118.7988636083900928497314453125">
        <ele>12.6000003814697265625</ele>
        <time>2025-08-21T09:14:31.000Z</time>
        <extensions>
          <ns3:TrackPointExtension>
            <ns3:atemp>34.0</ns3:atemp>
            <ns3:hr>113</ns3:hr>
          </ns3:TrackPointExtension>
        </extensions>
      </trkpt>
      <trkpt lat="31.96936433203518390655517578125" lon="118.798927478492259979248046875">
        <ele>12.6000003814697265625</ele>
        <time>2025-08-21T09:14:32.000Z</time>
        <extensions>
          <ns3:TrackPointExtension>
            <ns3:atemp>34.0</ns3:atemp>
            <ns3:hr>113</ns3:hr>
          </ns3:TrackPointExtension>
        </extensions>
      </trkpt>
      <trkpt lat="31.96946089155972003936767578125" lon="118.79904373548924922943115234375">
        <ele>12.6000003814697265625</ele>
        <time>2025-08-21T09:14:34.000Z</time>
        <extensions>
          <ns3:TrackPointExtension>
            <ns3:atemp>34.0</ns3:atemp>
            <ns3:hr>112</ns3:hr>
          </ns3:TrackPointExtension>
        </extensions>
      </trkpt>
      <trkpt lat="31.9695427827537059783935546875" lon="118.7990979664027690887451171875">
        <ele>12.6000003814697265625</ele>
        <time>2025-08-21T09:14:35.000Z</time>
        <extensions>
          <ns3:TrackPointExtension>
            <ns3:atemp>34.0</ns3:atemp>
            <ns3:hr>112</ns3:hr>
          </ns3:TrackPointExtension>
        </extensions>
      </trkpt>
      <trkpt lat="31.969744451344013214111328125" lon="118.79937113262712955474853515625">
        <ele>12.6000003814697265625</ele>
        <time>2025-08-21T09:14:41.000Z</time>
        <extensions>
          <ns3:TrackPointExtension>
            <ns3:atemp>34.0</ns3:atemp>
            <ns3:hr>111</ns3:hr>
          </ns3:TrackPointExtension>
        </extensions>
      </trkpt>
      <trkpt lat="31.96983556263148784637451171875" lon="118.79947657696902751922607421875">
        <ele>13</ele>
        <time>2025-08-21T09:14:44.000Z</time>
        <extensions>
          <ns3:TrackPointExtension>
            <ns3:atemp>34.0</ns3:atemp>
            <ns3:hr>111</ns3:hr>
          </ns3:TrackPointExtension>
        </extensions>
      </trkpt>
      <trkpt lat="31.9698737002909183502197265625" lon="118.7995475716888904571533203125">
        <ele>13.19999980926513671875</ele>
        <time>2025-08-21T09:14:46.000Z</time>
        <extensions>
          <ns3:TrackPointExtension>
            <ns3:atemp>34.0</ns3:atemp>
            <ns3:hr>111</ns3:hr>
          </ns3:TrackPointExtension>
        </extensions>
      </trkpt>
      <trkpt lat="31.969879902899265289306640625" lon="118.79990589804947376251220703125">
        <ele>13</ele>
        <time>2025-08-21T09:14:52.000Z</time>
        <extensions>
          <ns3:TrackPointExtension>
            <ns3:atemp>34.0</ns3:atemp>
            <ns3:hr>110</ns3:hr>
          </ns3:TrackPointExtension>
        </extensions>
      </trkpt>
      <trkpt lat="31.97005365975201129913330078125" lon="118.80025240592658519744873046875">
        <ele>12.80000019073486328125</ele>
        <time>2025-08-21T09:14:58.000Z</time>
        <extensions>
          <ns3:TrackPointExtension>
            <ns3:atemp>34.0</ns3:atemp>
            <ns3:hr>110</ns3:hr>
          </ns3:TrackPointExtension>
        </extensions>
      </trkpt>
      <trkpt lat="31.97019699029624462127685546875" lon="118.8005909509956836700439453125">
        <ele>12.3999996185302734375</ele>
        <time>2025-08-21T09:15:04.000Z</time>
        <extensions>
          <ns3:TrackPointExtension>
            <ns3:atemp>34.0</ns3:atemp>
            <ns3:hr>109</ns3:hr>
          </ns3:TrackPointExtension>
        </extensions>
      </trkpt>
      <trkpt lat="31.970291621983051300048828125" lon="118.80077459849417209625244140625">
        <ele>12.6000003814697265625</ele>
        <time>2025-08-21T09:15:08.000Z</time>
        <extensions>
          <ns3:TrackPointExtension>
            <ns3:atemp>34.0</ns3:atemp>
            <ns3:hr>110</ns3:hr>
          </ns3:TrackPointExtension>
        </extensions>
      </trkpt>
      <trkpt lat="31.97031953372061252593994140625" lon="118.80087048746645450592041015625">
        <ele>13.19999980926513671875</ele>
        <time>2025-08-21T09:15:10.000Z</time>
        <extensions>
          <ns3:TrackPointExtension>
            <ns3:atemp>34.0</ns3:atemp>
            <ns3:hr>110</ns3:hr>
          </ns3:TrackPointExtension>
        </extensions>
      </trkpt>
      <trkpt lat="31.97038239799439907073974609375" lon="118.8010221160948276519775390625">
        <ele>13.6000003814697265625</ele>
        <time>2025-08-21T09:15:13.000Z</time>
        <extensions>
          <ns3:TrackPointExtension>
            <ns3:atemp>34.0</ns3:atemp>
            <ns3:hr>111</ns3:hr>
          </ns3:TrackPointExtension>
        </extensions>
      </trkpt>
      <trkpt lat="31.97042942047119140625" lon="118.80111406557261943817138671875">
        <ele>13.80000019073486328125</ele>
        <time>2025-08-21T09:15:15.000Z</time>
        <extensions>
          <ns3:TrackPointExtension>
            <ns3:atemp>34.0</ns3:atemp>
            <ns3:hr>111</ns3:hr>
          </ns3:TrackPointExtension>
        </extensions>
      </trkpt>
      <trkpt lat="31.9704748503863811492919921875" lon="118.80121917463839054107666015625">
        <ele>13.80000019073486328125</ele>
        <time>2025-08-21T09:15:17.000Z</time>
        <extensions>
          <ns3:TrackPointExtension>
            <ns3:atemp>34.0</ns3:atemp>
            <ns3:hr>112</ns3:hr>
          </ns3:TrackPointExtension>
        </extensions>
      </trkpt>
      <trkpt lat="31.9705566577613353729248046875" lon="118.8014552928507328033447265625">
        <ele>13.80000019073486328125</ele>
        <time>2025-08-21T09:15:21.000Z</time>
        <extensions>
          <ns3:TrackPointExtension>
            <ns3:atemp>34.0</ns3:atemp>
            <ns3:hr>113</ns3:hr>
          </ns3:TrackPointExtension>
        </extensions>
      </trkpt>
      <trkpt lat="31.9707605056464672088623046875" lon="118.80190012045204639434814453125">
        <ele>13</ele>
        <time>2025-08-21T09:15:28.000Z</time>
        <extensions>
          <ns3:TrackPointExtension>
            <ns3:atemp>34.0</ns3:atemp>
            <ns3:hr>116</ns3:hr>
          </ns3:TrackPointExtension>
        </extensions>
      </trkpt>
      <trkpt lat="31.970816664397716522216796875" lon="118.8020266033709049224853515625">
        <ele>13</ele>
        <time>2025-08-21T09:15:30.000Z</time>
        <extensions>
          <ns3:TrackPointExtension>
            <ns3:atemp>34.0</ns3:atemp>
            <ns3:hr>117</ns3:hr>
          </ns3:TrackPointExtension>
        </extensions>
      </trkpt>
      <trkpt lat="31.97091029025614261627197265625" lon="118.80221745930612087249755859375">
        <ele>13.19999980926513671875</ele>
        <time>2025-08-21T09:15:33.000Z</time>
        <extensions>
          <ns3:TrackPointExtension>
            <ns3:atemp>34.0</ns3:atemp>
            <ns3:hr>119</ns3:hr>
          </ns3:TrackPointExtension>
        </extensions>
      </trkpt>
      <trkpt lat="31.9710941053926944732666015625" lon="118.80258978344500064849853515625">
        <ele>13.19999980926513671875</ele>
        <time>2025-08-21T09:15:39.000Z</time>
        <extensions>
          <ns3:TrackPointExtension>
            <ns3:atemp>34.0</ns3:atemp>
            <ns3:hr>119</ns3:hr>
          </ns3:TrackPointExtension>
        </extensions>
      </trkpt>
      <trkpt lat="31.97128194384276866912841796875" lon="118.803067468106746673583984375">
        <ele>12.80000019073486328125</ele>
        <time>2025-08-21T09:15:46.000Z</time>
        <extensions>
          <ns3:TrackPointExtension>
            <ns3:atemp>34.0</ns3:atemp>
            <ns3:hr>120</ns3:hr>
          </ns3:TrackPointExtension>
        </extensions>
      </trkpt>
      <trkpt lat="31.97131832130253314971923828125" lon="118.80314215086400508880615234375">
        <ele>12.80000019073486328125</ele>
        <time>2025-08-21T09:15:47.000Z</time>
        <extensions>
          <ns3:TrackPointExtension>
            <ns3:atemp>34.0</ns3:atemp>
            <ns3:hr>121</ns3:hr>
          </ns3:TrackPointExtension>
        </extensions>
      </trkpt>
      <trkpt lat="31.97137582115828990936279296875" lon="118.803310878574848175048828125">
        <ele>12.6000003814697265625</ele>
        <time>2025-08-21T09:15:49.000Z</time>
        <extensions>
          <ns3:TrackPointExtension>
            <ns3:atemp>34.0</ns3:atemp>
            <ns3:hr>121</ns3:hr>
          </ns3:TrackPointExtension>
        </extensions>
      </trkpt>
      <trkpt lat="31.97140566073358058929443359375" lon="118.8033770956099033355712890625">
        <ele>12.6000003814697265625</ele>
        <time>2025-08-21T09:15:50.000Z</time>
        <extensions>
          <ns3:TrackPointExtension>
            <ns3:atemp>34.0</ns3:atemp>
            <ns3:hr>121</ns3:hr>
          </ns3:TrackPointExtension>
        </extensions>
      </trkpt>
      <trkpt lat="31.97166902013123035430908203125" lon="118.80395133979618549346923828125">
        <ele>12</ele>
        <time>2025-08-21T09:15:58.000Z</time>
        <extensions>
          <ns3:TrackPointExtension>
            <ns3:atemp>34.0</ns3:atemp>
            <ns3:hr>120</ns3:hr>
          </ns3:TrackPointExtension>
        </extensions>
      </trkpt>
      <trkpt lat="31.97190136648714542388916015625" lon="118.80443111993372440338134765625">
        <ele>12</ele>
        <time>2025-08-21T09:16:05.000Z</time>
        <extensions>
          <ns3:TrackPointExtension>
            <ns3:atemp>34.0</ns3:atemp>
            <ns3:hr>121</ns3:hr>
          </ns3:TrackPointExtension>
        </extensions>
      </trkpt>
      <trkpt lat="31.9719242490828037261962890625" lon="118.804494403302669525146484375">
        <ele>12</ele>
        <time>2025-08-21T09:16:06.000Z</time>
        <extensions>
          <ns3:TrackPointExtension>
            <ns3:atemp>34.0</ns3:atemp>
            <ns3:hr>121</ns3:hr>
          </ns3:TrackPointExtension>
        </extensions>
      </trkpt>
      <trkpt lat="31.9719108380377292633056640625" lon="118.8046219758689403533935546875">
        <ele>12.19999980926513671875</ele>
        <time>2025-08-21T09:16:08.000Z</time>
        <extensions>
          <ns3:TrackPointExtension>
            <ns3:atemp>34.0</ns3:atemp>
            <ns3:hr>121</ns3:hr>
          </ns3:TrackPointExtension>
        </extensions>
      </trkpt>
      <trkpt lat="31.97182978503406047821044921875" lon="118.80471643991768360137939453125">
        <ele>12.19999980926513671875</ele>
        <time>2025-08-21T09:16:10.000Z</time>
        <extensions>
          <ns3:TrackPointExtension>
            <ns3:atemp>34.0</ns3:atemp>
            <ns3:hr>121</ns3:hr>
          </ns3:TrackPointExtension>
        </extensions>
      </trkpt>
      <trkpt lat="31.9717854447662830352783203125" lon="118.8047570921480655670166015625">
        <ele>12.19999980926513671875</ele>
        <time>2025-08-21T09:16:11.000Z</time>
        <extensions>
          <ns3:TrackPointExtension>
            <ns3:atemp>34.0</ns3:atemp>
            <ns3:hr>120</ns3:hr>
          </ns3:TrackPointExtension>
        </extensions>
      </trkpt>
      <trkpt lat="31.97168276645243167877197265625" lon="118.80483311600983142852783203125">
        <ele>12</ele>
        <time>2025-08-21T09:16:13.000Z</time>
        <extensions>
          <ns3:TrackPointExtension>
            <ns3:atemp>34.0</ns3:atemp>
            <ns3:hr>120</ns3:hr>
          </ns3:TrackPointExtension>
        </extensions>
      </trkpt>
      <trkpt lat="31.9714632444083690643310546875" lon="118.80494141019880771636962890625">
        <ele>11.6000003814697265625</ele>
        <time>2025-08-21T09:16:17.000Z</time>
        <extensions>
          <ns3:TrackPointExtension>
            <ns3:atemp>34.0</ns3:atemp>
            <ns3:hr>119</ns3:hr>
          </ns3:TrackPointExtension>
        </extensions>
      </trkpt>
      <trkpt lat="31.9714089296758174896240234375" lon="118.804972171783447265625">
        <ele>11.6000003814697265625</ele>
        <time>2025-08-21T09:16:18.000Z</time>
        <extensions>
          <ns3:TrackPointExtension>
            <ns3:atemp>34.0</ns3:atemp>
            <ns3:hr>119</ns3:hr>
          </ns3:TrackPointExtension>
        </extensions>
      </trkpt>
      <trkpt lat="31.97114498354494571685791015625" lon="118.8051450066268444061279296875">
        <ele>11.19999980926513671875</ele>
        <time>2025-08-21T09:16:23.000Z</time>
        <extensions>
          <ns3:TrackPointExtension>
            <ns3:atemp>34.0</ns3:atemp>
            <ns3:hr>120</ns3:hr>
          </ns3:TrackPointExtension>
        </extensions>
      </trkpt>
      <trkpt lat="31.971098966896533966064453125" lon="118.8051885925233364105224609375">
        <ele>11.19999980926513671875</ele>
        <time>2025-08-21T09:16:24.000Z</time>
        <extensions>
          <ns3:TrackPointExtension>
            <ns3:atemp>34.0</ns3:atemp>
            <ns3:hr>120</ns3:hr>
          </ns3:TrackPointExtension>
        </extensions>
      </trkpt>
      <trkpt lat="31.97082974016666412353515625" lon="118.8054434023797512054443359375">
        <ele>11</ele>
        <time>2025-08-21T09:16:30.000Z</time>
        <extensions>
          <ns3:TrackPointExtension>
            <ns3:atemp>34.0</ns3:atemp>
            <ns3:hr>119</ns3:hr>
          </ns3:TrackPointExtension>
        </extensions>
      </trkpt>
      <trkpt lat="31.97073728777468204498291015625" lon="118.805514313280582427978515625">
        <ele>10.80000019073486328125</ele>
        <time>2025-08-21T09:16:32.000Z</time>
        <extensions>
          <ns3:TrackPointExtension>
            <ns3:atemp>34.0</ns3:atemp>
            <ns3:hr>119</ns3:hr>
          </ns3:TrackPointExtension>
        </extensions>
      </trkpt>
      <trkpt lat="31.97069135494530200958251953125" lon="118.80555395968258380889892578125">
        <ele>10.3999996185302734375</ele>
        <time>2025-08-21T09:16:33.000Z</time>
        <extensions>
          <ns3:TrackPointExtension>
            <ns3:atemp>34.0</ns3:atemp>
            <ns3:hr>119</ns3:hr>
          </ns3:TrackPointExtension>
        </extensions>
      </trkpt>
      <trkpt lat="31.970609128475189208984375" lon="118.80564046092331409454345703125">
        <ele>10.3999996185302734375</ele>
        <time>2025-08-21T09:16:35.000Z</time>
        <extensions>
          <ns3:TrackPointExtension>
            <ns3:atemp>34.0</ns3:atemp>
            <ns3:hr>119</ns3:hr>
          </ns3:TrackPointExtension>
        </extensions>
      </trkpt>
      <trkpt lat="31.970582641661167144775390625" lon="118.805693350732326507568359375">
        <ele>10.6000003814697265625</ele>
        <time>2025-08-21T09:16:36.000Z</time>
        <extensions>
          <ns3:TrackPointExtension>
            <ns3:atemp>34.0</ns3:atemp>
            <ns3:hr>120</ns3:hr>
          </ns3:TrackPointExtension>
        </extensions>
      </trkpt>
      <trkpt lat="31.9704714976251125335693359375" lon="118.805908598005771636962890625">
        <ele>11</ele>
        <time>2025-08-21T09:16:40.000Z</time>
        <extensions>
          <ns3:TrackPointExtension>
            <ns3:atemp>34.0</ns3:atemp>
            <ns3:hr>120</ns3:hr>
          </ns3:TrackPointExtension>
        </extensions>
      </trkpt>
      <trkpt lat="31.9704855792224407196044921875" lon="118.8059664331376552581787109375">
        <ele>10.80000019073486328125</ele>
        <time>2025-08-21T09:16:41.000Z</time>
        <extensions>
          <ns3:TrackPointExtension>
            <ns3:atemp>34.0</ns3:atemp>
            <ns3:hr>120</ns3:hr>
          </ns3:TrackPointExtension>
        </extensions>
      </trkpt>
      <trkpt lat="31.97051567025482654571533203125" lon="118.80602292716503143310546875">
        <ele>10.80000019073486328125</ele>
        <time>2025-08-21T09:16:42.000Z</time>
        <extensions>
          <ns3:TrackPointExtension>
            <ns3:atemp>34.0</ns3:atemp>
            <ns3:hr>120</ns3:hr>
          </ns3:TrackPointExtension>
        </extensions>
      </trkpt>
      <trkpt lat="31.97060175240039825439453125" lon="118.80619886331260204315185546875">
        <ele>10.6000003814697265625</ele>
        <time>2025-08-21T09:16:45.000Z</time>
        <extensions>
          <ns3:TrackPointExtension>
            <ns3:atemp>34.0</ns3:atemp>
            <ns3:hr>120</ns3:hr>
          </ns3:TrackPointExtension>
        </extensions>
      </trkpt>
      <trkpt lat="31.9707702286541461944580078125" lon="118.80658761598169803619384765625">
        <ele>10.6000003814697265625</ele>
        <time>2025-08-21T09:16:51.000Z</time>
        <extensions>
          <ns3:TrackPointExtension>
            <ns3:atemp>34.0</ns3:atemp>
            <ns3:hr>121</ns3:hr>
          </ns3:TrackPointExtension>
        </extensions>
      </trkpt>
      <trkpt lat="31.9708295725286006927490234375" lon="118.80672239698469638824462890625">
        <ele>10.6000003814697265625</ele>
        <time>2025-08-21T09:16:53.000Z</time>
        <extensions>
          <ns3:TrackPointExtension>
            <ns3:atemp>34.0</ns3:atemp>
            <ns3:hr>124</ns3:hr>
          </ns3:TrackPointExtension>
        </extensions>
      </trkpt>
      <trkpt lat="31.9709522835910320281982421875" lon="118.80700469948351383209228515625">
        <ele>10.3999996185302734375</ele>
        <time>2025-08-21T09:16:57.000Z</time>
        <extensions>
          <ns3:TrackPointExtension>
            <ns3:atemp>34.0</ns3:atemp>
            <ns3:hr>127</ns3:hr>
          </ns3:TrackPointExtension>
        </extensions>
      </trkpt>
      <trkpt lat="31.97101841680705547332763671875" lon="118.8071482814848423004150390625">
        <ele>10.19999980926513671875</ele>
        <time>2025-08-21T09:16:59.000Z</time>
        <extensions>
          <ns3:TrackPointExtension>
            <ns3:atemp>34.0</ns3:atemp>
            <ns3:hr>128</ns3:hr>
          </ns3:TrackPointExtension>
        </extensions>
      </trkpt>
      <trkpt lat="31.97117364965379238128662109375" lon="118.80748682655394077301025390625">
        <ele>9.3999996185302734375</ele>
        <time>2025-08-21T09:17:04.000Z</time>
        <extensions>
          <ns3:TrackPointExtension>
            <ns3:atemp>34.0</ns3:atemp>
            <ns3:hr>128</ns3:hr>
          </ns3:TrackPointExtension>
        </extensions>
      </trkpt>
      <trkpt lat="31.97126937098801136016845703125" lon="118.807682208716869354248046875">
        <ele>9.19999980926513671875</ele>
        <time>2025-08-21T09:17:07.000Z</time>
        <extensions>
          <ns3:TrackPointExtension>
            <ns3:atemp>34.0</ns3:atemp>
            <ns3:hr>126</ns3:hr>
          </ns3:TrackPointExtension>
        </extensions>
      </trkpt>
      <trkpt lat="31.97133106179535388946533203125" lon="118.8078193366527557373046875">
        <ele>9.19999980926513671875</ele>
        <time>2025-08-21T09:17:09.000Z</time>
        <extensions>
          <ns3:TrackPointExtension>
            <ns3:atemp>34.0</ns3:atemp>
            <ns3:hr>123</ns3:hr>
          </ns3:TrackPointExtension>
        </extensions>
      </trkpt>
      <trkpt lat="31.97140431962907314300537109375" lon="118.8079844601452350616455078125">
        <ele>9.19999980926513671875</ele>
        <time>2025-08-21T09:17:12.000Z</time>
        <extensions>
          <ns3:TrackPointExtension>
            <ns3:atemp>34.0</ns3:atemp>
            <ns3:hr>121</ns3:hr>
          </ns3:TrackPointExtension>
        </extensions>
      </trkpt>
      <trkpt lat="31.971420161426067352294921875" lon="118.808139525353908538818359375">
        <ele>9.3999996185302734375</ele>
        <time>2025-08-21T09:17:15.000Z</time>
        <extensions>
          <ns3:TrackPointExtension>
            <ns3:atemp>34.0</ns3:atemp>
            <ns3:hr>120</ns3:hr>
          </ns3:TrackPointExtension>
        </extensions>
      </trkpt>
      <trkpt lat="31.97139308787882328033447265625" lon="118.808183781802654266357421875">
        <ele>9.3999996185302734375</ele>
        <time>2025-08-21T09:17:16.000Z</time>
        <extensions>
          <ns3:TrackPointExtension>
            <ns3:atemp>34.0</ns3:atemp>
            <ns3:hr>120</ns3:hr>
          </ns3:TrackPointExtension>
        </extensions>
      </trkpt>
      <trkpt lat="31.97135545313358306884765625" lon="118.80822242237627506256103515625">
        <ele>9.6000003814697265625</ele>
        <time>2025-08-21T09:17:17.000Z</time>
        <extensions>
          <ns3:TrackPointExtension>
            <ns3:atemp>34.0</ns3:atemp>
            <ns3:hr>120</ns3:hr>
          </ns3:TrackPointExtension>
        </extensions>
      </trkpt>
      <trkpt lat="31.971223354339599609375" lon="118.8083277828991413116455078125">
        <ele>9.80000019073486328125</ele>
        <time>2025-08-21T09:17:20.000Z</time>
        <extensions>
          <ns3:TrackPointExtension>
            <ns3:atemp>34.0</ns3:atemp>
            <ns3:hr>121</ns3:hr>
          </ns3:TrackPointExtension>
        </extensions>
      </trkpt>
      <trkpt lat="31.9709537923336029052734375" lon="118.80854730494320392608642578125">
        <ele>10</ele>
        <time>2025-08-21T09:17:26.000Z</time>
        <extensions>
          <ns3:TrackPointExtension>
            <ns3:atemp>34.0</ns3:atemp>
            <ns3:hr>120</ns3:hr>
          </ns3:TrackPointExtension>
        </extensions>
      </trkpt>
      <trkpt lat="31.97086284868419170379638671875" lon="118.80863028578460216522216796875">
        <ele>10.19999980926513671875</ele>
        <time>2025-08-21T09:17:28.000Z</time>
        <extensions>
          <ns3:TrackPointExtension>
            <ns3:atemp>34.0</ns3:atemp>
            <ns3:hr>123</ns3:hr>
          </ns3:TrackPointExtension>
        </extensions>
      </trkpt>
      <trkpt lat="31.97072521783411502838134765625" lon="118.80875115282833576202392578125">
        <ele>10.19999980926513671875</ele>
        <time>2025-08-21T09:17:31.000Z</time>
        <extensions>
          <ns3:TrackPointExtension>
            <ns3:atemp>34.0</ns3:atemp>
            <ns3:hr>126</ns3:hr>
          </ns3:TrackPointExtension>
        </extensions>
      </trkpt>
      <trkpt lat="31.9706750102341175079345703125" lon="118.80878828465938568115234375">
        <ele>10.19999980926513671875</ele>
        <time>2025-08-21T09:17:32.000Z</time>
        <extensions>
          <ns3:TrackPointExtension>
            <ns3:atemp>34.0</ns3:atemp>
            <ns3:hr>125</ns3:hr>
          </ns3:TrackPointExtension>
        </extensions>
      </trkpt>
      <trkpt lat="31.97042514570057392120361328125" lon="118.80898266099393367767333984375">
        <ele>9.19999980926513671875</ele>
        <time>2025-08-21T09:17:37.000Z</time>
        <extensions>
          <ns3:TrackPointExtension>
            <ns3:atemp>34.0</ns3:atemp>
            <ns3:hr>128</ns3:hr>
          </ns3:TrackPointExtension>
        </extensions>
      </trkpt>
      <trkpt lat="31.970373429358005523681640625" lon="118.80902029573917388916015625">
        <ele>9</ele>
        <time>2025-08-21T09:17:38.000Z</time>
        <extensions>
          <ns3:TrackPointExtension>
            <ns3:atemp>34.0</ns3:atemp>
            <ns3:hr>128</ns3:hr>
          </ns3:TrackPointExtension>
        </extensions>
      </trkpt>
      <trkpt lat="31.9700686633586883544921875" lon="118.8092675618827342987060546875">
        <ele>8.6000003814697265625</ele>
        <time>2025-08-21T09:17:44.000Z</time>
        <extensions>
          <ns3:TrackPointExtension>
            <ns3:atemp>34.0</ns3:atemp>
            <ns3:hr>128</ns3:hr>
          </ns3:TrackPointExtension>
        </extensions>
      </trkpt>
      <trkpt lat="31.97001962922513484954833984375" lon="118.80930804647505283355712890625">
        <ele>8.6000003814697265625</ele>
        <time>2025-08-21T09:17:45.000Z</time>
        <extensions>
          <ns3:TrackPointExtension>
            <ns3:atemp>34.0</ns3:atemp>
            <ns3:hr>124</ns3:hr>
          </ns3:TrackPointExtension>
        </extensions>
      </trkpt>
      <trkpt lat="31.9699659012258052825927734375" lon="118.8093406520783901214599609375">
        <ele>8.6000003814697265625</ele>
        <time>2025-08-21T09:17:46.000Z</time>
        <extensions>
          <ns3:TrackPointExtension>
            <ns3:atemp>34.0</ns3:atemp>
            <ns3:hr>124</ns3:hr>
          </ns3:TrackPointExtension>
        </extensions>
      </trkpt>
      <trkpt lat="31.96980304084718227386474609375" lon="118.80944165401160717010498046875">
        <ele>9</ele>
        <time>2025-08-21T09:17:49.000Z</time>
        <extensions>
          <ns3:TrackPointExtension>
            <ns3:atemp>34.0</ns3:atemp>
            <ns3:hr>123</ns3:hr>
          </ns3:TrackPointExtension>
        </extensions>
      </trkpt>
      <trkpt lat="31.96949693374335765838623046875" lon="118.8096578232944011688232421875">
        <ele>8.3999996185302734375</ele>
        <time>2025-08-21T09:17:55.000Z</time>
        <extensions>
          <ns3:TrackPointExtension>
            <ns3:atemp>34.0</ns3:atemp>
            <ns3:hr>123</ns3:hr>
          </ns3:TrackPointExtension>
        </extensions>
      </trkpt>
      <trkpt lat="31.96923944167792797088623046875" lon="118.8098586536943912506103515625">
        <ele>8.19999980926513671875</ele>
        <time>2025-08-21T09:18:00.000Z</time>
        <extensions>
          <ns3:TrackPointExtension>
            <ns3:atemp>34.0</ns3:atemp>
            <ns3:hr>120</ns3:hr>
          </ns3:TrackPointExtension>
        </extensions>
      </trkpt>
      <trkpt lat="31.9691880606114864349365234375" lon="118.809902407228946685791015625">
        <ele>8.19999980926513671875</ele>
        <time>2025-08-21T09:18:01.000Z</time>
        <extensions>
          <ns3:TrackPointExtension>
            <ns3:atemp>34.0</ns3:atemp>
            <ns3:hr>120</ns3:hr>
          </ns3:TrackPointExtension>
        </extensions>
      </trkpt>
      <trkpt lat="31.968792937695980072021484375" lon="118.810182698071002960205078125">
        <ele>8.19999980926513671875</ele>
        <time>2025-08-21T09:18:08.000Z</time>
        <extensions>
          <ns3:TrackPointExtension>
            <ns3:atemp>34.0</ns3:atemp>
            <ns3:hr>124</ns3:hr>
          </ns3:TrackPointExtension>
        </extensions>
      </trkpt>
      <trkpt lat="31.968677937984466552734375" lon="118.8102666847407817840576171875">
        <ele>7.80000019073486328125</ele>
        <time>2025-08-21T09:18:10.000Z</time>
        <extensions>
          <ns3:TrackPointExtension>
            <ns3:atemp>34.0</ns3:atemp>
            <ns3:hr>127</ns3:hr>
          </ns3:TrackPointExtension>
        </extensions>
      </trkpt>
      <trkpt lat="31.968514658510684967041015625" lon="118.81038126535713672637939453125">
        <ele>7.80000019073486328125</ele>
        <time>2025-08-21T09:18:13.000Z</time>
        <extensions>
          <ns3:TrackPointExtension>
            <ns3:atemp>34.0</ns3:atemp>
            <ns3:hr>130</ns3:hr>
          </ns3:TrackPointExtension>
        </extensions>
      </trkpt>
      <trkpt lat="31.96836135350167751312255859375" lon="118.81049693562090396881103515625">
        <ele>7.80000019073486328125</ele>
        <time>2025-08-21T09:18:16.000Z</time>
        <extensions>
          <ns3:TrackPointExtension>
            <ns3:atemp>34.0</ns3:atemp>
            <ns3:hr>132</ns3:hr>
          </ns3:TrackPointExtension>
        </extensions>
      </trkpt>
      <trkpt lat="31.96825347840785980224609375" lon="118.81056650541722774505615234375">
        <ele>7.400000095367431640625</ele>
        <time>2025-08-21T09:18:18.000Z</time>
        <extensions>
          <ns3:TrackPointExtension>
            <ns3:atemp>34.0</ns3:atemp>
            <ns3:hr>132</ns3:hr>
          </ns3:TrackPointExtension>
        </extensions>
      </trkpt>
      <trkpt lat="31.96803630329668521881103515625" lon="118.810701034963130950927734375">
        <ele>7.400000095367431640625</ele>
        <time>2025-08-21T09:18:22.000Z</time>
        <extensions>
          <ns3:TrackPointExtension>
            <ns3:atemp>34.0</ns3:atemp>
            <ns3:hr>129</ns3:hr>
          </ns3:TrackPointExtension>
        </extensions>
      </trkpt>
      <trkpt lat="31.9677768833935260772705078125" lon="118.81083003245294094085693359375">
        <ele>7.599999904632568359375</ele>
        <time>2025-08-21T09:18:27.000Z</time>
        <extensions>
          <ns3:TrackPointExtension>
            <ns3:atemp>34.0</ns3:atemp>
            <ns3:hr>129</ns3:hr>
          </ns3:TrackPointExtension>
        </extensions>
      </trkpt>
      <trkpt lat="31.96772080846130847930908203125" lon="118.81083221174776554107666015625">
        <ele>7.80000019073486328125</ele>
        <time>2025-08-21T09:18:28.000Z</time>
        <extensions>
          <ns3:TrackPointExtension>
            <ns3:atemp>34.0</ns3:atemp>
            <ns3:hr>129</ns3:hr>
          </ns3:TrackPointExtension>
        </extensions>
      </trkpt>
      <trkpt lat="31.967665068805217742919921875" lon="118.810825757682323455810546875">
        <ele>7.80000019073486328125</ele>
        <time>2025-08-21T09:18:29.000Z</time>
        <extensions>
          <ns3:TrackPointExtension>
            <ns3:atemp>34.0</ns3:atemp>
            <ns3:hr>129</ns3:hr>
          </ns3:TrackPointExtension>
        </extensions>
      </trkpt>
      <trkpt lat="31.9675519131124019622802734375" lon="118.81082936190068721771240234375">
        <ele>7.80000019073486328125</ele>
        <time>2025-08-21T09:18:31.000Z</time>
        <extensions>
          <ns3:TrackPointExtension>
            <ns3:atemp>34.0</ns3:atemp>
            <ns3:hr>128</ns3:hr>
          </ns3:TrackPointExtension>
        </extensions>
      </trkpt>
      <trkpt lat="31.9674432836472988128662109375" lon="118.81086255423724651336669921875">
        <ele>8</ele>
        <time>2025-08-21T09:18:33.000Z</time>
        <extensions>
          <ns3:TrackPointExtension>
            <ns3:atemp>34.0</ns3:atemp>
            <ns3:hr>127</ns3:hr>
          </ns3:TrackPointExtension>
        </extensions>
      </trkpt>
      <trkpt lat="31.9673946686089038848876953125" lon="118.810891471803188323974609375">
        <ele>8</ele>
        <time>2025-08-21T09:18:34.000Z</time>
        <extensions>
          <ns3:TrackPointExtension>
            <ns3:atemp>34.0</ns3:atemp>
            <ns3:hr>125</ns3:hr>
          </ns3:TrackPointExtension>
        </extensions>
      </trkpt>
      <trkpt lat="31.9673034735023975372314453125" lon="118.8109982572495937347412109375">
        <ele>8.19999980926513671875</ele>
        <time>2025-08-21T09:18:37.000Z</time>
        <extensions>
          <ns3:TrackPointExtension>
            <ns3:atemp>34.0</ns3:atemp>
            <ns3:hr>121</ns3:hr>
          </ns3:TrackPointExtension>
        </extensions>
      </trkpt>
      <trkpt lat="31.96728679351508617401123046875" lon="118.811024241149425506591796875">
        <ele>8.19999980926513671875</ele>
        <time>2025-08-21T09:18:38.000Z</time>
        <extensions>
          <ns3:TrackPointExtension>
            <ns3:atemp>34.0</ns3:atemp>
            <ns3:hr>121</ns3:hr>
          </ns3:TrackPointExtension>
        </extensions>
      </trkpt>
      <trkpt lat="31.967262066900730133056640625" lon="118.811061121523380279541015625">
        <ele>8</ele>
        <time>2025-08-21T09:18:41.000Z</time>
        <extensions>
          <ns3:TrackPointExtension>
            <ns3:atemp>34.0</ns3:atemp>
            <ns3:hr>120</ns3:hr>
          </ns3:TrackPointExtension>
        </extensions>
      </trkpt>
      <trkpt lat="31.9672615639865398406982421875" lon="118.81105877459049224853515625">
        <ele>7.80000019073486328125</ele>
        <time>2025-08-21T09:18:44.000Z</time>
        <extensions>
          <ns3:TrackPointExtension>
            <ns3:atemp>34.0</ns3:atemp>
            <ns3:hr>120</ns3:hr>
          </ns3:TrackPointExtension>
        </extensions>
      </trkpt>
      <trkpt lat="31.9672421179711818695068359375" lon="118.81119363941252231597900390625">
        <ele>9.6000003814697265625</ele>
        <time>2025-08-21T09:19:08.000Z</time>
        <extensions>
          <ns3:TrackPointExtension>
            <ns3:atemp>34.0</ns3:atemp>
            <ns3:hr>103</ns3:hr>
          </ns3:TrackPointExtension>
        </extensions>
      </trkpt>
      <trkpt lat="31.9672394357621669769287109375" lon="118.81122507154941558837890625">
        <ele>9.6000003814697265625</ele>
        <time>2025-08-21T09:19:09.000Z</time>
        <extensions>
          <ns3:TrackPointExtension>
            <ns3:atemp>34.0</ns3:atemp>
            <ns3:hr>102</ns3:hr>
          </ns3:TrackPointExtension>
        </extensions>
      </trkpt>
      <trkpt lat="31.9672803394496440887451171875" lon="118.81136722862720489501953125">
        <ele>9.3999996185302734375</ele>
        <time>2025-08-21T09:19:13.000Z</time>
        <extensions>
          <ns3:TrackPointExtension>
            <ns3:atemp>34.0</ns3:atemp>
            <ns3:hr>102</ns3:hr>
          </ns3:TrackPointExtension>
        </extensions>
      </trkpt>
      <trkpt lat="31.96734865196049213409423828125" lon="118.81152807734906673431396484375">
        <ele>9.3999996185302734375</ele>
        <time>2025-08-21T09:19:17.000Z</time>
        <extensions>
          <ns3:TrackPointExtension>
            <ns3:atemp>34.0</ns3:atemp>
            <ns3:hr>105</ns3:hr>
          </ns3:TrackPointExtension>
        </extensions>
      </trkpt>
      <trkpt lat="31.967347227036952972412109375" lon="118.81165866740047931671142578125">
        <ele>9.3999996185302734375</ele>
        <time>2025-08-21T09:19:20.000Z</time>
        <extensions>
          <ns3:TrackPointExtension>
            <ns3:atemp>34.0</ns3:atemp>
            <ns3:hr>107</ns3:hr>
          </ns3:TrackPointExtension>
        </extensions>
      </trkpt>
      <trkpt lat="31.9673074968159198760986328125" lon="118.81175455637276172637939453125">
        <ele>9</ele>
        <time>2025-08-21T09:19:23.000Z</time>
        <extensions>
          <ns3:TrackPointExtension>
            <ns3:atemp>34.0</ns3:atemp>
            <ns3:hr>107</ns3:hr>
          </ns3:TrackPointExtension>
        </extensions>
      </trkpt>
      <trkpt lat="31.96736927144229412078857421875" lon="118.81188816390931606292724609375">
        <ele>8.80000019073486328125</ele>
        <time>2025-08-21T09:19:26.000Z</time>
        <extensions>
          <ns3:TrackPointExtension>
            <ns3:atemp>34.0</ns3:atemp>
            <ns3:hr>106</ns3:hr>
          </ns3:TrackPointExtension>
        </extensions>
      </trkpt>
      <trkpt lat="31.9673757255077362060546875" lon="118.81194314919412136077880859375">
        <ele>8.80000019073486328125</ele>
        <time>2025-08-21T09:19:27.000Z</time>
        <extensions>
          <ns3:TrackPointExtension>
            <ns3:atemp>34.0</ns3:atemp>
            <ns3:hr>106</ns3:hr>
          </ns3:TrackPointExtension>
        </extensions>
      </trkpt>
      <trkpt lat="31.96737530641257762908935546875" lon="118.81200249306857585906982421875">
        <ele>8.3999996185302734375</ele>
        <time>2025-08-21T09:19:28.000Z</time>
        <extensions>
          <ns3:TrackPointExtension>
            <ns3:atemp>34.0</ns3:atemp>
            <ns3:hr>106</ns3:hr>
          </ns3:TrackPointExtension>
        </extensions>
      </trkpt>
      <trkpt lat="31.9673695228993892669677734375" lon="118.81205915473401546478271484375">
        <ele>8.3999996185302734375</ele>
        <time>2025-08-21T09:19:29.000Z</time>
        <extensions>
          <ns3:TrackPointExtension>
            <ns3:atemp>34.0</ns3:atemp>
            <ns3:hr>106</ns3:hr>
          </ns3:TrackPointExtension>
        </extensions>
      </trkpt>
      <trkpt lat="31.96733976714313030242919921875" lon="118.8123165629804134368896484375">
        <ele>8.19999980926513671875</ele>
        <time>2025-08-21T09:19:33.000Z</time>
        <extensions>
          <ns3:TrackPointExtension>
            <ns3:atemp>34.0</ns3:atemp>
            <ns3:hr>109</ns3:hr>
          </ns3:TrackPointExtension>
        </extensions>
      </trkpt>
      <trkpt lat="31.96732543408870697021484375" lon="118.81238504312932491302490234375">
        <ele>8.19999980926513671875</ele>
        <time>2025-08-21T09:19:34.000Z</time>
        <extensions>
          <ns3:TrackPointExtension>
            <ns3:atemp>34.0</ns3:atemp>
            <ns3:hr>109</ns3:hr>
          </ns3:TrackPointExtension>
        </extensions>
      </trkpt>
      <trkpt lat="31.967256702482700347900390625" lon="118.8127430342137813568115234375">
        <ele>8.19999980926513671875</ele>
        <time>2025-08-21T09:19:39.000Z</time>
        <extensions>
          <ns3:TrackPointExtension>
            <ns3:atemp>34.0</ns3:atemp>
            <ns3:hr>113</ns3:hr>
          </ns3:TrackPointExtension>
        </extensions>
      </trkpt>
      <trkpt lat="31.96724739857017993927001953125" lon="118.81282090209424495697021484375">
        <ele>8</ele>
        <time>2025-08-21T09:19:40.000Z</time>
        <extensions>
          <ns3:TrackPointExtension>
            <ns3:atemp>34.0</ns3:atemp>
            <ns3:hr>117</ns3:hr>
          </ns3:TrackPointExtension>
        </extensions>
      </trkpt>
      <trkpt lat="31.96723734028637409210205078125" lon="118.81290237419307231903076171875">
        <ele>7.80000019073486328125</ele>
        <time>2025-08-21T09:19:41.000Z</time>
        <extensions>
          <ns3:TrackPointExtension>
            <ns3:atemp>34.0</ns3:atemp>
            <ns3:hr>120</ns3:hr>
          </ns3:TrackPointExtension>
        </extensions>
      </trkpt>
      <trkpt lat="31.96722610853612422943115234375" lon="118.81298166699707508087158203125">
        <ele>7.599999904632568359375</ele>
        <time>2025-08-21T09:19:42.000Z</time>
        <extensions>
          <ns3:TrackPointExtension>
            <ns3:atemp>34.0</ns3:atemp>
            <ns3:hr>121</ns3:hr>
          </ns3:TrackPointExtension>
        </extensions>
      </trkpt>
      <trkpt lat="31.96719995699822902679443359375" lon="118.81314025260508060455322265625">
        <ele>7.400000095367431640625</ele>
        <time>2025-08-21T09:19:44.000Z</time>
        <extensions>
          <ns3:TrackPointExtension>
            <ns3:atemp>34.0</ns3:atemp>
            <ns3:hr>123</ns3:hr>
          </ns3:TrackPointExtension>
        </extensions>
      </trkpt>
      <trkpt lat="31.96715645492076873779296875" lon="118.8135557435452938079833984375">
        <ele>7.400000095367431640625</ele>
        <time>2025-08-21T09:19:49.000Z</time>
        <extensions>
          <ns3:TrackPointExtension>
            <ns3:atemp>34.0</ns3:atemp>
            <ns3:hr>126</ns3:hr>
          </ns3:TrackPointExtension>
        </extensions>
      </trkpt>
      <trkpt lat="31.9670835323631763458251953125" lon="118.81422000937163829803466796875">
        <ele>7.400000095367431640625</ele>
        <time>2025-08-21T09:19:57.000Z</time>
        <extensions>
          <ns3:TrackPointExtension>
            <ns3:atemp>34.0</ns3:atemp>
            <ns3:hr>126</ns3:hr>
          </ns3:TrackPointExtension>
        </extensions>
      </trkpt>
      <trkpt lat="31.96704111993312835693359375" lon="118.8147040642797946929931640625">
        <ele>7.400000095367431640625</ele>
        <time>2025-08-21T09:20:03.000Z</time>
        <extensions>
          <ns3:TrackPointExtension>
            <ns3:atemp>34.0</ns3:atemp>
            <ns3:hr>127</ns3:hr>
          </ns3:TrackPointExtension>
        </extensions>
      </trkpt>
      <trkpt lat="31.96702226065099239349365234375" lon="118.81508535705506801605224609375">
        <ele>7.599999904632568359375</ele>
        <time>2025-08-21T09:20:08.000Z</time>
        <extensions>
          <ns3:TrackPointExtension>
            <ns3:atemp>34.0</ns3:atemp>
            <ns3:hr>125</ns3:hr>
          </ns3:TrackPointExtension>
        </extensions>
      </trkpt>
      <trkpt lat="31.96698152460157871246337890625" lon="118.81566706113517284393310546875">
        <ele>7.400000095367431640625</ele>
        <time>2025-08-21T09:20:15.000Z</time>
        <extensions>
          <ns3:TrackPointExtension>
            <ns3:atemp>34.0</ns3:atemp>
            <ns3:hr>124</ns3:hr>
          </ns3:TrackPointExtension>
        </extensions>
      </trkpt>
      <trkpt lat="31.96696358732879161834716796875" lon="118.81582262925803661346435546875">
        <ele>7.80000019073486328125</ele>
        <time>2025-08-21T09:20:17.000Z</time>
        <extensions>
          <ns3:TrackPointExtension>
            <ns3:atemp>35.0</ns3:atemp>
            <ns3:hr>125</ns3:hr>
          </ns3:TrackPointExtension>
        </extensions>
      </trkpt>
      <trkpt lat="31.96692645549774169921875" lon="118.816276676952838897705078125">
        <ele>8</ele>
        <time>2025-08-21T09:20:23.000Z</time>
        <extensions>
          <ns3:TrackPointExtension>
            <ns3:atemp>35.0</ns3:atemp>
            <ns3:hr>123</ns3:hr>
          </ns3:TrackPointExtension>
        </extensions>
      </trkpt>
      <trkpt lat="31.96685730479657649993896484375" lon="118.816899955272674560546875">
        <ele>7.80000019073486328125</ele>
        <time>2025-08-21T09:20:31.000Z</time>
        <extensions>
          <ns3:TrackPointExtension>
            <ns3:atemp>34.0</ns3:atemp>
            <ns3:hr>123</ns3:hr>
          </ns3:TrackPointExtension>
        </extensions>
      </trkpt>
      <trkpt lat="31.966829560697078704833984375" lon="118.8170139491558074951171875">
        <ele>7.80000019073486328125</ele>
        <time>2025-08-21T09:20:33.000Z</time>
        <extensions>
          <ns3:TrackPointExtension>
            <ns3:atemp>34.0</ns3:atemp>
            <ns3:hr>122</ns3:hr>
          </ns3:TrackPointExtension>
        </extensions>
      </trkpt>
      <trkpt lat="31.96680936031043529510498046875" lon="118.817055523395538330078125">
        <ele>7.80000019073486328125</ele>
        <time>2025-08-21T09:20:34.000Z</time>
        <extensions>
          <ns3:TrackPointExtension>
            <ns3:atemp>35.0</ns3:atemp>
            <ns3:hr>122</ns3:hr>
          </ns3:TrackPointExtension>
        </extensions>
      </trkpt>
      <trkpt lat="31.96680030785501003265380859375" lon="118.81709516979753971099853515625">
        <ele>7.80000019073486328125</ele>
        <time>2025-08-21T09:20:35.000Z</time>
        <extensions>
          <ns3:TrackPointExtension>
            <ns3:atemp>35.0</ns3:atemp>
            <ns3:hr>122</ns3:hr>
          </ns3:TrackPointExtension>
        </extensions>
      </trkpt>
      <trkpt lat="31.96680349297821521759033203125" lon="118.81715233437716960906982421875">
        <ele>7.599999904632568359375</ele>
        <time>2025-08-21T09:20:37.000Z</time>
        <extensions>
          <ns3:TrackPointExtension>
            <ns3:atemp>35.0</ns3:atemp>
            <ns3:hr>121</ns3:hr>
          </ns3:TrackPointExtension>
        </extensions>
      </trkpt>
      <trkpt lat="31.966804750263690948486328125" lon="118.817340172827243804931640625">
        <ele>7.400000095367431640625</ele>
        <time>2025-08-21T09:20:41.000Z</time>
        <extensions>
          <ns3:TrackPointExtension>
            <ns3:atemp>35.0</ns3:atemp>
            <ns3:hr>119</ns3:hr>
          </ns3:TrackPointExtension>
        </extensions>
      </trkpt>
      <trkpt lat="31.9667613320052623748779296875" lon="118.817715682089328765869140625">
        <ele>7.599999904632568359375</ele>
        <time>2025-08-21T09:20:47.000Z</time>
        <extensions>
          <ns3:TrackPointExtension>
            <ns3:atemp>35.0</ns3:atemp>
            <ns3:hr>117</ns3:hr>
          </ns3:TrackPointExtension>
        </extensions>
      </trkpt>
      <trkpt lat="31.9667147286236286163330078125" lon="118.8182915188372135162353515625">
        <ele>8.19999980926513671875</ele>
        <time>2025-08-21T09:20:55.000Z</time>
        <extensions>
          <ns3:TrackPointExtension>
            <ns3:atemp>35.0</ns3:atemp>
            <ns3:hr>119</ns3:hr>
          </ns3:TrackPointExtension>
        </extensions>
      </trkpt>
      <trkpt lat="31.96667910553514957427978515625" lon="118.81857876665890216827392578125">
        <ele>8.6000003814697265625</ele>
        <time>2025-08-21T09:20:59.000Z</time>
        <extensions>
          <ns3:TrackPointExtension>
            <ns3:atemp>35.0</ns3:atemp>
            <ns3:hr>122</ns3:hr>
          </ns3:TrackPointExtension>
        </extensions>
      </trkpt>
      <trkpt lat="31.9666654430329799652099609375" lon="118.8187203370034694671630859375">
        <ele>8.80000019073486328125</ele>
        <time>2025-08-21T09:21:01.000Z</time>
        <extensions>
          <ns3:TrackPointExtension>
            <ns3:atemp>35.0</ns3:atemp>
            <ns3:hr>125</ns3:hr>
          </ns3:TrackPointExtension>
        </extensions>
      </trkpt>
      <trkpt lat="31.9666439853608608245849609375" lon="118.81886668503284454345703125">
        <ele>9.19999980926513671875</ele>
        <time>2025-08-21T09:21:03.000Z</time>
        <extensions>
          <ns3:TrackPointExtension>
            <ns3:atemp>35.0</ns3:atemp>
            <ns3:hr>129</ns3:hr>
          </ns3:TrackPointExtension>
        </extensions>
      </trkpt>
      <trkpt lat="31.966612637042999267578125" lon="118.81915460340678691864013671875">
        <ele>8.19999980926513671875</ele>
        <time>2025-08-21T09:21:07.000Z</time>
        <extensions>
          <ns3:TrackPointExtension>
            <ns3:atemp>35.0</ns3:atemp>
            <ns3:hr>132</ns3:hr>
          </ns3:TrackPointExtension>
        </extensions>
      </trkpt>
      <trkpt lat="31.9666000641882419586181640625" lon="118.8192991912364959716796875">
        <ele>7.80000019073486328125</ele>
        <time>2025-08-21T09:21:09.000Z</time>
        <extensions>
          <ns3:TrackPointExtension>
            <ns3:atemp>35.0</ns3:atemp>
            <ns3:hr>133</ns3:hr>
          </ns3:TrackPointExtension>
        </extensions>
      </trkpt>
      <trkpt lat="31.9665678776800632476806640625" lon="118.8195900432765483856201171875">
        <ele>8.3999996185302734375</ele>
        <time>2025-08-21T09:21:13.000Z</time>
        <extensions>
          <ns3:TrackPointExtension>
            <ns3:atemp>35.0</ns3:atemp>
            <ns3:hr>136</ns3:hr>
          </ns3:TrackPointExtension>
        </extensions>
      </trkpt>
      <trkpt lat="31.96655538864433765411376953125" lon="118.81973027251660823822021484375">
        <ele>8.80000019073486328125</ele>
        <time>2025-08-21T09:21:15.000Z</time>
        <extensions>
          <ns3:TrackPointExtension>
            <ns3:atemp>35.0</ns3:atemp>
            <ns3:hr>140</ns3:hr>
          </ns3:TrackPointExtension>
        </extensions>
      </trkpt>
      <trkpt lat="31.96654767729341983795166015625" lon="118.819801099598407745361328125">
        <ele>9</ele>
        <time>2025-08-21T09:21:16.000Z</time>
        <extensions>
          <ns3:TrackPointExtension>
            <ns3:atemp>34.0</ns3:atemp>
            <ns3:hr>141</ns3:hr>
          </ns3:TrackPointExtension>
        </extensions>
      </trkpt>
      <trkpt lat="31.9665088690817356109619140625" lon="118.820141069591045379638671875">
        <ele>9.6000003814697265625</ele>
        <time>2025-08-21T09:21:21.000Z</time>
        <extensions>
          <ns3:TrackPointExtension>
            <ns3:atemp>34.0</ns3:atemp>
            <ns3:hr>144</ns3:hr>
          </ns3:TrackPointExtension>
        </extensions>
      </trkpt>
      <trkpt lat="31.96649621240794658660888671875" lon="118.82027844898402690887451171875">
        <ele>10.19999980926513671875</ele>
        <time>2025-08-21T09:21:23.000Z</time>
        <extensions>
          <ns3:TrackPointExtension>
            <ns3:atemp>35.0</ns3:atemp>
            <ns3:hr>147</ns3:hr>
          </ns3:TrackPointExtension>
        </extensions>
      </trkpt>
      <trkpt lat="31.96649051271378993988037109375" lon="118.82041641511023044586181640625">
        <ele>10.6000003814697265625</ele>
        <time>2025-08-21T09:21:25.000Z</time>
        <extensions>
          <ns3:TrackPointExtension>
            <ns3:atemp>34.0</ns3:atemp>
            <ns3:hr>148</ns3:hr>
          </ns3:TrackPointExtension>
        </extensions>
      </trkpt>
      <trkpt lat="31.96650333702564239501953125" lon="118.8204785250127315521240234375">
        <ele>10.80000019073486328125</ele>
        <time>2025-08-21T09:21:26.000Z</time>
        <extensions>
          <ns3:TrackPointExtension>
            <ns3:atemp>35.0</ns3:atemp>
            <ns3:hr>148</ns3:hr>
          </ns3:TrackPointExtension>
        </extensions>
      </trkpt>
      <trkpt lat="31.96657936088740825653076171875" lon="118.8205472566187381744384765625">
        <ele>11</ele>
        <time>2025-08-21T09:21:28.000Z</time>
        <extensions>
          <ns3:TrackPointExtension>
            <ns3:atemp>34.0</ns3:atemp>
            <ns3:hr>149</ns3:hr>
          </ns3:TrackPointExtension>
        </extensions>
      </trkpt>
      <trkpt lat="31.96666955016553401947021484375" lon="118.82060500793159008026123046875">
        <ele>11.3999996185302734375</ele>
        <time>2025-08-21T09:21:30.000Z</time>
        <extensions>
          <ns3:TrackPointExtension>
            <ns3:atemp>35.0</ns3:atemp>
            <ns3:hr>149</ns3:hr>
          </ns3:TrackPointExtension>
        </extensions>
      </trkpt>
      <trkpt lat="31.966700144112110137939453125" lon="118.82072118110954761505126953125">
        <ele>11.6000003814697265625</ele>
        <time>2025-08-21T09:21:32.000Z</time>
        <extensions>
          <ns3:TrackPointExtension>
            <ns3:atemp>35.0</ns3:atemp>
            <ns3:hr>150</ns3:hr>
          </ns3:TrackPointExtension>
        </extensions>
      </trkpt>
      <trkpt lat="31.9666815362870693206787109375" lon="118.82083048112690448760986328125">
        <ele>11.80000019073486328125</ele>
        <time>2025-08-21T09:21:34.000Z</time>
        <extensions>
          <ns3:TrackPointExtension>
            <ns3:atemp>34.0</ns3:atemp>
            <ns3:hr>150</ns3:hr>
          </ns3:TrackPointExtension>
        </extensions>
      </trkpt>
      <trkpt lat="31.9666708074510097503662109375" lon="118.8209407031536102294921875">
        <ele>12</ele>
        <time>2025-08-21T09:21:36.000Z</time>
        <extensions>
          <ns3:TrackPointExtension>
            <ns3:atemp>35.0</ns3:atemp>
            <ns3:hr>151</ns3:hr>
          </ns3:TrackPointExtension>
        </extensions>
      </trkpt>
      <trkpt lat="31.9666248746216297149658203125" lon="118.821370862424373626708984375">
        <ele>12.80000019073486328125</ele>
        <time>2025-08-21T09:21:44.000Z</time>
        <extensions>
          <ns3:TrackPointExtension>
            <ns3:atemp>35.0</ns3:atemp>
            <ns3:hr>151</ns3:hr>
          </ns3:TrackPointExtension>
        </extensions>
      </trkpt>
      <trkpt lat="31.96661624126136302947998046875" lon="118.821427524089813232421875">
        <ele>12.80000019073486328125</ele>
        <time>2025-08-21T09:21:45.000Z</time>
        <extensions>
          <ns3:TrackPointExtension>
            <ns3:atemp>35.0</ns3:atemp>
            <ns3:hr>151</ns3:hr>
          </ns3:TrackPointExtension>
        </extensions>
      </trkpt>
      <trkpt lat="31.96657282300293445587158203125" lon="118.82183396257460117340087890625">
        <ele>13.19999980926513671875</ele>
        <time>2025-08-21T09:21:52.000Z</time>
        <extensions>
          <ns3:TrackPointExtension>
            <ns3:atemp>35.0</ns3:atemp>
            <ns3:hr>150</ns3:hr>
          </ns3:TrackPointExtension>
        </extensions>
      </trkpt>
      <trkpt lat="31.966549940407276153564453125" lon="118.82199623622000217437744140625">
        <ele>13.19999980926513671875</ele>
        <time>2025-08-21T09:21:55.000Z</time>
        <extensions>
          <ns3:TrackPointExtension>
            <ns3:atemp>35.0</ns3:atemp>
            <ns3:hr>150</ns3:hr>
          </ns3:TrackPointExtension>
        </extensions>
      </trkpt>
      <trkpt lat="31.9665434025228023529052734375" lon="118.8221129961311817169189453125">
        <ele>13</ele>
        <time>2025-08-21T09:21:57.000Z</time>
        <extensions>
          <ns3:TrackPointExtension>
            <ns3:atemp>35.0</ns3:atemp>
            <ns3:hr>150</ns3:hr>
          </ns3:TrackPointExtension>
        </extensions>
      </trkpt>
      <trkpt lat="31.96653611026704311370849609375" lon="118.822165466845035552978515625">
        <ele>13</ele>
        <time>2025-08-21T09:21:58.000Z</time>
        <extensions>
          <ns3:TrackPointExtension>
            <ns3:atemp>35.0</ns3:atemp>
            <ns3:hr>150</ns3:hr>
          </ns3:TrackPointExtension>
        </extensions>
      </trkpt>
      <trkpt lat="31.966496966779232025146484375" lon="118.82260409183800220489501953125">
        <ele>12.6000003814697265625</ele>
        <time>2025-08-21T09:22:06.000Z</time>
        <extensions>
          <ns3:TrackPointExtension>
            <ns3:atemp>35.0</ns3:atemp>
            <ns3:hr>146</ns3:hr>
          </ns3:TrackPointExtension>
        </extensions>
      </trkpt>
      <trkpt lat="31.96648062206804752349853515625" lon="118.82273736409842967987060546875">
        <ele>11.80000019073486328125</ele>
        <time>2025-08-21T09:22:08.000Z</time>
        <extensions>
          <ns3:TrackPointExtension>
            <ns3:atemp>35.0</ns3:atemp>
            <ns3:hr>142</ns3:hr>
          </ns3:TrackPointExtension>
        </extensions>
      </trkpt>
      <trkpt lat="31.966460086405277252197265625" lon="118.82285873405635356903076171875">
        <ele>11.6000003814697265625</ele>
        <time>2025-08-21T09:22:10.000Z</time>
        <extensions>
          <ns3:TrackPointExtension>
            <ns3:atemp>35.0</ns3:atemp>
            <ns3:hr>139</ns3:hr>
          </ns3:TrackPointExtension>
        </extensions>
      </trkpt>
      <trkpt lat="31.96645447053015232086181640625" lon="118.8228995539247989654541015625">
        <ele>11.6000003814697265625</ele>
        <time>2025-08-21T09:22:11.000Z</time>
        <extensions>
          <ns3:TrackPointExtension>
            <ns3:atemp>35.0</ns3:atemp>
            <ns3:hr>138</ns3:hr>
          </ns3:TrackPointExtension>
        </extensions>
      </trkpt>
      <trkpt lat="31.96646855212748050689697265625" lon="118.82298496551811695098876953125">
        <ele>11.6000003814697265625</ele>
        <time>2025-08-21T09:22:14.000Z</time>
        <extensions>
          <ns3:TrackPointExtension>
            <ns3:atemp>35.0</ns3:atemp>
            <ns3:hr>135</ns3:hr>
          </ns3:TrackPointExtension>
        </extensions>
      </trkpt>
      <trkpt lat="31.9664951227605342864990234375" lon="118.822986222803592681884765625">
        <ele>11.6000003814697265625</ele>
        <time>2025-08-21T09:22:15.000Z</time>
        <extensions>
          <ns3:TrackPointExtension>
            <ns3:atemp>35.0</ns3:atemp>
            <ns3:hr>134</ns3:hr>
          </ns3:TrackPointExtension>
        </extensions>
      </trkpt>
      <trkpt lat="31.96653761900961399078369140625" lon="118.82294858805835247039794921875">
        <ele>11.3999996185302734375</ele>
        <time>2025-08-21T09:22:17.000Z</time>
        <extensions>
          <ns3:TrackPointExtension>
            <ns3:atemp>35.0</ns3:atemp>
            <ns3:hr>130</ns3:hr>
          </ns3:TrackPointExtension>
        </extensions>
      </trkpt>
      <trkpt lat="31.96659126318991184234619140625" lon="118.822934590280055999755859375">
        <ele>11.19999980926513671875</ele>
        <time>2025-08-21T09:22:19.000Z</time>
        <extensions>
          <ns3:TrackPointExtension>
            <ns3:atemp>35.0</ns3:atemp>
            <ns3:hr>126</ns3:hr>
          </ns3:TrackPointExtension>
        </extensions>
      </trkpt>
      <trkpt lat="31.96663610637187957763671875" lon="118.82297272793948650360107421875">
        <ele>10.80000019073486328125</ele>
        <time>2025-08-21T09:22:21.000Z</time>
        <extensions>
          <ns3:TrackPointExtension>
            <ns3:atemp>35.0</ns3:atemp>
            <ns3:hr>125</ns3:hr>
          </ns3:TrackPointExtension>
        </extensions>
      </trkpt>
      <trkpt lat="31.96665488183498382568359375" lon="118.82299921475350856781005859375">
        <ele>10.6000003814697265625</ele>
        <time>2025-08-21T09:22:22.000Z</time>
        <extensions>
          <ns3:TrackPointExtension>
            <ns3:atemp>35.0</ns3:atemp>
            <ns3:hr>124</ns3:hr>
          </ns3:TrackPointExtension>
        </extensions>
      </trkpt>
      <trkpt lat="31.9666563905775547027587890625" lon="118.823029138147830963134765625">
        <ele>10.6000003814697265625</ele>
        <time>2025-08-21T09:22:23.000Z</time>
        <extensions>
          <ns3:TrackPointExtension>
            <ns3:atemp>35.0</ns3:atemp>
            <ns3:hr>124</ns3:hr>
          </ns3:TrackPointExtension>
        </extensions>
      </trkpt>
      <trkpt lat="31.966646499931812286376953125" lon="118.823089487850666046142578125">
        <ele>10.6000003814697265625</ele>
        <time>2025-08-21T09:22:25.000Z</time>
        <extensions>
          <ns3:TrackPointExtension>
            <ns3:atemp>35.0</ns3:atemp>
            <ns3:hr>123</ns3:hr>
          </ns3:TrackPointExtension>
        </extensions>
      </trkpt>
      <trkpt lat="31.9666345976293087005615234375" lon="118.8232817687094211578369140625">
        <ele>10.3999996185302734375</ele>
        <time>2025-08-21T09:22:30.000Z</time>
        <extensions>
          <ns3:TrackPointExtension>
            <ns3:atemp>35.0</ns3:atemp>
            <ns3:hr>120</ns3:hr>
          </ns3:TrackPointExtension>
        </extensions>
      </trkpt>
      <trkpt lat="31.9666335918009281158447265625" lon="118.82332175038754940032958984375">
        <ele>10.3999996185302734375</ele>
        <time>2025-08-21T09:22:31.000Z</time>
        <extensions>
          <ns3:TrackPointExtension>
            <ns3:atemp>35.0</ns3:atemp>
            <ns3:hr>120</ns3:hr>
          </ns3:TrackPointExtension>
        </extensions>
      </trkpt>
      <trkpt lat="31.966624371707439422607421875" lon="118.82345418445765972137451171875">
        <ele>10.3999996185302734375</ele>
        <time>2025-08-21T09:22:34.000Z</time>
        <extensions>
          <ns3:TrackPointExtension>
            <ns3:atemp>35.0</ns3:atemp>
            <ns3:hr>119</ns3:hr>
          </ns3:TrackPointExtension>
        </extensions>
      </trkpt>
      <trkpt lat="31.96659511886537075042724609375" lon="118.8236924819648265838623046875">
        <ele>10.19999980926513671875</ele>
        <time>2025-08-21T09:22:41.000Z</time>
        <extensions>
          <ns3:TrackPointExtension>
            <ns3:atemp>35.0</ns3:atemp>
            <ns3:hr>119</ns3:hr>
          </ns3:TrackPointExtension>
        </extensions>
      </trkpt>
      <trkpt lat="31.966582126915454864501953125" lon="118.82380907423794269561767578125">
        <ele>10</ele>
        <time>2025-08-21T09:22:45.000Z</time>
        <extensions>
          <ns3:TrackPointExtension>
            <ns3:atemp>35.0</ns3:atemp>
            <ns3:hr>116</ns3:hr>
          </ns3:TrackPointExtension>
        </extensions>
      </trkpt>
      <trkpt lat="31.966585814952850341796875" lon="118.823837824165821075439453125">
        <ele>10</ele>
        <time>2025-08-21T09:22:47.000Z</time>
        <extensions>
          <ns3:TrackPointExtension>
            <ns3:atemp>35.0</ns3:atemp>
            <ns3:hr>113</ns3:hr>
          </ns3:TrackPointExtension>
        </extensions>
      </trkpt>
      <trkpt lat="31.966572739183902740478515625" lon="118.82384645752608776092529296875">
        <ele>10.19999980926513671875</ele>
        <time>2025-08-21T09:22:51.000Z</time>
        <extensions>
          <ns3:TrackPointExtension>
            <ns3:atemp>35.0</ns3:atemp>
            <ns3:hr>110</ns3:hr>
          </ns3:TrackPointExtension>
        </extensions>
      </trkpt>
      <trkpt lat="31.96656377054750919342041015625" lon="118.82382818497717380523681640625">
        <ele>10</ele>
        <time>2025-08-21T09:23:05.000Z</time>
        <extensions>
          <ns3:TrackPointExtension>
            <ns3:atemp>35.0</ns3:atemp>
            <ns3:hr>112</ns3:hr>
          </ns3:TrackPointExtension>
        </extensions>
      </trkpt>
      <trkpt lat="31.9665655307471752166748046875" lon="118.82381410337984561920166015625">
        <ele>10.3999996185302734375</ele>
        <time>2025-08-21T09:23:09.000Z</time>
        <extensions>
          <ns3:TrackPointExtension>
            <ns3:atemp>35.0</ns3:atemp>
            <ns3:hr>118</ns3:hr>
          </ns3:TrackPointExtension>
        </extensions>
      </trkpt>
      <trkpt lat="31.96667994372546672821044921875" lon="118.82378577254712581634521484375">
        <ele>10.19999980926513671875</ele>
        <time>2025-08-21T09:23:37.000Z</time>
        <extensions>
          <ns3:TrackPointExtension>
            <ns3:atemp>35.0</ns3:atemp>
            <ns3:hr>110</ns3:hr>
          </ns3:TrackPointExtension>
        </extensions>
      </trkpt>
      <trkpt lat="31.9665474258363246917724609375" lon="118.82389037869870662689208984375">
        <ele>10.19999980926513671875</ele>
        <time>2025-08-21T09:23:58.000Z</time>
        <extensions>
          <ns3:TrackPointExtension>
            <ns3:atemp>35.0</ns3:atemp>
            <ns3:hr>106</ns3:hr>
          </ns3:TrackPointExtension>
        </extensions>
      </trkpt>
      <trkpt lat="31.966564692556858062744140625" lon="118.82387076504528522491455078125">
        <ele>9.80000019073486328125</ele>
        <time>2025-08-21T09:24:06.000Z</time>
        <extensions>
          <ns3:TrackPointExtension>
            <ns3:atemp>35.0</ns3:atemp>
            <ns3:hr>102</ns3:hr>
          </ns3:TrackPointExtension>
        </extensions>
      </trkpt>
      <trkpt lat="31.96656662039458751678466796875" lon="118.82386992685496807098388671875">
        <ele>9.80000019073486328125</ele>
        <time>2025-08-21T09:24:07.000Z</time>
        <extensions>
          <ns3:TrackPointExtension>
            <ns3:atemp>35.0</ns3:atemp>
            <ns3:hr>101</ns3:hr>
          </ns3:TrackPointExtension>
        </extensions>
      </trkpt>
      <trkpt lat="31.96656863205134868621826171875" lon="118.82383053191006183624267578125">
        <ele>9.80000019073486328125</ele>
        <time>2025-08-21T09:24:14.000Z</time>
        <extensions>
          <ns3:TrackPointExtension>
            <ns3:atemp>35.0</ns3:atemp>
            <ns3:hr>99</ns3:hr>
          </ns3:TrackPointExtension>
        </extensions>
      </trkpt>
      <trkpt lat="31.9665484316647052764892578125" lon="118.82383237592875957489013671875">
        <ele>9.80000019073486328125</ele>
        <time>2025-08-21T09:24:20.000Z</time>
        <extensions>
          <ns3:TrackPointExtension>
            <ns3:atemp>35.0</ns3:atemp>
            <ns3:hr>100</ns3:hr>
          </ns3:TrackPointExtension>
        </extensions>
      </trkpt>
      <trkpt lat="31.96655471809208393096923828125" lon="118.823855929076671600341796875">
        <ele>10</ele>
        <time>2025-08-21T09:24:25.000Z</time>
        <extensions>
          <ns3:TrackPointExtension>
            <ns3:atemp>34.0</ns3:atemp>
            <ns3:hr>103</ns3:hr>
          </ns3:TrackPointExtension>
        </extensions>
      </trkpt>
      <trkpt lat="31.966549940407276153564453125" lon="118.82386355660855770111083984375">
        <ele>10</ele>
        <time>2025-08-21T09:24:26.000Z</time>
        <extensions>
          <ns3:TrackPointExtension>
            <ns3:atemp>35.0</ns3:atemp>
            <ns3:hr>104</ns3:hr>
          </ns3:TrackPointExtension>
        </extensions>
      </trkpt>
      <trkpt lat="31.9665380381047725677490234375" lon="118.8239482976496219635009765625">
        <ele>10</ele>
        <time>2025-08-21T09:24:30.000Z</time>
        <extensions>
          <ns3:TrackPointExtension>
            <ns3:atemp>35.0</ns3:atemp>
            <ns3:hr>105</ns3:hr>
          </ns3:TrackPointExtension>
        </extensions>
      </trkpt>
      <trkpt lat="31.9665246270596981048583984375" lon="118.82409967482089996337890625">
        <ele>9.6000003814697265625</ele>
        <time>2025-08-21T09:24:35.000Z</time>
        <extensions>
          <ns3:TrackPointExtension>
            <ns3:atemp>35.0</ns3:atemp>
            <ns3:hr>107</ns3:hr>
          </ns3:TrackPointExtension>
        </extensions>
      </trkpt>
      <trkpt lat="31.9665303267538547515869140625" lon="118.8241843320429325103759765625">
        <ele>9.80000019073486328125</ele>
        <time>2025-08-21T09:24:41.000Z</time>
        <extensions>
          <ns3:TrackPointExtension>
            <ns3:atemp>35.0</ns3:atemp>
            <ns3:hr>104</ns3:hr>
          </ns3:TrackPointExtension>
        </extensions>
      </trkpt>
      <trkpt lat="31.966541893780231475830078125" lon="118.82422842085361480712890625">
        <ele>9.6000003814697265625</ele>
        <time>2025-08-21T09:24:43.000Z</time>
        <extensions>
          <ns3:TrackPointExtension>
            <ns3:atemp>35.0</ns3:atemp>
            <ns3:hr>104</ns3:hr>
          </ns3:TrackPointExtension>
        </extensions>
      </trkpt>
      <trkpt lat="31.96658941917121410369873046875" lon="118.824273012578487396240234375">
        <ele>9.3999996185302734375</ele>
        <time>2025-08-21T09:24:45.000Z</time>
        <extensions>
          <ns3:TrackPointExtension>
            <ns3:atemp>35.0</ns3:atemp>
            <ns3:hr>103</ns3:hr>
          </ns3:TrackPointExtension>
        </extensions>
      </trkpt>
      <trkpt lat="31.96663250215351581573486328125" lon="118.82433009333908557891845703125">
        <ele>9.19999980926513671875</ele>
        <time>2025-08-21T09:24:47.000Z</time>
        <extensions>
          <ns3:TrackPointExtension>
            <ns3:atemp>35.0</ns3:atemp>
            <ns3:hr>102</ns3:hr>
          </ns3:TrackPointExtension>
        </extensions>
      </trkpt>
      <trkpt lat="31.96670475415885448455810546875" lon="118.82435909472405910491943359375">
        <ele>9.19999980926513671875</ele>
        <time>2025-08-21T09:24:50.000Z</time>
        <extensions>
          <ns3:TrackPointExtension>
            <ns3:atemp>35.0</ns3:atemp>
            <ns3:hr>104</ns3:hr>
          </ns3:TrackPointExtension>
        </extensions>
      </trkpt>
      <trkpt lat="31.9667586497962474822998046875" lon="118.82432539947330951690673828125">
        <ele>9</ele>
        <time>2025-08-21T09:24:52.000Z</time>
        <extensions>
          <ns3:TrackPointExtension>
            <ns3:atemp>35.0</ns3:atemp>
            <ns3:hr>106</ns3:hr>
          </ns3:TrackPointExtension>
        </extensions>
      </trkpt>
      <trkpt lat="31.96677566505968570709228515625" lon="118.82428600452840328216552734375">
        <ele>8.80000019073486328125</ele>
        <time>2025-08-21T09:24:53.000Z</time>
        <extensions>
          <ns3:TrackPointExtension>
            <ns3:atemp>35.0</ns3:atemp>
            <ns3:hr>106</ns3:hr>
          </ns3:TrackPointExtension>
        </extensions>
      </trkpt>
      <trkpt lat="31.96680282242596149444580078125" lon="118.82403907366096973419189453125">
        <ele>9.19999980926513671875</ele>
        <time>2025-08-21T09:24:58.000Z</time>
        <extensions>
          <ns3:TrackPointExtension>
            <ns3:atemp>35.0</ns3:atemp>
            <ns3:hr>107</ns3:hr>
          </ns3:TrackPointExtension>
        </extensions>
      </trkpt>
      <trkpt lat="31.9668126292526721954345703125" lon="118.823977299034595489501953125">
        <ele>9.3999996185302734375</ele>
        <time>2025-08-21T09:24:59.000Z</time>
        <extensions>
          <ns3:TrackPointExtension>
            <ns3:atemp>34.0</ns3:atemp>
            <ns3:hr>107</ns3:hr>
          </ns3:TrackPointExtension>
        </extensions>
      </trkpt>
      <trkpt lat="31.96686836890876293182373046875" lon="118.8237511552870273590087890625">
        <ele>9.19999980926513671875</ele>
        <time>2025-08-21T09:25:03.000Z</time>
        <extensions>
          <ns3:TrackPointExtension>
            <ns3:atemp>35.0</ns3:atemp>
            <ns3:hr>107</ns3:hr>
          </ns3:TrackPointExtension>
        </extensions>
      </trkpt>
      <trkpt lat="31.96695067919790744781494140625" lon="118.82352140732109546661376953125">
        <ele>9.6000003814697265625</ele>
        <time>2025-08-21T09:25:07.000Z</time>
        <extensions>
          <ns3:TrackPointExtension>
            <ns3:atemp>35.0</ns3:atemp>
            <ns3:hr>109</ns3:hr>
          </ns3:TrackPointExtension>
        </extensions>
      </trkpt>
      <trkpt lat="31.9670205004513263702392578125" lon="118.8234118558466434478759765625">
        <ele>9.6000003814697265625</ele>
        <time>2025-08-21T09:25:09.000Z</time>
        <extensions>
          <ns3:TrackPointExtension>
            <ns3:atemp>35.0</ns3:atemp>
            <ns3:hr>111</ns3:hr>
          </ns3:TrackPointExtension>
        </extensions>
      </trkpt>
      <trkpt lat="31.9671002961695194244384765625" lon="118.82332107983529567718505859375">
        <ele>9.6000003814697265625</ele>
        <time>2025-08-21T09:25:11.000Z</time>
        <extensions>
          <ns3:TrackPointExtension>
            <ns3:atemp>35.0</ns3:atemp>
            <ns3:hr>114</ns3:hr>
          </ns3:TrackPointExtension>
        </extensions>
      </trkpt>
      <trkpt lat="31.967139355838298797607421875" lon="118.823283948004245758056640625">
        <ele>9.6000003814697265625</ele>
        <time>2025-08-21T09:25:12.000Z</time>
        <extensions>
          <ns3:TrackPointExtension>
            <ns3:atemp>35.0</ns3:atemp>
            <ns3:hr>117</ns3:hr>
          </ns3:TrackPointExtension>
        </extensions>
      </trkpt>
      <trkpt lat="31.96718336082994937896728515625" lon="118.8232509233057498931884765625">
        <ele>9.6000003814697265625</ele>
        <time>2025-08-21T09:25:13.000Z</time>
        <extensions>
          <ns3:TrackPointExtension>
            <ns3:atemp>35.0</ns3:atemp>
            <ns3:hr>119</ns3:hr>
          </ns3:TrackPointExtension>
        </extensions>
      </trkpt>
      <trkpt lat="31.96723264642059803009033203125" lon="118.82322485558688640594482421875">
        <ele>9.6000003814697265625</ele>
        <time>2025-08-21T09:25:14.000Z</time>
        <extensions>
          <ns3:TrackPointExtension>
            <ns3:atemp>35.0</ns3:atemp>
            <ns3:hr>120</ns3:hr>
          </ns3:TrackPointExtension>
        </extensions>
      </trkpt>
      <trkpt lat="31.967556439340114593505859375" lon="118.8230866380035877227783203125">
        <ele>9.80000019073486328125</ele>
        <time>2025-08-21T09:25:20.000Z</time>
        <extensions>
          <ns3:TrackPointExtension>
            <ns3:atemp>35.0</ns3:atemp>
            <ns3:hr>122</ns3:hr>
          </ns3:TrackPointExtension>
        </extensions>
      </trkpt>
      <trkpt lat="31.9677324593067169189453125" lon="118.82305185310542583465576171875">
        <ele>9.80000019073486328125</ele>
        <time>2025-08-21T09:25:23.000Z</time>
        <extensions>
          <ns3:TrackPointExtension>
            <ns3:atemp>35.0</ns3:atemp>
            <ns3:hr>123</ns3:hr>
          </ns3:TrackPointExtension>
        </extensions>
      </trkpt>
      <trkpt lat="31.96786581538617610931396484375" lon="118.823074065148830413818359375">
        <ele>9.80000019073486328125</ele>
        <time>2025-08-21T09:25:25.000Z</time>
        <extensions>
          <ns3:TrackPointExtension>
            <ns3:atemp>35.0</ns3:atemp>
            <ns3:hr>125</ns3:hr>
          </ns3:TrackPointExtension>
        </extensions>
      </trkpt>
      <trkpt lat="31.96799674071371555328369140625" lon="118.82309510372579097747802734375">
        <ele>9.19999980926513671875</ele>
        <time>2025-08-21T09:25:27.000Z</time>
        <extensions>
          <ns3:TrackPointExtension>
            <ns3:atemp>35.0</ns3:atemp>
            <ns3:hr>127</ns3:hr>
          </ns3:TrackPointExtension>
        </extensions>
      </trkpt>
      <trkpt lat="31.96816722862422466278076171875" lon="118.8231801800429821014404296875">
        <ele>8.6000003814697265625</ele>
        <time>2025-08-21T09:25:30.000Z</time>
        <extensions>
          <ns3:TrackPointExtension>
            <ns3:atemp>35.0</ns3:atemp>
            <ns3:hr>126</ns3:hr>
          </ns3:TrackPointExtension>
        </extensions>
      </trkpt>
      <trkpt lat="31.96821835823357105255126953125" lon="118.8232157193124294281005859375">
        <ele>8.6000003814697265625</ele>
        <time>2025-08-21T09:25:31.000Z</time>
        <extensions>
          <ns3:TrackPointExtension>
            <ns3:atemp>34.0</ns3:atemp>
            <ns3:hr>126</ns3:hr>
          </ns3:TrackPointExtension>
        </extensions>
      </trkpt>
      <trkpt lat="31.968340985476970672607421875" lon="118.8233407773077487945556640625">
        <ele>9</ele>
        <time>2025-08-21T09:25:34.000Z</time>
        <extensions>
          <ns3:TrackPointExtension>
            <ns3:atemp>34.0</ns3:atemp>
            <ns3:hr>127</ns3:hr>
          </ns3:TrackPointExtension>
        </extensions>
      </trkpt>
      <trkpt lat="31.96847953833639621734619140625" lon="118.8235540129244327545166015625">
        <ele>9.80000019073486328125</ele>
        <time>2025-08-21T09:25:38.000Z</time>
        <extensions>
          <ns3:TrackPointExtension>
            <ns3:atemp>34.0</ns3:atemp>
            <ns3:hr>129</ns3:hr>
          </ns3:TrackPointExtension>
        </extensions>
      </trkpt>
      <trkpt lat="31.96850602515041828155517578125" lon="118.82361260242760181427001953125">
        <ele>9.80000019073486328125</ele>
        <time>2025-08-21T09:25:39.000Z</time>
        <extensions>
          <ns3:TrackPointExtension>
            <ns3:atemp>35.0</ns3:atemp>
            <ns3:hr>129</ns3:hr>
          </ns3:TrackPointExtension>
        </extensions>
      </trkpt>
      <trkpt lat="31.96852463297545909881591796875" lon="118.82367144338786602020263671875">
        <ele>10</ele>
        <time>2025-08-21T09:25:40.000Z</time>
        <extensions>
          <ns3:TrackPointExtension>
            <ns3:atemp>34.0</ns3:atemp>
            <ns3:hr>129</ns3:hr>
          </ns3:TrackPointExtension>
        </extensions>
      </trkpt>
      <trkpt lat="31.96857023052871227264404296875" lon="118.823902867734432220458984375">
        <ele>9.80000019073486328125</ele>
        <time>2025-08-21T09:25:44.000Z</time>
        <extensions>
          <ns3:TrackPointExtension>
            <ns3:atemp>34.0</ns3:atemp>
            <ns3:hr>130</ns3:hr>
          </ns3:TrackPointExtension>
        </extensions>
      </trkpt>
      <trkpt lat="31.968564279377460479736328125" lon="118.8240056298673152923583984375">
        <ele>9.3999996185302734375</ele>
        <time>2025-08-21T09:25:46.000Z</time>
        <extensions>
          <ns3:TrackPointExtension>
            <ns3:atemp>35.0</ns3:atemp>
            <ns3:hr>130</ns3:hr>
          </ns3:TrackPointExtension>
        </extensions>
      </trkpt>
      <trkpt lat="31.968507282435894012451171875" lon="118.8240522332489490509033203125">
        <ele>9.6000003814697265625</ele>
        <time>2025-08-21T09:25:48.000Z</time>
        <extensions>
          <ns3:TrackPointExtension>
            <ns3:atemp>34.0</ns3:atemp>
            <ns3:hr>128</ns3:hr>
          </ns3:TrackPointExtension>
        </extensions>
      </trkpt>
      <trkpt lat="31.9684782810509204864501953125" lon="118.824062459170818328857421875">
        <ele>10</ele>
        <time>2025-08-21T09:25:51.000Z</time>
        <extensions>
          <ns3:TrackPointExtension>
            <ns3:atemp>34.0</ns3:atemp>
            <ns3:hr>126</ns3:hr>
          </ns3:TrackPointExtension>
        </extensions>
      </trkpt>
      <trkpt lat="31.9684779457747936248779296875" lon="118.82406212389469146728515625">
        <ele>10</ele>
        <time>2025-08-21T09:25:52.000Z</time>
        <extensions>
          <ns3:TrackPointExtension>
            <ns3:atemp>34.0</ns3:atemp>
            <ns3:hr>125</ns3:hr>
          </ns3:TrackPointExtension>
        </extensions>
      </trkpt>
    </trkseg>
  </trk>
</gpx>
