<gpx xmlns:ns3="http://www.garmin.com/xmlschemas/TrackPointExtension/v1" xmlns="http://www.topografix.com/GPX/1/1" xmlns:xsi="http://www.w3.org/2001/XMLSchema-instance" xmlns:ns2="http://www.garmin.com/xmlschemas/GpxExtensions/v3" creator="Garmin Connect" version="1.1" xsi:schemaLocation="http://www.topografix.com/GPX/1/1 http://www.topografix.com/GPX/11.xsd">
  <extensions>
<distance>1455.67</distance>
<average_hr>106.0</average_hr>
<average_speed>1.0720000267028809</average_speed>
<start_time>2025-09-01T15:10:28+00:00</start_time>
<end_time>2025-09-01T15:33:05.651000+00:00</end_time>
<moving_time>1079.0</moving_time>
<elapsed_time>1357.651</elapsed_time>
</extensions>
<metadata>
    <link href="connect.garmin.com">
      <text>Garmin Connect</text>
    </link>
    <time>2025-09-01T15:10:28.000Z</time>
  </metadata>
  <trk>
    <name>伊犁哈萨克自治州 步行</name>
    <type>walking</type>
    <trkseg>
      <trkpt lat="43.9114992320537567138671875" lon="81.3121146149933338165283203125">
        <ele>633.20001220703125</ele>
        <time>2025-09-01T15:10:28.000Z</time>
        <extensions>
          <ns3:TrackPointExtension>
            <ns3:hr>112</ns3:hr>
          </ns3:TrackPointExtension>
        </extensions>
      </trkpt>
      <trkpt lat="43.91159336082637310028076171875" lon="81.312105394899845123291015625">
        <ele>633.20001220703125</ele>
        <time>2025-09-01T15:10:29.000Z</time>
        <extensions>
          <ns3:TrackPointExtension>
            <ns3:hr>112</ns3:hr>
          </ns3:TrackPointExtension>
        </extensions>
      </trkpt>
      <trkpt lat="43.91164281405508518218994140625" lon="81.3121370784938335418701171875">
        <ele>633.20001220703125</ele>
        <time>2025-09-01T15:10:32.000Z</time>
        <extensions>
          <ns3:TrackPointExtension>
            <ns3:hr>109</ns3:hr>
          </ns3:TrackPointExtension>
        </extensions>
      </trkpt>
      <trkpt lat="43.911637365818023681640625" lon="81.312147639691829681396484375">
        <ele>633.4000244140625</ele>
        <time>2025-09-01T15:10:35.000Z</time>
        <extensions>
          <ns3:TrackPointExtension>
            <ns3:hr>108</ns3:hr>
          </ns3:TrackPointExtension>
        </extensions>
      </trkpt>
      <trkpt lat="43.91163401305675506591796875" lon="81.3122493959963321685791015625">
        <ele>633.5999755859375</ele>
        <time>2025-09-01T15:10:42.000Z</time>
        <extensions>
          <ns3:TrackPointExtension>
            <ns3:hr>107</ns3:hr>
          </ns3:TrackPointExtension>
        </extensions>
      </trkpt>
      <trkpt lat="43.91162169165909290313720703125" lon="81.312361545860767364501953125">
        <ele>633.5999755859375</ele>
        <time>2025-09-01T15:10:49.000Z</time>
        <extensions>
          <ns3:TrackPointExtension>
            <ns3:hr>105</ns3:hr>
          </ns3:TrackPointExtension>
        </extensions>
      </trkpt>
      <trkpt lat="43.9116083644330501556396484375" lon="81.31249926052987575531005859375">
        <ele>633.4000244140625</ele>
        <time>2025-09-01T15:10:56.000Z</time>
        <extensions>
          <ns3:TrackPointExtension>
            <ns3:hr>106</ns3:hr>
          </ns3:TrackPointExtension>
        </extensions>
      </trkpt>
      <trkpt lat="43.911594450473785400390625" lon="81.31264409981667995452880859375">
        <ele>633.5999755859375</ele>
        <time>2025-09-01T15:11:04.000Z</time>
        <extensions>
          <ns3:TrackPointExtension>
            <ns3:hr>105</ns3:hr>
          </ns3:TrackPointExtension>
        </extensions>
      </trkpt>
      <trkpt lat="43.91160325147211551666259765625" lon="81.3126803934574127197265625">
        <ele>633.79998779296875</ele>
        <time>2025-09-01T15:11:07.000Z</time>
        <extensions>
          <ns3:TrackPointExtension>
            <ns3:hr>105</ns3:hr>
          </ns3:TrackPointExtension>
        </extensions>
      </trkpt>
      <trkpt lat="43.91161121428012847900390625" lon="81.31270654499530792236328125">
        <ele>634.4000244140625</ele>
        <time>2025-09-01T15:11:10.000Z</time>
        <extensions>
          <ns3:TrackPointExtension>
            <ns3:hr>105</ns3:hr>
          </ns3:TrackPointExtension>
        </extensions>
      </trkpt>
      <trkpt lat="43.91162135638296604156494140625" lon="81.3127342052757740020751953125">
        <ele>634.79998779296875</ele>
        <time>2025-09-01T15:11:12.000Z</time>
        <extensions>
          <ns3:TrackPointExtension>
            <ns3:hr>105</ns3:hr>
          </ns3:TrackPointExtension>
        </extensions>
      </trkpt>
      <trkpt lat="43.91163979656994342803955078125" lon="81.3128451816737651824951171875">
        <ele>634.4000244140625</ele>
        <time>2025-09-01T15:11:18.000Z</time>
        <extensions>
          <ns3:TrackPointExtension>
            <ns3:hr>105</ns3:hr>
          </ns3:TrackPointExtension>
        </extensions>
      </trkpt>
      <trkpt lat="43.91166460700333118438720703125" lon="81.31295875646173954010009765625">
        <ele>634.4000244140625</ele>
        <time>2025-09-01T15:11:24.000Z</time>
        <extensions>
          <ns3:TrackPointExtension>
            <ns3:hr>105</ns3:hr>
          </ns3:TrackPointExtension>
        </extensions>
      </trkpt>
      <trkpt lat="43.9116653613746166229248046875" lon="81.31310979835689067840576171875">
        <ele>634.79998779296875</ele>
        <time>2025-09-01T15:11:31.000Z</time>
        <extensions>
          <ns3:TrackPointExtension>
            <ns3:hr>106</ns3:hr>
          </ns3:TrackPointExtension>
        </extensions>
      </trkpt>
      <trkpt lat="43.911640383303165435791015625" lon="81.31326318718492984771728515625">
        <ele>634.79998779296875</ele>
        <time>2025-09-01T15:11:39.000Z</time>
        <extensions>
          <ns3:TrackPointExtension>
            <ns3:hr>106</ns3:hr>
          </ns3:TrackPointExtension>
        </extensions>
      </trkpt>
      <trkpt lat="43.91165924258530139923095703125" lon="81.31338992156088352203369140625">
        <ele>635</ele>
        <time>2025-09-01T15:11:46.000Z</time>
        <extensions>
          <ns3:TrackPointExtension>
            <ns3:hr>106</ns3:hr>
          </ns3:TrackPointExtension>
        </extensions>
      </trkpt>
      <trkpt lat="43.91165949404239654541015625" lon="81.31348916329443454742431640625">
        <ele>635.4000244140625</ele>
        <time>2025-09-01T15:11:52.000Z</time>
        <extensions>
          <ns3:TrackPointExtension>
            <ns3:hr>104</ns3:hr>
          </ns3:TrackPointExtension>
        </extensions>
      </trkpt>
      <trkpt lat="43.91165924258530139923095703125" lon="81.31351347081363201141357421875">
        <ele>635.4000244140625</ele>
        <time>2025-09-01T15:11:53.000Z</time>
        <extensions>
          <ns3:TrackPointExtension>
            <ns3:hr>104</ns3:hr>
          </ns3:TrackPointExtension>
        </extensions>
      </trkpt>
      <trkpt lat="43.91165672801434993743896484375" lon="81.313598714768886566162109375">
        <ele>635.20001220703125</ele>
        <time>2025-09-01T15:11:58.000Z</time>
        <extensions>
          <ns3:TrackPointExtension>
            <ns3:hr>104</ns3:hr>
          </ns3:TrackPointExtension>
        </extensions>
      </trkpt>
      <trkpt lat="43.9116405509412288665771484375" lon="81.31378613412380218505859375">
        <ele>635.20001220703125</ele>
        <time>2025-09-01T15:12:08.000Z</time>
        <extensions>
          <ns3:TrackPointExtension>
            <ns3:hr>102</ns3:hr>
          </ns3:TrackPointExtension>
        </extensions>
      </trkpt>
      <trkpt lat="43.91164549626410007476806640625" lon="81.313883364200592041015625">
        <ele>635.79998779296875</ele>
        <time>2025-09-01T15:12:14.000Z</time>
        <extensions>
          <ns3:TrackPointExtension>
            <ns3:hr>102</ns3:hr>
          </ns3:TrackPointExtension>
        </extensions>
      </trkpt>
      <trkpt lat="43.911645077168941497802734375" lon="81.31405846215784549713134765625">
        <ele>636</ele>
        <time>2025-09-01T15:12:23.000Z</time>
        <extensions>
          <ns3:TrackPointExtension>
            <ns3:hr>105</ns3:hr>
          </ns3:TrackPointExtension>
        </extensions>
      </trkpt>
      <trkpt lat="43.9116413891315460205078125" lon="81.3140783272683620452880859375">
        <ele>636.20001220703125</ele>
        <time>2025-09-01T15:12:24.000Z</time>
        <extensions>
          <ns3:TrackPointExtension>
            <ns3:hr>108</ns3:hr>
          </ns3:TrackPointExtension>
        </extensions>
      </trkpt>
      <trkpt lat="43.9116413891315460205078125" lon="81.31421939469873905181884765625">
        <ele>636</ele>
        <time>2025-09-01T15:12:32.000Z</time>
        <extensions>
          <ns3:TrackPointExtension>
            <ns3:hr>108</ns3:hr>
          </ns3:TrackPointExtension>
        </extensions>
      </trkpt>
      <trkpt lat="43.91163292340934276580810546875" lon="81.3143757171928882598876953125">
        <ele>636</ele>
        <time>2025-09-01T15:12:41.000Z</time>
        <extensions>
          <ns3:TrackPointExtension>
            <ns3:hr>110</ns3:hr>
          </ns3:TrackPointExtension>
        </extensions>
      </trkpt>
      <trkpt lat="43.9116465859115123748779296875" lon="81.3145255856215953826904296875">
        <ele>636</ele>
        <time>2025-09-01T15:12:50.000Z</time>
        <extensions>
          <ns3:TrackPointExtension>
            <ns3:hr>109</ns3:hr>
          </ns3:TrackPointExtension>
        </extensions>
      </trkpt>
      <trkpt lat="43.9116628468036651611328125" lon="81.31468442268669605255126953125">
        <ele>636.20001220703125</ele>
        <time>2025-09-01T15:12:57.000Z</time>
        <extensions>
          <ns3:TrackPointExtension>
            <ns3:hr>109</ns3:hr>
          </ns3:TrackPointExtension>
        </extensions>
      </trkpt>
      <trkpt lat="43.9116693846881389617919921875" lon="81.31478349678218364715576171875">
        <ele>636</ele>
        <time>2025-09-01T15:13:06.000Z</time>
        <extensions>
          <ns3:TrackPointExtension>
            <ns3:hr>109</ns3:hr>
          </ns3:TrackPointExtension>
        </extensions>
      </trkpt>
      <trkpt lat="43.9116660319268703460693359375" lon="81.31494241766631603240966796875">
        <ele>636.20001220703125</ele>
        <time>2025-09-01T15:13:12.000Z</time>
        <extensions>
          <ns3:TrackPointExtension>
            <ns3:hr>112</ns3:hr>
          </ns3:TrackPointExtension>
        </extensions>
      </trkpt>
      <trkpt lat="43.91166351735591888427734375" lon="81.314965300261974334716796875">
        <ele>636.20001220703125</ele>
        <time>2025-09-01T15:13:13.000Z</time>
        <extensions>
          <ns3:TrackPointExtension>
            <ns3:hr>112</ns3:hr>
          </ns3:TrackPointExtension>
        </extensions>
      </trkpt>
      <trkpt lat="43.911677934229373931884765625" lon="81.31511759944260120391845703125">
        <ele>635.79998779296875</ele>
        <time>2025-09-01T15:13:21.000Z</time>
        <extensions>
          <ns3:TrackPointExtension>
            <ns3:hr>115</ns3:hr>
          </ns3:TrackPointExtension>
        </extensions>
      </trkpt>
      <trkpt lat="43.91167701222002506256103515625" lon="81.31513662636280059814453125">
        <ele>635.79998779296875</ele>
        <time>2025-09-01T15:13:22.000Z</time>
        <extensions>
          <ns3:TrackPointExtension>
            <ns3:hr>115</ns3:hr>
          </ns3:TrackPointExtension>
        </extensions>
      </trkpt>
      <trkpt lat="43.91169570386409759521484375" lon="81.31527869962155818939208984375">
        <ele>636.4000244140625</ele>
        <time>2025-09-01T15:13:31.000Z</time>
        <extensions>
          <ns3:TrackPointExtension>
            <ns3:hr>113</ns3:hr>
          </ns3:TrackPointExtension>
        </extensions>
      </trkpt>
      <trkpt lat="43.911697380244731903076171875" lon="81.31530552171170711517333984375">
        <ele>636.4000244140625</ele>
        <time>2025-09-01T15:13:33.000Z</time>
        <extensions>
          <ns3:TrackPointExtension>
            <ns3:hr>114</ns3:hr>
          </ns3:TrackPointExtension>
        </extensions>
      </trkpt>
      <trkpt lat="43.91170215792953968048095703125" lon="81.3153929449617862701416015625">
        <ele>636.5999755859375</ele>
        <time>2025-09-01T15:13:38.000Z</time>
        <extensions>
          <ns3:TrackPointExtension>
            <ns3:hr>113</ns3:hr>
          </ns3:TrackPointExtension>
        </extensions>
      </trkpt>
      <trkpt lat="43.91170416958630084991455078125" lon="81.31541213952004909515380859375">
        <ele>636.5999755859375</ele>
        <time>2025-09-01T15:13:39.000Z</time>
        <extensions>
          <ns3:TrackPointExtension>
            <ns3:hr>110</ns3:hr>
          </ns3:TrackPointExtension>
        </extensions>
      </trkpt>
      <trkpt lat="43.91171623952686786651611328125" lon="81.315511800348758697509765625">
        <ele>636.79998779296875</ele>
        <time>2025-09-01T15:13:47.000Z</time>
        <extensions>
          <ns3:TrackPointExtension>
            <ns3:hr>110</ns3:hr>
          </ns3:TrackPointExtension>
        </extensions>
      </trkpt>
      <trkpt lat="43.91171439550817012786865234375" lon="81.3155317492783069610595703125">
        <ele>635.4000244140625</ele>
        <time>2025-09-01T15:13:53.000Z</time>
        <extensions>
          <ns3:TrackPointExtension>
            <ns3:hr>111</ns3:hr>
          </ns3:TrackPointExtension>
        </extensions>
      </trkpt>
      <trkpt lat="43.91171271912753582000732421875" lon="81.3155454955995082855224609375">
        <ele>634.5999755859375</ele>
        <time>2025-09-01T15:13:55.000Z</time>
        <extensions>
          <ns3:TrackPointExtension>
            <ns3:hr>111</ns3:hr>
          </ns3:TrackPointExtension>
        </extensions>
      </trkpt>
      <trkpt lat="43.91171037219464778900146484375" lon="81.3155384548008441925048828125">
        <ele>634.20001220703125</ele>
        <time>2025-09-01T15:13:56.000Z</time>
        <extensions>
          <ns3:TrackPointExtension>
            <ns3:hr>111</ns3:hr>
          </ns3:TrackPointExtension>
        </extensions>
      </trkpt>
      <trkpt lat="43.9117049239575862884521484375" lon="81.315529234707355499267578125">
        <ele>632.79998779296875</ele>
        <time>2025-09-01T15:13:59.000Z</time>
        <extensions>
          <ns3:TrackPointExtension>
            <ns3:hr>111</ns3:hr>
          </ns3:TrackPointExtension>
        </extensions>
      </trkpt>
      <trkpt lat="43.91170366667211055755615234375" lon="81.31550610065460205078125">
        <ele>632.20001220703125</ele>
        <time>2025-09-01T15:14:01.000Z</time>
        <extensions>
          <ns3:TrackPointExtension>
            <ns3:hr>111</ns3:hr>
          </ns3:TrackPointExtension>
        </extensions>
      </trkpt>
      <trkpt lat="43.911705426871776580810546875" lon="81.31550752557814121246337890625">
        <ele>631.79998779296875</ele>
        <time>2025-09-01T15:14:02.000Z</time>
        <extensions>
          <ns3:TrackPointExtension>
            <ns3:hr>111</ns3:hr>
          </ns3:TrackPointExtension>
        </extensions>
      </trkpt>
      <trkpt lat="43.91170601360499858856201171875" lon="81.31552764214575290679931640625">
        <ele>632.20001220703125</ele>
        <time>2025-09-01T15:14:07.000Z</time>
        <extensions>
          <ns3:TrackPointExtension>
            <ns3:hr>110</ns3:hr>
          </ns3:TrackPointExtension>
        </extensions>
      </trkpt>
      <trkpt lat="43.91169377602636814117431640625" lon="81.315529905259609222412109375">
        <ele>633</ele>
        <time>2025-09-01T15:14:09.000Z</time>
        <extensions>
          <ns3:TrackPointExtension>
            <ns3:hr>110</ns3:hr>
          </ns3:TrackPointExtension>
        </extensions>
      </trkpt>
      <trkpt lat="43.911682628095149993896484375" lon="81.315528564155101776123046875">
        <ele>634.4000244140625</ele>
        <time>2025-09-01T15:14:11.000Z</time>
        <extensions>
          <ns3:TrackPointExtension>
            <ns3:hr>109</ns3:hr>
          </ns3:TrackPointExtension>
        </extensions>
      </trkpt>
      <trkpt lat="43.91167768277227878570556640625" lon="81.31552428938448429107666015625">
        <ele>635.79998779296875</ele>
        <time>2025-09-01T15:14:13.000Z</time>
        <extensions>
          <ns3:TrackPointExtension>
            <ns3:hr>109</ns3:hr>
          </ns3:TrackPointExtension>
        </extensions>
      </trkpt>
      <trkpt lat="43.91167801804840564727783203125" lon="81.31551607511937618255615234375">
        <ele>636.20001220703125</ele>
        <time>2025-09-01T15:14:14.000Z</time>
        <extensions>
          <ns3:TrackPointExtension>
            <ns3:hr>109</ns3:hr>
          </ns3:TrackPointExtension>
        </extensions>
      </trkpt>
      <trkpt lat="43.9116789400577545166015625" lon="81.31550383754074573516845703125">
        <ele>636.79998779296875</ele>
        <time>2025-09-01T15:14:15.000Z</time>
        <extensions>
          <ns3:TrackPointExtension>
            <ns3:hr>108</ns3:hr>
          </ns3:TrackPointExtension>
        </extensions>
      </trkpt>
      <trkpt lat="43.91171238385140895843505859375" lon="81.3155019097030162811279296875">
        <ele>637.20001220703125</ele>
        <time>2025-09-01T15:14:20.000Z</time>
        <extensions>
          <ns3:TrackPointExtension>
            <ns3:hr>108</ns3:hr>
          </ns3:TrackPointExtension>
        </extensions>
      </trkpt>
      <trkpt lat="43.911761082708835601806640625" lon="81.315589584410190582275390625">
        <ele>637</ele>
        <time>2025-09-01T15:14:25.000Z</time>
        <extensions>
          <ns3:TrackPointExtension>
            <ns3:hr>108</ns3:hr>
          </ns3:TrackPointExtension>
        </extensions>
      </trkpt>
      <trkpt lat="43.91178463585674762725830078125" lon="81.31569427438080310821533203125">
        <ele>637</ele>
        <time>2025-09-01T15:14:31.000Z</time>
        <extensions>
          <ns3:TrackPointExtension>
            <ns3:hr>110</ns3:hr>
          </ns3:TrackPointExtension>
        </extensions>
      </trkpt>
      <trkpt lat="43.91179469414055347442626953125" lon="81.31572159938514232635498046875">
        <ele>637</ele>
        <time>2025-09-01T15:14:33.000Z</time>
        <extensions>
          <ns3:TrackPointExtension>
            <ns3:hr>113</ns3:hr>
          </ns3:TrackPointExtension>
        </extensions>
      </trkpt>
      <trkpt lat="43.9118172414600849151611328125" lon="81.31582972593605518341064453125">
        <ele>637</ele>
        <time>2025-09-01T15:14:40.000Z</time>
        <extensions>
          <ns3:TrackPointExtension>
            <ns3:hr>113</ns3:hr>
          </ns3:TrackPointExtension>
        </extensions>
      </trkpt>
      <trkpt lat="43.911845572292804718017578125" lon="81.31588420830667018890380859375">
        <ele>637.20001220703125</ele>
        <time>2025-09-01T15:14:45.000Z</time>
        <extensions>
          <ns3:TrackPointExtension>
            <ns3:hr>116</ns3:hr>
          </ns3:TrackPointExtension>
        </extensions>
      </trkpt>
      <trkpt lat="43.9118532836437225341796875" lon="81.31590583361685276031494140625">
        <ele>637.4000244140625</ele>
        <time>2025-09-01T15:14:47.000Z</time>
        <extensions>
          <ns3:TrackPointExtension>
            <ns3:hr>119</ns3:hr>
          </ns3:TrackPointExtension>
        </extensions>
      </trkpt>
      <trkpt lat="43.9118547923862934112548828125" lon="81.31591220386326313018798828125">
        <ele>637.4000244140625</ele>
        <time>2025-09-01T15:14:48.000Z</time>
        <extensions>
          <ns3:TrackPointExtension>
            <ns3:hr>121</ns3:hr>
          </ns3:TrackPointExtension>
        </extensions>
      </trkpt>
      <trkpt lat="43.91183610074222087860107421875" lon="81.31589225493371486663818359375">
        <ele>637.5999755859375</ele>
        <time>2025-09-01T15:14:52.000Z</time>
        <extensions>
          <ns3:TrackPointExtension>
            <ns3:hr>125</ns3:hr>
          </ns3:TrackPointExtension>
        </extensions>
      </trkpt>
      <trkpt lat="43.91184247098863124847412109375" lon="81.31586593575775623321533203125">
        <ele>637.4000244140625</ele>
        <time>2025-09-01T15:14:54.000Z</time>
        <extensions>
          <ns3:TrackPointExtension>
            <ns3:hr>125</ns3:hr>
          </ns3:TrackPointExtension>
        </extensions>
      </trkpt>
      <trkpt lat="43.91191204078495502471923828125" lon="81.3158552907407283782958984375">
        <ele>637.20001220703125</ele>
        <time>2025-09-01T15:14:59.000Z</time>
        <extensions>
          <ns3:TrackPointExtension>
            <ns3:hr>125</ns3:hr>
          </ns3:TrackPointExtension>
        </extensions>
      </trkpt>
      <trkpt lat="43.9119848795235157012939453125" lon="81.3158522732555866241455078125">
        <ele>637.20001220703125</ele>
        <time>2025-09-01T15:15:04.000Z</time>
        <extensions>
          <ns3:TrackPointExtension>
            <ns3:hr>122</ns3:hr>
          </ns3:TrackPointExtension>
        </extensions>
      </trkpt>
      <trkpt lat="43.9120207540690898895263671875" lon="81.315857470035552978515625">
        <ele>637.20001220703125</ele>
        <time>2025-09-01T15:15:07.000Z</time>
        <extensions>
          <ns3:TrackPointExtension>
            <ns3:hr>122</ns3:hr>
          </ns3:TrackPointExtension>
        </extensions>
      </trkpt>
      <trkpt lat="43.9120388589799404144287109375" lon="81.31592326797544956207275390625">
        <ele>637.20001220703125</ele>
        <time>2025-09-01T15:15:13.000Z</time>
        <extensions>
          <ns3:TrackPointExtension>
            <ns3:hr>120</ns3:hr>
          </ns3:TrackPointExtension>
        </extensions>
      </trkpt>
      <trkpt lat="43.9120197482407093048095703125" lon="81.3158673606812953948974609375">
        <ele>636.79998779296875</ele>
        <time>2025-09-01T15:15:21.000Z</time>
        <extensions>
          <ns3:TrackPointExtension>
            <ns3:hr>117</ns3:hr>
          </ns3:TrackPointExtension>
        </extensions>
      </trkpt>
      <trkpt lat="43.91202419064939022064208984375" lon="81.31581916473805904388427734375">
        <ele>636.79998779296875</ele>
        <time>2025-09-01T15:15:24.000Z</time>
        <extensions>
          <ns3:TrackPointExtension>
            <ns3:hr>116</ns3:hr>
          </ns3:TrackPointExtension>
        </extensions>
      </trkpt>
      <trkpt lat="43.91207330860197544097900390625" lon="81.31580776534974575042724609375">
        <ele>637</ele>
        <time>2025-09-01T15:15:28.000Z</time>
        <extensions>
          <ns3:TrackPointExtension>
            <ns3:hr>115</ns3:hr>
          </ns3:TrackPointExtension>
        </extensions>
      </trkpt>
      <trkpt lat="43.9121873863041400909423828125" lon="81.31576200015842914581298828125">
        <ele>637</ele>
        <time>2025-09-01T15:15:36.000Z</time>
        <extensions>
          <ns3:TrackPointExtension>
            <ns3:hr>114</ns3:hr>
          </ns3:TrackPointExtension>
        </extensions>
      </trkpt>
      <trkpt lat="43.91228637658059597015380859375" lon="81.3157610781490802764892578125">
        <ele>637.5999755859375</ele>
        <time>2025-09-01T15:15:44.000Z</time>
        <extensions>
          <ns3:TrackPointExtension>
            <ns3:hr>112</ns3:hr>
          </ns3:TrackPointExtension>
        </extensions>
      </trkpt>
      <trkpt lat="43.9123342372477054595947265625" lon="81.31575747393071651458740234375">
        <ele>637.79998779296875</ele>
        <time>2025-09-01T15:15:50.000Z</time>
        <extensions>
          <ns3:TrackPointExtension>
            <ns3:hr>111</ns3:hr>
          </ns3:TrackPointExtension>
        </extensions>
      </trkpt>
      <trkpt lat="43.912343122065067291259765625" lon="81.31575764156877994537353515625">
        <ele>637.79998779296875</ele>
        <time>2025-09-01T15:15:51.000Z</time>
        <extensions>
          <ns3:TrackPointExtension>
            <ns3:hr>111</ns3:hr>
          </ns3:TrackPointExtension>
        </extensions>
      </trkpt>
      <trkpt lat="43.9124113507568836212158203125" lon="81.31574842147529125213623046875">
        <ele>637.4000244140625</ele>
        <time>2025-09-01T15:15:58.000Z</time>
        <extensions>
          <ns3:TrackPointExtension>
            <ns3:hr>110</ns3:hr>
          </ns3:TrackPointExtension>
        </extensions>
      </trkpt>
      <trkpt lat="43.9125152863562107086181640625" lon="81.31572092883288860321044921875">
        <ele>637.20001220703125</ele>
        <time>2025-09-01T15:16:06.000Z</time>
        <extensions>
          <ns3:TrackPointExtension>
            <ns3:hr>110</ns3:hr>
          </ns3:TrackPointExtension>
        </extensions>
      </trkpt>
      <trkpt lat="43.91259717755019664764404296875" lon="81.31566812284290790557861328125">
        <ele>637.20001220703125</ele>
        <time>2025-09-01T15:16:13.000Z</time>
        <extensions>
          <ns3:TrackPointExtension>
            <ns3:hr>111</ns3:hr>
          </ns3:TrackPointExtension>
        </extensions>
      </trkpt>
      <trkpt lat="43.91268015839159488677978515625" lon="81.31561179645359516143798828125">
        <ele>637.4000244140625</ele>
        <time>2025-09-01T15:16:21.000Z</time>
        <extensions>
          <ns3:TrackPointExtension>
            <ns3:hr>111</ns3:hr>
          </ns3:TrackPointExtension>
        </extensions>
      </trkpt>
      <trkpt lat="43.9126892946660518646240234375" lon="81.31560995243489742279052734375">
        <ele>637.4000244140625</ele>
        <time>2025-09-01T15:16:22.000Z</time>
        <extensions>
          <ns3:TrackPointExtension>
            <ns3:hr>111</ns3:hr>
          </ns3:TrackPointExtension>
        </extensions>
      </trkpt>
      <trkpt lat="43.91273564659059047698974609375" lon="81.31560609675943851470947265625">
        <ele>637.5999755859375</ele>
        <time>2025-09-01T15:16:26.000Z</time>
        <extensions>
          <ns3:TrackPointExtension>
            <ns3:hr>108</ns3:hr>
          </ns3:TrackPointExtension>
        </extensions>
      </trkpt>
      <trkpt lat="43.91277797520160675048828125" lon="81.31560844369232654571533203125">
        <ele>637.5999755859375</ele>
        <time>2025-09-01T15:16:29.000Z</time>
        <extensions>
          <ns3:TrackPointExtension>
            <ns3:hr>105</ns3:hr>
          </ns3:TrackPointExtension>
        </extensions>
      </trkpt>
      <trkpt lat="43.91290663741528987884521484375" lon="81.3156437315046787261962890625">
        <ele>638</ele>
        <time>2025-09-01T15:16:37.000Z</time>
        <extensions>
          <ns3:TrackPointExtension>
            <ns3:hr>107</ns3:hr>
          </ns3:TrackPointExtension>
        </extensions>
      </trkpt>
      <trkpt lat="43.91296749003231525421142578125" lon="81.3157221861183643341064453125">
        <ele>638.20001220703125</ele>
        <time>2025-09-01T15:16:44.000Z</time>
        <extensions>
          <ns3:TrackPointExtension>
            <ns3:hr>107</ns3:hr>
          </ns3:TrackPointExtension>
        </extensions>
      </trkpt>
      <trkpt lat="43.913049884140491485595703125" lon="81.3157044164836406707763671875">
        <ele>638</ele>
        <time>2025-09-01T15:16:52.000Z</time>
        <extensions>
          <ns3:TrackPointExtension>
            <ns3:hr>106</ns3:hr>
          </ns3:TrackPointExtension>
        </extensions>
      </trkpt>
      <trkpt lat="43.91316890716552734375" lon="81.31572981365025043487548828125">
        <ele>637.79998779296875</ele>
        <time>2025-09-01T15:17:02.000Z</time>
        <extensions>
          <ns3:TrackPointExtension>
            <ns3:hr>107</ns3:hr>
          </ns3:TrackPointExtension>
        </extensions>
      </trkpt>
      <trkpt lat="43.91328164376318454742431640625" lon="81.3157483376562595367431640625">
        <ele>637.79998779296875</ele>
        <time>2025-09-01T15:17:11.000Z</time>
        <extensions>
          <ns3:TrackPointExtension>
            <ns3:hr>105</ns3:hr>
          </ns3:TrackPointExtension>
        </extensions>
      </trkpt>
      <trkpt lat="43.91338960267603397369384765625" lon="81.3157466612756252288818359375">
        <ele>638.4000244140625</ele>
        <time>2025-09-01T15:17:21.000Z</time>
        <extensions>
          <ns3:TrackPointExtension>
            <ns3:hr>106</ns3:hr>
          </ns3:TrackPointExtension>
        </extensions>
      </trkpt>
      <trkpt lat="43.91348280943930149078369140625" lon="81.3157515227794647216796875">
        <ele>638.4000244140625</ele>
        <time>2025-09-01T15:17:29.000Z</time>
        <extensions>
          <ns3:TrackPointExtension>
            <ns3:hr>106</ns3:hr>
          </ns3:TrackPointExtension>
        </extensions>
      </trkpt>
      <trkpt lat="43.9135724119842052459716796875" lon="81.3157295621931552886962890625">
        <ele>638.20001220703125</ele>
        <time>2025-09-01T15:17:38.000Z</time>
        <extensions>
          <ns3:TrackPointExtension>
            <ns3:hr>106</ns3:hr>
          </ns3:TrackPointExtension>
        </extensions>
      </trkpt>
      <trkpt lat="43.913653381168842315673828125" lon="81.31570835597813129425048828125">
        <ele>638.20001220703125</ele>
        <time>2025-09-01T15:17:46.000Z</time>
        <extensions>
          <ns3:TrackPointExtension>
            <ns3:hr>105</ns3:hr>
          </ns3:TrackPointExtension>
        </extensions>
      </trkpt>
      <trkpt lat="43.913793526589870452880859375" lon="81.3156950287520885467529296875">
        <ele>638.20001220703125</ele>
        <time>2025-09-01T15:17:57.000Z</time>
        <extensions>
          <ns3:TrackPointExtension>
            <ns3:hr>104</ns3:hr>
          </ns3:TrackPointExtension>
        </extensions>
      </trkpt>
      <trkpt lat="43.9139164052903652191162109375" lon="81.31568522192537784576416015625">
        <ele>638.20001220703125</ele>
        <time>2025-09-01T15:18:08.000Z</time>
        <extensions>
          <ns3:TrackPointExtension>
            <ns3:hr>104</ns3:hr>
          </ns3:TrackPointExtension>
        </extensions>
      </trkpt>
      <trkpt lat="43.9140146411955356597900390625" lon="81.31567684002220630645751953125">
        <ele>638.20001220703125</ele>
        <time>2025-09-01T15:18:17.000Z</time>
        <extensions>
          <ns3:TrackPointExtension>
            <ns3:hr>101</ns3:hr>
          </ns3:TrackPointExtension>
        </extensions>
      </trkpt>
      <trkpt lat="43.91402528621256351470947265625" lon="81.31567482836544513702392578125">
        <ele>638.20001220703125</ele>
        <time>2025-09-01T15:18:18.000Z</time>
        <extensions>
          <ns3:TrackPointExtension>
            <ns3:hr>102</ns3:hr>
          </ns3:TrackPointExtension>
        </extensions>
      </trkpt>
      <trkpt lat="43.91413676552474498748779296875" lon="81.31564046256244182586669921875">
        <ele>638.5999755859375</ele>
        <time>2025-09-01T15:18:27.000Z</time>
        <extensions>
          <ns3:TrackPointExtension>
            <ns3:hr>103</ns3:hr>
          </ns3:TrackPointExtension>
        </extensions>
      </trkpt>
      <trkpt lat="43.914188481867313385009765625" lon="81.315608359873294830322265625">
        <ele>638.5999755859375</ele>
        <time>2025-09-01T15:18:35.000Z</time>
        <extensions>
          <ns3:TrackPointExtension>
            <ns3:hr>103</ns3:hr>
          </ns3:TrackPointExtension>
        </extensions>
      </trkpt>
      <trkpt lat="43.9142860472202301025390625" lon="81.3156433962285518646240234375">
        <ele>638.5999755859375</ele>
        <time>2025-09-01T15:18:43.000Z</time>
        <extensions>
          <ns3:TrackPointExtension>
            <ns3:hr>104</ns3:hr>
          </ns3:TrackPointExtension>
        </extensions>
      </trkpt>
      <trkpt lat="43.91436391510069370269775390625" lon="81.31567633710801601409912109375">
        <ele>638.79998779296875</ele>
        <time>2025-09-01T15:18:49.000Z</time>
        <extensions>
          <ns3:TrackPointExtension>
            <ns3:hr>103</ns3:hr>
          </ns3:TrackPointExtension>
        </extensions>
      </trkpt>
      <trkpt lat="43.9143894799053668975830078125" lon="81.31568773649632930755615234375">
        <ele>638.79998779296875</ele>
        <time>2025-09-01T15:18:51.000Z</time>
        <extensions>
          <ns3:TrackPointExtension>
            <ns3:hr>103</ns3:hr>
          </ns3:TrackPointExtension>
        </extensions>
      </trkpt>
      <trkpt lat="43.91439928673207759857177734375" lon="81.31568036042153835296630859375">
        <ele>638.79998779296875</ele>
        <time>2025-09-01T15:18:52.000Z</time>
        <extensions>
          <ns3:TrackPointExtension>
            <ns3:hr>104</ns3:hr>
          </ns3:TrackPointExtension>
        </extensions>
      </trkpt>
      <trkpt lat="43.91441554762423038482666015625" lon="81.31564599461853504180908203125">
        <ele>638.79998779296875</ele>
        <time>2025-09-01T15:18:56.000Z</time>
        <extensions>
          <ns3:TrackPointExtension>
            <ns3:hr>103</ns3:hr>
          </ns3:TrackPointExtension>
        </extensions>
      </trkpt>
      <trkpt lat="43.9143971912562847137451171875" lon="81.31562470458447933197021484375">
        <ele>638.79998779296875</ele>
        <time>2025-09-01T15:19:00.000Z</time>
        <extensions>
          <ns3:TrackPointExtension>
            <ns3:hr>102</ns3:hr>
          </ns3:TrackPointExtension>
        </extensions>
      </trkpt>
      <trkpt lat="43.91439266502857208251953125" lon="81.3156108744442462921142578125">
        <ele>638.5999755859375</ele>
        <time>2025-09-01T15:19:02.000Z</time>
        <extensions>
          <ns3:TrackPointExtension>
            <ns3:hr>101</ns3:hr>
          </ns3:TrackPointExtension>
        </extensions>
      </trkpt>
      <trkpt lat="43.9143826067447662353515625" lon="81.3155920989811420440673828125">
        <ele>638.5999755859375</ele>
        <time>2025-09-01T15:19:04.000Z</time>
        <extensions>
          <ns3:TrackPointExtension>
            <ns3:hr>97</ns3:hr>
          </ns3:TrackPointExtension>
        </extensions>
      </trkpt>
      <trkpt lat="43.91436584293842315673828125" lon="81.3155637681484222412109375">
        <ele>638.5999755859375</ele>
        <time>2025-09-01T15:19:05.000Z</time>
        <extensions>
          <ns3:TrackPointExtension>
            <ns3:hr>93</ns3:hr>
          </ns3:TrackPointExtension>
        </extensions>
      </trkpt>
      <trkpt lat="43.91436492092907428741455078125" lon="81.3155444897711277008056640625">
        <ele>638.5999755859375</ele>
        <time>2025-09-01T15:19:06.000Z</time>
        <extensions>
          <ns3:TrackPointExtension>
            <ns3:hr>87</ns3:hr>
          </ns3:TrackPointExtension>
        </extensions>
      </trkpt>
      <trkpt lat="43.91436844132840633392333984375" lon="81.31552982144057750701904296875">
        <ele>638.5999755859375</ele>
        <time>2025-09-01T15:19:07.000Z</time>
        <extensions>
          <ns3:TrackPointExtension>
            <ns3:hr>84</ns3:hr>
          </ns3:TrackPointExtension>
        </extensions>
      </trkpt>
      <trkpt lat="43.91438336111605167388916015625" lon="81.31548221223056316375732421875">
        <ele>638.4000244140625</ele>
        <time>2025-09-01T15:19:11.000Z</time>
        <extensions>
          <ns3:TrackPointExtension>
            <ns3:hr>82</ns3:hr>
          </ns3:TrackPointExtension>
        </extensions>
      </trkpt>
      <trkpt lat="43.9144669286906719207763671875" lon="81.31541850976645946502685546875">
        <ele>638.5999755859375</ele>
        <time>2025-09-01T15:19:18.000Z</time>
        <extensions>
          <ns3:TrackPointExtension>
            <ns3:hr>82</ns3:hr>
          </ns3:TrackPointExtension>
        </extensions>
      </trkpt>
      <trkpt lat="43.91459424979984760284423828125" lon="81.31547366268932819366455078125">
        <ele>638.79998779296875</ele>
        <time>2025-09-01T15:19:25.000Z</time>
        <extensions>
          <ns3:TrackPointExtension>
            <ns3:hr>82</ns3:hr>
          </ns3:TrackPointExtension>
        </extensions>
      </trkpt>
      <trkpt lat="43.9146526716649532318115234375" lon="81.31553753279149532318115234375">
        <ele>638.79998779296875</ele>
        <time>2025-09-01T15:19:29.000Z</time>
        <extensions>
          <ns3:TrackPointExtension>
            <ns3:hr>85</ns3:hr>
          </ns3:TrackPointExtension>
        </extensions>
      </trkpt>
      <trkpt lat="43.914727605879306793212890625" lon="81.3156568072736263275146484375">
        <ele>639.20001220703125</ele>
        <time>2025-09-01T15:19:35.000Z</time>
        <extensions>
          <ns3:TrackPointExtension>
            <ns3:hr>85</ns3:hr>
          </ns3:TrackPointExtension>
        </extensions>
      </trkpt>
      <trkpt lat="43.9147903025150299072265625" lon="81.3157946057617664337158203125">
        <ele>638.79998779296875</ele>
        <time>2025-09-01T15:19:40.000Z</time>
        <extensions>
          <ns3:TrackPointExtension>
            <ns3:hr>85</ns3:hr>
          </ns3:TrackPointExtension>
        </extensions>
      </trkpt>
      <trkpt lat="43.91481787897646427154541015625" lon="81.31596366874873638153076171875">
        <ele>639</ele>
        <time>2025-09-01T15:19:46.000Z</time>
        <extensions>
          <ns3:TrackPointExtension>
            <ns3:hr>86</ns3:hr>
          </ns3:TrackPointExtension>
        </extensions>
      </trkpt>
      <trkpt lat="43.9148062281310558319091796875" lon="81.31600842811167240142822265625">
        <ele>638.79998779296875</ele>
        <time>2025-09-01T15:19:48.000Z</time>
        <extensions>
          <ns3:TrackPointExtension>
            <ns3:hr>90</ns3:hr>
          </ns3:TrackPointExtension>
        </extensions>
      </trkpt>
      <trkpt lat="43.91479901969432830810546875" lon="81.3160537742078304290771484375">
        <ele>638.79998779296875</ele>
        <time>2025-09-01T15:19:50.000Z</time>
        <extensions>
          <ns3:TrackPointExtension>
            <ns3:hr>93</ns3:hr>
          </ns3:TrackPointExtension>
        </extensions>
      </trkpt>
      <trkpt lat="43.914796672761440277099609375" lon="81.31609945558011531829833984375">
        <ele>638.79998779296875</ele>
        <time>2025-09-01T15:19:52.000Z</time>
        <extensions>
          <ns3:TrackPointExtension>
            <ns3:hr>96</ns3:hr>
          </ns3:TrackPointExtension>
        </extensions>
      </trkpt>
      <trkpt lat="43.91479608602821826934814453125" lon="81.31611563265323638916015625">
        <ele>639</ele>
        <time>2025-09-01T15:19:53.000Z</time>
        <extensions>
          <ns3:TrackPointExtension>
            <ns3:hr>97</ns3:hr>
          </ns3:TrackPointExtension>
        </extensions>
      </trkpt>
      <trkpt lat="43.914775885641574859619140625" lon="81.3161979429423809051513671875">
        <ele>639</ele>
        <time>2025-09-01T15:19:58.000Z</time>
        <extensions>
          <ns3:TrackPointExtension>
            <ns3:hr>101</ns3:hr>
          </ns3:TrackPointExtension>
        </extensions>
      </trkpt>
      <trkpt lat="43.91476859338581562042236328125" lon="81.31622602231800556182861328125">
        <ele>639</ele>
        <time>2025-09-01T15:20:00.000Z</time>
        <extensions>
          <ns3:TrackPointExtension>
            <ns3:hr>106</ns3:hr>
          </ns3:TrackPointExtension>
        </extensions>
      </trkpt>
      <trkpt lat="43.91476708464324474334716796875" lon="81.31624278612434864044189453125">
        <ele>639</ele>
        <time>2025-09-01T15:20:01.000Z</time>
        <extensions>
          <ns3:TrackPointExtension>
            <ns3:hr>108</ns3:hr>
          </ns3:TrackPointExtension>
        </extensions>
      </trkpt>
      <trkpt lat="43.9147666655480861663818359375" lon="81.31626843474805355072021484375">
        <ele>639.20001220703125</ele>
        <time>2025-09-01T15:20:03.000Z</time>
        <extensions>
          <ns3:TrackPointExtension>
            <ns3:hr>112</ns3:hr>
          </ns3:TrackPointExtension>
        </extensions>
      </trkpt>
      <trkpt lat="43.914794661104679107666015625" lon="81.316337250173091888427734375">
        <ele>639.5999755859375</ele>
        <time>2025-09-01T15:20:08.000Z</time>
        <extensions>
          <ns3:TrackPointExtension>
            <ns3:hr>112</ns3:hr>
          </ns3:TrackPointExtension>
        </extensions>
      </trkpt>
      <trkpt lat="43.9148112572729587554931640625" lon="81.31650916300714015960693359375">
        <ele>639.5999755859375</ele>
        <time>2025-09-01T15:20:19.000Z</time>
        <extensions>
          <ns3:TrackPointExtension>
            <ns3:hr>111</ns3:hr>
          </ns3:TrackPointExtension>
        </extensions>
      </trkpt>
      <trkpt lat="43.91480765305459499359130859375" lon="81.31658770143985748291015625">
        <ele>639.79998779296875</ele>
        <time>2025-09-01T15:20:24.000Z</time>
        <extensions>
          <ns3:TrackPointExtension>
            <ns3:hr>110</ns3:hr>
          </ns3:TrackPointExtension>
        </extensions>
      </trkpt>
      <trkpt lat="43.91480036079883575439453125" lon="81.3166446983814239501953125">
        <ele>640.20001220703125</ele>
        <time>2025-09-01T15:20:27.000Z</time>
        <extensions>
          <ns3:TrackPointExtension>
            <ns3:hr>113</ns3:hr>
          </ns3:TrackPointExtension>
        </extensions>
      </trkpt>
      <trkpt lat="43.91479843296110630035400390625" lon="81.3166795670986175537109375">
        <ele>640.4000244140625</ele>
        <time>2025-09-01T15:20:30.000Z</time>
        <extensions>
          <ns3:TrackPointExtension>
            <ns3:hr>113</ns3:hr>
          </ns3:TrackPointExtension>
        </extensions>
      </trkpt>
      <trkpt lat="43.91480681486427783966064453125" lon="81.31680521182715892791748046875">
        <ele>640.4000244140625</ele>
        <time>2025-09-01T15:20:37.000Z</time>
        <extensions>
          <ns3:TrackPointExtension>
            <ns3:hr>113</ns3:hr>
          </ns3:TrackPointExtension>
        </extensions>
      </trkpt>
      <trkpt lat="43.91482408158481121063232421875" lon="81.3169710896909236907958984375">
        <ele>640.20001220703125</ele>
        <time>2025-09-01T15:20:47.000Z</time>
        <extensions>
          <ns3:TrackPointExtension>
            <ns3:hr>112</ns3:hr>
          </ns3:TrackPointExtension>
        </extensions>
      </trkpt>
      <trkpt lat="43.91484369523823261260986328125" lon="81.3170914538204669952392578125">
        <ele>640.20001220703125</ele>
        <time>2025-09-01T15:20:55.000Z</time>
        <extensions>
          <ns3:TrackPointExtension>
            <ns3:hr>110</ns3:hr>
          </ns3:TrackPointExtension>
        </extensions>
      </trkpt>
      <trkpt lat="43.91486071050167083740234375" lon="81.3171746022999286651611328125">
        <ele>640.4000244140625</ele>
        <time>2025-09-01T15:21:02.000Z</time>
        <extensions>
          <ns3:TrackPointExtension>
            <ns3:hr>108</ns3:hr>
          </ns3:TrackPointExtension>
        </extensions>
      </trkpt>
      <trkpt lat="43.91487638466060161590576171875" lon="81.31730376742780208587646484375">
        <ele>640.4000244140625</ele>
        <time>2025-09-01T15:21:09.000Z</time>
        <extensions>
          <ns3:TrackPointExtension>
            <ns3:hr>109</ns3:hr>
          </ns3:TrackPointExtension>
        </extensions>
      </trkpt>
      <trkpt lat="43.91488677822053432464599609375" lon="81.3174012489616870880126953125">
        <ele>640</ele>
        <time>2025-09-01T15:21:15.000Z</time>
        <extensions>
          <ns3:TrackPointExtension>
            <ns3:hr>108</ns3:hr>
          </ns3:TrackPointExtension>
        </extensions>
      </trkpt>
      <trkpt lat="43.91490572132170200347900390625" lon="81.31753376685082912445068359375">
        <ele>640</ele>
        <time>2025-09-01T15:21:25.000Z</time>
        <extensions>
          <ns3:TrackPointExtension>
            <ns3:hr>108</ns3:hr>
          </ns3:TrackPointExtension>
        </extensions>
      </trkpt>
      <trkpt lat="43.91495299525558948516845703125" lon="81.3176637701690196990966796875">
        <ele>640</ele>
        <time>2025-09-01T15:21:34.000Z</time>
        <extensions>
          <ns3:TrackPointExtension>
            <ns3:hr>106</ns3:hr>
          </ns3:TrackPointExtension>
        </extensions>
      </trkpt>
      <trkpt lat="43.91496355645358562469482421875" lon="81.317827217280864715576171875">
        <ele>640.20001220703125</ele>
        <time>2025-09-01T15:21:44.000Z</time>
        <extensions>
          <ns3:TrackPointExtension>
            <ns3:hr>106</ns3:hr>
          </ns3:TrackPointExtension>
        </extensions>
      </trkpt>
      <trkpt lat="43.91496540047228336334228515625" lon="81.31792453117668628692626953125">
        <ele>640.20001220703125</ele>
        <time>2025-09-01T15:21:51.000Z</time>
        <extensions>
          <ns3:TrackPointExtension>
            <ns3:hr>109</ns3:hr>
          </ns3:TrackPointExtension>
        </extensions>
      </trkpt>
      <trkpt lat="43.9149701781570911407470703125" lon="81.3180007226765155792236328125">
        <ele>640.20001220703125</ele>
        <time>2025-09-01T15:21:56.000Z</time>
        <extensions>
          <ns3:TrackPointExtension>
            <ns3:hr>111</ns3:hr>
          </ns3:TrackPointExtension>
        </extensions>
      </trkpt>
      <trkpt lat="43.91498132608830928802490234375" lon="81.31820465438067913055419921875">
        <ele>640.4000244140625</ele>
        <time>2025-09-01T15:22:08.000Z</time>
        <extensions>
          <ns3:TrackPointExtension>
            <ns3:hr>111</ns3:hr>
          </ns3:TrackPointExtension>
        </extensions>
      </trkpt>
      <trkpt lat="43.91499213874340057373046875" lon="81.31830540485680103302001953125">
        <ele>640.5999755859375</ele>
        <time>2025-09-01T15:22:15.000Z</time>
        <extensions>
          <ns3:TrackPointExtension>
            <ns3:hr>108</ns3:hr>
          </ns3:TrackPointExtension>
        </extensions>
      </trkpt>
      <trkpt lat="43.914995491504669189453125" lon="81.31835184060037136077880859375">
        <ele>640.5999755859375</ele>
        <time>2025-09-01T15:22:18.000Z</time>
        <extensions>
          <ns3:TrackPointExtension>
            <ns3:hr>105</ns3:hr>
          </ns3:TrackPointExtension>
        </extensions>
      </trkpt>
      <trkpt lat="43.91499758698046207427978515625" lon="81.31841294467449188232421875">
        <ele>640.5999755859375</ele>
        <time>2025-09-01T15:22:22.000Z</time>
        <extensions>
          <ns3:TrackPointExtension>
            <ns3:hr>105</ns3:hr>
          </ns3:TrackPointExtension>
        </extensions>
      </trkpt>
      <trkpt lat="43.9150083996355533599853515625" lon="81.31866649724543094635009765625">
        <ele>640.79998779296875</ele>
        <time>2025-09-01T15:22:38.000Z</time>
        <extensions>
          <ns3:TrackPointExtension>
            <ns3:hr>103</ns3:hr>
          </ns3:TrackPointExtension>
        </extensions>
      </trkpt>
      <trkpt lat="43.915007896721363067626953125" lon="81.31868560798466205596923828125">
        <ele>640.79998779296875</ele>
        <time>2025-09-01T15:22:39.000Z</time>
        <extensions>
          <ns3:TrackPointExtension>
            <ns3:hr>102</ns3:hr>
          </ns3:TrackPointExtension>
        </extensions>
      </trkpt>
      <trkpt lat="43.91500563360750675201416015625" lon="81.318718381226062774658203125">
        <ele>641</ele>
        <time>2025-09-01T15:22:41.000Z</time>
        <extensions>
          <ns3:TrackPointExtension>
            <ns3:hr>99</ns3:hr>
          </ns3:TrackPointExtension>
        </extensions>
      </trkpt>
      <trkpt lat="43.91500152647495269775390625" lon="81.31879859603941440582275390625">
        <ele>640.79998779296875</ele>
        <time>2025-09-01T15:22:46.000Z</time>
        <extensions>
          <ns3:TrackPointExtension>
            <ns3:hr>98</ns3:hr>
          </ns3:TrackPointExtension>
        </extensions>
      </trkpt>
      <trkpt lat="43.91503144986927509307861328125" lon="81.31898668594658374786376953125">
        <ele>640.79998779296875</ele>
        <time>2025-09-01T15:22:58.000Z</time>
        <extensions>
          <ns3:TrackPointExtension>
            <ns3:hr>97</ns3:hr>
          </ns3:TrackPointExtension>
        </extensions>
      </trkpt>
      <trkpt lat="43.9150486327707767486572265625" lon="81.31908441893756389617919921875">
        <ele>640.79998779296875</ele>
        <time>2025-09-01T15:23:04.000Z</time>
        <extensions>
          <ns3:TrackPointExtension>
            <ns3:hr>100</ns3:hr>
          </ns3:TrackPointExtension>
        </extensions>
      </trkpt>
      <trkpt lat="43.91505106352269649505615234375" lon="81.3191376440227031707763671875">
        <ele>641</ele>
        <time>2025-09-01T15:23:07.000Z</time>
        <extensions>
          <ns3:TrackPointExtension>
            <ns3:hr>103</ns3:hr>
          </ns3:TrackPointExtension>
        </extensions>
      </trkpt>
      <trkpt lat="43.91505039297044277191162109375" lon="81.319147534668445587158203125">
        <ele>641</ele>
        <time>2025-09-01T15:23:08.000Z</time>
        <extensions>
          <ns3:TrackPointExtension>
            <ns3:hr>104</ns3:hr>
          </ns3:TrackPointExtension>
        </extensions>
      </trkpt>
      <trkpt lat="43.9150503091514110565185546875" lon="81.3191654719412326812744140625">
        <ele>641.20001220703125</ele>
        <time>2025-09-01T15:23:09.000Z</time>
        <extensions>
          <ns3:TrackPointExtension>
            <ns3:hr>104</ns3:hr>
          </ns3:TrackPointExtension>
        </extensions>
      </trkpt>
      <trkpt lat="43.9150449447333812713623046875" lon="81.31928977556526660919189453125">
        <ele>640.79998779296875</ele>
        <time>2025-09-01T15:23:16.000Z</time>
        <extensions>
          <ns3:TrackPointExtension>
            <ns3:hr>104</ns3:hr>
          </ns3:TrackPointExtension>
        </extensions>
      </trkpt>
      <trkpt lat="43.91504100523889064788818359375" lon="81.3194556534290313720703125">
        <ele>640.79998779296875</ele>
        <time>2025-09-01T15:23:27.000Z</time>
        <extensions>
          <ns3:TrackPointExtension>
            <ns3:hr>99</ns3:hr>
          </ns3:TrackPointExtension>
        </extensions>
      </trkpt>
      <trkpt lat="43.91504268161952495574951171875" lon="81.3194749318063259124755859375">
        <ele>640.79998779296875</ele>
        <time>2025-09-01T15:23:28.000Z</time>
        <extensions>
          <ns3:TrackPointExtension>
            <ns3:hr>98</ns3:hr>
          </ns3:TrackPointExtension>
        </extensions>
      </trkpt>
      <trkpt lat="43.9150550030171871185302734375" lon="81.319595463573932647705078125">
        <ele>640.79998779296875</ele>
        <time>2025-09-01T15:23:35.000Z</time>
        <extensions>
          <ns3:TrackPointExtension>
            <ns3:hr>103</ns3:hr>
          </ns3:TrackPointExtension>
        </extensions>
      </trkpt>
      <trkpt lat="43.91505994834005832672119140625" lon="81.31964181549847126007080078125">
        <ele>640.79998779296875</ele>
        <time>2025-09-01T15:23:38.000Z</time>
        <extensions>
          <ns3:TrackPointExtension>
            <ns3:hr>105</ns3:hr>
          </ns3:TrackPointExtension>
        </extensions>
      </trkpt>
      <trkpt lat="43.91505978070199489593505859375" lon="81.31971205584704875946044921875">
        <ele>641.20001220703125</ele>
        <time>2025-09-01T15:23:43.000Z</time>
        <extensions>
          <ns3:TrackPointExtension>
            <ns3:hr>107</ns3:hr>
          </ns3:TrackPointExtension>
        </extensions>
      </trkpt>
      <trkpt lat="43.91508727334439754486083984375" lon="81.31994138471782207489013671875">
        <ele>640.79998779296875</ele>
        <time>2025-09-01T15:23:57.000Z</time>
        <extensions>
          <ns3:TrackPointExtension>
            <ns3:hr>107</ns3:hr>
          </ns3:TrackPointExtension>
        </extensions>
      </trkpt>
      <trkpt lat="43.91511275433003902435302734375" lon="81.32012075744569301605224609375">
        <ele>641</ele>
        <time>2025-09-01T15:24:10.000Z</time>
        <extensions>
          <ns3:TrackPointExtension>
            <ns3:hr>105</ns3:hr>
          </ns3:TrackPointExtension>
        </extensions>
      </trkpt>
      <trkpt lat="43.9151094853878021240234375" lon="81.320302896201610565185546875">
        <ele>641.5999755859375</ele>
        <time>2025-09-01T15:24:22.000Z</time>
        <extensions>
          <ns3:TrackPointExtension>
            <ns3:hr>104</ns3:hr>
          </ns3:TrackPointExtension>
        </extensions>
      </trkpt>
      <trkpt lat="43.91510236077010631561279296875" lon="81.32039752788841724395751953125">
        <ele>641.4000244140625</ele>
        <time>2025-09-01T15:24:28.000Z</time>
        <extensions>
          <ns3:TrackPointExtension>
            <ns3:hr>107</ns3:hr>
          </ns3:TrackPointExtension>
        </extensions>
      </trkpt>
      <trkpt lat="43.915112502872943878173828125" lon="81.32054387591779232025146484375">
        <ele>641.5999755859375</ele>
        <time>2025-09-01T15:24:37.000Z</time>
        <extensions>
          <ns3:TrackPointExtension>
            <ns3:hr>107</ns3:hr>
          </ns3:TrackPointExtension>
        </extensions>
      </trkpt>
      <trkpt lat="43.91511845402419567108154296875" lon="81.3206007890403270721435546875">
        <ele>641.79998779296875</ele>
        <time>2025-09-01T15:24:42.000Z</time>
        <extensions>
          <ns3:TrackPointExtension>
            <ns3:hr>106</ns3:hr>
          </ns3:TrackPointExtension>
        </extensions>
      </trkpt>
      <trkpt lat="43.91512348316609859466552734375" lon="81.3206929899752140045166015625">
        <ele>641.5999755859375</ele>
        <time>2025-09-01T15:24:47.000Z</time>
        <extensions>
          <ns3:TrackPointExtension>
            <ns3:hr>106</ns3:hr>
          </ns3:TrackPointExtension>
        </extensions>
      </trkpt>
      <trkpt lat="43.9151193760335445404052734375" lon="81.320817880332469940185546875">
        <ele>641.4000244140625</ele>
        <time>2025-09-01T15:24:55.000Z</time>
        <extensions>
          <ns3:TrackPointExtension>
            <ns3:hr>105</ns3:hr>
          </ns3:TrackPointExtension>
        </extensions>
      </trkpt>
      <trkpt lat="43.915080316364765167236328125" lon="81.32093447260558605194091796875">
        <ele>641.5999755859375</ele>
        <time>2025-09-01T15:25:03.000Z</time>
        <extensions>
          <ns3:TrackPointExtension>
            <ns3:hr>105</ns3:hr>
          </ns3:TrackPointExtension>
        </extensions>
      </trkpt>
      <trkpt lat="43.91503094695508480072021484375" lon="81.3210064731538295745849609375">
        <ele>641.5999755859375</ele>
        <time>2025-09-01T15:25:10.000Z</time>
        <extensions>
          <ns3:TrackPointExtension>
            <ns3:hr>105</ns3:hr>
          </ns3:TrackPointExtension>
        </extensions>
      </trkpt>
      <trkpt lat="43.914952240884304046630859375" lon="81.3211157731711864471435546875">
        <ele>641.5999755859375</ele>
        <time>2025-09-01T15:25:20.000Z</time>
        <extensions>
          <ns3:TrackPointExtension>
            <ns3:hr>103</ns3:hr>
          </ns3:TrackPointExtension>
        </extensions>
      </trkpt>
      <trkpt lat="43.91499557532370090484619140625" lon="81.32114611566066741943359375">
        <ele>641.5999755859375</ele>
        <time>2025-09-01T15:25:27.000Z</time>
        <extensions>
          <ns3:TrackPointExtension>
            <ns3:hr>104</ns3:hr>
          </ns3:TrackPointExtension>
        </extensions>
      </trkpt>
      <trkpt lat="43.91504653729498386383056640625" lon="81.321214176714420318603515625">
        <ele>641.79998779296875</ele>
        <time>2025-09-01T15:25:32.000Z</time>
        <extensions>
          <ns3:TrackPointExtension>
            <ns3:hr>107</ns3:hr>
          </ns3:TrackPointExtension>
        </extensions>
      </trkpt>
      <trkpt lat="43.91506581567227840423583984375" lon="81.321277879178524017333984375">
        <ele>641.79998779296875</ele>
        <time>2025-09-01T15:25:36.000Z</time>
        <extensions>
          <ns3:TrackPointExtension>
            <ns3:hr>108</ns3:hr>
          </ns3:TrackPointExtension>
        </extensions>
      </trkpt>
      <trkpt lat="43.91506765969097614288330078125" lon="81.3212956488132476806640625">
        <ele>641.79998779296875</ele>
        <time>2025-09-01T15:25:37.000Z</time>
        <extensions>
          <ns3:TrackPointExtension>
            <ns3:hr>107</ns3:hr>
          </ns3:TrackPointExtension>
        </extensions>
      </trkpt>
      <trkpt lat="43.91507587395608425140380859375" lon="81.3213655538856983184814453125">
        <ele>642</ele>
        <time>2025-09-01T15:25:44.000Z</time>
        <extensions>
          <ns3:TrackPointExtension>
            <ns3:hr>107</ns3:hr>
          </ns3:TrackPointExtension>
        </extensions>
      </trkpt>
      <trkpt lat="43.9150761254131793975830078125" lon="81.32137946784496307373046875">
        <ele>642</ele>
        <time>2025-09-01T15:25:46.000Z</time>
        <extensions>
          <ns3:TrackPointExtension>
            <ns3:hr>107</ns3:hr>
          </ns3:TrackPointExtension>
        </extensions>
      </trkpt>
      <trkpt lat="43.9150826632976531982421875" lon="81.321439482271671295166015625">
        <ele>642.20001220703125</ele>
        <time>2025-09-01T15:25:49.000Z</time>
        <extensions>
          <ns3:TrackPointExtension>
            <ns3:hr>107</ns3:hr>
          </ns3:TrackPointExtension>
        </extensions>
      </trkpt>
      <trkpt lat="43.915070928633213043212890625" lon="81.32158733904361724853515625">
        <ele>642.5999755859375</ele>
        <time>2025-09-01T15:25:56.000Z</time>
        <extensions>
          <ns3:TrackPointExtension>
            <ns3:hr>107</ns3:hr>
          </ns3:TrackPointExtension>
        </extensions>
      </trkpt>
      <trkpt lat="43.915043771266937255859375" lon="81.32165179587900638580322265625">
        <ele>642.5999755859375</ele>
        <time>2025-09-01T15:25:59.000Z</time>
        <extensions>
          <ns3:TrackPointExtension>
            <ns3:hr>106</ns3:hr>
          </ns3:TrackPointExtension>
        </extensions>
      </trkpt>
      <trkpt lat="43.915023319423198699951171875" lon="81.32168482057750225067138671875">
        <ele>642.5999755859375</ele>
        <time>2025-09-01T15:26:01.000Z</time>
        <extensions>
          <ns3:TrackPointExtension>
            <ns3:hr>107</ns3:hr>
          </ns3:TrackPointExtension>
        </extensions>
      </trkpt>
      <trkpt lat="43.9149963296949863433837890625" lon="81.32172656245529651641845703125">
        <ele>642.4000244140625</ele>
        <time>2025-09-01T15:26:04.000Z</time>
        <extensions>
          <ns3:TrackPointExtension>
            <ns3:hr>110</ns3:hr>
          </ns3:TrackPointExtension>
        </extensions>
      </trkpt>
      <trkpt lat="43.9149510674178600311279296875" lon="81.3217809610068798065185546875">
        <ele>642</ele>
        <time>2025-09-01T15:26:08.000Z</time>
        <extensions>
          <ns3:TrackPointExtension>
            <ns3:hr>112</ns3:hr>
          </ns3:TrackPointExtension>
        </extensions>
      </trkpt>
      <trkpt lat="43.91491276212036609649658203125" lon="81.32184240035712718963623046875">
        <ele>642</ele>
        <time>2025-09-01T15:26:12.000Z</time>
        <extensions>
          <ns3:TrackPointExtension>
            <ns3:hr>112</ns3:hr>
          </ns3:TrackPointExtension>
        </extensions>
      </trkpt>
      <trkpt lat="43.91485190950334072113037109375" lon="81.32190995849668979644775390625">
        <ele>641.79998779296875</ele>
        <time>2025-09-01T15:26:18.000Z</time>
        <extensions>
          <ns3:TrackPointExtension>
            <ns3:hr>111</ns3:hr>
          </ns3:TrackPointExtension>
        </extensions>
      </trkpt>
      <trkpt lat="43.91475384123623371124267578125" lon="81.32195102982223033905029296875">
        <ele>642.20001220703125</ele>
        <time>2025-09-01T15:26:25.000Z</time>
        <extensions>
          <ns3:TrackPointExtension>
            <ns3:hr>109</ns3:hr>
          </ns3:TrackPointExtension>
        </extensions>
      </trkpt>
      <trkpt lat="43.9146352373063564300537109375" lon="81.3218910992145538330078125">
        <ele>642.20001220703125</ele>
        <time>2025-09-01T15:26:35.000Z</time>
        <extensions>
          <ns3:TrackPointExtension>
            <ns3:hr>110</ns3:hr>
          </ns3:TrackPointExtension>
        </extensions>
      </trkpt>
      <trkpt lat="43.9145698584616184234619140625" lon="81.32184240035712718963623046875">
        <ele>642.5999755859375</ele>
        <time>2025-09-01T15:26:41.000Z</time>
        <extensions>
          <ns3:TrackPointExtension>
            <ns3:hr>109</ns3:hr>
          </ns3:TrackPointExtension>
        </extensions>
      </trkpt>
      <trkpt lat="43.9144910685718059539794921875" lon="81.32178716361522674560546875">
        <ele>642.4000244140625</ele>
        <time>2025-09-01T15:26:48.000Z</time>
        <extensions>
          <ns3:TrackPointExtension>
            <ns3:hr>112</ns3:hr>
          </ns3:TrackPointExtension>
        </extensions>
      </trkpt>
      <trkpt lat="43.914393670856952667236328125" lon="81.321750618517398834228515625">
        <ele>642.20001220703125</ele>
        <time>2025-09-01T15:26:57.000Z</time>
        <extensions>
          <ns3:TrackPointExtension>
            <ns3:hr>112</ns3:hr>
          </ns3:TrackPointExtension>
        </extensions>
      </trkpt>
      <trkpt lat="43.91436140052974224090576171875" lon="81.32167710922658443450927734375">
        <ele>642.20001220703125</ele>
        <time>2025-09-01T15:27:03.000Z</time>
        <extensions>
          <ns3:TrackPointExtension>
            <ns3:hr>112</ns3:hr>
          </ns3:TrackPointExtension>
        </extensions>
      </trkpt>
      <trkpt lat="43.9143334887921810150146484375" lon="81.3216792047023773193359375">
        <ele>642</ele>
        <time>2025-09-01T15:27:06.000Z</time>
        <extensions>
          <ns3:TrackPointExtension>
            <ns3:hr>111</ns3:hr>
          </ns3:TrackPointExtension>
        </extensions>
      </trkpt>
      <trkpt lat="43.91431479714810848236083984375" lon="81.32170041091740131378173828125">
        <ele>641.79998779296875</ele>
        <time>2025-09-01T15:27:09.000Z</time>
        <extensions>
          <ns3:TrackPointExtension>
            <ns3:hr>111</ns3:hr>
          </ns3:TrackPointExtension>
        </extensions>
      </trkpt>
      <trkpt lat="43.9142402820289134979248046875" lon="81.3216931186616420745849609375">
        <ele>642</ele>
        <time>2025-09-01T15:27:17.000Z</time>
        <extensions>
          <ns3:TrackPointExtension>
            <ns3:hr>108</ns3:hr>
          </ns3:TrackPointExtension>
        </extensions>
      </trkpt>
      <trkpt lat="43.91420231200754642486572265625" lon="81.32170963101089000701904296875">
        <ele>641.79998779296875</ele>
        <time>2025-09-01T15:27:22.000Z</time>
        <extensions>
          <ns3:TrackPointExtension>
            <ns3:hr>107</ns3:hr>
          </ns3:TrackPointExtension>
        </extensions>
      </trkpt>
      <trkpt lat="43.91419845633208751678466796875" lon="81.3217221200466156005859375">
        <ele>641.79998779296875</ele>
        <time>2025-09-01T15:27:23.000Z</time>
        <extensions>
          <ns3:TrackPointExtension>
            <ns3:hr>107</ns3:hr>
          </ns3:TrackPointExtension>
        </extensions>
      </trkpt>
      <trkpt lat="43.91418957151472568511962890625" lon="81.32183142006397247314453125">
        <ele>641.79998779296875</ele>
        <time>2025-09-01T15:27:30.000Z</time>
        <extensions>
          <ns3:TrackPointExtension>
            <ns3:hr>107</ns3:hr>
          </ns3:TrackPointExtension>
        </extensions>
      </trkpt>
      <trkpt lat="43.91419409774243831634521484375" lon="81.32193602621555328369140625">
        <ele>641.79998779296875</ele>
        <time>2025-09-01T15:27:38.000Z</time>
        <extensions>
          <ns3:TrackPointExtension>
            <ns3:hr>106</ns3:hr>
          </ns3:TrackPointExtension>
        </extensions>
      </trkpt>
      <trkpt lat="43.91421840526163578033447265625" lon="81.3220434822142124176025390625">
        <ele>641.79998779296875</ele>
        <time>2025-09-01T15:27:45.000Z</time>
        <extensions>
          <ns3:TrackPointExtension>
            <ns3:hr>105</ns3:hr>
          </ns3:TrackPointExtension>
        </extensions>
      </trkpt>
      <trkpt lat="43.9142516814172267913818359375" lon="81.3221551291644573211669921875">
        <ele>641.79998779296875</ele>
        <time>2025-09-01T15:27:53.000Z</time>
        <extensions>
          <ns3:TrackPointExtension>
            <ns3:hr>104</ns3:hr>
          </ns3:TrackPointExtension>
        </extensions>
      </trkpt>
      <trkpt lat="43.91428277827799320220947265625" lon="81.322252191603183746337890625">
        <ele>642</ele>
        <time>2025-09-01T15:28:01.000Z</time>
        <extensions>
          <ns3:TrackPointExtension>
            <ns3:hr>104</ns3:hr>
          </ns3:TrackPointExtension>
        </extensions>
      </trkpt>
      <trkpt lat="43.914317898452281951904296875" lon="81.32233039475977420806884765625">
        <ele>642</ele>
        <time>2025-09-01T15:28:07.000Z</time>
        <extensions>
          <ns3:TrackPointExtension>
            <ns3:hr>104</ns3:hr>
          </ns3:TrackPointExtension>
        </extensions>
      </trkpt>
      <trkpt lat="43.9142801798880100250244140625" lon="81.32235889323055744171142578125">
        <ele>642</ele>
        <time>2025-09-01T15:28:15.000Z</time>
        <extensions>
          <ns3:TrackPointExtension>
            <ns3:hr>104</ns3:hr>
          </ns3:TrackPointExtension>
        </extensions>
      </trkpt>
      <trkpt lat="43.91427037306129932403564453125" lon="81.32242142222821712493896484375">
        <ele>642</ele>
        <time>2025-09-01T15:28:20.000Z</time>
        <extensions>
          <ns3:TrackPointExtension>
            <ns3:hr>104</ns3:hr>
          </ns3:TrackPointExtension>
        </extensions>
      </trkpt>
      <trkpt lat="43.91431211493909358978271484375" lon="81.32243114523589611053466796875">
        <ele>642.4000244140625</ele>
        <time>2025-09-01T15:28:27.000Z</time>
        <extensions>
          <ns3:TrackPointExtension>
            <ns3:hr>105</ns3:hr>
          </ns3:TrackPointExtension>
        </extensions>
      </trkpt>
      <trkpt lat="43.914363496005535125732421875" lon="81.322472803294658660888671875">
        <ele>642.4000244140625</ele>
        <time>2025-09-01T15:28:35.000Z</time>
        <extensions>
          <ns3:TrackPointExtension>
            <ns3:hr>106</ns3:hr>
          </ns3:TrackPointExtension>
        </extensions>
      </trkpt>
      <trkpt lat="43.914380259811878204345703125" lon="81.322513706982135772705078125">
        <ele>642</ele>
        <time>2025-09-01T15:28:42.000Z</time>
        <extensions>
          <ns3:TrackPointExtension>
            <ns3:hr>106</ns3:hr>
          </ns3:TrackPointExtension>
        </extensions>
      </trkpt>
      <trkpt lat="43.91446902416646480560302734375" lon="81.3223254494369029998779296875">
        <ele>642</ele>
        <time>2025-09-01T15:28:55.000Z</time>
        <extensions>
          <ns3:TrackPointExtension>
            <ns3:hr>104</ns3:hr>
          </ns3:TrackPointExtension>
        </extensions>
      </trkpt>
      <trkpt lat="43.91450121067464351654052734375" lon="81.32227398455142974853515625">
        <ele>641.79998779296875</ele>
        <time>2025-09-01T15:28:59.000Z</time>
        <extensions>
          <ns3:TrackPointExtension>
            <ns3:hr>102</ns3:hr>
          </ns3:TrackPointExtension>
        </extensions>
      </trkpt>
      <trkpt lat="43.9145701937377452850341796875" lon="81.32212470285594463348388671875">
        <ele>641.5999755859375</ele>
        <time>2025-09-01T15:29:18.000Z</time>
        <extensions>
          <ns3:TrackPointExtension>
            <ns3:hr>101</ns3:hr>
          </ns3:TrackPointExtension>
        </extensions>
      </trkpt>
    </trkseg>
  </trk>
</gpx>
