<gpx xmlns:ns3="http://www.garmin.com/xmlschemas/TrackPointExtension/v1" xmlns="http://www.topografix.com/GPX/1/1" xmlns:xsi="http://www.w3.org/2001/XMLSchema-instance" xmlns:ns2="http://www.garmin.com/xmlschemas/GpxExtensions/v3" creator="Garmin Connect" version="1.1" xsi:schemaLocation="http://www.topografix.com/GPX/1/1 http://www.topografix.com/GPX/11.xsd">
  <extensions>
<distance>1033.32</distance>
<average_hr>92.0</average_hr>
<average_speed>1.0019999742507935</average_speed>
<start_time>2025-11-11T01:15:10+00:00</start_time>
<end_time>2025-11-11T01:32:21.689000+00:00</end_time>
<moving_time>756.0</moving_time>
<elapsed_time>1031.689</elapsed_time>
</extensions>
<metadata>
    <link href="connect.garmin.com">
      <text>Garmin Connect</text>
    </link>
    <time>2025-11-11T01:15:10.000Z</time>
  </metadata>
  <trk>
    <name>盐城市 步行</name>
    <type>walking</type>
    <trkseg>
      <trkpt lat="33.3761009015142917633056640625" lon="120.1600072346627712249755859375">
        <ele>-1.60000002384185791015625</ele>
        <time>2025-11-11T01:15:10.000Z</time>
        <extensions>
          <ns3:TrackPointExtension>
            <ns3:hr>104</ns3:hr>
          </ns3:TrackPointExtension>
        </extensions>
      </trkpt>
      <trkpt lat="33.37609000504016876220703125" lon="120.16001033596694469451904296875">
        <ele>-1.7999999523162841796875</ele>
        <time>2025-11-11T01:15:11.000Z</time>
        <extensions>
          <ns3:TrackPointExtension>
            <ns3:hr>104</ns3:hr>
          </ns3:TrackPointExtension>
        </extensions>
      </trkpt>
      <trkpt lat="33.37609863840043544769287109375" lon="120.160024166107177734375">
        <ele>-1.7999999523162841796875</ele>
        <time>2025-11-11T01:15:18.000Z</time>
        <extensions>
          <ns3:TrackPointExtension>
            <ns3:hr>103</ns3:hr>
          </ns3:TrackPointExtension>
        </extensions>
      </trkpt>
      <trkpt lat="33.37614675052464008331298828125" lon="120.16010505147278308868408203125">
        <ele>-1.7999999523162841796875</ele>
        <time>2025-11-11T01:15:26.000Z</time>
        <extensions>
          <ns3:TrackPointExtension>
            <ns3:hr>102</ns3:hr>
          </ns3:TrackPointExtension>
        </extensions>
      </trkpt>
      <trkpt lat="33.3761890791356563568115234375" lon="120.16017680056393146514892578125">
        <ele>-1.60000002384185791015625</ele>
        <time>2025-11-11T01:15:33.000Z</time>
        <extensions>
          <ns3:TrackPointExtension>
            <ns3:hr>99</ns3:hr>
          </ns3:TrackPointExtension>
        </extensions>
      </trkpt>
      <trkpt lat="33.3762008138000965118408203125" lon="120.1601990126073360443115234375">
        <ele>-1.60000002384185791015625</ele>
        <time>2025-11-11T01:15:35.000Z</time>
        <extensions>
          <ns3:TrackPointExtension>
            <ns3:hr>100</ns3:hr>
          </ns3:TrackPointExtension>
        </extensions>
      </trkpt>
      <trkpt lat="33.37624683044850826263427734375" lon="120.16025994904339313507080078125">
        <ele>-1.60000002384185791015625</ele>
        <time>2025-11-11T01:15:41.000Z</time>
        <extensions>
          <ns3:TrackPointExtension>
            <ns3:hr>97</ns3:hr>
          </ns3:TrackPointExtension>
        </extensions>
      </trkpt>
      <trkpt lat="33.37626141496002674102783203125" lon="120.16028392128646373748779296875">
        <ele>-1.39999997615814208984375</ele>
        <time>2025-11-11T01:15:43.000Z</time>
        <extensions>
          <ns3:TrackPointExtension>
            <ns3:hr>92</ns3:hr>
          </ns3:TrackPointExtension>
        </extensions>
      </trkpt>
      <trkpt lat="33.3762702159583568572998046875" lon="120.16029800288379192352294921875">
        <ele>-1.39999997615814208984375</ele>
        <time>2025-11-11T01:15:44.000Z</time>
        <extensions>
          <ns3:TrackPointExtension>
            <ns3:hr>90</ns3:hr>
          </ns3:TrackPointExtension>
        </extensions>
      </trkpt>
      <trkpt lat="33.37631036527454853057861328125" lon="120.16037293709814548492431640625">
        <ele>-1</ele>
        <time>2025-11-11T01:15:54.000Z</time>
        <extensions>
          <ns3:TrackPointExtension>
            <ns3:hr>92</ns3:hr>
          </ns3:TrackPointExtension>
        </extensions>
      </trkpt>
      <trkpt lat="33.3763453178107738494873046875" lon="120.16043697483837604522705078125">
        <ele>-0.60000002384185791015625</ele>
        <time>2025-11-11T01:16:03.000Z</time>
        <extensions>
          <ns3:TrackPointExtension>
            <ns3:hr>91</ns3:hr>
          </ns3:TrackPointExtension>
        </extensions>
      </trkpt>
      <trkpt lat="33.37639309465885162353515625" lon="120.16049229539930820465087890625">
        <ele>-0.60000002384185791015625</ele>
        <time>2025-11-11T01:16:10.000Z</time>
        <extensions>
          <ns3:TrackPointExtension>
            <ns3:hr>90</ns3:hr>
          </ns3:TrackPointExtension>
        </extensions>
      </trkpt>
      <trkpt lat="33.3764066733419895172119140625" lon="120.1605124957859516143798828125">
        <ele>-0.60000002384185791015625</ele>
        <time>2025-11-11T01:16:12.000Z</time>
        <extensions>
          <ns3:TrackPointExtension>
            <ns3:hr>90</ns3:hr>
          </ns3:TrackPointExtension>
        </extensions>
      </trkpt>
      <trkpt lat="33.37646459229290485382080078125" lon="120.1606075465679168701171875">
        <ele>-0.20000000298023223876953125</ele>
        <time>2025-11-11T01:16:22.000Z</time>
        <extensions>
          <ns3:TrackPointExtension>
            <ns3:hr>89</ns3:hr>
          </ns3:TrackPointExtension>
        </extensions>
      </trkpt>
      <trkpt lat="33.37652343325316905975341796875" lon="120.1606643758714199066162109375">
        <ele>0</ele>
        <time>2025-11-11T01:16:30.000Z</time>
        <extensions>
          <ns3:TrackPointExtension>
            <ns3:hr>91</ns3:hr>
          </ns3:TrackPointExtension>
        </extensions>
      </trkpt>
      <trkpt lat="33.3765374310314655303955078125" lon="120.1606660522520542144775390625">
        <ele>0</ele>
        <time>2025-11-11T01:16:38.000Z</time>
        <extensions>
          <ns3:TrackPointExtension>
            <ns3:hr>91</ns3:hr>
          </ns3:TrackPointExtension>
        </extensions>
      </trkpt>
      <trkpt lat="33.3765374310314655303955078125" lon="120.1606660522520542144775390625">
        <ele>0</ele>
        <time>2025-11-11T01:16:42.000Z</time>
        <extensions>
          <ns3:TrackPointExtension>
            <ns3:hr>88</ns3:hr>
          </ns3:TrackPointExtension>
        </extensions>
      </trkpt>
      <trkpt lat="33.3765381015837192535400390625" lon="120.1606657169759273529052734375">
        <ele>0</ele>
        <time>2025-11-11T01:16:45.000Z</time>
        <extensions>
          <ns3:TrackPointExtension>
            <ns3:hr>83</ns3:hr>
          </ns3:TrackPointExtension>
        </extensions>
      </trkpt>
      <trkpt lat="33.37656651623547077178955078125" lon="120.160708464682102203369140625">
        <ele>0</ele>
        <time>2025-11-11T01:16:50.000Z</time>
        <extensions>
          <ns3:TrackPointExtension>
            <ns3:hr>82</ns3:hr>
          </ns3:TrackPointExtension>
        </extensions>
      </trkpt>
      <trkpt lat="33.3766396902501583099365234375" lon="120.1608303375542163848876953125">
        <ele>-0.20000000298023223876953125</ele>
        <time>2025-11-11T01:17:02.000Z</time>
        <extensions>
          <ns3:TrackPointExtension>
            <ns3:hr>84</ns3:hr>
          </ns3:TrackPointExtension>
        </extensions>
      </trkpt>
      <trkpt lat="33.37672376073896884918212890625" lon="120.160952545702457427978515625">
        <ele>0</ele>
        <time>2025-11-11T01:17:16.000Z</time>
        <extensions>
          <ns3:TrackPointExtension>
            <ns3:hr>84</ns3:hr>
          </ns3:TrackPointExtension>
        </extensions>
      </trkpt>
      <trkpt lat="33.37678293697535991668701171875" lon="120.1610623486340045928955078125">
        <ele>0</ele>
        <time>2025-11-11T01:17:28.000Z</time>
        <extensions>
          <ns3:TrackPointExtension>
            <ns3:hr>86</ns3:hr>
          </ns3:TrackPointExtension>
        </extensions>
      </trkpt>
      <trkpt lat="33.37686373852193355560302734375" lon="120.16118866391479969024658203125">
        <ele>0.20000000298023223876953125</ele>
        <time>2025-11-11T01:17:41.000Z</time>
        <extensions>
          <ns3:TrackPointExtension>
            <ns3:hr>86</ns3:hr>
          </ns3:TrackPointExtension>
        </extensions>
      </trkpt>
      <trkpt lat="33.3768837712705135345458984375" lon="120.16122219152748584747314453125">
        <ele>0.20000000298023223876953125</ele>
        <time>2025-11-11T01:17:44.000Z</time>
        <extensions>
          <ns3:TrackPointExtension>
            <ns3:hr>89</ns3:hr>
          </ns3:TrackPointExtension>
        </extensions>
      </trkpt>
      <trkpt lat="33.37693364359438419342041015625" lon="120.16131271608173847198486328125">
        <ele>0.20000000298023223876953125</ele>
        <time>2025-11-11T01:17:53.000Z</time>
        <extensions>
          <ns3:TrackPointExtension>
            <ns3:hr>90</ns3:hr>
          </ns3:TrackPointExtension>
        </extensions>
      </trkpt>
      <trkpt lat="33.37699013762176036834716796875" lon="120.1614014804363250732421875">
        <ele>0.4000000059604644775390625</ele>
        <time>2025-11-11T01:18:03.000Z</time>
        <extensions>
          <ns3:TrackPointExtension>
            <ns3:hr>91</ns3:hr>
          </ns3:TrackPointExtension>
        </extensions>
      </trkpt>
      <trkpt lat="33.377047888934612274169921875" lon="120.161479599773883819580078125">
        <ele>0.4000000059604644775390625</ele>
        <time>2025-11-11T01:18:12.000Z</time>
        <extensions>
          <ns3:TrackPointExtension>
            <ns3:hr>91</ns3:hr>
          </ns3:TrackPointExtension>
        </extensions>
      </trkpt>
      <trkpt lat="33.37710932828485965728759765625" lon="120.161577165126800537109375">
        <ele>0.4000000059604644775390625</ele>
        <time>2025-11-11T01:18:22.000Z</time>
        <extensions>
          <ns3:TrackPointExtension>
            <ns3:hr>94</ns3:hr>
          </ns3:TrackPointExtension>
        </extensions>
      </trkpt>
      <trkpt lat="33.37711863219738006591796875" lon="120.16159652732312679290771484375">
        <ele>0.20000000298023223876953125</ele>
        <time>2025-11-11T01:18:24.000Z</time>
        <extensions>
          <ns3:TrackPointExtension>
            <ns3:hr>95</ns3:hr>
          </ns3:TrackPointExtension>
        </extensions>
      </trkpt>
      <trkpt lat="33.37716900743544101715087890625" lon="120.1616581343114376068115234375">
        <ele>0.4000000059604644775390625</ele>
        <time>2025-11-11T01:18:30.000Z</time>
        <extensions>
          <ns3:TrackPointExtension>
            <ns3:hr>94</ns3:hr>
          </ns3:TrackPointExtension>
        </extensions>
      </trkpt>
      <trkpt lat="33.37720085866749286651611328125" lon="120.16169895417988300323486328125">
        <ele>0.60000002384185791015625</ele>
        <time>2025-11-11T01:18:34.000Z</time>
        <extensions>
          <ns3:TrackPointExtension>
            <ns3:hr>93</ns3:hr>
          </ns3:TrackPointExtension>
        </extensions>
      </trkpt>
      <trkpt lat="33.37730026803910732269287109375" lon="120.16182920895516872406005859375">
        <ele>0.60000002384185791015625</ele>
        <time>2025-11-11T01:18:46.000Z</time>
        <extensions>
          <ns3:TrackPointExtension>
            <ns3:hr>93</ns3:hr>
          </ns3:TrackPointExtension>
        </extensions>
      </trkpt>
      <trkpt lat="33.37730965577065944671630859375" lon="120.1618348248302936553955078125">
        <ele>1</ele>
        <time>2025-11-11T01:18:55.000Z</time>
        <extensions>
          <ns3:TrackPointExtension>
            <ns3:hr>92</ns3:hr>
          </ns3:TrackPointExtension>
        </extensions>
      </trkpt>
      <trkpt lat="33.37729641236364841461181640625" lon="120.16181814484298229217529296875">
        <ele>1</ele>
        <time>2025-11-11T01:19:01.000Z</time>
        <extensions>
          <ns3:TrackPointExtension>
            <ns3:hr>88</ns3:hr>
          </ns3:TrackPointExtension>
        </extensions>
      </trkpt>
      <trkpt lat="33.37729942984879016876220703125" lon="120.1618210785090923309326171875">
        <ele>1</ele>
        <time>2025-11-11T01:19:03.000Z</time>
        <extensions>
          <ns3:TrackPointExtension>
            <ns3:hr>85</ns3:hr>
          </ns3:TrackPointExtension>
        </extensions>
      </trkpt>
      <trkpt lat="33.37730177678167819976806640625" lon="120.16183306463062763214111328125">
        <ele>1</ele>
        <time>2025-11-11T01:19:08.000Z</time>
        <extensions>
          <ns3:TrackPointExtension>
            <ns3:hr>83</ns3:hr>
          </ns3:TrackPointExtension>
        </extensions>
      </trkpt>
      <trkpt lat="33.3773035369813442230224609375" lon="120.1618318073451519012451171875">
        <ele>0.800000011920928955078125</ele>
        <time>2025-11-11T01:19:11.000Z</time>
        <extensions>
          <ns3:TrackPointExtension>
            <ns3:hr>80</ns3:hr>
          </ns3:TrackPointExtension>
        </extensions>
      </trkpt>
      <trkpt lat="33.3773052133619785308837890625" lon="120.16181831248104572296142578125">
        <ele>0.800000011920928955078125</ele>
        <time>2025-11-11T01:19:17.000Z</time>
        <extensions>
          <ns3:TrackPointExtension>
            <ns3:hr>80</ns3:hr>
          </ns3:TrackPointExtension>
        </extensions>
      </trkpt>
      <trkpt lat="33.3773052133619785308837890625" lon="120.16181831248104572296142578125">
        <ele>0.60000002384185791015625</ele>
        <time>2025-11-11T01:19:24.000Z</time>
        <extensions>
          <ns3:TrackPointExtension>
            <ns3:hr>83</ns3:hr>
          </ns3:TrackPointExtension>
        </extensions>
      </trkpt>
      <trkpt lat="33.3773052133619785308837890625" lon="120.16181831248104572296142578125">
        <ele>0.800000011920928955078125</ele>
        <time>2025-11-11T01:19:31.000Z</time>
        <extensions>
          <ns3:TrackPointExtension>
            <ns3:hr>83</ns3:hr>
          </ns3:TrackPointExtension>
        </extensions>
      </trkpt>
      <trkpt lat="33.3773052133619785308837890625" lon="120.16181831248104572296142578125">
        <ele>0.60000002384185791015625</ele>
        <time>2025-11-11T01:19:34.000Z</time>
        <extensions>
          <ns3:TrackPointExtension>
            <ns3:hr>80</ns3:hr>
          </ns3:TrackPointExtension>
        </extensions>
      </trkpt>
      <trkpt lat="33.3773105777800083160400390625" lon="120.161822251975536346435546875">
        <ele>0.60000002384185791015625</ele>
        <time>2025-11-11T01:19:37.000Z</time>
        <extensions>
          <ns3:TrackPointExtension>
            <ns3:hr>83</ns3:hr>
          </ns3:TrackPointExtension>
        </extensions>
      </trkpt>
      <trkpt lat="33.3773189596831798553466796875" lon="120.16184144653379917144775390625">
        <ele>0.4000000059604644775390625</ele>
        <time>2025-11-11T01:19:43.000Z</time>
        <extensions>
          <ns3:TrackPointExtension>
            <ns3:hr>81</ns3:hr>
          </ns3:TrackPointExtension>
        </extensions>
      </trkpt>
      <trkpt lat="33.37728300131857395172119140625" lon="120.16185452230274677276611328125">
        <ele>0.20000000298023223876953125</ele>
        <time>2025-11-11T01:19:50.000Z</time>
        <extensions>
          <ns3:TrackPointExtension>
            <ns3:hr>80</ns3:hr>
          </ns3:TrackPointExtension>
        </extensions>
      </trkpt>
      <trkpt lat="33.3773083984851837158203125" lon="120.16187665052711963653564453125">
        <ele>0.800000011920928955078125</ele>
        <time>2025-11-11T01:19:55.000Z</time>
        <extensions>
          <ns3:TrackPointExtension>
            <ns3:hr>81</ns3:hr>
          </ns3:TrackPointExtension>
        </extensions>
      </trkpt>
      <trkpt lat="33.3773373998701572418212890625" lon="120.1619293726980686187744140625">
        <ele>1.60000002384185791015625</ele>
        <time>2025-11-11T01:19:59.000Z</time>
        <extensions>
          <ns3:TrackPointExtension>
            <ns3:hr>81</ns3:hr>
          </ns3:TrackPointExtension>
        </extensions>
      </trkpt>
      <trkpt lat="33.37733932770788669586181640625" lon="120.1619511656463146209716796875">
        <ele>1.60000002384185791015625</ele>
        <time>2025-11-11T01:20:01.000Z</time>
        <extensions>
          <ns3:TrackPointExtension>
            <ns3:hr>81</ns3:hr>
          </ns3:TrackPointExtension>
        </extensions>
      </trkpt>
      <trkpt lat="33.37731778621673583984375" lon="120.16200053505599498748779296875">
        <ele>2.2000000476837158203125</ele>
        <time>2025-11-11T01:20:05.000Z</time>
        <extensions>
          <ns3:TrackPointExtension>
            <ns3:hr>81</ns3:hr>
          </ns3:TrackPointExtension>
        </extensions>
      </trkpt>
      <trkpt lat="33.37729607708752155303955078125" lon="120.16200757585465908050537109375">
        <ele>2.400000095367431640625</ele>
        <time>2025-11-11T01:20:07.000Z</time>
        <extensions>
          <ns3:TrackPointExtension>
            <ns3:hr>81</ns3:hr>
          </ns3:TrackPointExtension>
        </extensions>
      </trkpt>
      <trkpt lat="33.37729389779269695281982421875" lon="120.1620022952556610107421875">
        <ele>2.400000095367431640625</ele>
        <time>2025-11-11T01:20:12.000Z</time>
        <extensions>
          <ns3:TrackPointExtension>
            <ns3:hr>83</ns3:hr>
          </ns3:TrackPointExtension>
        </extensions>
      </trkpt>
      <trkpt lat="33.3772894553840160369873046875" lon="120.1620339788496494293212890625">
        <ele>2.400000095367431640625</ele>
        <time>2025-11-11T01:20:17.000Z</time>
        <extensions>
          <ns3:TrackPointExtension>
            <ns3:hr>88</ns3:hr>
          </ns3:TrackPointExtension>
        </extensions>
      </trkpt>
      <trkpt lat="33.377289958298206329345703125" lon="120.16204596497118473052978515625">
        <ele>2.400000095367431640625</ele>
        <time>2025-11-11T01:20:18.000Z</time>
        <extensions>
          <ns3:TrackPointExtension>
            <ns3:hr>90</ns3:hr>
          </ns3:TrackPointExtension>
        </extensions>
      </trkpt>
      <trkpt lat="33.37728333659470081329345703125" lon="120.16214990057051181793212890625">
        <ele>2.400000095367431640625</ele>
        <time>2025-11-11T01:20:25.000Z</time>
        <extensions>
          <ns3:TrackPointExtension>
            <ns3:hr>91</ns3:hr>
          </ns3:TrackPointExtension>
        </extensions>
      </trkpt>
      <trkpt lat="33.37729423306882381439208984375" lon="120.1621801592409610748291015625">
        <ele>2.599999904632568359375</ele>
        <time>2025-11-11T01:20:27.000Z</time>
        <extensions>
          <ns3:TrackPointExtension>
            <ns3:hr>92</ns3:hr>
          </ns3:TrackPointExtension>
        </extensions>
      </trkpt>
      <trkpt lat="33.3773444406688213348388671875" lon="120.16224595718085765838623046875">
        <ele>3</ele>
        <time>2025-11-11T01:20:32.000Z</time>
        <extensions>
          <ns3:TrackPointExtension>
            <ns3:hr>93</ns3:hr>
          </ns3:TrackPointExtension>
        </extensions>
      </trkpt>
      <trkpt lat="33.37741023860871791839599609375" lon="120.16234335489571094512939453125">
        <ele>3.2000000476837158203125</ele>
        <time>2025-11-11T01:20:39.000Z</time>
        <extensions>
          <ns3:TrackPointExtension>
            <ns3:hr>96</ns3:hr>
          </ns3:TrackPointExtension>
        </extensions>
      </trkpt>
      <trkpt lat="33.3774249069392681121826171875" lon="120.16236799769103527069091796875">
        <ele>3</ele>
        <time>2025-11-11T01:20:41.000Z</time>
        <extensions>
          <ns3:TrackPointExtension>
            <ns3:hr>96</ns3:hr>
          </ns3:TrackPointExtension>
        </extensions>
      </trkpt>
      <trkpt lat="33.37744493968784809112548828125" lon="120.1623766310513019561767578125">
        <ele>3</ele>
        <time>2025-11-11T01:20:43.000Z</time>
        <extensions>
          <ns3:TrackPointExtension>
            <ns3:hr>96</ns3:hr>
          </ns3:TrackPointExtension>
        </extensions>
      </trkpt>
      <trkpt lat="33.37750461883842945098876953125" lon="120.16238342039287090301513671875">
        <ele>3.2000000476837158203125</ele>
        <time>2025-11-11T01:20:47.000Z</time>
        <extensions>
          <ns3:TrackPointExtension>
            <ns3:hr>97</ns3:hr>
          </ns3:TrackPointExtension>
        </extensions>
      </trkpt>
      <trkpt lat="33.37757988832890987396240234375" lon="120.16243438236415386199951171875">
        <ele>3.400000095367431640625</ele>
        <time>2025-11-11T01:20:54.000Z</time>
        <extensions>
          <ns3:TrackPointExtension>
            <ns3:hr>97</ns3:hr>
          </ns3:TrackPointExtension>
        </extensions>
      </trkpt>
      <trkpt lat="33.377647697925567626953125" lon="120.16251518391072750091552734375">
        <ele>3.400000095367431640625</ele>
        <time>2025-11-11T01:21:01.000Z</time>
        <extensions>
          <ns3:TrackPointExtension>
            <ns3:hr>96</ns3:hr>
          </ns3:TrackPointExtension>
        </extensions>
      </trkpt>
      <trkpt lat="33.37772347033023834228515625" lon="120.16259967349469661712646484375">
        <ele>3.400000095367431640625</ele>
        <time>2025-11-11T01:21:10.000Z</time>
        <extensions>
          <ns3:TrackPointExtension>
            <ns3:hr>97</ns3:hr>
          </ns3:TrackPointExtension>
        </extensions>
      </trkpt>
      <trkpt lat="33.37777309119701385498046875" lon="120.1625965721905231475830078125">
        <ele>2.2000000476837158203125</ele>
        <time>2025-11-11T01:21:16.000Z</time>
        <extensions>
          <ns3:TrackPointExtension>
            <ns3:hr>97</ns3:hr>
          </ns3:TrackPointExtension>
        </extensions>
      </trkpt>
      <trkpt lat="33.3777813054621219635009765625" lon="120.16261040233075618743896484375">
        <ele>2</ele>
        <time>2025-11-11T01:21:18.000Z</time>
        <extensions>
          <ns3:TrackPointExtension>
            <ns3:hr>97</ns3:hr>
          </ns3:TrackPointExtension>
        </extensions>
      </trkpt>
      <trkpt lat="33.377797566354274749755859375" lon="120.1626445166766643524169921875">
        <ele>2.400000095367431640625</ele>
        <time>2025-11-11T01:21:22.000Z</time>
        <extensions>
          <ns3:TrackPointExtension>
            <ns3:hr>96</ns3:hr>
          </ns3:TrackPointExtension>
        </extensions>
      </trkpt>
      <trkpt lat="33.37783805094659328460693359375" lon="120.16270193271338939666748046875">
        <ele>2</ele>
        <time>2025-11-11T01:21:29.000Z</time>
        <extensions>
          <ns3:TrackPointExtension>
            <ns3:hr>95</ns3:hr>
          </ns3:TrackPointExtension>
        </extensions>
      </trkpt>
      <trkpt lat="33.37788800708949565887451171875" lon="120.16277921386063098907470703125">
        <ele>2</ele>
        <time>2025-11-11T01:21:38.000Z</time>
        <extensions>
          <ns3:TrackPointExtension>
            <ns3:hr>93</ns3:hr>
          </ns3:TrackPointExtension>
        </extensions>
      </trkpt>
      <trkpt lat="33.3779305033385753631591796875" lon="120.1628466881811618804931640625">
        <ele>1.60000002384185791015625</ele>
        <time>2025-11-11T01:21:45.000Z</time>
        <extensions>
          <ns3:TrackPointExtension>
            <ns3:hr>93</ns3:hr>
          </ns3:TrackPointExtension>
        </extensions>
      </trkpt>
      <trkpt lat="33.37797350250184535980224609375" lon="120.16290930099785327911376953125">
        <ele>1.60000002384185791015625</ele>
        <time>2025-11-11T01:21:52.000Z</time>
        <extensions>
          <ns3:TrackPointExtension>
            <ns3:hr>93</ns3:hr>
          </ns3:TrackPointExtension>
        </extensions>
      </trkpt>
      <trkpt lat="33.37799663655459880828857421875" lon="120.16293847002089023590087890625">
        <ele>1.39999997615814208984375</ele>
        <time>2025-11-11T01:21:55.000Z</time>
        <extensions>
          <ns3:TrackPointExtension>
            <ns3:hr>92</ns3:hr>
          </ns3:TrackPointExtension>
        </extensions>
      </trkpt>
      <trkpt lat="33.3780562318861484527587890625" lon="120.16302597709000110626220703125">
        <ele>1.39999997615814208984375</ele>
        <time>2025-11-11T01:22:05.000Z</time>
        <extensions>
          <ns3:TrackPointExtension>
            <ns3:hr>90</ns3:hr>
          </ns3:TrackPointExtension>
        </extensions>
      </trkpt>
      <trkpt lat="33.37811230681836605072021484375" lon="120.1631031744182109832763671875">
        <ele>1.2000000476837158203125</ele>
        <time>2025-11-11T01:22:15.000Z</time>
        <extensions>
          <ns3:TrackPointExtension>
            <ns3:hr>90</ns3:hr>
          </ns3:TrackPointExtension>
        </extensions>
      </trkpt>
      <trkpt lat="33.37817416526377201080322265625" lon="120.16318456269800662994384765625">
        <ele>1</ele>
        <time>2025-11-11T01:22:23.000Z</time>
        <extensions>
          <ns3:TrackPointExtension>
            <ns3:hr>88</ns3:hr>
          </ns3:TrackPointExtension>
        </extensions>
      </trkpt>
      <trkpt lat="33.378184139728546142578125" lon="120.16325446777045726776123046875">
        <ele>1.39999997615814208984375</ele>
        <time>2025-11-11T01:22:30.000Z</time>
        <extensions>
          <ns3:TrackPointExtension>
            <ns3:hr>88</ns3:hr>
          </ns3:TrackPointExtension>
        </extensions>
      </trkpt>
      <trkpt lat="33.378197215497493743896484375" lon="120.16327139921486377716064453125">
        <ele>2.2000000476837158203125</ele>
        <time>2025-11-11T01:22:35.000Z</time>
        <extensions>
          <ns3:TrackPointExtension>
            <ns3:hr>86</ns3:hr>
          </ns3:TrackPointExtension>
        </extensions>
      </trkpt>
      <trkpt lat="33.378220014274120330810546875" lon="120.16327592544257640838623046875">
        <ele>2.400000095367431640625</ele>
        <time>2025-11-11T01:22:37.000Z</time>
        <extensions>
          <ns3:TrackPointExtension>
            <ns3:hr>85</ns3:hr>
          </ns3:TrackPointExtension>
        </extensions>
      </trkpt>
      <trkpt lat="33.37825966067612171173095703125" lon="120.1632771827280521392822265625">
        <ele>2.2000000476837158203125</ele>
        <time>2025-11-11T01:22:42.000Z</time>
        <extensions>
          <ns3:TrackPointExtension>
            <ns3:hr>84</ns3:hr>
          </ns3:TrackPointExtension>
        </extensions>
      </trkpt>
      <trkpt lat="33.3782614208757877349853515625" lon="120.16328095458447933197021484375">
        <ele>2.400000095367431640625</ele>
        <time>2025-11-11T01:22:43.000Z</time>
        <extensions>
          <ns3:TrackPointExtension>
            <ns3:hr>84</ns3:hr>
          </ns3:TrackPointExtension>
        </extensions>
      </trkpt>
      <trkpt lat="33.37824826128780841827392578125" lon="120.16327659599483013153076171875">
        <ele>2.2000000476837158203125</ele>
        <time>2025-11-11T01:22:53.000Z</time>
        <extensions>
          <ns3:TrackPointExtension>
            <ns3:hr>84</ns3:hr>
          </ns3:TrackPointExtension>
        </extensions>
      </trkpt>
      <trkpt lat="33.37825178168714046478271484375" lon="120.16327525489032268524169921875">
        <ele>2.400000095367431640625</ele>
        <time>2025-11-11T01:22:56.000Z</time>
        <extensions>
          <ns3:TrackPointExtension>
            <ns3:hr>87</ns3:hr>
          </ns3:TrackPointExtension>
        </extensions>
      </trkpt>
      <trkpt lat="33.37824960239231586456298828125" lon="120.16326704062521457672119140625">
        <ele>2.599999904632568359375</ele>
        <time>2025-11-11T01:22:59.000Z</time>
        <extensions>
          <ns3:TrackPointExtension>
            <ns3:hr>90</ns3:hr>
          </ns3:TrackPointExtension>
        </extensions>
      </trkpt>
      <trkpt lat="33.3782664500176906585693359375" lon="120.16327290795743465423583984375">
        <ele>2.400000095367431640625</ele>
        <time>2025-11-11T01:23:04.000Z</time>
        <extensions>
          <ns3:TrackPointExtension>
            <ns3:hr>91</ns3:hr>
          </ns3:TrackPointExtension>
        </extensions>
      </trkpt>
      <trkpt lat="33.37826334871351718902587890625" lon="120.1632708124816417694091796875">
        <ele>2.400000095367431640625</ele>
        <time>2025-11-11T01:23:08.000Z</time>
        <extensions>
          <ns3:TrackPointExtension>
            <ns3:hr>94</ns3:hr>
          </ns3:TrackPointExtension>
        </extensions>
      </trkpt>
      <trkpt lat="33.37826770730316638946533203125" lon="120.16326989047229290008544921875">
        <ele>2.599999904632568359375</ele>
        <time>2025-11-11T01:23:13.000Z</time>
        <extensions>
          <ns3:TrackPointExtension>
            <ns3:hr>86</ns3:hr>
          </ns3:TrackPointExtension>
        </extensions>
      </trkpt>
      <trkpt lat="33.37826468981802463531494140625" lon="120.16326653771102428436279296875">
        <ele>2.599999904632568359375</ele>
        <time>2025-11-11T01:23:16.000Z</time>
        <extensions>
          <ns3:TrackPointExtension>
            <ns3:hr>85</ns3:hr>
          </ns3:TrackPointExtension>
        </extensions>
      </trkpt>
      <trkpt lat="33.3782734908163547515869140625" lon="120.1632624305784702301025390625">
        <ele>2.599999904632568359375</ele>
        <time>2025-11-11T01:23:23.000Z</time>
        <extensions>
          <ns3:TrackPointExtension>
            <ns3:hr>88</ns3:hr>
          </ns3:TrackPointExtension>
        </extensions>
      </trkpt>
      <trkpt lat="33.3782686293125152587890625" lon="120.1632614247500896453857421875">
        <ele>2.599999904632568359375</ele>
        <time>2025-11-11T01:23:27.000Z</time>
        <extensions>
          <ns3:TrackPointExtension>
            <ns3:hr>88</ns3:hr>
          </ns3:TrackPointExtension>
        </extensions>
      </trkpt>
      <trkpt lat="33.378269635140895843505859375" lon="120.16326184384524822235107421875">
        <ele>2.7999999523162841796875</ele>
        <time>2025-11-11T01:23:31.000Z</time>
        <extensions>
          <ns3:TrackPointExtension>
            <ns3:hr>92</ns3:hr>
          </ns3:TrackPointExtension>
        </extensions>
      </trkpt>
      <trkpt lat="33.378269635140895843505859375" lon="120.16326184384524822235107421875">
        <ele>2.7999999523162841796875</ele>
        <time>2025-11-11T01:23:37.000Z</time>
        <extensions>
          <ns3:TrackPointExtension>
            <ns3:hr>92</ns3:hr>
          </ns3:TrackPointExtension>
        </extensions>
      </trkpt>
      <trkpt lat="33.378269635140895843505859375" lon="120.16326184384524822235107421875">
        <ele>2.599999904632568359375</ele>
        <time>2025-11-11T01:23:42.000Z</time>
        <extensions>
          <ns3:TrackPointExtension>
            <ns3:hr>89</ns3:hr>
          </ns3:TrackPointExtension>
        </extensions>
      </trkpt>
      <trkpt lat="33.378269635140895843505859375" lon="120.16326184384524822235107421875">
        <ele>2.7999999523162841796875</ele>
        <time>2025-11-11T01:23:46.000Z</time>
        <extensions>
          <ns3:TrackPointExtension>
            <ns3:hr>86</ns3:hr>
          </ns3:TrackPointExtension>
        </extensions>
      </trkpt>
      <trkpt lat="33.378269635140895843505859375" lon="120.16326184384524822235107421875">
        <ele>3</ele>
        <time>2025-11-11T01:23:49.000Z</time>
        <extensions>
          <ns3:TrackPointExtension>
            <ns3:hr>85</ns3:hr>
          </ns3:TrackPointExtension>
        </extensions>
      </trkpt>
      <trkpt lat="33.378269635140895843505859375" lon="120.16326184384524822235107421875">
        <ele>2.7999999523162841796875</ele>
        <time>2025-11-11T01:23:54.000Z</time>
        <extensions>
          <ns3:TrackPointExtension>
            <ns3:hr>82</ns3:hr>
          </ns3:TrackPointExtension>
        </extensions>
      </trkpt>
      <trkpt lat="33.378269635140895843505859375" lon="120.16326184384524822235107421875">
        <ele>2.7999999523162841796875</ele>
        <time>2025-11-11T01:23:56.000Z</time>
        <extensions>
          <ns3:TrackPointExtension>
            <ns3:hr>79</ns3:hr>
          </ns3:TrackPointExtension>
        </extensions>
      </trkpt>
      <trkpt lat="33.378269635140895843505859375" lon="120.16326184384524822235107421875">
        <ele>3.2000000476837158203125</ele>
        <time>2025-11-11T01:24:09.000Z</time>
        <extensions>
          <ns3:TrackPointExtension>
            <ns3:hr>81</ns3:hr>
          </ns3:TrackPointExtension>
        </extensions>
      </trkpt>
      <trkpt lat="33.378269635140895843505859375" lon="120.16326184384524822235107421875">
        <ele>3.599999904632568359375</ele>
        <time>2025-11-11T01:24:17.000Z</time>
        <extensions>
          <ns3:TrackPointExtension>
            <ns3:hr>81</ns3:hr>
          </ns3:TrackPointExtension>
        </extensions>
      </trkpt>
      <trkpt lat="33.378254212439060211181640625" lon="120.16328078694641590118408203125">
        <ele>3.400000095367431640625</ele>
        <time>2025-11-11T01:24:22.000Z</time>
        <extensions>
          <ns3:TrackPointExtension>
            <ns3:hr>81</ns3:hr>
          </ns3:TrackPointExtension>
        </extensions>
      </trkpt>
      <trkpt lat="33.37824725545942783355712890625" lon="120.16328849829733371734619140625">
        <ele>3.400000095367431640625</ele>
        <time>2025-11-11T01:24:23.000Z</time>
        <extensions>
          <ns3:TrackPointExtension>
            <ns3:hr>82</ns3:hr>
          </ns3:TrackPointExtension>
        </extensions>
      </trkpt>
      <trkpt lat="33.3781900070607662200927734375" lon="120.16333258710801601409912109375">
        <ele>3.2000000476837158203125</ele>
        <time>2025-11-11T01:24:29.000Z</time>
        <extensions>
          <ns3:TrackPointExtension>
            <ns3:hr>81</ns3:hr>
          </ns3:TrackPointExtension>
        </extensions>
      </trkpt>
      <trkpt lat="33.378103673458099365234375" lon="120.16336309723556041717529296875">
        <ele>3.400000095367431640625</ele>
        <time>2025-11-11T01:24:39.000Z</time>
        <extensions>
          <ns3:TrackPointExtension>
            <ns3:hr>83</ns3:hr>
          </ns3:TrackPointExtension>
        </extensions>
      </trkpt>
      <trkpt lat="33.3780431561172008514404296875" lon="120.163309536874294281005859375">
        <ele>3.400000095367431640625</ele>
        <time>2025-11-11T01:24:47.000Z</time>
        <extensions>
          <ns3:TrackPointExtension>
            <ns3:hr>83</ns3:hr>
          </ns3:TrackPointExtension>
        </extensions>
      </trkpt>
      <trkpt lat="33.3780237101018428802490234375" lon="120.16328112222254276275634765625">
        <ele>3.400000095367431640625</ele>
        <time>2025-11-11T01:24:50.000Z</time>
        <extensions>
          <ns3:TrackPointExtension>
            <ns3:hr>82</ns3:hr>
          </ns3:TrackPointExtension>
        </extensions>
      </trkpt>
      <trkpt lat="33.37799613364040851593017578125" lon="120.16322395764291286468505859375">
        <ele>3.400000095367431640625</ele>
        <time>2025-11-11T01:24:56.000Z</time>
        <extensions>
          <ns3:TrackPointExtension>
            <ns3:hr>83</ns3:hr>
          </ns3:TrackPointExtension>
        </extensions>
      </trkpt>
      <trkpt lat="33.377969563007354736328125" lon="120.16313510946929454803466796875">
        <ele>3.400000095367431640625</ele>
        <time>2025-11-11T01:25:04.000Z</time>
        <extensions>
          <ns3:TrackPointExtension>
            <ns3:hr>85</ns3:hr>
          </ns3:TrackPointExtension>
        </extensions>
      </trkpt>
      <trkpt lat="33.377935700118541717529296875" lon="120.16307375393807888031005859375">
        <ele>3.400000095367431640625</ele>
        <time>2025-11-11T01:25:10.000Z</time>
        <extensions>
          <ns3:TrackPointExtension>
            <ns3:hr>88</ns3:hr>
          </ns3:TrackPointExtension>
        </extensions>
      </trkpt>
      <trkpt lat="33.37791348807513713836669921875" lon="120.1630243845283985137939453125">
        <ele>3.400000095367431640625</ele>
        <time>2025-11-11T01:25:14.000Z</time>
        <extensions>
          <ns3:TrackPointExtension>
            <ns3:hr>88</ns3:hr>
          </ns3:TrackPointExtension>
        </extensions>
      </trkpt>
      <trkpt lat="33.37788649834692478179931640625" lon="120.1629616878926753997802734375">
        <ele>3.400000095367431640625</ele>
        <time>2025-11-11T01:25:23.000Z</time>
        <extensions>
          <ns3:TrackPointExtension>
            <ns3:hr>86</ns3:hr>
          </ns3:TrackPointExtension>
        </extensions>
      </trkpt>
      <trkpt lat="33.37785347364842891693115234375" lon="120.16292405314743518829345703125">
        <ele>3.400000095367431640625</ele>
        <time>2025-11-11T01:25:31.000Z</time>
        <extensions>
          <ns3:TrackPointExtension>
            <ns3:hr>87</ns3:hr>
          </ns3:TrackPointExtension>
        </extensions>
      </trkpt>
      <trkpt lat="33.377822376787662506103515625" lon="120.1628855802118778228759765625">
        <ele>3.400000095367431640625</ele>
        <time>2025-11-11T01:25:37.000Z</time>
        <extensions>
          <ns3:TrackPointExtension>
            <ns3:hr>90</ns3:hr>
          </ns3:TrackPointExtension>
        </extensions>
      </trkpt>
      <trkpt lat="33.37778440676629543304443359375" lon="120.16281525604426860809326171875">
        <ele>3.400000095367431640625</ele>
        <time>2025-11-11T01:25:44.000Z</time>
        <extensions>
          <ns3:TrackPointExtension>
            <ns3:hr>90</ns3:hr>
          </ns3:TrackPointExtension>
        </extensions>
      </trkpt>
      <trkpt lat="33.37774987332522869110107421875" lon="120.16275264322757720947265625">
        <ele>3.400000095367431640625</ele>
        <time>2025-11-11T01:25:52.000Z</time>
        <extensions>
          <ns3:TrackPointExtension>
            <ns3:hr>91</ns3:hr>
          </ns3:TrackPointExtension>
        </extensions>
      </trkpt>
      <trkpt lat="33.37770578451454639434814453125" lon="120.16267376951873302459716796875">
        <ele>3.2000000476837158203125</ele>
        <time>2025-11-11T01:26:00.000Z</time>
        <extensions>
          <ns3:TrackPointExtension>
            <ns3:hr>91</ns3:hr>
          </ns3:TrackPointExtension>
        </extensions>
      </trkpt>
      <trkpt lat="33.37766706012189388275146484375" lon="120.1625922136008739471435546875">
        <ele>3.2000000476837158203125</ele>
        <time>2025-11-11T01:26:09.000Z</time>
        <extensions>
          <ns3:TrackPointExtension>
            <ns3:hr>91</ns3:hr>
          </ns3:TrackPointExtension>
        </extensions>
      </trkpt>
      <trkpt lat="33.37761777453124523162841796875" lon="120.1625130884349346160888671875">
        <ele>3</ele>
        <time>2025-11-11T01:26:20.000Z</time>
        <extensions>
          <ns3:TrackPointExtension>
            <ns3:hr>92</ns3:hr>
          </ns3:TrackPointExtension>
        </extensions>
      </trkpt>
      <trkpt lat="33.3775980770587921142578125" lon="120.1624926365911960601806640625">
        <ele>3</ele>
        <time>2025-11-11T01:26:23.000Z</time>
        <extensions>
          <ns3:TrackPointExtension>
            <ns3:hr>95</ns3:hr>
          </ns3:TrackPointExtension>
        </extensions>
      </trkpt>
      <trkpt lat="33.37755088694393634796142578125" lon="120.16245936043560504913330078125">
        <ele>3</ele>
        <time>2025-11-11T01:26:29.000Z</time>
        <extensions>
          <ns3:TrackPointExtension>
            <ns3:hr>97</ns3:hr>
          </ns3:TrackPointExtension>
        </extensions>
      </trkpt>
      <trkpt lat="33.37751157581806182861328125" lon="120.16243572346866130828857421875">
        <ele>2.7999999523162841796875</ele>
        <time>2025-11-11T01:26:36.000Z</time>
        <extensions>
          <ns3:TrackPointExtension>
            <ns3:hr>98</ns3:hr>
          </ns3:TrackPointExtension>
        </extensions>
      </trkpt>
      <trkpt lat="33.3774614520370960235595703125" lon="120.1624153554439544677734375">
        <ele>2.7999999523162841796875</ele>
        <time>2025-11-11T01:26:43.000Z</time>
        <extensions>
          <ns3:TrackPointExtension>
            <ns3:hr>98</ns3:hr>
          </ns3:TrackPointExtension>
        </extensions>
      </trkpt>
      <trkpt lat="33.3774195425212383270263671875" lon="120.16240806318819522857666015625">
        <ele>2.7999999523162841796875</ele>
        <time>2025-11-11T01:26:50.000Z</time>
        <extensions>
          <ns3:TrackPointExtension>
            <ns3:hr>98</ns3:hr>
          </ns3:TrackPointExtension>
        </extensions>
      </trkpt>
      <trkpt lat="33.377410657703876495361328125" lon="120.16240957193076610565185546875">
        <ele>2.7999999523162841796875</ele>
        <time>2025-11-11T01:26:53.000Z</time>
        <extensions>
          <ns3:TrackPointExtension>
            <ns3:hr>95</ns3:hr>
          </ns3:TrackPointExtension>
        </extensions>
      </trkpt>
      <trkpt lat="33.3774057962000370025634765625" lon="120.1624108292162418365478515625">
        <ele>2.7999999523162841796875</ele>
        <time>2025-11-11T01:26:58.000Z</time>
        <extensions>
          <ns3:TrackPointExtension>
            <ns3:hr>93</ns3:hr>
          </ns3:TrackPointExtension>
        </extensions>
      </trkpt>
      <trkpt lat="33.37740738876163959503173828125" lon="120.162410326302051544189453125">
        <ele>2.7999999523162841796875</ele>
        <time>2025-11-11T01:27:03.000Z</time>
        <extensions>
          <ns3:TrackPointExtension>
            <ns3:hr>89</ns3:hr>
          </ns3:TrackPointExtension>
        </extensions>
      </trkpt>
      <trkpt lat="33.3774118311703205108642578125" lon="120.16240663826465606689453125">
        <ele>3</ele>
        <time>2025-11-11T01:27:11.000Z</time>
        <extensions>
          <ns3:TrackPointExtension>
            <ns3:hr>90</ns3:hr>
          </ns3:TrackPointExtension>
        </extensions>
      </trkpt>
      <trkpt lat="33.37740671820938587188720703125" lon="120.16238643787801265716552734375">
        <ele>3.2000000476837158203125</ele>
        <time>2025-11-11T01:27:18.000Z</time>
        <extensions>
          <ns3:TrackPointExtension>
            <ns3:hr>90</ns3:hr>
          </ns3:TrackPointExtension>
        </extensions>
      </trkpt>
      <trkpt lat="33.377364389598369598388671875" lon="120.16231401823461055755615234375">
        <ele>3</ele>
        <time>2025-11-11T01:27:25.000Z</time>
        <extensions>
          <ns3:TrackPointExtension>
            <ns3:hr>90</ns3:hr>
          </ns3:TrackPointExtension>
        </extensions>
      </trkpt>
      <trkpt lat="33.37729004211723804473876953125" lon="120.16221343539655208587646484375">
        <ele>2.7999999523162841796875</ele>
        <time>2025-11-11T01:27:36.000Z</time>
        <extensions>
          <ns3:TrackPointExtension>
            <ns3:hr>89</ns3:hr>
          </ns3:TrackPointExtension>
        </extensions>
      </trkpt>
      <trkpt lat="33.37727428413927555084228515625" lon="120.1621365733444690704345703125">
        <ele>2.7999999523162841796875</ele>
        <time>2025-11-11T01:27:41.000Z</time>
        <extensions>
          <ns3:TrackPointExtension>
            <ns3:hr>91</ns3:hr>
          </ns3:TrackPointExtension>
        </extensions>
      </trkpt>
      <trkpt lat="33.37725215591490268707275390625" lon="120.16204546205699443817138671875">
        <ele>2.599999904632568359375</ele>
        <time>2025-11-11T01:27:49.000Z</time>
        <extensions>
          <ns3:TrackPointExtension>
            <ns3:hr>93</ns3:hr>
          </ns3:TrackPointExtension>
        </extensions>
      </trkpt>
      <trkpt lat="33.37718904018402099609375" lon="120.1619686000049114227294921875">
        <ele>2.599999904632568359375</ele>
        <time>2025-11-11T01:27:57.000Z</time>
        <extensions>
          <ns3:TrackPointExtension>
            <ns3:hr>96</ns3:hr>
          </ns3:TrackPointExtension>
        </extensions>
      </trkpt>
      <trkpt lat="33.37712910957634449005126953125" lon="120.16189727000892162322998046875">
        <ele>2.599999904632568359375</ele>
        <time>2025-11-11T01:28:04.000Z</time>
        <extensions>
          <ns3:TrackPointExtension>
            <ns3:hr>96</ns3:hr>
          </ns3:TrackPointExtension>
        </extensions>
      </trkpt>
      <trkpt lat="33.37707177735865116119384765625" lon="120.16181630082428455352783203125">
        <ele>2.7999999523162841796875</ele>
        <time>2025-11-11T01:28:11.000Z</time>
        <extensions>
          <ns3:TrackPointExtension>
            <ns3:hr>96</ns3:hr>
          </ns3:TrackPointExtension>
        </extensions>
      </trkpt>
      <trkpt lat="33.3770255930721759796142578125" lon="120.161760561168193817138671875">
        <ele>2.599999904632568359375</ele>
        <time>2025-11-11T01:28:17.000Z</time>
        <extensions>
          <ns3:TrackPointExtension>
            <ns3:hr>93</ns3:hr>
          </ns3:TrackPointExtension>
        </extensions>
      </trkpt>
      <trkpt lat="33.37700388394296169281005859375" lon="120.1617161370813846588134765625">
        <ele>2.400000095367431640625</ele>
        <time>2025-11-11T01:28:21.000Z</time>
        <extensions>
          <ns3:TrackPointExtension>
            <ns3:hr>96</ns3:hr>
          </ns3:TrackPointExtension>
        </extensions>
      </trkpt>
      <trkpt lat="33.3769749663770198822021484375" lon="120.16166224144399166107177734375">
        <ele>2.599999904632568359375</ele>
        <time>2025-11-11T01:28:25.000Z</time>
        <extensions>
          <ns3:TrackPointExtension>
            <ns3:hr>97</ns3:hr>
          </ns3:TrackPointExtension>
        </extensions>
      </trkpt>
      <trkpt lat="33.37695627473294734954833984375" lon="120.161636509001255035400390625">
        <ele>2.400000095367431640625</ele>
        <time>2025-11-11T01:28:27.000Z</time>
        <extensions>
          <ns3:TrackPointExtension>
            <ns3:hr>97</ns3:hr>
          </ns3:TrackPointExtension>
        </extensions>
      </trkpt>
      <trkpt lat="33.37690330110490322113037109375" lon="120.1615583896636962890625">
        <ele>2.2000000476837158203125</ele>
        <time>2025-11-11T01:28:34.000Z</time>
        <extensions>
          <ns3:TrackPointExtension>
            <ns3:hr>94</ns3:hr>
          </ns3:TrackPointExtension>
        </extensions>
      </trkpt>
      <trkpt lat="33.3768264390528202056884765625" lon="120.16147783957421779632568359375">
        <ele>2.400000095367431640625</ele>
        <time>2025-11-11T01:28:43.000Z</time>
        <extensions>
          <ns3:TrackPointExtension>
            <ns3:hr>94</ns3:hr>
          </ns3:TrackPointExtension>
        </extensions>
      </trkpt>
      <trkpt lat="33.376772962510585784912109375" lon="120.1614143885672092437744140625">
        <ele>2.400000095367431640625</ele>
        <time>2025-11-11T01:28:49.000Z</time>
        <extensions>
          <ns3:TrackPointExtension>
            <ns3:hr>97</ns3:hr>
          </ns3:TrackPointExtension>
        </extensions>
      </trkpt>
      <trkpt lat="33.3767580427229404449462890625" lon="120.1613959483802318572998046875">
        <ele>2.400000095367431640625</ele>
        <time>2025-11-11T01:28:51.000Z</time>
        <extensions>
          <ns3:TrackPointExtension>
            <ns3:hr>98</ns3:hr>
          </ns3:TrackPointExtension>
        </extensions>
      </trkpt>
      <trkpt lat="33.3767037279903888702392578125" lon="120.16130081377923488616943359375">
        <ele>2.599999904632568359375</ele>
        <time>2025-11-11T01:28:59.000Z</time>
        <extensions>
          <ns3:TrackPointExtension>
            <ns3:hr>99</ns3:hr>
          </ns3:TrackPointExtension>
        </extensions>
      </trkpt>
      <trkpt lat="33.37664656341075897216796875" lon="120.161215402185916900634765625">
        <ele>2.7999999523162841796875</ele>
        <time>2025-11-11T01:29:08.000Z</time>
        <extensions>
          <ns3:TrackPointExtension>
            <ns3:hr>98</ns3:hr>
          </ns3:TrackPointExtension>
        </extensions>
      </trkpt>
      <trkpt lat="33.37659291923046112060546875" lon="120.16113451682031154632568359375">
        <ele>2.7999999523162841796875</ele>
        <time>2025-11-11T01:29:15.000Z</time>
        <extensions>
          <ns3:TrackPointExtension>
            <ns3:hr>97</ns3:hr>
          </ns3:TrackPointExtension>
        </extensions>
      </trkpt>
      <trkpt lat="33.37654455564916133880615234375" lon="120.16104734502732753753662109375">
        <ele>3</ele>
        <time>2025-11-11T01:29:22.000Z</time>
        <extensions>
          <ns3:TrackPointExtension>
            <ns3:hr>97</ns3:hr>
          </ns3:TrackPointExtension>
        </extensions>
      </trkpt>
      <trkpt lat="33.376496694982051849365234375" lon="120.16096168197691440582275390625">
        <ele>3.2000000476837158203125</ele>
        <time>2025-11-11T01:29:29.000Z</time>
        <extensions>
          <ns3:TrackPointExtension>
            <ns3:hr>96</ns3:hr>
          </ns3:TrackPointExtension>
        </extensions>
      </trkpt>
      <trkpt lat="33.376416228711605072021484375" lon="120.160872749984264373779296875">
        <ele>3.400000095367431640625</ele>
        <time>2025-11-11T01:29:38.000Z</time>
        <extensions>
          <ns3:TrackPointExtension>
            <ns3:hr>97</ns3:hr>
          </ns3:TrackPointExtension>
        </extensions>
      </trkpt>
      <trkpt lat="33.37638731114566326141357421875" lon="120.16083947382867336273193359375">
        <ele>3.400000095367431640625</ele>
        <time>2025-11-11T01:29:41.000Z</time>
        <extensions>
          <ns3:TrackPointExtension>
            <ns3:hr>97</ns3:hr>
          </ns3:TrackPointExtension>
        </extensions>
      </trkpt>
      <trkpt lat="33.376340456306934356689453125" lon="120.16075364314019680023193359375">
        <ele>3.599999904632568359375</ele>
        <time>2025-11-11T01:29:48.000Z</time>
        <extensions>
          <ns3:TrackPointExtension>
            <ns3:hr>96</ns3:hr>
          </ns3:TrackPointExtension>
        </extensions>
      </trkpt>
      <trkpt lat="33.376265354454517364501953125" lon="120.1606338657438755035400390625">
        <ele>3.7999999523162841796875</ele>
        <time>2025-11-11T01:29:58.000Z</time>
        <extensions>
          <ns3:TrackPointExtension>
            <ns3:hr>97</ns3:hr>
          </ns3:TrackPointExtension>
        </extensions>
      </trkpt>
      <trkpt lat="33.37620936334133148193359375" lon="120.16054451465606689453125">
        <ele>4</ele>
        <time>2025-11-11T01:30:06.000Z</time>
        <extensions>
          <ns3:TrackPointExtension>
            <ns3:hr>98</ns3:hr>
          </ns3:TrackPointExtension>
        </extensions>
      </trkpt>
      <trkpt lat="33.37611992843449115753173828125" lon="120.16040713526308536529541015625">
        <ele>4.19999980926513671875</ele>
        <time>2025-11-11T01:30:18.000Z</time>
        <extensions>
          <ns3:TrackPointExtension>
            <ns3:hr>99</ns3:hr>
          </ns3:TrackPointExtension>
        </extensions>
      </trkpt>
      <trkpt lat="33.376060836017131805419921875" lon="120.160307474434375762939453125">
        <ele>4</ele>
        <time>2025-11-11T01:30:26.000Z</time>
        <extensions>
          <ns3:TrackPointExtension>
            <ns3:hr>102</ns3:hr>
          </ns3:TrackPointExtension>
        </extensions>
      </trkpt>
      <trkpt lat="33.3760408870875835418701171875" lon="120.160281658172607421875">
        <ele>4.19999980926513671875</ele>
        <time>2025-11-11T01:30:29.000Z</time>
        <extensions>
          <ns3:TrackPointExtension>
            <ns3:hr>104</ns3:hr>
          </ns3:TrackPointExtension>
        </extensions>
      </trkpt>
      <trkpt lat="33.37597056291997432708740234375" lon="120.160190127789974212646484375">
        <ele>4</ele>
        <time>2025-11-11T01:30:39.000Z</time>
        <extensions>
          <ns3:TrackPointExtension>
            <ns3:hr>106</ns3:hr>
          </ns3:TrackPointExtension>
        </extensions>
      </trkpt>
      <trkpt lat="33.3759030885994434356689453125" lon="120.1600984297692775726318359375">
        <ele>4.19999980926513671875</ele>
        <time>2025-11-11T01:30:48.000Z</time>
        <extensions>
          <ns3:TrackPointExtension>
            <ns3:hr>105</ns3:hr>
          </ns3:TrackPointExtension>
        </extensions>
      </trkpt>
      <trkpt lat="33.37584458291530609130859375" lon="120.159983597695827484130859375">
        <ele>4.19999980926513671875</ele>
        <time>2025-11-11T01:30:57.000Z</time>
        <extensions>
          <ns3:TrackPointExtension>
            <ns3:hr>106</ns3:hr>
          </ns3:TrackPointExtension>
        </extensions>
      </trkpt>
      <trkpt lat="33.37587165646255016326904296875" lon="120.15989667735993862152099609375">
        <ele>4.19999980926513671875</ele>
        <time>2025-11-11T01:31:04.000Z</time>
        <extensions>
          <ns3:TrackPointExtension>
            <ns3:hr>106</ns3:hr>
          </ns3:TrackPointExtension>
        </extensions>
      </trkpt>
      <trkpt lat="33.3759107999503612518310546875" lon="120.15987102873623371124267578125">
        <ele>4.400000095367431640625</ele>
        <time>2025-11-11T01:31:13.000Z</time>
        <extensions>
          <ns3:TrackPointExtension>
            <ns3:hr>107</ns3:hr>
          </ns3:TrackPointExtension>
        </extensions>
      </trkpt>
      <trkpt lat="33.37591071613132953643798828125" lon="120.159863568842411041259765625">
        <ele>4.400000095367431640625</ele>
        <time>2025-11-11T01:31:21.000Z</time>
        <extensions>
          <ns3:TrackPointExtension>
            <ns3:hr>104</ns3:hr>
          </ns3:TrackPointExtension>
        </extensions>
      </trkpt>
      <trkpt lat="33.37592043913900852203369140625" lon="120.15984202735126018524169921875">
        <ele>4.19999980926513671875</ele>
        <time>2025-11-11T01:31:28.000Z</time>
        <extensions>
          <ns3:TrackPointExtension>
            <ns3:hr>104</ns3:hr>
          </ns3:TrackPointExtension>
        </extensions>
      </trkpt>
      <trkpt lat="33.3759211935102939605712890625" lon="120.15979349613189697265625">
        <ele>3.7999999523162841796875</ele>
        <time>2025-11-11T01:31:34.000Z</time>
        <extensions>
          <ns3:TrackPointExtension>
            <ns3:hr>105</ns3:hr>
          </ns3:TrackPointExtension>
        </extensions>
      </trkpt>
      <trkpt lat="33.37592982687056064605712890625" lon="120.15978620387613773345947265625">
        <ele>3.7999999523162841796875</ele>
        <time>2025-11-11T01:31:39.000Z</time>
        <extensions>
          <ns3:TrackPointExtension>
            <ns3:hr>105</ns3:hr>
          </ns3:TrackPointExtension>
        </extensions>
      </trkpt>
      <trkpt lat="33.37592747993767261505126953125" lon="120.15977648086845874786376953125">
        <ele>3.400000095367431640625</ele>
        <time>2025-11-11T01:31:45.000Z</time>
        <extensions>
          <ns3:TrackPointExtension>
            <ns3:hr>102</ns3:hr>
          </ns3:TrackPointExtension>
        </extensions>
      </trkpt>
      <trkpt lat="33.37592479772865772247314453125" lon="120.1597748883068561553955078125">
        <ele>3.400000095367431640625</ele>
        <time>2025-11-11T01:31:47.000Z</time>
        <extensions>
          <ns3:TrackPointExtension>
            <ns3:hr>101</ns3:hr>
          </ns3:TrackPointExtension>
        </extensions>
      </trkpt>
      <trkpt lat="33.37591876275837421417236328125" lon="120.1597748883068561553955078125">
        <ele>3.2000000476837158203125</ele>
        <time>2025-11-11T01:31:49.000Z</time>
        <extensions>
          <ns3:TrackPointExtension>
            <ns3:hr>98</ns3:hr>
          </ns3:TrackPointExtension>
        </extensions>
      </trkpt>
      <trkpt lat="33.3759164996445178985595703125" lon="120.15977044589817523956298828125">
        <ele>3.400000095367431640625</ele>
        <time>2025-11-11T01:31:52.000Z</time>
        <extensions>
          <ns3:TrackPointExtension>
            <ns3:hr>95</ns3:hr>
          </ns3:TrackPointExtension>
        </extensions>
      </trkpt>
      <trkpt lat="33.3759299106895923614501953125" lon="120.15975703485310077667236328125">
        <ele>3</ele>
        <time>2025-11-11T01:31:58.000Z</time>
        <extensions>
          <ns3:TrackPointExtension>
            <ns3:hr>94</ns3:hr>
          </ns3:TrackPointExtension>
        </extensions>
      </trkpt>
      <trkpt lat="33.376013226807117462158203125" lon="120.159643627703189849853515625">
        <ele>3.2000000476837158203125</ele>
        <time>2025-11-11T01:32:04.000Z</time>
        <extensions>
          <ns3:TrackPointExtension>
            <ns3:hr>97</ns3:hr>
          </ns3:TrackPointExtension>
        </extensions>
      </trkpt>
      <trkpt lat="33.37617541663348674774169921875" lon="120.15949702821671962738037109375">
        <ele>3</ele>
        <time>2025-11-11T01:32:08.000Z</time>
        <extensions>
          <ns3:TrackPointExtension>
            <ns3:hr>97</ns3:hr>
          </ns3:TrackPointExtension>
        </extensions>
      </trkpt>
      <trkpt lat="33.37627507746219635009765625" lon="120.15940801240503787994384765625">
        <ele>3</ele>
        <time>2025-11-11T01:32:10.000Z</time>
        <extensions>
          <ns3:TrackPointExtension>
            <ns3:hr>93</ns3:hr>
          </ns3:TrackPointExtension>
        </extensions>
      </trkpt>
      <trkpt lat="33.376324363052845001220703125" lon="120.15936509706079959869384765625">
        <ele>3</ele>
        <time>2025-11-11T01:32:11.000Z</time>
        <extensions>
          <ns3:TrackPointExtension>
            <ns3:hr>90</ns3:hr>
          </ns3:TrackPointExtension>
        </extensions>
      </trkpt>
      <trkpt lat="33.3765243552625179290771484375" lon="120.15918253920972347259521484375">
        <ele>3</ele>
        <time>2025-11-11T01:32:14.000Z</time>
        <extensions>
          <ns3:TrackPointExtension>
            <ns3:hr>84</ns3:hr>
          </ns3:TrackPointExtension>
        </extensions>
      </trkpt>
      <trkpt lat="33.3765736408531665802001953125" lon="120.1591304875910282135009765625">
        <ele>3</ele>
        <time>2025-11-11T01:32:15.000Z</time>
        <extensions>
          <ns3:TrackPointExtension>
            <ns3:hr>78</ns3:hr>
          </ns3:TrackPointExtension>
        </extensions>
      </trkpt>
      <trkpt lat="33.37662468664348125457763671875" lon="120.15907935798168182373046875">
        <ele>3</ele>
        <time>2025-11-11T01:32:16.000Z</time>
        <extensions>
          <ns3:TrackPointExtension>
            <ns3:hr>76</ns3:hr>
          </ns3:TrackPointExtension>
        </extensions>
      </trkpt>
      <trkpt lat="33.376784361898899078369140625" lon="120.158908031880855560302734375">
        <ele>3.2000000476837158203125</ele>
        <time>2025-11-11T01:32:19.000Z</time>
        <extensions>
          <ns3:TrackPointExtension>
            <ns3:hr>77</ns3:hr>
          </ns3:TrackPointExtension>
        </extensions>
      </trkpt>
      <trkpt lat="33.37684630416333675384521484375" lon="120.15885111875832080841064453125">
        <ele>3.2000000476837158203125</ele>
        <time>2025-11-11T01:32:20.000Z</time>
        <extensions>
          <ns3:TrackPointExtension>
            <ns3:hr>77</ns3:hr>
          </ns3:TrackPointExtension>
        </extensions>
      </trkpt>
      <trkpt lat="33.376974798738956451416015625" lon="120.1587412320077419281005859375">
        <ele>3.2000000476837158203125</ele>
        <time>2025-11-11T01:32:22.000Z</time>
        <extensions>
          <ns3:TrackPointExtension>
            <ns3:hr>76</ns3:hr>
          </ns3:TrackPointExtension>
        </extensions>
      </trkpt>
    </trkseg>
  </trk>
</gpx>
