<gpx xmlns:ns3="http://www.garmin.com/xmlschemas/TrackPointExtension/v1" xmlns="http://www.topografix.com/GPX/1/1" xmlns:xsi="http://www.w3.org/2001/XMLSchema-instance" xmlns:ns2="http://www.garmin.com/xmlschemas/GpxExtensions/v3" creator="Garmin Connect" version="1.1" xsi:schemaLocation="http://www.topografix.com/GPX/1/1 http://www.topografix.com/GPX/11.xsd">
  <extensions>
<distance>157.76</distance>
<average_hr>114.0</average_hr>
<average_speed>0.0599999986588955</average_speed>
<start_time>2025-12-13T10:01:18+00:00</start_time>
<end_time>2025-12-13T10:45:03.587000+00:00</end_time>
<moving_time>134.0</moving_time>
<elapsed_time>2625.587</elapsed_time>
</extensions>
<metadata>
    <link href="connect.garmin.com">
      <text>Garmin Connect</text>
    </link>
    <time>2025-12-13T10:01:18.000Z</time>
  </metadata>
  <trk>
    <name>羽毛球</name>
    <type>badminton</type>
    <trkseg/>
  </trk>
</gpx>
