<gpx xmlns:ns3="http://www.garmin.com/xmlschemas/TrackPointExtension/v1" xmlns="http://www.topografix.com/GPX/1/1" xmlns:xsi="http://www.w3.org/2001/XMLSchema-instance" xmlns:ns2="http://www.garmin.com/xmlschemas/GpxExtensions/v3" creator="Garmin Connect" version="1.1" xsi:schemaLocation="http://www.topografix.com/GPX/1/1 http://www.topografix.com/GPX/11.xsd">
  <extensions>
<distance>2638.17</distance>
<average_hr>110.0</average_hr>
<average_speed>4.571000099182129</average_speed>
<start_time>2025-12-14T03:38:40+00:00</start_time>
<end_time>2025-12-14T03:48:17.217000+00:00</end_time>
<moving_time>557.0</moving_time>
<elapsed_time>1048.216</elapsed_time>
</extensions>
<metadata>
    <link href="connect.garmin.com">
      <text>Garmin Connect</text>
    </link>
    <time>2025-12-14T03:38:40.000Z</time>
  </metadata>
  <trk>
    <name>南京市 骑行</name>
    <type>cycling</type>
    <trkseg>
      <trkpt lat="31.96846277453005313873291015625" lon="118.82389037869870662689208984375">
        <ele>5.80000019073486328125</ele>
        <time>2025-12-14T03:38:40.000Z</time>
        <extensions>
          <ns3:TrackPointExtension>
            <ns3:atemp>29.0</ns3:atemp>
            <ns3:hr>87</ns3:hr>
          </ns3:TrackPointExtension>
        </extensions>
      </trkpt>
      <trkpt lat="31.9684682227671146392822265625" lon="118.82384344004094600677490234375">
        <ele>5.19999980926513671875</ele>
        <time>2025-12-14T03:38:41.000Z</time>
        <extensions>
          <ns3:TrackPointExtension>
            <ns3:atemp>29.0</ns3:atemp>
            <ns3:hr>87</ns3:hr>
          </ns3:TrackPointExtension>
        </extensions>
      </trkpt>
      <trkpt lat="31.96844332851469516754150390625" lon="118.82369793020188808441162109375">
        <ele>4.599999904632568359375</ele>
        <time>2025-12-14T03:38:44.000Z</time>
        <extensions>
          <ns3:TrackPointExtension>
            <ns3:atemp>29.0</ns3:atemp>
            <ns3:hr>86</ns3:hr>
          </ns3:TrackPointExtension>
        </extensions>
      </trkpt>
      <trkpt lat="31.96843989193439483642578125" lon="118.823646716773509979248046875">
        <ele>4.599999904632568359375</ele>
        <time>2025-12-14T03:38:45.000Z</time>
        <extensions>
          <ns3:TrackPointExtension>
            <ns3:atemp>29.0</ns3:atemp>
            <ns3:hr>86</ns3:hr>
          </ns3:TrackPointExtension>
        </extensions>
      </trkpt>
      <trkpt lat="31.96836856193840503692626953125" lon="118.82350246421992778778076171875">
        <ele>4.599999904632568359375</ele>
        <time>2025-12-14T03:38:48.000Z</time>
        <extensions>
          <ns3:TrackPointExtension>
            <ns3:atemp>29.0</ns3:atemp>
            <ns3:hr>92</ns3:hr>
          </ns3:TrackPointExtension>
        </extensions>
      </trkpt>
      <trkpt lat="31.968332938849925994873046875" lon="118.8234029710292816162109375">
        <ele>5</ele>
        <time>2025-12-14T03:38:50.000Z</time>
        <extensions>
          <ns3:TrackPointExtension>
            <ns3:atemp>29.0</ns3:atemp>
            <ns3:hr>97</ns3:hr>
          </ns3:TrackPointExtension>
        </extensions>
      </trkpt>
      <trkpt lat="31.96826563216745853424072265625" lon="118.8233059085905551910400390625">
        <ele>4.80000019073486328125</ele>
        <time>2025-12-14T03:38:52.000Z</time>
        <extensions>
          <ns3:TrackPointExtension>
            <ns3:atemp>28.0</ns3:atemp>
            <ns3:hr>100</ns3:hr>
          </ns3:TrackPointExtension>
        </extensions>
      </trkpt>
      <trkpt lat="31.968232356011867523193359375" lon="118.823268525302410125732421875">
        <ele>5</ele>
        <time>2025-12-14T03:38:53.000Z</time>
        <extensions>
          <ns3:TrackPointExtension>
            <ns3:atemp>28.0</ns3:atemp>
            <ns3:hr>101</ns3:hr>
          </ns3:TrackPointExtension>
        </extensions>
      </trkpt>
      <trkpt lat="31.96822489611804485321044921875" lon="118.8232076726853847503662109375">
        <ele>5.19999980926513671875</ele>
        <time>2025-12-14T03:38:54.000Z</time>
        <extensions>
          <ns3:TrackPointExtension>
            <ns3:atemp>28.0</ns3:atemp>
            <ns3:hr>101</ns3:hr>
          </ns3:TrackPointExtension>
        </extensions>
      </trkpt>
      <trkpt lat="31.96811274625360965728759765625" lon="118.82314438931643962860107421875">
        <ele>5.19999980926513671875</ele>
        <time>2025-12-14T03:38:56.000Z</time>
        <extensions>
          <ns3:TrackPointExtension>
            <ns3:atemp>28.0</ns3:atemp>
            <ns3:hr>101</ns3:hr>
          </ns3:TrackPointExtension>
        </extensions>
      </trkpt>
      <trkpt lat="31.96804585866630077362060546875" lon="118.8231241889297962188720703125">
        <ele>5.80000019073486328125</ele>
        <time>2025-12-14T03:38:57.000Z</time>
        <extensions>
          <ns3:TrackPointExtension>
            <ns3:atemp>28.0</ns3:atemp>
            <ns3:hr>101</ns3:hr>
          </ns3:TrackPointExtension>
        </extensions>
      </trkpt>
      <trkpt lat="31.9679059647023677825927734375" lon="118.82305805571377277374267578125">
        <ele>6.599999904632568359375</ele>
        <time>2025-12-14T03:39:00.000Z</time>
        <extensions>
          <ns3:TrackPointExtension>
            <ns3:atemp>28.0</ns3:atemp>
            <ns3:hr>102</ns3:hr>
          </ns3:TrackPointExtension>
        </extensions>
      </trkpt>
      <trkpt lat="31.96785978041589260101318359375" lon="118.823071382939815521240234375">
        <ele>6.80000019073486328125</ele>
        <time>2025-12-14T03:39:01.000Z</time>
        <extensions>
          <ns3:TrackPointExtension>
            <ns3:atemp>28.0</ns3:atemp>
            <ns3:hr>105</ns3:hr>
          </ns3:TrackPointExtension>
        </extensions>
      </trkpt>
      <trkpt lat="31.9678070582449436187744140625" lon="118.823061995208263397216796875">
        <ele>7</ele>
        <time>2025-12-14T03:39:02.000Z</time>
        <extensions>
          <ns3:TrackPointExtension>
            <ns3:atemp>28.0</ns3:atemp>
            <ns3:hr>106</ns3:hr>
          </ns3:TrackPointExtension>
        </extensions>
      </trkpt>
      <trkpt lat="31.96775458753108978271484375" lon="118.8230588100850582122802734375">
        <ele>7</ele>
        <time>2025-12-14T03:39:03.000Z</time>
        <extensions>
          <ns3:TrackPointExtension>
            <ns3:atemp>28.0</ns3:atemp>
            <ns3:hr>106</ns3:hr>
          </ns3:TrackPointExtension>
        </extensions>
      </trkpt>
      <trkpt lat="31.9675264321267604827880859375" lon="118.82310985587537288665771484375">
        <ele>6.599999904632568359375</ele>
        <time>2025-12-14T03:39:07.000Z</time>
        <extensions>
          <ns3:TrackPointExtension>
            <ns3:atemp>27.0</ns3:atemp>
            <ns3:hr>107</ns3:hr>
          </ns3:TrackPointExtension>
        </extensions>
      </trkpt>
      <trkpt lat="31.96741889230906963348388671875" lon="118.82313701324164867401123046875">
        <ele>6.400000095367431640625</ele>
        <time>2025-12-14T03:39:09.000Z</time>
        <extensions>
          <ns3:TrackPointExtension>
            <ns3:atemp>27.0</ns3:atemp>
            <ns3:hr>108</ns3:hr>
          </ns3:TrackPointExtension>
        </extensions>
      </trkpt>
      <trkpt lat="31.96719425730407238006591796875" lon="118.82323860190808773040771484375">
        <ele>6.80000019073486328125</ele>
        <time>2025-12-14T03:39:13.000Z</time>
        <extensions>
          <ns3:TrackPointExtension>
            <ns3:atemp>27.0</ns3:atemp>
            <ns3:hr>109</ns3:hr>
          </ns3:TrackPointExtension>
        </extensions>
      </trkpt>
      <trkpt lat="31.9670469872653484344482421875" lon="118.82340976037085056304931640625">
        <ele>7.19999980926513671875</ele>
        <time>2025-12-14T03:39:17.000Z</time>
        <extensions>
          <ns3:TrackPointExtension>
            <ns3:atemp>27.0</ns3:atemp>
            <ns3:hr>111</ns3:hr>
          </ns3:TrackPointExtension>
        </extensions>
      </trkpt>
      <trkpt lat="31.96699619293212890625" lon="118.823480419814586639404296875">
        <ele>7.400000095367431640625</ele>
        <time>2025-12-14T03:39:18.000Z</time>
        <extensions>
          <ns3:TrackPointExtension>
            <ns3:atemp>27.0</ns3:atemp>
            <ns3:hr>111</ns3:hr>
          </ns3:TrackPointExtension>
        </extensions>
      </trkpt>
      <trkpt lat="31.966871134936809539794921875" lon="118.82372458465397357940673828125">
        <ele>7.400000095367431640625</ele>
        <time>2025-12-14T03:39:22.000Z</time>
        <extensions>
          <ns3:TrackPointExtension>
            <ns3:atemp>27.0</ns3:atemp>
            <ns3:hr>111</ns3:hr>
          </ns3:TrackPointExtension>
        </extensions>
      </trkpt>
      <trkpt lat="31.966849006712436676025390625" lon="118.823783509433269500732421875">
        <ele>7.19999980926513671875</ele>
        <time>2025-12-14T03:39:23.000Z</time>
        <extensions>
          <ns3:TrackPointExtension>
            <ns3:atemp>27.0</ns3:atemp>
            <ns3:hr>112</ns3:hr>
          </ns3:TrackPointExtension>
        </extensions>
      </trkpt>
      <trkpt lat="31.966794021427631378173828125" lon="118.82396413944661617279052734375">
        <ele>7</ele>
        <time>2025-12-14T03:39:26.000Z</time>
        <extensions>
          <ns3:TrackPointExtension>
            <ns3:atemp>26.0</ns3:atemp>
            <ns3:hr>113</ns3:hr>
          </ns3:TrackPointExtension>
        </extensions>
      </trkpt>
      <trkpt lat="31.96678756736218929290771484375" lon="118.82409975863993167877197265625">
        <ele>7</ele>
        <time>2025-12-14T03:39:28.000Z</time>
        <extensions>
          <ns3:TrackPointExtension>
            <ns3:atemp>26.0</ns3:atemp>
            <ns3:hr>113</ns3:hr>
          </ns3:TrackPointExtension>
        </extensions>
      </trkpt>
      <trkpt lat="31.96678304113447666168212890625" lon="118.82422976195812225341796875">
        <ele>7</ele>
        <time>2025-12-14T03:39:30.000Z</time>
        <extensions>
          <ns3:TrackPointExtension>
            <ns3:atemp>26.0</ns3:atemp>
            <ns3:hr>113</ns3:hr>
          </ns3:TrackPointExtension>
        </extensions>
      </trkpt>
      <trkpt lat="31.9667723961174488067626953125" lon="118.82428952492773532867431640625">
        <ele>7.19999980926513671875</ele>
        <time>2025-12-14T03:39:31.000Z</time>
        <extensions>
          <ns3:TrackPointExtension>
            <ns3:atemp>26.0</ns3:atemp>
            <ns3:hr>112</ns3:hr>
          </ns3:TrackPointExtension>
        </extensions>
      </trkpt>
      <trkpt lat="31.96672101505100727081298828125" lon="118.82438256405293941497802734375">
        <ele>7.599999904632568359375</ele>
        <time>2025-12-14T03:39:33.000Z</time>
        <extensions>
          <ns3:TrackPointExtension>
            <ns3:atemp>26.0</ns3:atemp>
            <ns3:hr>111</ns3:hr>
          </ns3:TrackPointExtension>
        </extensions>
      </trkpt>
      <trkpt lat="31.96667441166937351226806640625" lon="118.824378959834575653076171875">
        <ele>8.19999980926513671875</ele>
        <time>2025-12-14T03:39:35.000Z</time>
        <extensions>
          <ns3:TrackPointExtension>
            <ns3:atemp>26.0</ns3:atemp>
            <ns3:hr>111</ns3:hr>
          </ns3:TrackPointExtension>
        </extensions>
      </trkpt>
      <trkpt lat="31.966673322021961212158203125" lon="118.82437602616846561431884765625">
        <ele>8.3999996185302734375</ele>
        <time>2025-12-14T03:39:36.000Z</time>
        <extensions>
          <ns3:TrackPointExtension>
            <ns3:atemp>26.0</ns3:atemp>
            <ns3:hr>111</ns3:hr>
          </ns3:TrackPointExtension>
        </extensions>
      </trkpt>
      <trkpt lat="31.9666810333728790283203125" lon="118.82437049411237239837646484375">
        <ele>8.80000019073486328125</ele>
        <time>2025-12-14T03:39:39.000Z</time>
        <extensions>
          <ns3:TrackPointExtension>
            <ns3:atemp>26.0</ns3:atemp>
            <ns3:hr>108</ns3:hr>
          </ns3:TrackPointExtension>
        </extensions>
      </trkpt>
      <trkpt lat="31.96670986711978912353515625" lon="118.82436647079885005950927734375">
        <ele>8.80000019073486328125</ele>
        <time>2025-12-14T03:39:40.000Z</time>
        <extensions>
          <ns3:TrackPointExtension>
            <ns3:atemp>26.0</ns3:atemp>
            <ns3:hr>107</ns3:hr>
          </ns3:TrackPointExtension>
        </extensions>
      </trkpt>
      <trkpt lat="31.96663099341094493865966796875" lon="118.8243107311427593231201171875">
        <ele>8.6000003814697265625</ele>
        <time>2025-12-14T03:39:46.000Z</time>
        <extensions>
          <ns3:TrackPointExtension>
            <ns3:atemp>26.0</ns3:atemp>
            <ns3:hr>101</ns3:hr>
          </ns3:TrackPointExtension>
        </extensions>
      </trkpt>
      <trkpt lat="31.96661506779491901397705078125" lon="118.82429069839417934417724609375">
        <ele>8.3999996185302734375</ele>
        <time>2025-12-14T03:39:47.000Z</time>
        <extensions>
          <ns3:TrackPointExtension>
            <ns3:atemp>26.0</ns3:atemp>
            <ns3:hr>103</ns3:hr>
          </ns3:TrackPointExtension>
        </extensions>
      </trkpt>
      <trkpt lat="31.9665001519024372100830078125" lon="118.82421945221722126007080078125">
        <ele>7.599999904632568359375</ele>
        <time>2025-12-14T03:39:51.000Z</time>
        <extensions>
          <ns3:TrackPointExtension>
            <ns3:atemp>26.0</ns3:atemp>
            <ns3:hr>101</ns3:hr>
          </ns3:TrackPointExtension>
        </extensions>
      </trkpt>
      <trkpt lat="31.9663097150623798370361328125" lon="118.8242118246853351593017578125">
        <ele>7.80000019073486328125</ele>
        <time>2025-12-14T03:39:56.000Z</time>
        <extensions>
          <ns3:TrackPointExtension>
            <ns3:atemp>26.0</ns3:atemp>
            <ns3:hr>101</ns3:hr>
          </ns3:TrackPointExtension>
        </extensions>
      </trkpt>
      <trkpt lat="31.966183818876743316650390625" lon="118.8242165185511112213134765625">
        <ele>7.599999904632568359375</ele>
        <time>2025-12-14T03:39:59.000Z</time>
        <extensions>
          <ns3:TrackPointExtension>
            <ns3:atemp>26.0</ns3:atemp>
            <ns3:hr>106</ns3:hr>
          </ns3:TrackPointExtension>
        </extensions>
      </trkpt>
      <trkpt lat="31.96599698625504970550537109375" lon="118.82420034147799015045166015625">
        <ele>7.400000095367431640625</ele>
        <time>2025-12-14T03:40:03.000Z</time>
        <extensions>
          <ns3:TrackPointExtension>
            <ns3:atemp>26.0</ns3:atemp>
            <ns3:hr>106</ns3:hr>
          </ns3:TrackPointExtension>
        </extensions>
      </trkpt>
      <trkpt lat="31.9659496285021305084228515625" lon="118.824200592935085296630859375">
        <ele>7.400000095367431640625</ele>
        <time>2025-12-14T03:40:04.000Z</time>
        <extensions>
          <ns3:TrackPointExtension>
            <ns3:atemp>26.0</ns3:atemp>
            <ns3:hr>106</ns3:hr>
          </ns3:TrackPointExtension>
        </extensions>
      </trkpt>
      <trkpt lat="31.96563673205673694610595703125" lon="118.8242304325103759765625">
        <ele>7.400000095367431640625</ele>
        <time>2025-12-14T03:40:10.000Z</time>
        <extensions>
          <ns3:TrackPointExtension>
            <ns3:atemp>26.0</ns3:atemp>
            <ns3:hr>108</ns3:hr>
          </ns3:TrackPointExtension>
        </extensions>
      </trkpt>
      <trkpt lat="31.96540229022502899169921875" lon="118.82423940114676952362060546875">
        <ele>7.400000095367431640625</ele>
        <time>2025-12-14T03:40:14.000Z</time>
        <extensions>
          <ns3:TrackPointExtension>
            <ns3:atemp>25.0</ns3:atemp>
            <ns3:hr>111</ns3:hr>
          </ns3:TrackPointExtension>
        </extensions>
      </trkpt>
      <trkpt lat="31.96528159081935882568359375" lon="118.824246190488338470458984375">
        <ele>7</ele>
        <time>2025-12-14T03:40:16.000Z</time>
        <extensions>
          <ns3:TrackPointExtension>
            <ns3:atemp>25.0</ns3:atemp>
            <ns3:hr>113</ns3:hr>
          </ns3:TrackPointExtension>
        </extensions>
      </trkpt>
      <trkpt lat="31.96522132493555545806884765625" lon="118.82424694485962390899658203125">
        <ele>6.80000019073486328125</ele>
        <time>2025-12-14T03:40:17.000Z</time>
        <extensions>
          <ns3:TrackPointExtension>
            <ns3:atemp>25.0</ns3:atemp>
            <ns3:hr>113</ns3:hr>
          </ns3:TrackPointExtension>
        </extensions>
      </trkpt>
      <trkpt lat="31.96499434299767017364501953125" lon="118.82424451410770416259765625">
        <ele>6.400000095367431640625</ele>
        <time>2025-12-14T03:40:21.000Z</time>
        <extensions>
          <ns3:TrackPointExtension>
            <ns3:atemp>25.0</ns3:atemp>
            <ns3:hr>116</ns3:hr>
          </ns3:TrackPointExtension>
        </extensions>
      </trkpt>
      <trkpt lat="31.964813880622386932373046875" lon="118.82426035590469837188720703125">
        <ele>7.599999904632568359375</ele>
        <time>2025-12-14T03:40:24.000Z</time>
        <extensions>
          <ns3:TrackPointExtension>
            <ns3:atemp>25.0</ns3:atemp>
            <ns3:hr>115</ns3:hr>
          </ns3:TrackPointExtension>
        </extensions>
      </trkpt>
      <trkpt lat="31.96475495584309101104736328125" lon="118.8242607749998569488525390625">
        <ele>8</ele>
        <time>2025-12-14T03:40:25.000Z</time>
        <extensions>
          <ns3:TrackPointExtension>
            <ns3:atemp>25.0</ns3:atemp>
            <ns3:hr>116</ns3:hr>
          </ns3:TrackPointExtension>
        </extensions>
      </trkpt>
      <trkpt lat="31.96434793062508106231689453125" lon="118.82426789961755275726318359375">
        <ele>7.80000019073486328125</ele>
        <time>2025-12-14T03:40:32.000Z</time>
        <extensions>
          <ns3:TrackPointExtension>
            <ns3:atemp>25.0</ns3:atemp>
            <ns3:hr>116</ns3:hr>
          </ns3:TrackPointExtension>
        </extensions>
      </trkpt>
      <trkpt lat="31.9641624391078948974609375" lon="118.82426991127431392669677734375">
        <ele>7</ele>
        <time>2025-12-14T03:40:35.000Z</time>
        <extensions>
          <ns3:TrackPointExtension>
            <ns3:atemp>25.0</ns3:atemp>
            <ns3:hr>117</ns3:hr>
          </ns3:TrackPointExtension>
        </extensions>
      </trkpt>
      <trkpt lat="31.96389832533895969390869140625" lon="118.82427929900586605072021484375">
        <ele>6.80000019073486328125</ele>
        <time>2025-12-14T03:40:39.000Z</time>
        <extensions>
          <ns3:TrackPointExtension>
            <ns3:atemp>25.0</ns3:atemp>
            <ns3:hr>120</ns3:hr>
          </ns3:TrackPointExtension>
        </extensions>
      </trkpt>
      <trkpt lat="31.96368508972227573394775390625" lon="118.8242839090526103973388671875">
        <ele>7.599999904632568359375</ele>
        <time>2025-12-14T03:40:42.000Z</time>
        <extensions>
          <ns3:TrackPointExtension>
            <ns3:atemp>25.0</ns3:atemp>
            <ns3:hr>123</ns3:hr>
          </ns3:TrackPointExtension>
        </extensions>
      </trkpt>
      <trkpt lat="31.9633911363780498504638671875" lon="118.82429086603224277496337890625">
        <ele>7.400000095367431640625</ele>
        <time>2025-12-14T03:40:46.000Z</time>
        <extensions>
          <ns3:TrackPointExtension>
            <ns3:atemp>25.0</ns3:atemp>
            <ns3:hr>126</ns3:hr>
          </ns3:TrackPointExtension>
        </extensions>
      </trkpt>
      <trkpt lat="31.96331930346786975860595703125" lon="118.82429304532706737518310546875">
        <ele>7.400000095367431640625</ele>
        <time>2025-12-14T03:40:47.000Z</time>
        <extensions>
          <ns3:TrackPointExtension>
            <ns3:atemp>25.0</ns3:atemp>
            <ns3:hr>127</ns3:hr>
          </ns3:TrackPointExtension>
        </extensions>
      </trkpt>
      <trkpt lat="31.96303750388324260711669921875" lon="118.8243023492395877838134765625">
        <ele>7.599999904632568359375</ele>
        <time>2025-12-14T03:40:51.000Z</time>
        <extensions>
          <ns3:TrackPointExtension>
            <ns3:atemp>25.0</ns3:atemp>
            <ns3:hr>130</ns3:hr>
          </ns3:TrackPointExtension>
        </extensions>
      </trkpt>
      <trkpt lat="31.962851174175739288330078125" lon="118.82430494762957096099853515625">
        <ele>7.80000019073486328125</ele>
        <time>2025-12-14T03:40:54.000Z</time>
        <extensions>
          <ns3:TrackPointExtension>
            <ns3:atemp>25.0</ns3:atemp>
            <ns3:hr>131</ns3:hr>
          </ns3:TrackPointExtension>
        </extensions>
      </trkpt>
      <trkpt lat="31.9624734856188297271728515625" lon="118.8243107311427593231201171875">
        <ele>7.400000095367431640625</ele>
        <time>2025-12-14T03:41:01.000Z</time>
        <extensions>
          <ns3:TrackPointExtension>
            <ns3:atemp>25.0</ns3:atemp>
            <ns3:hr>130</ns3:hr>
          </ns3:TrackPointExtension>
        </extensions>
      </trkpt>
      <trkpt lat="31.96231909096240997314453125" lon="118.82433059625327587127685546875">
        <ele>7.80000019073486328125</ele>
        <time>2025-12-14T03:41:04.000Z</time>
        <extensions>
          <ns3:TrackPointExtension>
            <ns3:atemp>25.0</ns3:atemp>
            <ns3:hr>130</ns3:hr>
          </ns3:TrackPointExtension>
        </extensions>
      </trkpt>
      <trkpt lat="31.9622508622705936431884765625" lon="118.8243818096816539764404296875">
        <ele>7.80000019073486328125</ele>
        <time>2025-12-14T03:41:06.000Z</time>
        <extensions>
          <ns3:TrackPointExtension>
            <ns3:atemp>25.0</ns3:atemp>
            <ns3:hr>129</ns3:hr>
          </ns3:TrackPointExtension>
        </extensions>
      </trkpt>
      <trkpt lat="31.962230913341045379638671875" lon="118.82445531897246837615966796875">
        <ele>7.599999904632568359375</ele>
        <time>2025-12-14T03:41:08.000Z</time>
        <extensions>
          <ns3:TrackPointExtension>
            <ns3:atemp>25.0</ns3:atemp>
            <ns3:hr>129</ns3:hr>
          </ns3:TrackPointExtension>
        </extensions>
      </trkpt>
      <trkpt lat="31.9622371159493923187255859375" lon="118.82449328899383544921875">
        <ele>7.599999904632568359375</ele>
        <time>2025-12-14T03:41:09.000Z</time>
        <extensions>
          <ns3:TrackPointExtension>
            <ns3:atemp>25.0</ns3:atemp>
            <ns3:hr>129</ns3:hr>
          </ns3:TrackPointExtension>
        </extensions>
      </trkpt>
      <trkpt lat="31.96223803795874118804931640625" lon="118.82477735169231891632080078125">
        <ele>8</ele>
        <time>2025-12-14T03:41:15.000Z</time>
        <extensions>
          <ns3:TrackPointExtension>
            <ns3:atemp>25.0</ns3:atemp>
            <ns3:hr>130</ns3:hr>
          </ns3:TrackPointExtension>
        </extensions>
      </trkpt>
      <trkpt lat="31.9622518680989742279052734375" lon="118.8250751607120037078857421875">
        <ele>8</ele>
        <time>2025-12-14T03:41:20.000Z</time>
        <extensions>
          <ns3:TrackPointExtension>
            <ns3:atemp>25.0</ns3:atemp>
            <ns3:hr>127</ns3:hr>
          </ns3:TrackPointExtension>
        </extensions>
      </trkpt>
      <trkpt lat="31.962253041565418243408203125" lon="118.82514079101383686065673828125">
        <ele>8</ele>
        <time>2025-12-14T03:41:21.000Z</time>
        <extensions>
          <ns3:TrackPointExtension>
            <ns3:atemp>25.0</ns3:atemp>
            <ns3:hr>123</ns3:hr>
          </ns3:TrackPointExtension>
        </extensions>
      </trkpt>
      <trkpt lat="31.9622625969350337982177734375" lon="118.82571662776172161102294921875">
        <ele>8</ele>
        <time>2025-12-14T03:41:30.000Z</time>
        <extensions>
          <ns3:TrackPointExtension>
            <ns3:atemp>25.0</ns3:atemp>
            <ns3:hr>123</ns3:hr>
          </ns3:TrackPointExtension>
        </extensions>
      </trkpt>
      <trkpt lat="31.962264440953731536865234375" lon="118.82578167133033275604248046875">
        <ele>8</ele>
        <time>2025-12-14T03:41:31.000Z</time>
        <extensions>
          <ns3:TrackPointExtension>
            <ns3:atemp>25.0</ns3:atemp>
            <ns3:hr>126</ns3:hr>
          </ns3:TrackPointExtension>
        </extensions>
      </trkpt>
      <trkpt lat="31.96227542124688625335693359375" lon="118.82632448337972164154052734375">
        <ele>7.80000019073486328125</ele>
        <time>2025-12-14T03:41:39.000Z</time>
        <extensions>
          <ns3:TrackPointExtension>
            <ns3:atemp>25.0</ns3:atemp>
            <ns3:hr>127</ns3:hr>
          </ns3:TrackPointExtension>
        </extensions>
      </trkpt>
      <trkpt lat="31.96226947009563446044921875" lon="118.826579041779041290283203125">
        <ele>7.599999904632568359375</ele>
        <time>2025-12-14T03:41:44.000Z</time>
        <extensions>
          <ns3:TrackPointExtension>
            <ns3:atemp>25.0</ns3:atemp>
            <ns3:hr>126</ns3:hr>
          </ns3:TrackPointExtension>
        </extensions>
      </trkpt>
      <trkpt lat="31.96227307431399822235107421875" lon="118.82661416195333003997802734375">
        <ele>7.599999904632568359375</ele>
        <time>2025-12-14T03:41:45.000Z</time>
        <extensions>
          <ns3:TrackPointExtension>
            <ns3:atemp>25.0</ns3:atemp>
            <ns3:hr>126</ns3:hr>
          </ns3:TrackPointExtension>
        </extensions>
      </trkpt>
      <trkpt lat="31.96227257139980792999267578125" lon="118.82679889909923076629638671875">
        <ele>7.400000095367431640625</ele>
        <time>2025-12-14T03:41:49.000Z</time>
        <extensions>
          <ns3:TrackPointExtension>
            <ns3:atemp>25.0</ns3:atemp>
            <ns3:hr>126</ns3:hr>
          </ns3:TrackPointExtension>
        </extensions>
      </trkpt>
      <trkpt lat="31.96228363551199436187744140625" lon="118.82701381109654903411865234375">
        <ele>7.400000095367431640625</ele>
        <time>2025-12-14T03:41:53.000Z</time>
        <extensions>
          <ns3:TrackPointExtension>
            <ns3:atemp>25.0</ns3:atemp>
            <ns3:hr>123</ns3:hr>
          </ns3:TrackPointExtension>
        </extensions>
      </trkpt>
      <trkpt lat="31.9622820429503917694091796875" lon="118.82706862874329090118408203125">
        <ele>7.400000095367431640625</ele>
        <time>2025-12-14T03:41:54.000Z</time>
        <extensions>
          <ns3:TrackPointExtension>
            <ns3:atemp>25.0</ns3:atemp>
            <ns3:hr>119</ns3:hr>
          </ns3:TrackPointExtension>
        </extensions>
      </trkpt>
      <trkpt lat="31.96228816173970699310302734375" lon="118.8271793536841869354248046875">
        <ele>7.400000095367431640625</ele>
        <time>2025-12-14T03:41:56.000Z</time>
        <extensions>
          <ns3:TrackPointExtension>
            <ns3:atemp>25.0</ns3:atemp>
            <ns3:hr>118</ns3:hr>
          </ns3:TrackPointExtension>
        </extensions>
      </trkpt>
      <trkpt lat="31.96230894885957241058349609375" lon="118.82756374776363372802734375">
        <ele>7.400000095367431640625</ele>
        <time>2025-12-14T03:42:03.000Z</time>
        <extensions>
          <ns3:TrackPointExtension>
            <ns3:atemp>25.0</ns3:atemp>
            <ns3:hr>121</ns3:hr>
          </ns3:TrackPointExtension>
        </extensions>
      </trkpt>
      <trkpt lat="31.96230844594538211822509765625" lon="118.8276189006865024566650390625">
        <ele>7.400000095367431640625</ele>
        <time>2025-12-14T03:42:04.000Z</time>
        <extensions>
          <ns3:TrackPointExtension>
            <ns3:atemp>25.0</ns3:atemp>
            <ns3:hr>122</ns3:hr>
          </ns3:TrackPointExtension>
        </extensions>
      </trkpt>
      <trkpt lat="31.96231800131499767303466796875" lon="118.827872537076473236083984375">
        <ele>7.19999980926513671875</ele>
        <time>2025-12-14T03:42:09.000Z</time>
        <extensions>
          <ns3:TrackPointExtension>
            <ns3:atemp>25.0</ns3:atemp>
            <ns3:hr>120</ns3:hr>
          </ns3:TrackPointExtension>
        </extensions>
      </trkpt>
      <trkpt lat="31.9623159058392047882080078125" lon="118.828038163483142852783203125">
        <ele>7.599999904632568359375</ele>
        <time>2025-12-14T03:42:14.000Z</time>
        <extensions>
          <ns3:TrackPointExtension>
            <ns3:atemp>25.0</ns3:atemp>
            <ns3:hr>120</ns3:hr>
          </ns3:TrackPointExtension>
        </extensions>
      </trkpt>
      <trkpt lat="31.962315738201141357421875" lon="118.8280842639505863189697265625">
        <ele>7.400000095367431640625</ele>
        <time>2025-12-14T03:42:17.000Z</time>
        <extensions>
          <ns3:TrackPointExtension>
            <ns3:atemp>25.0</ns3:atemp>
            <ns3:hr>116</ns3:hr>
          </ns3:TrackPointExtension>
        </extensions>
      </trkpt>
      <trkpt lat="31.9623138941824436187744140625" lon="118.828128688037395477294921875">
        <ele>7.400000095367431640625</ele>
        <time>2025-12-14T03:42:19.000Z</time>
        <extensions>
          <ns3:TrackPointExtension>
            <ns3:atemp>25.0</ns3:atemp>
            <ns3:hr>113</ns3:hr>
          </ns3:TrackPointExtension>
        </extensions>
      </trkpt>
      <trkpt lat="31.96231515146791934967041015625" lon="118.82816095836460590362548828125">
        <ele>7.400000095367431640625</ele>
        <time>2025-12-14T03:42:20.000Z</time>
        <extensions>
          <ns3:TrackPointExtension>
            <ns3:atemp>25.0</ns3:atemp>
            <ns3:hr>112</ns3:hr>
          </ns3:TrackPointExtension>
        </extensions>
      </trkpt>
      <trkpt lat="31.96232403628528118133544921875" lon="118.82836614735424518585205078125">
        <ele>7.599999904632568359375</ele>
        <time>2025-12-14T03:42:26.000Z</time>
        <extensions>
          <ns3:TrackPointExtension>
            <ns3:atemp>25.0</ns3:atemp>
            <ns3:hr>112</ns3:hr>
          </ns3:TrackPointExtension>
        </extensions>
      </trkpt>
      <trkpt lat="31.962310038506984710693359375" lon="118.82844929583370685577392578125">
        <ele>7.599999904632568359375</ele>
        <time>2025-12-14T03:42:29.000Z</time>
        <extensions>
          <ns3:TrackPointExtension>
            <ns3:atemp>25.0</ns3:atemp>
            <ns3:hr>113</ns3:hr>
          </ns3:TrackPointExtension>
        </extensions>
      </trkpt>
      <trkpt lat="31.96229285560548305511474609375" lon="118.8284597732126712799072265625">
        <ele>7.599999904632568359375</ele>
        <time>2025-12-14T03:42:30.000Z</time>
        <extensions>
          <ns3:TrackPointExtension>
            <ns3:atemp>25.0</ns3:atemp>
            <ns3:hr>112</ns3:hr>
          </ns3:TrackPointExtension>
        </extensions>
      </trkpt>
      <trkpt lat="31.9621848128736019134521484375" lon="118.82845751009881496429443359375">
        <ele>7.400000095367431640625</ele>
        <time>2025-12-14T03:42:35.000Z</time>
        <extensions>
          <ns3:TrackPointExtension>
            <ns3:atemp>25.0</ns3:atemp>
            <ns3:hr>112</ns3:hr>
          </ns3:TrackPointExtension>
        </extensions>
      </trkpt>
      <trkpt lat="31.96216679178178310394287109375" lon="118.82845558226108551025390625">
        <ele>7.599999904632568359375</ele>
        <time>2025-12-14T03:42:39.000Z</time>
        <extensions>
          <ns3:TrackPointExtension>
            <ns3:atemp>25.0</ns3:atemp>
            <ns3:hr>113</ns3:hr>
          </ns3:TrackPointExtension>
        </extensions>
      </trkpt>
      <trkpt lat="31.962168216705322265625" lon="118.8284597732126712799072265625">
        <ele>7.599999904632568359375</ele>
        <time>2025-12-14T03:42:40.000Z</time>
        <extensions>
          <ns3:TrackPointExtension>
            <ns3:atemp>25.0</ns3:atemp>
            <ns3:hr>113</ns3:hr>
          </ns3:TrackPointExtension>
        </extensions>
      </trkpt>
      <trkpt lat="31.962089426815509796142578125" lon="118.82844359613955020904541015625">
        <ele>7.400000095367431640625</ele>
        <time>2025-12-14T03:42:50.000Z</time>
        <extensions>
          <ns3:TrackPointExtension>
            <ns3:atemp>25.0</ns3:atemp>
            <ns3:hr>107</ns3:hr>
          </ns3:TrackPointExtension>
        </extensions>
      </trkpt>
      <trkpt lat="31.96206620894372463226318359375" lon="118.8284383155405521392822265625">
        <ele>7.400000095367431640625</ele>
        <time>2025-12-14T03:42:51.000Z</time>
        <extensions>
          <ns3:TrackPointExtension>
            <ns3:atemp>26.0</ns3:atemp>
            <ns3:hr>108</ns3:hr>
          </ns3:TrackPointExtension>
        </extensions>
      </trkpt>
      <trkpt lat="31.9620406441390514373779296875" lon="118.8284386508166790008544921875">
        <ele>7.400000095367431640625</ele>
        <time>2025-12-14T03:42:52.000Z</time>
        <extensions>
          <ns3:TrackPointExtension>
            <ns3:atemp>26.0</ns3:atemp>
            <ns3:hr>108</ns3:hr>
          </ns3:TrackPointExtension>
        </extensions>
      </trkpt>
      <trkpt lat="31.9619638659060001373291015625" lon="118.828423060476779937744140625">
        <ele>7.400000095367431640625</ele>
        <time>2025-12-14T03:42:56.000Z</time>
        <extensions>
          <ns3:TrackPointExtension>
            <ns3:atemp>26.0</ns3:atemp>
            <ns3:hr>106</ns3:hr>
          </ns3:TrackPointExtension>
        </extensions>
      </trkpt>
      <trkpt lat="31.9619011692702770233154296875" lon="118.8283930532634258270263671875">
        <ele>7.400000095367431640625</ele>
        <time>2025-12-14T03:42:59.000Z</time>
        <extensions>
          <ns3:TrackPointExtension>
            <ns3:atemp>26.0</ns3:atemp>
            <ns3:hr>106</ns3:hr>
          </ns3:TrackPointExtension>
        </extensions>
      </trkpt>
      <trkpt lat="31.9618810527026653289794921875" lon="118.82841493003070354461669921875">
        <ele>7.400000095367431640625</ele>
        <time>2025-12-14T03:43:00.000Z</time>
        <extensions>
          <ns3:TrackPointExtension>
            <ns3:atemp>26.0</ns3:atemp>
            <ns3:hr>107</ns3:hr>
          </ns3:TrackPointExtension>
        </extensions>
      </trkpt>
      <trkpt lat="31.96176127530634403228759765625" lon="118.82851148955523967742919921875">
        <ele>7.400000095367431640625</ele>
        <time>2025-12-14T03:43:05.000Z</time>
        <extensions>
          <ns3:TrackPointExtension>
            <ns3:atemp>25.0</ns3:atemp>
            <ns3:hr>105</ns3:hr>
          </ns3:TrackPointExtension>
        </extensions>
      </trkpt>
      <trkpt lat="31.961702518165111541748046875" lon="118.828532360494136810302734375">
        <ele>7.599999904632568359375</ele>
        <time>2025-12-14T03:43:07.000Z</time>
        <extensions>
          <ns3:TrackPointExtension>
            <ns3:atemp>25.0</ns3:atemp>
            <ns3:hr>101</ns3:hr>
          </ns3:TrackPointExtension>
        </extensions>
      </trkpt>
      <trkpt lat="31.9616094790399074554443359375" lon="118.82854049094021320343017578125">
        <ele>8</ele>
        <time>2025-12-14T03:43:10.000Z</time>
        <extensions>
          <ns3:TrackPointExtension>
            <ns3:atemp>25.0</ns3:atemp>
            <ns3:hr>99</ns3:hr>
          </ns3:TrackPointExtension>
        </extensions>
      </trkpt>
      <trkpt lat="31.961477212607860565185546875" lon="118.82855222560465335845947265625">
        <ele>8.19999980926513671875</ele>
        <time>2025-12-14T03:43:16.000Z</time>
        <extensions>
          <ns3:TrackPointExtension>
            <ns3:atemp>25.0</ns3:atemp>
            <ns3:hr>95</ns3:hr>
          </ns3:TrackPointExtension>
        </extensions>
      </trkpt>
      <trkpt lat="31.96143371053040027618408203125" lon="118.82857401855289936065673828125">
        <ele>8.19999980926513671875</ele>
        <time>2025-12-14T03:43:20.000Z</time>
        <extensions>
          <ns3:TrackPointExtension>
            <ns3:atemp>25.0</ns3:atemp>
            <ns3:hr>94</ns3:hr>
          </ns3:TrackPointExtension>
        </extensions>
      </trkpt>
      <trkpt lat="31.96141862310469150543212890625" lon="118.82857351563870906829833984375">
        <ele>8.19999980926513671875</ele>
        <time>2025-12-14T03:43:21.000Z</time>
        <extensions>
          <ns3:TrackPointExtension>
            <ns3:atemp>25.0</ns3:atemp>
            <ns3:hr>94</ns3:hr>
          </ns3:TrackPointExtension>
        </extensions>
      </trkpt>
      <trkpt lat="31.961312256753444671630859375" lon="118.82857586257159709930419921875">
        <ele>8.19999980926513671875</ele>
        <time>2025-12-14T03:43:26.000Z</time>
        <extensions>
          <ns3:TrackPointExtension>
            <ns3:atemp>25.0</ns3:atemp>
            <ns3:hr>94</ns3:hr>
          </ns3:TrackPointExtension>
        </extensions>
      </trkpt>
      <trkpt lat="31.961290128529071807861328125" lon="118.828574605286121368408203125">
        <ele>8</ele>
        <time>2025-12-14T03:43:27.000Z</time>
        <extensions>
          <ns3:TrackPointExtension>
            <ns3:atemp>25.0</ns3:atemp>
            <ns3:hr>94</ns3:hr>
          </ns3:TrackPointExtension>
        </extensions>
      </trkpt>
      <trkpt lat="31.9612232409417629241943359375" lon="118.8285885192453861236572265625">
        <ele>8</ele>
        <time>2025-12-14T03:43:30.000Z</time>
        <extensions>
          <ns3:TrackPointExtension>
            <ns3:atemp>25.0</ns3:atemp>
            <ns3:hr>95</ns3:hr>
          </ns3:TrackPointExtension>
        </extensions>
      </trkpt>
      <trkpt lat="31.9611156173050403594970703125" lon="118.828581310808658599853515625">
        <ele>8.19999980926513671875</ele>
        <time>2025-12-14T03:43:36.000Z</time>
        <extensions>
          <ns3:TrackPointExtension>
            <ns3:atemp>25.0</ns3:atemp>
            <ns3:hr>95</ns3:hr>
          </ns3:TrackPointExtension>
        </extensions>
      </trkpt>
      <trkpt lat="31.961093656718730926513671875" lon="118.82861383259296417236328125">
        <ele>8</ele>
        <time>2025-12-14T03:43:41.000Z</time>
        <extensions>
          <ns3:TrackPointExtension>
            <ns3:atemp>25.0</ns3:atemp>
            <ns3:hr>93</ns3:hr>
          </ns3:TrackPointExtension>
        </extensions>
      </trkpt>
      <trkpt lat="31.96119884960353374481201171875" lon="118.8285700790584087371826171875">
        <ele>6.400000095367431640625</ele>
        <time>2025-12-14T03:48:39.000Z</time>
        <extensions>
          <ns3:TrackPointExtension>
            <ns3:atemp>26.0</ns3:atemp>
            <ns3:hr>81</ns3:hr>
          </ns3:TrackPointExtension>
        </extensions>
      </trkpt>
      <trkpt lat="31.9612081535160541534423828125" lon="118.82855373434722423553466796875">
        <ele>6.599999904632568359375</ele>
        <time>2025-12-14T03:48:40.000Z</time>
        <extensions>
          <ns3:TrackPointExtension>
            <ns3:atemp>26.0</ns3:atemp>
            <ns3:hr>82</ns3:hr>
          </ns3:TrackPointExtension>
        </extensions>
      </trkpt>
      <trkpt lat="31.9612254202365875244140625" lon="118.8285489566624164581298828125">
        <ele>6.599999904632568359375</ele>
        <time>2025-12-14T03:48:42.000Z</time>
        <extensions>
          <ns3:TrackPointExtension>
            <ns3:atemp>26.0</ns3:atemp>
            <ns3:hr>81</ns3:hr>
          </ns3:TrackPointExtension>
        </extensions>
      </trkpt>
      <trkpt lat="31.9613047130405902862548828125" lon="118.82855884730815887451171875">
        <ele>6.400000095367431640625</ele>
        <time>2025-12-14T03:48:47.000Z</time>
        <extensions>
          <ns3:TrackPointExtension>
            <ns3:atemp>26.0</ns3:atemp>
            <ns3:hr>79</ns3:hr>
          </ns3:TrackPointExtension>
        </extensions>
      </trkpt>
      <trkpt lat="31.961404792964458465576171875" lon="118.82853931747376918792724609375">
        <ele>6.599999904632568359375</ele>
        <time>2025-12-14T03:48:52.000Z</time>
        <extensions>
          <ns3:TrackPointExtension>
            <ns3:atemp>26.0</ns3:atemp>
            <ns3:hr>79</ns3:hr>
          </ns3:TrackPointExtension>
        </extensions>
      </trkpt>
      <trkpt lat="31.96144745685160160064697265625" lon="118.82854870520532131195068359375">
        <ele>7</ele>
        <time>2025-12-14T03:48:54.000Z</time>
        <extensions>
          <ns3:TrackPointExtension>
            <ns3:atemp>26.0</ns3:atemp>
            <ns3:hr>82</ns3:hr>
          </ns3:TrackPointExtension>
        </extensions>
      </trkpt>
      <trkpt lat="31.96150302886962890625" lon="118.82854870520532131195068359375">
        <ele>7.19999980926513671875</ele>
        <time>2025-12-14T03:48:56.000Z</time>
        <extensions>
          <ns3:TrackPointExtension>
            <ns3:atemp>26.0</ns3:atemp>
            <ns3:hr>85</ns3:hr>
          </ns3:TrackPointExtension>
        </extensions>
      </trkpt>
      <trkpt lat="31.9615652225911617279052734375" lon="118.82855172269046306610107421875">
        <ele>7.19999980926513671875</ele>
        <time>2025-12-14T03:48:58.000Z</time>
        <extensions>
          <ns3:TrackPointExtension>
            <ns3:atemp>26.0</ns3:atemp>
            <ns3:hr>87</ns3:hr>
          </ns3:TrackPointExtension>
        </extensions>
      </trkpt>
      <trkpt lat="31.96173177100718021392822265625" lon="118.82852741517126560211181640625">
        <ele>7.19999980926513671875</ele>
        <time>2025-12-14T03:49:03.000Z</time>
        <extensions>
          <ns3:TrackPointExtension>
            <ns3:atemp>26.0</ns3:atemp>
            <ns3:hr>87</ns3:hr>
          </ns3:TrackPointExtension>
        </extensions>
      </trkpt>
      <trkpt lat="31.961829252541065216064453125" lon="118.8284570910036563873291015625">
        <ele>7</ele>
        <time>2025-12-14T03:49:07.000Z</time>
        <extensions>
          <ns3:TrackPointExtension>
            <ns3:atemp>26.0</ns3:atemp>
            <ns3:hr>88</ns3:hr>
          </ns3:TrackPointExtension>
        </extensions>
      </trkpt>
      <trkpt lat="31.96188113652169704437255859375" lon="118.82844778709113597869873046875">
        <ele>6.599999904632568359375</ele>
        <time>2025-12-14T03:49:09.000Z</time>
        <extensions>
          <ns3:TrackPointExtension>
            <ns3:atemp>26.0</ns3:atemp>
            <ns3:hr>88</ns3:hr>
          </ns3:TrackPointExtension>
        </extensions>
      </trkpt>
      <trkpt lat="31.96192187257111072540283203125" lon="118.828463964164257049560546875">
        <ele>6.80000019073486328125</ele>
        <time>2025-12-14T03:49:11.000Z</time>
        <extensions>
          <ns3:TrackPointExtension>
            <ns3:atemp>26.0</ns3:atemp>
            <ns3:hr>88</ns3:hr>
          </ns3:TrackPointExtension>
        </extensions>
      </trkpt>
      <trkpt lat="31.96200015954673290252685546875" lon="118.82847192697227001190185546875">
        <ele>7</ele>
        <time>2025-12-14T03:49:14.000Z</time>
        <extensions>
          <ns3:TrackPointExtension>
            <ns3:atemp>26.0</ns3:atemp>
            <ns3:hr>91</ns3:hr>
          </ns3:TrackPointExtension>
        </extensions>
      </trkpt>
      <trkpt lat="31.9620609283447265625" lon="118.82846354506909847259521484375">
        <ele>7.19999980926513671875</ele>
        <time>2025-12-14T03:49:17.000Z</time>
        <extensions>
          <ns3:TrackPointExtension>
            <ns3:atemp>26.0</ns3:atemp>
            <ns3:hr>91</ns3:hr>
          </ns3:TrackPointExtension>
        </extensions>
      </trkpt>
      <trkpt lat="31.962139047682285308837890625" lon="118.82844745181500911712646484375">
        <ele>7.19999980926513671875</ele>
        <time>2025-12-14T03:49:20.000Z</time>
        <extensions>
          <ns3:TrackPointExtension>
            <ns3:atemp>25.0</ns3:atemp>
            <ns3:hr>89</ns3:hr>
          </ns3:TrackPointExtension>
        </extensions>
      </trkpt>
      <trkpt lat="31.96222898550331592559814453125" lon="118.828395903110504150390625">
        <ele>7</ele>
        <time>2025-12-14T03:49:23.000Z</time>
        <extensions>
          <ns3:TrackPointExtension>
            <ns3:atemp>25.0</ns3:atemp>
            <ns3:hr>89</ns3:hr>
          </ns3:TrackPointExtension>
        </extensions>
      </trkpt>
      <trkpt lat="31.96229956112802028656005859375" lon="118.82823119871318340301513671875">
        <ele>7.19999980926513671875</ele>
        <time>2025-12-14T03:49:27.000Z</time>
        <extensions>
          <ns3:TrackPointExtension>
            <ns3:atemp>25.0</ns3:atemp>
            <ns3:hr>91</ns3:hr>
          </ns3:TrackPointExtension>
        </extensions>
      </trkpt>
      <trkpt lat="31.96230970323085784912109375" lon="118.8281399197876453399658203125">
        <ele>7.19999980926513671875</ele>
        <time>2025-12-14T03:49:29.000Z</time>
        <extensions>
          <ns3:TrackPointExtension>
            <ns3:atemp>25.0</ns3:atemp>
            <ns3:hr>94</ns3:hr>
          </ns3:TrackPointExtension>
        </extensions>
      </trkpt>
      <trkpt lat="31.96231280453503131866455078125" lon="118.82793297059834003448486328125">
        <ele>8</ele>
        <time>2025-12-14T03:49:33.000Z</time>
        <extensions>
          <ns3:TrackPointExtension>
            <ns3:atemp>25.0</ns3:atemp>
            <ns3:hr>96</ns3:hr>
          </ns3:TrackPointExtension>
        </extensions>
      </trkpt>
      <trkpt lat="31.9623115472495555877685546875" lon="118.827779330313205718994140625">
        <ele>7.80000019073486328125</ele>
        <time>2025-12-14T03:49:36.000Z</time>
        <extensions>
          <ns3:TrackPointExtension>
            <ns3:atemp>25.0</ns3:atemp>
            <ns3:hr>96</ns3:hr>
          </ns3:TrackPointExtension>
        </extensions>
      </trkpt>
      <trkpt lat="31.96230727247893810272216796875" lon="118.82762619294226169586181640625">
        <ele>8.19999980926513671875</ele>
        <time>2025-12-14T03:49:39.000Z</time>
        <extensions>
          <ns3:TrackPointExtension>
            <ns3:atemp>24.0</ns3:atemp>
            <ns3:hr>97</ns3:hr>
          </ns3:TrackPointExtension>
        </extensions>
      </trkpt>
      <trkpt lat="31.9622998125851154327392578125" lon="118.8275156356394290924072265625">
        <ele>9</ele>
        <time>2025-12-14T03:49:41.000Z</time>
        <extensions>
          <ns3:TrackPointExtension>
            <ns3:atemp>24.0</ns3:atemp>
            <ns3:hr>97</ns3:hr>
          </ns3:TrackPointExtension>
        </extensions>
      </trkpt>
      <trkpt lat="31.96228229440748691558837890625" lon="118.82729125209152698516845703125">
        <ele>8.6000003814697265625</ele>
        <time>2025-12-14T03:49:45.000Z</time>
        <extensions>
          <ns3:TrackPointExtension>
            <ns3:atemp>24.0</ns3:atemp>
            <ns3:hr>100</ns3:hr>
          </ns3:TrackPointExtension>
        </extensions>
      </trkpt>
      <trkpt lat="31.96227977983653545379638671875" lon="118.82723609916865825653076171875">
        <ele>8.19999980926513671875</ele>
        <time>2025-12-14T03:49:46.000Z</time>
        <extensions>
          <ns3:TrackPointExtension>
            <ns3:atemp>24.0</ns3:atemp>
            <ns3:hr>104</ns3:hr>
          </ns3:TrackPointExtension>
        </extensions>
      </trkpt>
      <trkpt lat="31.9622768461704254150390625" lon="118.82717885076999664306640625">
        <ele>7.80000019073486328125</ele>
        <time>2025-12-14T03:49:47.000Z</time>
        <extensions>
          <ns3:TrackPointExtension>
            <ns3:atemp>24.0</ns3:atemp>
            <ns3:hr>107</ns3:hr>
          </ns3:TrackPointExtension>
        </extensions>
      </trkpt>
      <trkpt lat="31.96227391250431537628173828125" lon="118.8271196745336055755615234375">
        <ele>7.400000095367431640625</ele>
        <time>2025-12-14T03:49:48.000Z</time>
        <extensions>
          <ns3:TrackPointExtension>
            <ns3:atemp>24.0</ns3:atemp>
            <ns3:hr>107</ns3:hr>
          </ns3:TrackPointExtension>
        </extensions>
      </trkpt>
      <trkpt lat="31.9622609205543994903564453125" lon="118.82687416858971118927001953125">
        <ele>7.599999904632568359375</ele>
        <time>2025-12-14T03:49:52.000Z</time>
        <extensions>
          <ns3:TrackPointExtension>
            <ns3:atemp>24.0</ns3:atemp>
            <ns3:hr>108</ns3:hr>
          </ns3:TrackPointExtension>
        </extensions>
      </trkpt>
      <trkpt lat="31.9622558914124965667724609375" lon="118.82674441672861576080322265625">
        <ele>7.19999980926513671875</ele>
        <time>2025-12-14T03:49:54.000Z</time>
        <extensions>
          <ns3:TrackPointExtension>
            <ns3:atemp>24.0</ns3:atemp>
            <ns3:hr>108</ns3:hr>
          </ns3:TrackPointExtension>
        </extensions>
      </trkpt>
      <trkpt lat="31.96224801242351531982421875" lon="118.82640637457370758056640625">
        <ele>7.599999904632568359375</ele>
        <time>2025-12-14T03:50:00.000Z</time>
        <extensions>
          <ns3:TrackPointExtension>
            <ns3:atemp>23.0</ns3:atemp>
            <ns3:hr>109</ns3:hr>
          </ns3:TrackPointExtension>
        </extensions>
      </trkpt>
      <trkpt lat="31.9622451625764369964599609375" lon="118.826248459517955780029296875">
        <ele>8</ele>
        <time>2025-12-14T03:50:03.000Z</time>
        <extensions>
          <ns3:TrackPointExtension>
            <ns3:atemp>23.0</ns3:atemp>
            <ns3:hr>110</ns3:hr>
          </ns3:TrackPointExtension>
        </extensions>
      </trkpt>
      <trkpt lat="31.9622434861958026885986328125" lon="118.8259644806385040283203125">
        <ele>8.19999980926513671875</ele>
        <time>2025-12-14T03:50:08.000Z</time>
        <extensions>
          <ns3:TrackPointExtension>
            <ns3:atemp>23.0</ns3:atemp>
            <ns3:hr>111</ns3:hr>
          </ns3:TrackPointExtension>
        </extensions>
      </trkpt>
      <trkpt lat="31.96223937906324863433837890625" lon="118.82572987116873264312744140625">
        <ele>8</ele>
        <time>2025-12-14T03:50:12.000Z</time>
        <extensions>
          <ns3:TrackPointExtension>
            <ns3:atemp>23.0</ns3:atemp>
            <ns3:hr>115</ns3:hr>
          </ns3:TrackPointExtension>
        </extensions>
      </trkpt>
      <trkpt lat="31.96223996579647064208984375" lon="118.8256193138659000396728515625">
        <ele>8.3999996185302734375</ele>
        <time>2025-12-14T03:50:14.000Z</time>
        <extensions>
          <ns3:TrackPointExtension>
            <ns3:atemp>23.0</ns3:atemp>
            <ns3:hr>118</ns3:hr>
          </ns3:TrackPointExtension>
        </extensions>
      </trkpt>
      <trkpt lat="31.962234936654567718505859375" lon="118.825449161231517791748046875">
        <ele>8.80000019073486328125</ele>
        <time>2025-12-14T03:50:17.000Z</time>
        <extensions>
          <ns3:TrackPointExtension>
            <ns3:atemp>23.0</ns3:atemp>
            <ns3:hr>118</ns3:hr>
          </ns3:TrackPointExtension>
        </extensions>
      </trkpt>
      <trkpt lat="31.96223468519747257232666015625" lon="118.82539006881415843963623046875">
        <ele>8.80000019073486328125</ele>
        <time>2025-12-14T03:50:18.000Z</time>
        <extensions>
          <ns3:TrackPointExtension>
            <ns3:atemp>23.0</ns3:atemp>
            <ns3:hr>118</ns3:hr>
          </ns3:TrackPointExtension>
        </extensions>
      </trkpt>
      <trkpt lat="31.962232254445552825927734375" lon="118.8253296352922916412353515625">
        <ele>8.80000019073486328125</ele>
        <time>2025-12-14T03:50:19.000Z</time>
        <extensions>
          <ns3:TrackPointExtension>
            <ns3:atemp>23.0</ns3:atemp>
            <ns3:hr>118</ns3:hr>
          </ns3:TrackPointExtension>
        </extensions>
      </trkpt>
      <trkpt lat="31.96222596801817417144775390625" lon="118.824906013906002044677734375">
        <ele>9.19999980926513671875</ele>
        <time>2025-12-14T03:50:26.000Z</time>
        <extensions>
          <ns3:TrackPointExtension>
            <ns3:atemp>23.0</ns3:atemp>
            <ns3:hr>118</ns3:hr>
          </ns3:TrackPointExtension>
        </extensions>
      </trkpt>
      <trkpt lat="31.962205432355403900146484375" lon="118.82447241805493831634521484375">
        <ele>9.3999996185302734375</ele>
        <time>2025-12-14T03:50:33.000Z</time>
        <extensions>
          <ns3:TrackPointExtension>
            <ns3:atemp>22.0</ns3:atemp>
            <ns3:hr>118</ns3:hr>
          </ns3:TrackPointExtension>
        </extensions>
      </trkpt>
      <trkpt lat="31.962259747087955474853515625" lon="118.82437317632138729095458984375">
        <ele>9.19999980926513671875</ele>
        <time>2025-12-14T03:50:35.000Z</time>
        <extensions>
          <ns3:TrackPointExtension>
            <ns3:atemp>22.0</ns3:atemp>
            <ns3:hr>119</ns3:hr>
          </ns3:TrackPointExtension>
        </extensions>
      </trkpt>
      <trkpt lat="31.96230358444154262542724609375" lon="118.8243613578379154205322265625">
        <ele>9.3999996185302734375</ele>
        <time>2025-12-14T03:50:36.000Z</time>
        <extensions>
          <ns3:TrackPointExtension>
            <ns3:atemp>22.0</ns3:atemp>
            <ns3:hr>119</ns3:hr>
          </ns3:TrackPointExtension>
        </extensions>
      </trkpt>
      <trkpt lat="31.962349601089954376220703125" lon="118.82436127401888370513916015625">
        <ele>9.6000003814697265625</ele>
        <time>2025-12-14T03:50:37.000Z</time>
        <extensions>
          <ns3:TrackPointExtension>
            <ns3:atemp>22.0</ns3:atemp>
            <ns3:hr>119</ns3:hr>
          </ns3:TrackPointExtension>
        </extensions>
      </trkpt>
      <trkpt lat="31.96244037710130214691162109375" lon="118.82436462678015232086181640625">
        <ele>9.80000019073486328125</ele>
        <time>2025-12-14T03:50:39.000Z</time>
        <extensions>
          <ns3:TrackPointExtension>
            <ns3:atemp>22.0</ns3:atemp>
            <ns3:hr>119</ns3:hr>
          </ns3:TrackPointExtension>
        </extensions>
      </trkpt>
      <trkpt lat="31.9625304825603961944580078125" lon="118.824366219341754913330078125">
        <ele>10</ele>
        <time>2025-12-14T03:50:41.000Z</time>
        <extensions>
          <ns3:TrackPointExtension>
            <ns3:atemp>22.0</ns3:atemp>
            <ns3:hr>118</ns3:hr>
          </ns3:TrackPointExtension>
        </extensions>
      </trkpt>
      <trkpt lat="31.9625780917704105377197265625" lon="118.82436093874275684356689453125">
        <ele>10</ele>
        <time>2025-12-14T03:50:42.000Z</time>
        <extensions>
          <ns3:TrackPointExtension>
            <ns3:atemp>22.0</ns3:atemp>
            <ns3:hr>117</ns3:hr>
          </ns3:TrackPointExtension>
        </extensions>
      </trkpt>
      <trkpt lat="31.96283382363617420196533203125" lon="118.82435314357280731201171875">
        <ele>10.6000003814697265625</ele>
        <time>2025-12-14T03:50:47.000Z</time>
        <extensions>
          <ns3:TrackPointExtension>
            <ns3:atemp>22.0</ns3:atemp>
            <ns3:hr>115</ns3:hr>
          </ns3:TrackPointExtension>
        </extensions>
      </trkpt>
      <trkpt lat="31.96332567371428012847900390625" lon="118.82433227263391017913818359375">
        <ele>9.80000019073486328125</ele>
        <time>2025-12-14T03:50:57.000Z</time>
        <extensions>
          <ns3:TrackPointExtension>
            <ns3:atemp>22.0</ns3:atemp>
            <ns3:hr>116</ns3:hr>
          </ns3:TrackPointExtension>
        </extensions>
      </trkpt>
      <trkpt lat="31.9636878557503223419189453125" lon="118.82432372309267520904541015625">
        <ele>9.80000019073486328125</ele>
        <time>2025-12-14T03:51:05.000Z</time>
        <extensions>
          <ns3:TrackPointExtension>
            <ns3:atemp>22.0</ns3:atemp>
            <ns3:hr>116</ns3:hr>
          </ns3:TrackPointExtension>
        </extensions>
      </trkpt>
      <trkpt lat="31.96372850798070430755615234375" lon="118.8243204541504383087158203125">
        <ele>9.80000019073486328125</ele>
        <time>2025-12-14T03:51:06.000Z</time>
        <extensions>
          <ns3:TrackPointExtension>
            <ns3:atemp>22.0</ns3:atemp>
            <ns3:hr>116</ns3:hr>
          </ns3:TrackPointExtension>
        </extensions>
      </trkpt>
      <trkpt lat="31.9637716747820377349853515625" lon="118.82431768812239170074462890625">
        <ele>9.80000019073486328125</ele>
        <time>2025-12-14T03:51:07.000Z</time>
        <extensions>
          <ns3:TrackPointExtension>
            <ns3:atemp>22.0</ns3:atemp>
            <ns3:hr>112</ns3:hr>
          </ns3:TrackPointExtension>
        </extensions>
      </trkpt>
      <trkpt lat="31.96385624818503856658935546875" lon="118.824321292340755462646484375">
        <ele>9.80000019073486328125</ele>
        <time>2025-12-14T03:51:09.000Z</time>
        <extensions>
          <ns3:TrackPointExtension>
            <ns3:atemp>22.0</ns3:atemp>
            <ns3:hr>109</ns3:hr>
          </ns3:TrackPointExtension>
        </extensions>
      </trkpt>
      <trkpt lat="31.96398482657968997955322265625" lon="118.82431047968566417694091796875">
        <ele>10</ele>
        <time>2025-12-14T03:51:12.000Z</time>
        <extensions>
          <ns3:TrackPointExtension>
            <ns3:atemp>22.0</ns3:atemp>
            <ns3:hr>105</ns3:hr>
          </ns3:TrackPointExtension>
        </extensions>
      </trkpt>
      <trkpt lat="31.96436293423175811767578125" lon="118.824297487735748291015625">
        <ele>9.6000003814697265625</ele>
        <time>2025-12-14T03:51:20.000Z</time>
        <extensions>
          <ns3:TrackPointExtension>
            <ns3:atemp>23.0</ns3:atemp>
            <ns3:hr>106</ns3:hr>
          </ns3:TrackPointExtension>
        </extensions>
      </trkpt>
      <trkpt lat="31.96461103856563568115234375" lon="118.82429271005094051361083984375">
        <ele>9.80000019073486328125</ele>
        <time>2025-12-14T03:51:25.000Z</time>
        <extensions>
          <ns3:TrackPointExtension>
            <ns3:atemp>23.0</ns3:atemp>
            <ns3:hr>109</ns3:hr>
          </ns3:TrackPointExtension>
        </extensions>
      </trkpt>
      <trkpt lat="31.9647107832133769989013671875" lon="118.82428684271872043609619140625">
        <ele>10</ele>
        <time>2025-12-14T03:51:27.000Z</time>
        <extensions>
          <ns3:TrackPointExtension>
            <ns3:atemp>22.0</ns3:atemp>
            <ns3:hr>110</ns3:hr>
          </ns3:TrackPointExtension>
        </extensions>
      </trkpt>
      <trkpt lat="31.96485805325210094451904296875" lon="118.824288435280323028564453125">
        <ele>10</ele>
        <time>2025-12-14T03:51:30.000Z</time>
        <extensions>
          <ns3:TrackPointExtension>
            <ns3:atemp>22.0</ns3:atemp>
            <ns3:hr>114</ns3:hr>
          </ns3:TrackPointExtension>
        </extensions>
      </trkpt>
      <trkpt lat="31.965049915015697479248046875" lon="118.8242738507688045501708984375">
        <ele>10.19999980926513671875</ele>
        <time>2025-12-14T03:51:34.000Z</time>
        <extensions>
          <ns3:TrackPointExtension>
            <ns3:atemp>22.0</ns3:atemp>
            <ns3:hr>117</ns3:hr>
          </ns3:TrackPointExtension>
        </extensions>
      </trkpt>
      <trkpt lat="31.96542802266776561737060546875" lon="118.82426907308399677276611328125">
        <ele>10.3999996185302734375</ele>
        <time>2025-12-14T03:51:41.000Z</time>
        <extensions>
          <ns3:TrackPointExtension>
            <ns3:atemp>22.0</ns3:atemp>
            <ns3:hr>116</ns3:hr>
          </ns3:TrackPointExtension>
        </extensions>
      </trkpt>
      <trkpt lat="31.96579179726541042327880859375" lon="118.82428114302456378936767578125">
        <ele>11</ele>
        <time>2025-12-14T03:51:47.000Z</time>
        <extensions>
          <ns3:TrackPointExtension>
            <ns3:atemp>22.0</ns3:atemp>
            <ns3:hr>118</ns3:hr>
          </ns3:TrackPointExtension>
        </extensions>
      </trkpt>
      <trkpt lat="31.96590981446206569671630859375" lon="118.8242720067501068115234375">
        <ele>11.3999996185302734375</ele>
        <time>2025-12-14T03:51:49.000Z</time>
        <extensions>
          <ns3:TrackPointExtension>
            <ns3:atemp>22.0</ns3:atemp>
            <ns3:hr>121</ns3:hr>
          </ns3:TrackPointExtension>
        </extensions>
      </trkpt>
      <trkpt lat="31.9659714214503765106201171875" lon="118.82428298704326152801513671875">
        <ele>11.6000003814697265625</ele>
        <time>2025-12-14T03:51:50.000Z</time>
        <extensions>
          <ns3:TrackPointExtension>
            <ns3:atemp>22.0</ns3:atemp>
            <ns3:hr>123</ns3:hr>
          </ns3:TrackPointExtension>
        </extensions>
      </trkpt>
      <trkpt lat="31.96608331985771656036376953125" lon="118.824325315654277801513671875">
        <ele>12.3999996185302734375</ele>
        <time>2025-12-14T03:51:52.000Z</time>
        <extensions>
          <ns3:TrackPointExtension>
            <ns3:atemp>21.0</ns3:atemp>
            <ns3:hr>124</ns3:hr>
          </ns3:TrackPointExtension>
        </extensions>
      </trkpt>
      <trkpt lat="31.96623377501964569091796875" lon="118.824388347566127777099609375">
        <ele>12.6000003814697265625</ele>
        <time>2025-12-14T03:51:55.000Z</time>
        <extensions>
          <ns3:TrackPointExtension>
            <ns3:atemp>21.0</ns3:atemp>
            <ns3:hr>125</ns3:hr>
          </ns3:TrackPointExtension>
        </extensions>
      </trkpt>
      <trkpt lat="31.9662688113749027252197265625" lon="118.8244082964956760406494140625">
        <ele>12.80000019073486328125</ele>
        <time>2025-12-14T03:51:56.000Z</time>
        <extensions>
          <ns3:TrackPointExtension>
            <ns3:atemp>21.0</ns3:atemp>
            <ns3:hr>125</ns3:hr>
          </ns3:TrackPointExtension>
        </extensions>
      </trkpt>
      <trkpt lat="31.9663630239665508270263671875" lon="118.82448457181453704833984375">
        <ele>12.6000003814697265625</ele>
        <time>2025-12-14T03:51:59.000Z</time>
        <extensions>
          <ns3:TrackPointExtension>
            <ns3:atemp>21.0</ns3:atemp>
            <ns3:hr>125</ns3:hr>
          </ns3:TrackPointExtension>
        </extensions>
      </trkpt>
      <trkpt lat="31.96648363955318927764892578125" lon="118.82451131008565425872802734375">
        <ele>12.19999980926513671875</ele>
        <time>2025-12-14T03:52:02.000Z</time>
        <extensions>
          <ns3:TrackPointExtension>
            <ns3:atemp>21.0</ns3:atemp>
            <ns3:hr>124</ns3:hr>
          </ns3:TrackPointExtension>
        </extensions>
      </trkpt>
      <trkpt lat="31.966525800526142120361328125" lon="118.82449655793607234954833984375">
        <ele>12.19999980926513671875</ele>
        <time>2025-12-14T03:52:03.000Z</time>
        <extensions>
          <ns3:TrackPointExtension>
            <ns3:atemp>21.0</ns3:atemp>
            <ns3:hr>124</ns3:hr>
          </ns3:TrackPointExtension>
        </extensions>
      </trkpt>
      <trkpt lat="31.966564692556858062744140625" lon="118.824466802179813385009765625">
        <ele>12.19999980926513671875</ele>
        <time>2025-12-14T03:52:04.000Z</time>
        <extensions>
          <ns3:TrackPointExtension>
            <ns3:atemp>21.0</ns3:atemp>
            <ns3:hr>124</ns3:hr>
          </ns3:TrackPointExtension>
        </extensions>
      </trkpt>
      <trkpt lat="31.96664725430309772491455078125" lon="118.82442958652973175048828125">
        <ele>12.3999996185302734375</ele>
        <time>2025-12-14T03:52:06.000Z</time>
        <extensions>
          <ns3:TrackPointExtension>
            <ns3:atemp>21.0</ns3:atemp>
            <ns3:hr>125</ns3:hr>
          </ns3:TrackPointExtension>
        </extensions>
      </trkpt>
      <trkpt lat="31.9666835479438304901123046875" lon="118.8244294188916683197021484375">
        <ele>12.3999996185302734375</ele>
        <time>2025-12-14T03:52:07.000Z</time>
        <extensions>
          <ns3:TrackPointExtension>
            <ns3:atemp>21.0</ns3:atemp>
            <ns3:hr>125</ns3:hr>
          </ns3:TrackPointExtension>
        </extensions>
      </trkpt>
      <trkpt lat="31.96672084741294384002685546875" lon="118.82446034811437129974365234375">
        <ele>12.3999996185302734375</ele>
        <time>2025-12-14T03:52:08.000Z</time>
        <extensions>
          <ns3:TrackPointExtension>
            <ns3:atemp>21.0</ns3:atemp>
            <ns3:hr>125</ns3:hr>
          </ns3:TrackPointExtension>
        </extensions>
      </trkpt>
      <trkpt lat="31.96677147410809993743896484375" lon="118.82452614605426788330078125">
        <ele>12.19999980926513671875</ele>
        <time>2025-12-14T03:52:10.000Z</time>
        <extensions>
          <ns3:TrackPointExtension>
            <ns3:atemp>21.0</ns3:atemp>
            <ns3:hr>124</ns3:hr>
          </ns3:TrackPointExtension>
        </extensions>
      </trkpt>
      <trkpt lat="31.9669252820312976837158203125" lon="118.82471532560884952545166015625">
        <ele>12.3999996185302734375</ele>
        <time>2025-12-14T03:52:16.000Z</time>
        <extensions>
          <ns3:TrackPointExtension>
            <ns3:atemp>21.0</ns3:atemp>
            <ns3:hr>122</ns3:hr>
          </ns3:TrackPointExtension>
        </extensions>
      </trkpt>
      <trkpt lat="31.967086382210254669189453125" lon="118.82497809827327728271484375">
        <ele>11.80000019073486328125</ele>
        <time>2025-12-14T03:52:23.000Z</time>
        <extensions>
          <ns3:TrackPointExtension>
            <ns3:atemp>21.0</ns3:atemp>
            <ns3:hr>120</ns3:hr>
          </ns3:TrackPointExtension>
        </extensions>
      </trkpt>
      <trkpt lat="31.9671879708766937255859375" lon="118.82512436248362064361572265625">
        <ele>12.19999980926513671875</ele>
        <time>2025-12-14T03:52:27.000Z</time>
        <extensions>
          <ns3:TrackPointExtension>
            <ns3:atemp>21.0</ns3:atemp>
            <ns3:hr>121</ns3:hr>
          </ns3:TrackPointExtension>
        </extensions>
      </trkpt>
      <trkpt lat="31.96728494949638843536376953125" lon="118.82521270774304866790771484375">
        <ele>12.19999980926513671875</ele>
        <time>2025-12-14T03:52:30.000Z</time>
        <extensions>
          <ns3:TrackPointExtension>
            <ns3:atemp>22.0</ns3:atemp>
            <ns3:hr>121</ns3:hr>
          </ns3:TrackPointExtension>
        </extensions>
      </trkpt>
      <trkpt lat="31.96745577268302440643310546875" lon="118.825313709676265716552734375">
        <ele>12.19999980926513671875</ele>
        <time>2025-12-14T03:52:35.000Z</time>
        <extensions>
          <ns3:TrackPointExtension>
            <ns3:atemp>22.0</ns3:atemp>
            <ns3:hr>120</ns3:hr>
          </ns3:TrackPointExtension>
        </extensions>
      </trkpt>
      <trkpt lat="31.967615447938442230224609375" lon="118.825314380228519439697265625">
        <ele>12</ele>
        <time>2025-12-14T03:52:39.000Z</time>
        <extensions>
          <ns3:TrackPointExtension>
            <ns3:atemp>22.0</ns3:atemp>
            <ns3:hr>117</ns3:hr>
          </ns3:TrackPointExtension>
        </extensions>
      </trkpt>
      <trkpt lat="31.96765534579753875732421875" lon="118.825312368571758270263671875">
        <ele>12</ele>
        <time>2025-12-14T03:52:40.000Z</time>
        <extensions>
          <ns3:TrackPointExtension>
            <ns3:atemp>22.0</ns3:atemp>
            <ns3:hr>116</ns3:hr>
          </ns3:TrackPointExtension>
        </extensions>
      </trkpt>
      <trkpt lat="31.967847459018230438232421875" lon="118.82527540437877178192138671875">
        <ele>11.80000019073486328125</ele>
        <time>2025-12-14T03:52:45.000Z</time>
        <extensions>
          <ns3:TrackPointExtension>
            <ns3:atemp>22.0</ns3:atemp>
            <ns3:hr>115</ns3:hr>
          </ns3:TrackPointExtension>
        </extensions>
      </trkpt>
      <trkpt lat="31.96802238933742046356201171875" lon="118.825117908418178558349609375">
        <ele>11.80000019073486328125</ele>
        <time>2025-12-14T03:52:51.000Z</time>
        <extensions>
          <ns3:TrackPointExtension>
            <ns3:atemp>22.0</ns3:atemp>
            <ns3:hr>115</ns3:hr>
          </ns3:TrackPointExtension>
        </extensions>
      </trkpt>
      <trkpt lat="31.9681403227150440216064453125" lon="118.82502998225390911102294921875">
        <ele>11.80000019073486328125</ele>
        <time>2025-12-14T03:52:55.000Z</time>
        <extensions>
          <ns3:TrackPointExtension>
            <ns3:atemp>22.0</ns3:atemp>
            <ns3:hr>112</ns3:hr>
          </ns3:TrackPointExtension>
        </extensions>
      </trkpt>
      <trkpt lat="31.96822439320385456085205078125" lon="118.82493945769965648651123046875">
        <ele>11.6000003814697265625</ele>
        <time>2025-12-14T03:52:58.000Z</time>
        <extensions>
          <ns3:TrackPointExtension>
            <ns3:atemp>22.0</ns3:atemp>
            <ns3:hr>109</ns3:hr>
          </ns3:TrackPointExtension>
        </extensions>
      </trkpt>
      <trkpt lat="31.96828390471637248992919921875" lon="118.8248790241777896881103515625">
        <ele>11.3999996185302734375</ele>
        <time>2025-12-14T03:53:00.000Z</time>
        <extensions>
          <ns3:TrackPointExtension>
            <ns3:atemp>22.0</ns3:atemp>
            <ns3:hr>107</ns3:hr>
          </ns3:TrackPointExtension>
        </extensions>
      </trkpt>
      <trkpt lat="31.968375854194164276123046875" lon="118.8247026689350605010986328125">
        <ele>11.3999996185302734375</ele>
        <time>2025-12-14T03:53:04.000Z</time>
        <extensions>
          <ns3:TrackPointExtension>
            <ns3:atemp>22.0</ns3:atemp>
            <ns3:hr>107</ns3:hr>
          </ns3:TrackPointExtension>
        </extensions>
      </trkpt>
      <trkpt lat="31.96842891164124011993408203125" lon="118.8245507888495922088623046875">
        <ele>11.3999996185302734375</ele>
        <time>2025-12-14T03:53:07.000Z</time>
        <extensions>
          <ns3:TrackPointExtension>
            <ns3:atemp>22.0</ns3:atemp>
            <ns3:hr>107</ns3:hr>
          </ns3:TrackPointExtension>
        </extensions>
      </trkpt>
      <trkpt lat="31.96845439262688159942626953125" lon="118.82451281882822513580322265625">
        <ele>11.19999980926513671875</ele>
        <time>2025-12-14T03:53:08.000Z</time>
        <extensions>
          <ns3:TrackPointExtension>
            <ns3:atemp>22.0</ns3:atemp>
            <ns3:hr>106</ns3:hr>
          </ns3:TrackPointExtension>
        </extensions>
      </trkpt>
      <trkpt lat="31.96847719140350818634033203125" lon="118.8244704902172088623046875">
        <ele>11.19999980926513671875</ele>
        <time>2025-12-14T03:53:09.000Z</time>
        <extensions>
          <ns3:TrackPointExtension>
            <ns3:atemp>22.0</ns3:atemp>
            <ns3:hr>106</ns3:hr>
          </ns3:TrackPointExtension>
        </extensions>
      </trkpt>
      <trkpt lat="31.96849194355309009552001953125" lon="118.82443134672939777374267578125">
        <ele>11.19999980926513671875</ele>
        <time>2025-12-14T03:53:10.000Z</time>
        <extensions>
          <ns3:TrackPointExtension>
            <ns3:atemp>22.0</ns3:atemp>
            <ns3:hr>106</ns3:hr>
          </ns3:TrackPointExtension>
        </extensions>
      </trkpt>
      <trkpt lat="31.96853921748697757720947265625" lon="118.8242627866566181182861328125">
        <ele>11.19999980926513671875</ele>
        <time>2025-12-14T03:53:14.000Z</time>
        <extensions>
          <ns3:TrackPointExtension>
            <ns3:atemp>22.0</ns3:atemp>
            <ns3:hr>106</ns3:hr>
          </ns3:TrackPointExtension>
        </extensions>
      </trkpt>
      <trkpt lat="31.96857400238513946533203125" lon="118.8242611102759838104248046875">
        <ele>11.19999980926513671875</ele>
        <time>2025-12-14T03:53:16.000Z</time>
        <extensions>
          <ns3:TrackPointExtension>
            <ns3:atemp>22.0</ns3:atemp>
            <ns3:hr>106</ns3:hr>
          </ns3:TrackPointExtension>
        </extensions>
      </trkpt>
      <trkpt lat="31.9685882516205310821533203125" lon="118.82426588796079158782958984375">
        <ele>11.19999980926513671875</ele>
        <time>2025-12-14T03:53:17.000Z</time>
        <extensions>
          <ns3:TrackPointExtension>
            <ns3:atemp>22.0</ns3:atemp>
            <ns3:hr>106</ns3:hr>
          </ns3:TrackPointExtension>
        </extensions>
      </trkpt>
      <trkpt lat="31.96858431212604045867919921875" lon="118.82426940836012363433837890625">
        <ele>11</ele>
        <time>2025-12-14T03:53:22.000Z</time>
        <extensions>
          <ns3:TrackPointExtension>
            <ns3:atemp>22.0</ns3:atemp>
            <ns3:hr>106</ns3:hr>
          </ns3:TrackPointExtension>
        </extensions>
      </trkpt>
      <trkpt lat="31.96857509203255176544189453125" lon="118.82428986020386219024658203125">
        <ele>11</ele>
        <time>2025-12-14T03:53:23.000Z</time>
        <extensions>
          <ns3:TrackPointExtension>
            <ns3:atemp>23.0</ns3:atemp>
            <ns3:hr>106</ns3:hr>
          </ns3:TrackPointExtension>
        </extensions>
      </trkpt>
      <trkpt lat="31.96846763603389263153076171875" lon="118.8241611979901790618896484375">
        <ele>10</ele>
        <time>2025-12-14T03:56:00.000Z</time>
        <extensions>
          <ns3:TrackPointExtension>
            <ns3:atemp>24.0</ns3:atemp>
            <ns3:hr>70</ns3:hr>
          </ns3:TrackPointExtension>
        </extensions>
      </trkpt>
      <trkpt lat="31.9684729166328907012939453125" lon="118.8241511397063732147216796875">
        <ele>10</ele>
        <time>2025-12-14T03:56:01.000Z</time>
        <extensions>
          <ns3:TrackPointExtension>
            <ns3:atemp>23.0</ns3:atemp>
            <ns3:hr>70</ns3:hr>
          </ns3:TrackPointExtension>
        </extensions>
      </trkpt>
      <trkpt lat="31.9684692285954952239990234375" lon="118.82413990795612335205078125">
        <ele>10</ele>
        <time>2025-12-14T03:56:02.000Z</time>
        <extensions>
          <ns3:TrackPointExtension>
            <ns3:atemp>24.0</ns3:atemp>
            <ns3:hr>70</ns3:hr>
          </ns3:TrackPointExtension>
        </extensions>
      </trkpt>
      <trkpt lat="31.9684739224612712860107421875" lon="118.8240944780409336090087890625">
        <ele>10.3999996185302734375</ele>
        <time>2025-12-14T03:56:07.000Z</time>
        <extensions>
          <ns3:TrackPointExtension>
            <ns3:atemp>23.0</ns3:atemp>
            <ns3:hr>68</ns3:hr>
          </ns3:TrackPointExtension>
        </extensions>
      </trkpt>
      <trkpt lat="31.96847098879516124725341796875" lon="118.82409405894577503204345703125">
        <ele>10.3999996185302734375</ele>
        <time>2025-12-14T03:56:08.000Z</time>
        <extensions>
          <ns3:TrackPointExtension>
            <ns3:atemp>23.0</ns3:atemp>
            <ns3:hr>68</ns3:hr>
          </ns3:TrackPointExtension>
        </extensions>
      </trkpt>
    </trkseg>
  </trk>
</gpx>
