<gpx xmlns:ns3="http://www.garmin.com/xmlschemas/TrackPointExtension/v1" xmlns="http://www.topografix.com/GPX/1/1" xmlns:xsi="http://www.w3.org/2001/XMLSchema-instance" xmlns:ns2="http://www.garmin.com/xmlschemas/GpxExtensions/v3" creator="Garmin Connect" version="1.1" xsi:schemaLocation="http://www.topografix.com/GPX/1/1 http://www.topografix.com/GPX/11.xsd">
  <extensions>
<distance>3106.26</distance>
<average_hr>114.0</average_hr>
<average_speed>4.724999904632568</average_speed>
<start_time>2025-12-16T11:10:52+00:00</start_time>
<end_time>2025-12-16T11:21:49.389000+00:00</end_time>
<moving_time>641.0</moving_time>
<elapsed_time>827.383</elapsed_time>
</extensions>
<metadata>
    <link href="connect.garmin.com">
      <text>Garmin Connect</text>
    </link>
    <time>2025-12-16T11:10:52.000Z</time>
  </metadata>
  <trk>
    <name>南京市 骑行</name>
    <type>cycling</type>
    <trkseg>
      <trkpt lat="31.96910365484654903411865234375" lon="118.799771703779697418212890625">
        <ele>14.19999980926513671875</ele>
        <time>2025-12-16T11:10:52.000Z</time>
        <extensions>
          <ns3:TrackPointExtension>
            <ns3:atemp>28.0</ns3:atemp>
            <ns3:hr>106</ns3:hr>
          </ns3:TrackPointExtension>
        </extensions>
      </trkpt>
      <trkpt lat="31.96901480667293071746826171875" lon="118.79991210065782070159912109375">
        <ele>14.19999980926513671875</ele>
        <time>2025-12-16T11:10:56.000Z</time>
        <extensions>
          <ns3:TrackPointExtension>
            <ns3:atemp>28.0</ns3:atemp>
            <ns3:hr>106</ns3:hr>
          </ns3:TrackPointExtension>
        </extensions>
      </trkpt>
      <trkpt lat="31.968928389251232147216796875" lon="118.800033219158649444580078125">
        <ele>14.3999996185302734375</ele>
        <time>2025-12-16T11:10:59.000Z</time>
        <extensions>
          <ns3:TrackPointExtension>
            <ns3:atemp>28.0</ns3:atemp>
            <ns3:hr>103</ns3:hr>
          </ns3:TrackPointExtension>
        </extensions>
      </trkpt>
      <trkpt lat="31.968836523592472076416015625" lon="118.800133131444454193115234375">
        <ele>14.3999996185302734375</ele>
        <time>2025-12-16T11:11:02.000Z</time>
        <extensions>
          <ns3:TrackPointExtension>
            <ns3:atemp>28.0</ns3:atemp>
            <ns3:hr>103</ns3:hr>
          </ns3:TrackPointExtension>
        </extensions>
      </trkpt>
      <trkpt lat="31.96870182640850543975830078125" lon="118.8002218119800090789794921875">
        <ele>14.6000003814697265625</ele>
        <time>2025-12-16T11:11:06.000Z</time>
        <extensions>
          <ns3:TrackPointExtension>
            <ns3:atemp>28.0</ns3:atemp>
            <ns3:hr>106</ns3:hr>
          </ns3:TrackPointExtension>
        </extensions>
      </trkpt>
      <trkpt lat="31.968623958528041839599609375" lon="118.800267912447452545166015625">
        <ele>14.6000003814697265625</ele>
        <time>2025-12-16T11:11:09.000Z</time>
        <extensions>
          <ns3:TrackPointExtension>
            <ns3:atemp>27.0</ns3:atemp>
            <ns3:hr>108</ns3:hr>
          </ns3:TrackPointExtension>
        </extensions>
      </trkpt>
      <trkpt lat="31.96860258467495441436767578125" lon="118.80027805455029010772705078125">
        <ele>14.6000003814697265625</ele>
        <time>2025-12-16T11:11:10.000Z</time>
        <extensions>
          <ns3:TrackPointExtension>
            <ns3:atemp>27.0</ns3:atemp>
            <ns3:hr>110</ns3:hr>
          </ns3:TrackPointExtension>
        </extensions>
      </trkpt>
      <trkpt lat="31.96858280338346958160400390625" lon="118.80028811283409595489501953125">
        <ele>14.6000003814697265625</ele>
        <time>2025-12-16T11:11:11.000Z</time>
        <extensions>
          <ns3:TrackPointExtension>
            <ns3:atemp>27.0</ns3:atemp>
            <ns3:hr>113</ns3:hr>
          </ns3:TrackPointExtension>
        </extensions>
      </trkpt>
      <trkpt lat="31.96853670291602611541748046875" lon="118.8002952374517917633056640625">
        <ele>14.6000003814697265625</ele>
        <time>2025-12-16T11:11:12.000Z</time>
        <extensions>
          <ns3:TrackPointExtension>
            <ns3:atemp>27.0</ns3:atemp>
            <ns3:hr>113</ns3:hr>
          </ns3:TrackPointExtension>
        </extensions>
      </trkpt>
      <trkpt lat="31.96844852529466152191162109375" lon="118.8003415055572986602783203125">
        <ele>14.6000003814697265625</ele>
        <time>2025-12-16T11:11:14.000Z</time>
        <extensions>
          <ns3:TrackPointExtension>
            <ns3:atemp>27.0</ns3:atemp>
            <ns3:hr>111</ns3:hr>
          </ns3:TrackPointExtension>
        </extensions>
      </trkpt>
      <trkpt lat="31.96823093108832836151123046875" lon="118.80035835318267345428466796875">
        <ele>14.6000003814697265625</ele>
        <time>2025-12-16T11:11:18.000Z</time>
        <extensions>
          <ns3:TrackPointExtension>
            <ns3:atemp>27.0</ns3:atemp>
            <ns3:hr>110</ns3:hr>
          </ns3:TrackPointExtension>
        </extensions>
      </trkpt>
      <trkpt lat="31.9680558331310749053955078125" lon="118.800184763967990875244140625">
        <ele>14.80000019073486328125</ele>
        <time>2025-12-16T11:11:22.000Z</time>
        <extensions>
          <ns3:TrackPointExtension>
            <ns3:atemp>27.0</ns3:atemp>
            <ns3:hr>109</ns3:hr>
          </ns3:TrackPointExtension>
        </extensions>
      </trkpt>
      <trkpt lat="31.9680719263851642608642578125" lon="118.80038349889218807220458984375">
        <ele>14.6000003814697265625</ele>
        <time>2025-12-16T11:11:50.000Z</time>
        <extensions>
          <ns3:TrackPointExtension>
            <ns3:atemp>27.0</ns3:atemp>
            <ns3:hr>101</ns3:hr>
          </ns3:TrackPointExtension>
        </extensions>
      </trkpt>
      <trkpt lat="31.96805021725594997406005859375" lon="118.8003974966704845428466796875">
        <ele>14.6000003814697265625</ele>
        <time>2025-12-16T11:11:51.000Z</time>
        <extensions>
          <ns3:TrackPointExtension>
            <ns3:atemp>27.0</ns3:atemp>
            <ns3:hr>100</ns3:hr>
          </ns3:TrackPointExtension>
        </extensions>
      </trkpt>
      <trkpt lat="31.96800529025495052337646484375" lon="118.8004370592534542083740234375">
        <ele>14.6000003814697265625</ele>
        <time>2025-12-16T11:11:53.000Z</time>
        <extensions>
          <ns3:TrackPointExtension>
            <ns3:atemp>27.0</ns3:atemp>
            <ns3:hr>99</ns3:hr>
          </ns3:TrackPointExtension>
        </extensions>
      </trkpt>
      <trkpt lat="31.96788978762924671173095703125" lon="118.8005413301289081573486328125">
        <ele>14.6000003814697265625</ele>
        <time>2025-12-16T11:11:57.000Z</time>
        <extensions>
          <ns3:TrackPointExtension>
            <ns3:atemp>27.0</ns3:atemp>
            <ns3:hr>97</ns3:hr>
          </ns3:TrackPointExtension>
        </extensions>
      </trkpt>
      <trkpt lat="31.96786279790103435516357421875" lon="118.8005785457789897918701171875">
        <ele>14.6000003814697265625</ele>
        <time>2025-12-16T11:11:58.000Z</time>
        <extensions>
          <ns3:TrackPointExtension>
            <ns3:atemp>27.0</ns3:atemp>
            <ns3:hr>94</ns3:hr>
          </ns3:TrackPointExtension>
        </extensions>
      </trkpt>
      <trkpt lat="31.96778987534344196319580078125" lon="118.80065507255494594573974609375">
        <ele>14.3999996185302734375</ele>
        <time>2025-12-16T11:12:00.000Z</time>
        <extensions>
          <ns3:TrackPointExtension>
            <ns3:atemp>27.0</ns3:atemp>
            <ns3:hr>91</ns3:hr>
          </ns3:TrackPointExtension>
        </extensions>
      </trkpt>
      <trkpt lat="31.96767353452742099761962890625" lon="118.80075934343039989471435546875">
        <ele>14</ele>
        <time>2025-12-16T11:12:03.000Z</time>
        <extensions>
          <ns3:TrackPointExtension>
            <ns3:atemp>27.0</ns3:atemp>
            <ns3:hr>95</ns3:hr>
          </ns3:TrackPointExtension>
        </extensions>
      </trkpt>
      <trkpt lat="31.96753188036382198333740234375" lon="118.800849951803684234619140625">
        <ele>13.6000003814697265625</ele>
        <time>2025-12-16T11:12:06.000Z</time>
        <extensions>
          <ns3:TrackPointExtension>
            <ns3:atemp>27.0</ns3:atemp>
            <ns3:hr>98</ns3:hr>
          </ns3:TrackPointExtension>
        </extensions>
      </trkpt>
      <trkpt lat="31.96746231056749820709228515625" lon="118.800908625125885009765625">
        <ele>13.3999996185302734375</ele>
        <time>2025-12-16T11:12:08.000Z</time>
        <extensions>
          <ns3:TrackPointExtension>
            <ns3:atemp>27.0</ns3:atemp>
            <ns3:hr>99</ns3:hr>
          </ns3:TrackPointExtension>
        </extensions>
      </trkpt>
      <trkpt lat="31.96737111546099185943603515625" lon="118.80095883272588253021240234375">
        <ele>13.3999996185302734375</ele>
        <time>2025-12-16T11:12:10.000Z</time>
        <extensions>
          <ns3:TrackPointExtension>
            <ns3:atemp>27.0</ns3:atemp>
            <ns3:hr>98</ns3:hr>
          </ns3:TrackPointExtension>
        </extensions>
      </trkpt>
      <trkpt lat="31.96727237664163112640380859375" lon="118.8010092079639434814453125">
        <ele>13.19999980926513671875</ele>
        <time>2025-12-16T11:12:12.000Z</time>
        <extensions>
          <ns3:TrackPointExtension>
            <ns3:atemp>27.0</ns3:atemp>
            <ns3:hr>98</ns3:hr>
          </ns3:TrackPointExtension>
        </extensions>
      </trkpt>
      <trkpt lat="31.96689485572278499603271484375" lon="118.801112473011016845703125">
        <ele>13.3999996185302734375</ele>
        <time>2025-12-16T11:12:18.000Z</time>
        <extensions>
          <ns3:TrackPointExtension>
            <ns3:atemp>27.0</ns3:atemp>
            <ns3:hr>98</ns3:hr>
          </ns3:TrackPointExtension>
        </extensions>
      </trkpt>
      <trkpt lat="31.9667935185134410858154296875" lon="118.80115329287946224212646484375">
        <ele>13.6000003814697265625</ele>
        <time>2025-12-16T11:12:20.000Z</time>
        <extensions>
          <ns3:TrackPointExtension>
            <ns3:atemp>27.0</ns3:atemp>
            <ns3:hr>101</ns3:hr>
          </ns3:TrackPointExtension>
        </extensions>
      </trkpt>
      <trkpt lat="31.96671162731945514678955078125" lon="118.80118514411151409149169921875">
        <ele>13.6000003814697265625</ele>
        <time>2025-12-16T11:12:22.000Z</time>
        <extensions>
          <ns3:TrackPointExtension>
            <ns3:atemp>27.0</ns3:atemp>
            <ns3:hr>104</ns3:hr>
          </ns3:TrackPointExtension>
        </extensions>
      </trkpt>
      <trkpt lat="31.9666493497788906097412109375" lon="118.80118698813021183013916015625">
        <ele>13.3999996185302734375</ele>
        <time>2025-12-16T11:12:23.000Z</time>
        <extensions>
          <ns3:TrackPointExtension>
            <ns3:atemp>27.0</ns3:atemp>
            <ns3:hr>104</ns3:hr>
          </ns3:TrackPointExtension>
        </extensions>
      </trkpt>
      <trkpt lat="31.96661808528006076812744140625" lon="118.8011974655091762542724609375">
        <ele>13.3999996185302734375</ele>
        <time>2025-12-16T11:12:24.000Z</time>
        <extensions>
          <ns3:TrackPointExtension>
            <ns3:atemp>27.0</ns3:atemp>
            <ns3:hr>104</ns3:hr>
          </ns3:TrackPointExtension>
        </extensions>
      </trkpt>
      <trkpt lat="31.96655354462563991546630859375" lon="118.8012293167412281036376953125">
        <ele>13.3999996185302734375</ele>
        <time>2025-12-16T11:12:26.000Z</time>
        <extensions>
          <ns3:TrackPointExtension>
            <ns3:atemp>27.0</ns3:atemp>
            <ns3:hr>104</ns3:hr>
          </ns3:TrackPointExtension>
        </extensions>
      </trkpt>
      <trkpt lat="31.96647324599325656890869140625" lon="118.8013661094009876251220703125">
        <ele>13.6000003814697265625</ele>
        <time>2025-12-16T11:12:31.000Z</time>
        <extensions>
          <ns3:TrackPointExtension>
            <ns3:atemp>27.0</ns3:atemp>
            <ns3:hr>104</ns3:hr>
          </ns3:TrackPointExtension>
        </extensions>
      </trkpt>
      <trkpt lat="31.96644692681729793548583984375" lon="118.8015951029956340789794921875">
        <ele>13.80000019073486328125</ele>
        <time>2025-12-16T11:12:36.000Z</time>
        <extensions>
          <ns3:TrackPointExtension>
            <ns3:atemp>27.0</ns3:atemp>
            <ns3:hr>104</ns3:hr>
          </ns3:TrackPointExtension>
        </extensions>
      </trkpt>
      <trkpt lat="31.966488249599933624267578125" lon="118.801789395511150360107421875">
        <ele>13.3999996185302734375</ele>
        <time>2025-12-16T11:12:40.000Z</time>
        <extensions>
          <ns3:TrackPointExtension>
            <ns3:atemp>27.0</ns3:atemp>
            <ns3:hr>104</ns3:hr>
          </ns3:TrackPointExtension>
        </extensions>
      </trkpt>
      <trkpt lat="31.966503001749515533447265625" lon="118.801846392452716827392578125">
        <ele>13.19999980926513671875</ele>
        <time>2025-12-16T11:12:41.000Z</time>
        <extensions>
          <ns3:TrackPointExtension>
            <ns3:atemp>27.0</ns3:atemp>
            <ns3:hr>104</ns3:hr>
          </ns3:TrackPointExtension>
        </extensions>
      </trkpt>
      <trkpt lat="31.9666081108152866363525390625" lon="118.80209156312048435211181640625">
        <ele>13.3999996185302734375</ele>
        <time>2025-12-16T11:12:45.000Z</time>
        <extensions>
          <ns3:TrackPointExtension>
            <ns3:atemp>27.0</ns3:atemp>
            <ns3:hr>105</ns3:hr>
          </ns3:TrackPointExtension>
        </extensions>
      </trkpt>
      <trkpt lat="31.96673811413347721099853515625" lon="118.8023273460566997528076171875">
        <ele>13.3999996185302734375</ele>
        <time>2025-12-16T11:12:50.000Z</time>
        <extensions>
          <ns3:TrackPointExtension>
            <ns3:atemp>27.0</ns3:atemp>
            <ns3:hr>108</ns3:hr>
          </ns3:TrackPointExtension>
        </extensions>
      </trkpt>
      <trkpt lat="31.96678119711577892303466796875" lon="118.8024168647825717926025390625">
        <ele>13.3999996185302734375</ele>
        <time>2025-12-16T11:12:52.000Z</time>
        <extensions>
          <ns3:TrackPointExtension>
            <ns3:atemp>27.0</ns3:atemp>
            <ns3:hr>109</ns3:hr>
          </ns3:TrackPointExtension>
        </extensions>
      </trkpt>
      <trkpt lat="31.9668629206717014312744140625" lon="118.80251300521194934844970703125">
        <ele>13.6000003814697265625</ele>
        <time>2025-12-16T11:12:55.000Z</time>
        <extensions>
          <ns3:TrackPointExtension>
            <ns3:atemp>27.0</ns3:atemp>
            <ns3:hr>113</ns3:hr>
          </ns3:TrackPointExtension>
        </extensions>
      </trkpt>
      <trkpt lat="31.96688815020024776458740234375" lon="118.8025586865842342376708984375">
        <ele>13.6000003814697265625</ele>
        <time>2025-12-16T11:12:56.000Z</time>
        <extensions>
          <ns3:TrackPointExtension>
            <ns3:atemp>27.0</ns3:atemp>
            <ns3:hr>116</ns3:hr>
          </ns3:TrackPointExtension>
        </extensions>
      </trkpt>
      <trkpt lat="31.96693358011543750762939453125" lon="118.8026535697281360626220703125">
        <ele>13.80000019073486328125</ele>
        <time>2025-12-16T11:12:58.000Z</time>
        <extensions>
          <ns3:TrackPointExtension>
            <ns3:atemp>27.0</ns3:atemp>
            <ns3:hr>119</ns3:hr>
          </ns3:TrackPointExtension>
        </extensions>
      </trkpt>
      <trkpt lat="31.96696191094815731048583984375" lon="118.80270905792713165283203125">
        <ele>14</ele>
        <time>2025-12-16T11:12:59.000Z</time>
        <extensions>
          <ns3:TrackPointExtension>
            <ns3:atemp>27.0</ns3:atemp>
            <ns3:hr>117</ns3:hr>
          </ns3:TrackPointExtension>
        </extensions>
      </trkpt>
      <trkpt lat="31.9671220891177654266357421875" lon="118.803023882210254669189453125">
        <ele>14.19999980926513671875</ele>
        <time>2025-12-16T11:13:05.000Z</time>
        <extensions>
          <ns3:TrackPointExtension>
            <ns3:atemp>27.0</ns3:atemp>
            <ns3:hr>117</ns3:hr>
          </ns3:TrackPointExtension>
        </extensions>
      </trkpt>
      <trkpt lat="31.96727639995515346527099609375" lon="118.8033703900873661041259765625">
        <ele>14</ele>
        <time>2025-12-16T11:13:12.000Z</time>
        <extensions>
          <ns3:TrackPointExtension>
            <ns3:atemp>27.0</ns3:atemp>
            <ns3:hr>118</ns3:hr>
          </ns3:TrackPointExtension>
        </extensions>
      </trkpt>
      <trkpt lat="31.96735233999788761138916015625" lon="118.803536854684352874755859375">
        <ele>13.80000019073486328125</ele>
        <time>2025-12-16T11:13:15.000Z</time>
        <extensions>
          <ns3:TrackPointExtension>
            <ns3:atemp>27.0</ns3:atemp>
            <ns3:hr>118</ns3:hr>
          </ns3:TrackPointExtension>
        </extensions>
      </trkpt>
      <trkpt lat="31.967433057725429534912109375" lon="118.80369954742491245269775390625">
        <ele>13.6000003814697265625</ele>
        <time>2025-12-16T11:13:18.000Z</time>
        <extensions>
          <ns3:TrackPointExtension>
            <ns3:atemp>27.0</ns3:atemp>
            <ns3:hr>118</ns3:hr>
          </ns3:TrackPointExtension>
        </extensions>
      </trkpt>
      <trkpt lat="31.96756976656615734100341796875" lon="118.80408863537013530731201171875">
        <ele>14</ele>
        <time>2025-12-16T11:13:25.000Z</time>
        <extensions>
          <ns3:TrackPointExtension>
            <ns3:atemp>27.0</ns3:atemp>
            <ns3:hr>119</ns3:hr>
          </ns3:TrackPointExtension>
        </extensions>
      </trkpt>
      <trkpt lat="31.9677182100713253021240234375" lon="118.804347552359104156494140625">
        <ele>13.80000019073486328125</ele>
        <time>2025-12-16T11:13:30.000Z</time>
        <extensions>
          <ns3:TrackPointExtension>
            <ns3:atemp>27.0</ns3:atemp>
            <ns3:hr>119</ns3:hr>
          </ns3:TrackPointExtension>
        </extensions>
      </trkpt>
      <trkpt lat="31.96787889115512371063232421875" lon="118.80468760617077350616455078125">
        <ele>13.3999996185302734375</ele>
        <time>2025-12-16T11:13:36.000Z</time>
        <extensions>
          <ns3:TrackPointExtension>
            <ns3:atemp>27.0</ns3:atemp>
            <ns3:hr>117</ns3:hr>
          </ns3:TrackPointExtension>
        </extensions>
      </trkpt>
      <trkpt lat="31.96800478734076023101806640625" lon="118.8049572519958019256591796875">
        <ele>13</ele>
        <time>2025-12-16T11:13:41.000Z</time>
        <extensions>
          <ns3:TrackPointExtension>
            <ns3:atemp>27.0</ns3:atemp>
            <ns3:hr>116</ns3:hr>
          </ns3:TrackPointExtension>
        </extensions>
      </trkpt>
      <trkpt lat="31.96807670406997203826904296875" lon="118.805057667195796966552734375">
        <ele>13</ele>
        <time>2025-12-16T11:13:43.000Z</time>
        <extensions>
          <ns3:TrackPointExtension>
            <ns3:atemp>27.0</ns3:atemp>
            <ns3:hr>116</ns3:hr>
          </ns3:TrackPointExtension>
        </extensions>
      </trkpt>
      <trkpt lat="31.9681061245501041412353515625" lon="118.80511491559445858001708984375">
        <ele>13</ele>
        <time>2025-12-16T11:13:44.000Z</time>
        <extensions>
          <ns3:TrackPointExtension>
            <ns3:atemp>27.0</ns3:atemp>
            <ns3:hr>117</ns3:hr>
          </ns3:TrackPointExtension>
        </extensions>
      </trkpt>
      <trkpt lat="31.968189440667629241943359375" lon="118.80529361777007579803466796875">
        <ele>13</ele>
        <time>2025-12-16T11:13:47.000Z</time>
        <extensions>
          <ns3:TrackPointExtension>
            <ns3:atemp>27.0</ns3:atemp>
            <ns3:hr>117</ns3:hr>
          </ns3:TrackPointExtension>
        </extensions>
      </trkpt>
      <trkpt lat="31.96822263300418853759765625" lon="118.80535329692065715789794921875">
        <ele>13</ele>
        <time>2025-12-16T11:13:48.000Z</time>
        <extensions>
          <ns3:TrackPointExtension>
            <ns3:atemp>27.0</ns3:atemp>
            <ns3:hr>117</ns3:hr>
          </ns3:TrackPointExtension>
        </extensions>
      </trkpt>
      <trkpt lat="31.96832698769867420196533203125" lon="118.8056051731109619140625">
        <ele>13</ele>
        <time>2025-12-16T11:13:52.000Z</time>
        <extensions>
          <ns3:TrackPointExtension>
            <ns3:atemp>27.0</ns3:atemp>
            <ns3:hr>114</ns3:hr>
          </ns3:TrackPointExtension>
        </extensions>
      </trkpt>
      <trkpt lat="31.9683760218322277069091796875" lon="118.80573769100010395050048828125">
        <ele>12.80000019073486328125</ele>
        <time>2025-12-16T11:13:54.000Z</time>
        <extensions>
          <ns3:TrackPointExtension>
            <ns3:atemp>27.0</ns3:atemp>
            <ns3:hr>114</ns3:hr>
          </ns3:TrackPointExtension>
        </extensions>
      </trkpt>
      <trkpt lat="31.968465708196163177490234375" lon="118.805960230529308319091796875">
        <ele>12.80000019073486328125</ele>
        <time>2025-12-16T11:13:58.000Z</time>
        <extensions>
          <ns3:TrackPointExtension>
            <ns3:atemp>27.0</ns3:atemp>
            <ns3:hr>116</ns3:hr>
          </ns3:TrackPointExtension>
        </extensions>
      </trkpt>
      <trkpt lat="31.96850149892270565032958984375" lon="118.80603499710559844970703125">
        <ele>12.80000019073486328125</ele>
        <time>2025-12-16T11:13:59.000Z</time>
        <extensions>
          <ns3:TrackPointExtension>
            <ns3:atemp>27.0</ns3:atemp>
            <ns3:hr>116</ns3:hr>
          </ns3:TrackPointExtension>
        </extensions>
      </trkpt>
      <trkpt lat="31.96858741343021392822265625" lon="118.80622065626084804534912109375">
        <ele>12.80000019073486328125</ele>
        <time>2025-12-16T11:14:02.000Z</time>
        <extensions>
          <ns3:TrackPointExtension>
            <ns3:atemp>27.0</ns3:atemp>
            <ns3:hr>119</ns3:hr>
          </ns3:TrackPointExtension>
        </extensions>
      </trkpt>
      <trkpt lat="31.96865606121718883514404296875" lon="118.80637454800307750701904296875">
        <ele>13</ele>
        <time>2025-12-16T11:14:05.000Z</time>
        <extensions>
          <ns3:TrackPointExtension>
            <ns3:atemp>27.0</ns3:atemp>
            <ns3:hr>120</ns3:hr>
          </ns3:TrackPointExtension>
        </extensions>
      </trkpt>
      <trkpt lat="31.9687109626829624176025390625" lon="118.80651553161442279815673828125">
        <ele>13</ele>
        <time>2025-12-16T11:14:08.000Z</time>
        <extensions>
          <ns3:TrackPointExtension>
            <ns3:atemp>27.0</ns3:atemp>
            <ns3:hr>120</ns3:hr>
          </ns3:TrackPointExtension>
        </extensions>
      </trkpt>
      <trkpt lat="31.9687180034816265106201171875" lon="118.80661033093929290771484375">
        <ele>13</ele>
        <time>2025-12-16T11:14:10.000Z</time>
        <extensions>
          <ns3:TrackPointExtension>
            <ns3:atemp>27.0</ns3:atemp>
            <ns3:hr>120</ns3:hr>
          </ns3:TrackPointExtension>
        </extensions>
      </trkpt>
      <trkpt lat="31.9687055982649326324462890625" lon="118.80665232427418231964111328125">
        <ele>12.80000019073486328125</ele>
        <time>2025-12-16T11:14:11.000Z</time>
        <extensions>
          <ns3:TrackPointExtension>
            <ns3:atemp>27.0</ns3:atemp>
            <ns3:hr>120</ns3:hr>
          </ns3:TrackPointExtension>
        </extensions>
      </trkpt>
      <trkpt lat="31.96859085001051425933837890625" lon="118.80679599009454250335693359375">
        <ele>12.80000019073486328125</ele>
        <time>2025-12-16T11:14:15.000Z</time>
        <extensions>
          <ns3:TrackPointExtension>
            <ns3:atemp>27.0</ns3:atemp>
            <ns3:hr>119</ns3:hr>
          </ns3:TrackPointExtension>
        </extensions>
      </trkpt>
      <trkpt lat="31.96843394078314304351806640625" lon="118.8069390691816806793212890625">
        <ele>12.80000019073486328125</ele>
        <time>2025-12-16T11:14:19.000Z</time>
        <extensions>
          <ns3:TrackPointExtension>
            <ns3:atemp>27.0</ns3:atemp>
            <ns3:hr>116</ns3:hr>
          </ns3:TrackPointExtension>
        </extensions>
      </trkpt>
      <trkpt lat="31.96834425441920757293701171875" lon="118.807010985910892486572265625">
        <ele>12.80000019073486328125</ele>
        <time>2025-12-16T11:14:21.000Z</time>
        <extensions>
          <ns3:TrackPointExtension>
            <ns3:atemp>27.0</ns3:atemp>
            <ns3:hr>114</ns3:hr>
          </ns3:TrackPointExtension>
        </extensions>
      </trkpt>
      <trkpt lat="31.96814996190369129180908203125" lon="118.80715859122574329376220703125">
        <ele>12.6000003814697265625</ele>
        <time>2025-12-16T11:14:26.000Z</time>
        <extensions>
          <ns3:TrackPointExtension>
            <ns3:atemp>27.0</ns3:atemp>
            <ns3:hr>114</ns3:hr>
          </ns3:TrackPointExtension>
        </extensions>
      </trkpt>
      <trkpt lat="31.9680865108966827392578125" lon="118.8072310946881771087646484375">
        <ele>12.6000003814697265625</ele>
        <time>2025-12-16T11:14:28.000Z</time>
        <extensions>
          <ns3:TrackPointExtension>
            <ns3:atemp>27.0</ns3:atemp>
            <ns3:hr>114</ns3:hr>
          </ns3:TrackPointExtension>
        </extensions>
      </trkpt>
      <trkpt lat="31.9679532386362552642822265625" lon="118.80738557316362857818603515625">
        <ele>12.6000003814697265625</ele>
        <time>2025-12-16T11:14:32.000Z</time>
        <extensions>
          <ns3:TrackPointExtension>
            <ns3:atemp>27.0</ns3:atemp>
            <ns3:hr>114</ns3:hr>
          </ns3:TrackPointExtension>
        </extensions>
      </trkpt>
      <trkpt lat="31.96794359944760799407958984375" lon="118.8074416480958461761474609375">
        <ele>12.6000003814697265625</ele>
        <time>2025-12-16T11:14:33.000Z</time>
        <extensions>
          <ns3:TrackPointExtension>
            <ns3:atemp>27.0</ns3:atemp>
            <ns3:hr>114</ns3:hr>
          </ns3:TrackPointExtension>
        </extensions>
      </trkpt>
      <trkpt lat="31.9679535739123821258544921875" lon="118.8074956275522708892822265625">
        <ele>12.6000003814697265625</ele>
        <time>2025-12-16T11:14:34.000Z</time>
        <extensions>
          <ns3:TrackPointExtension>
            <ns3:atemp>27.0</ns3:atemp>
            <ns3:hr>114</ns3:hr>
          </ns3:TrackPointExtension>
        </extensions>
      </trkpt>
      <trkpt lat="31.9680018536746501922607421875" lon="118.80759872496128082275390625">
        <ele>12.19999980926513671875</ele>
        <time>2025-12-16T11:14:36.000Z</time>
        <extensions>
          <ns3:TrackPointExtension>
            <ns3:atemp>27.0</ns3:atemp>
            <ns3:hr>114</ns3:hr>
          </ns3:TrackPointExtension>
        </extensions>
      </trkpt>
      <trkpt lat="31.96822104044258594512939453125" lon="118.80807808600366115570068359375">
        <ele>12.19999980926513671875</ele>
        <time>2025-12-16T11:14:44.000Z</time>
        <extensions>
          <ns3:TrackPointExtension>
            <ns3:atemp>27.0</ns3:atemp>
            <ns3:hr>115</ns3:hr>
          </ns3:TrackPointExtension>
        </extensions>
      </trkpt>
      <trkpt lat="31.96827770210802555084228515625" lon="118.80820163525640964508056640625">
        <ele>12.6000003814697265625</ele>
        <time>2025-12-16T11:14:46.000Z</time>
        <extensions>
          <ns3:TrackPointExtension>
            <ns3:atemp>26.0</ns3:atemp>
            <ns3:hr>118</ns3:hr>
          </ns3:TrackPointExtension>
        </extensions>
      </trkpt>
      <trkpt lat="31.96833285503089427947998046875" lon="118.80832116119563579559326171875">
        <ele>12.80000019073486328125</ele>
        <time>2025-12-16T11:14:48.000Z</time>
        <extensions>
          <ns3:TrackPointExtension>
            <ns3:atemp>26.0</ns3:atemp>
            <ns3:hr>120</ns3:hr>
          </ns3:TrackPointExtension>
        </extensions>
      </trkpt>
      <trkpt lat="31.9684159196913242340087890625" lon="118.8085004501044750213623046875">
        <ele>12.6000003814697265625</ele>
        <time>2025-12-16T11:14:51.000Z</time>
        <extensions>
          <ns3:TrackPointExtension>
            <ns3:atemp>26.0</ns3:atemp>
            <ns3:hr>123</ns3:hr>
          </ns3:TrackPointExtension>
        </extensions>
      </trkpt>
      <trkpt lat="31.96844651363790035247802734375" lon="118.80856624804437160491943359375">
        <ele>12.3999996185302734375</ele>
        <time>2025-12-16T11:14:52.000Z</time>
        <extensions>
          <ns3:TrackPointExtension>
            <ns3:atemp>26.0</ns3:atemp>
            <ns3:hr>124</ns3:hr>
          </ns3:TrackPointExtension>
        </extensions>
      </trkpt>
      <trkpt lat="31.96857408620417118072509765625" lon="118.8088414259254932403564453125">
        <ele>12.19999980926513671875</ele>
        <time>2025-12-16T11:14:56.000Z</time>
        <extensions>
          <ns3:TrackPointExtension>
            <ns3:atemp>26.0</ns3:atemp>
            <ns3:hr>125</ns3:hr>
          </ns3:TrackPointExtension>
        </extensions>
      </trkpt>
      <trkpt lat="31.96866645477712154388427734375" lon="118.8090469501912593841552734375">
        <ele>12.3999996185302734375</ele>
        <time>2025-12-16T11:14:59.000Z</time>
        <extensions>
          <ns3:TrackPointExtension>
            <ns3:atemp>26.0</ns3:atemp>
            <ns3:hr>126</ns3:hr>
          </ns3:TrackPointExtension>
        </extensions>
      </trkpt>
      <trkpt lat="31.9687803648412227630615234375" lon="118.80928985774517059326171875">
        <ele>12.19999980926513671875</ele>
        <time>2025-12-16T11:15:03.000Z</time>
        <extensions>
          <ns3:TrackPointExtension>
            <ns3:atemp>26.0</ns3:atemp>
            <ns3:hr>122</ns3:hr>
          </ns3:TrackPointExtension>
        </extensions>
      </trkpt>
      <trkpt lat="31.96886477060616016387939453125" lon="118.80947518162429332733154296875">
        <ele>11.80000019073486328125</ele>
        <time>2025-12-16T11:15:06.000Z</time>
        <extensions>
          <ns3:TrackPointExtension>
            <ns3:atemp>25.0</ns3:atemp>
            <ns3:hr>121</ns3:hr>
          </ns3:TrackPointExtension>
        </extensions>
      </trkpt>
      <trkpt lat="31.9689939357340335845947265625" lon="118.809723369777202606201171875">
        <ele>12</ele>
        <time>2025-12-16T11:15:10.000Z</time>
        <extensions>
          <ns3:TrackPointExtension>
            <ns3:atemp>25.0</ns3:atemp>
            <ns3:hr>125</ns3:hr>
          </ns3:TrackPointExtension>
        </extensions>
      </trkpt>
      <trkpt lat="31.969048418104648590087890625" lon="118.80983795039355754852294921875">
        <ele>12.19999980926513671875</ele>
        <time>2025-12-16T11:15:12.000Z</time>
        <extensions>
          <ns3:TrackPointExtension>
            <ns3:atemp>25.0</ns3:atemp>
            <ns3:hr>126</ns3:hr>
          </ns3:TrackPointExtension>
        </extensions>
      </trkpt>
      <trkpt lat="31.96903995238244533538818359375" lon="118.809941969811916351318359375">
        <ele>12.19999980926513671875</ele>
        <time>2025-12-16T11:15:14.000Z</time>
        <extensions>
          <ns3:TrackPointExtension>
            <ns3:atemp>25.0</ns3:atemp>
            <ns3:hr>125</ns3:hr>
          </ns3:TrackPointExtension>
        </extensions>
      </trkpt>
      <trkpt lat="31.9690180756151676177978515625" lon="118.80998161621391773223876953125">
        <ele>12.19999980926513671875</ele>
        <time>2025-12-16T11:15:15.000Z</time>
        <extensions>
          <ns3:TrackPointExtension>
            <ns3:atemp>25.0</ns3:atemp>
            <ns3:hr>125</ns3:hr>
          </ns3:TrackPointExtension>
        </extensions>
      </trkpt>
      <trkpt lat="31.96899251081049442291259765625" lon="118.81001665256917476654052734375">
        <ele>12.3999996185302734375</ele>
        <time>2025-12-16T11:15:16.000Z</time>
        <extensions>
          <ns3:TrackPointExtension>
            <ns3:atemp>25.0</ns3:atemp>
            <ns3:hr>125</ns3:hr>
          </ns3:TrackPointExtension>
        </extensions>
      </trkpt>
      <trkpt lat="31.968927718698978424072265625" lon="118.81008672527968883514404296875">
        <ele>12.3999996185302734375</ele>
        <time>2025-12-16T11:15:18.000Z</time>
        <extensions>
          <ns3:TrackPointExtension>
            <ns3:atemp>25.0</ns3:atemp>
            <ns3:hr>125</ns3:hr>
          </ns3:TrackPointExtension>
        </extensions>
      </trkpt>
      <trkpt lat="31.96884029544889926910400390625" lon="118.81014741025865077972412109375">
        <ele>12.3999996185302734375</ele>
        <time>2025-12-16T11:15:20.000Z</time>
        <extensions>
          <ns3:TrackPointExtension>
            <ns3:atemp>25.0</ns3:atemp>
            <ns3:hr>124</ns3:hr>
          </ns3:TrackPointExtension>
        </extensions>
      </trkpt>
      <trkpt lat="31.96875035762786865234375" lon="118.8102096877992153167724609375">
        <ele>12.3999996185302734375</ele>
        <time>2025-12-16T11:15:22.000Z</time>
        <extensions>
          <ns3:TrackPointExtension>
            <ns3:atemp>25.0</ns3:atemp>
            <ns3:hr>121</ns3:hr>
          </ns3:TrackPointExtension>
        </extensions>
      </trkpt>
      <trkpt lat="31.96870484389364719390869140625" lon="118.810242712497711181640625">
        <ele>12.3999996185302734375</ele>
        <time>2025-12-16T11:15:23.000Z</time>
        <extensions>
          <ns3:TrackPointExtension>
            <ns3:atemp>25.0</ns3:atemp>
            <ns3:hr>118</ns3:hr>
          </ns3:TrackPointExtension>
        </extensions>
      </trkpt>
      <trkpt lat="31.9684584997594356536865234375" lon="118.810420744121074676513671875">
        <ele>12.19999980926513671875</ele>
        <time>2025-12-16T11:15:28.000Z</time>
        <extensions>
          <ns3:TrackPointExtension>
            <ns3:atemp>25.0</ns3:atemp>
            <ns3:hr>117</ns3:hr>
          </ns3:TrackPointExtension>
        </extensions>
      </trkpt>
      <trkpt lat="31.968119703233242034912109375" lon="118.810640685260295867919921875">
        <ele>12</ele>
        <time>2025-12-16T11:15:35.000Z</time>
        <extensions>
          <ns3:TrackPointExtension>
            <ns3:atemp>25.0</ns3:atemp>
            <ns3:hr>119</ns3:hr>
          </ns3:TrackPointExtension>
        </extensions>
      </trkpt>
      <trkpt lat="31.96797578595578670501708984375" lon="118.8107263483107089996337890625">
        <ele>11.80000019073486328125</ele>
        <time>2025-12-16T11:15:38.000Z</time>
        <extensions>
          <ns3:TrackPointExtension>
            <ns3:atemp>25.0</ns3:atemp>
            <ns3:hr>122</ns3:hr>
          </ns3:TrackPointExtension>
        </extensions>
      </trkpt>
      <trkpt lat="31.96779306046664714813232421875" lon="118.81082450039684772491455078125">
        <ele>11.80000019073486328125</ele>
        <time>2025-12-16T11:15:42.000Z</time>
        <extensions>
          <ns3:TrackPointExtension>
            <ns3:atemp>25.0</ns3:atemp>
            <ns3:hr>124</ns3:hr>
          </ns3:TrackPointExtension>
        </extensions>
      </trkpt>
      <trkpt lat="31.96765291504561901092529296875" lon="118.810859620571136474609375">
        <ele>11.6000003814697265625</ele>
        <time>2025-12-16T11:15:45.000Z</time>
        <extensions>
          <ns3:TrackPointExtension>
            <ns3:atemp>25.0</ns3:atemp>
            <ns3:hr>121</ns3:hr>
          </ns3:TrackPointExtension>
        </extensions>
      </trkpt>
      <trkpt lat="31.96756289340555667877197265625" lon="118.8108715228736400604248046875">
        <ele>11.6000003814697265625</ele>
        <time>2025-12-16T11:15:47.000Z</time>
        <extensions>
          <ns3:TrackPointExtension>
            <ns3:atemp>25.0</ns3:atemp>
            <ns3:hr>118</ns3:hr>
          </ns3:TrackPointExtension>
        </extensions>
      </trkpt>
      <trkpt lat="31.96751746349036693572998046875" lon="118.81087361834943294525146484375">
        <ele>11.6000003814697265625</ele>
        <time>2025-12-16T11:15:48.000Z</time>
        <extensions>
          <ns3:TrackPointExtension>
            <ns3:atemp>25.0</ns3:atemp>
            <ns3:hr>117</ns3:hr>
          </ns3:TrackPointExtension>
        </extensions>
      </trkpt>
      <trkpt lat="31.9674224965274333953857421875" lon="118.8108904659748077392578125">
        <ele>11.80000019073486328125</ele>
        <time>2025-12-16T11:15:50.000Z</time>
        <extensions>
          <ns3:TrackPointExtension>
            <ns3:atemp>25.0</ns3:atemp>
            <ns3:hr>117</ns3:hr>
          </ns3:TrackPointExtension>
        </extensions>
      </trkpt>
      <trkpt lat="31.96734278462827205657958984375" lon="118.81094276905059814453125">
        <ele>11.80000019073486328125</ele>
        <time>2025-12-16T11:15:52.000Z</time>
        <extensions>
          <ns3:TrackPointExtension>
            <ns3:atemp>25.0</ns3:atemp>
            <ns3:hr>118</ns3:hr>
          </ns3:TrackPointExtension>
        </extensions>
      </trkpt>
      <trkpt lat="31.96730841882526874542236328125" lon="118.81097587756812572479248046875">
        <ele>11.80000019073486328125</ele>
        <time>2025-12-16T11:15:53.000Z</time>
        <extensions>
          <ns3:TrackPointExtension>
            <ns3:atemp>25.0</ns3:atemp>
            <ns3:hr>117</ns3:hr>
          </ns3:TrackPointExtension>
        </extensions>
      </trkpt>
      <trkpt lat="31.96724119596183300018310546875" lon="118.81104477681219577789306640625">
        <ele>11.6000003814697265625</ele>
        <time>2025-12-16T11:15:55.000Z</time>
        <extensions>
          <ns3:TrackPointExtension>
            <ns3:atemp>25.0</ns3:atemp>
            <ns3:hr>117</ns3:hr>
          </ns3:TrackPointExtension>
        </extensions>
      </trkpt>
      <trkpt lat="31.9672189839184284210205078125" lon="118.8111095689237117767333984375">
        <ele>11.6000003814697265625</ele>
        <time>2025-12-16T11:15:57.000Z</time>
        <extensions>
          <ns3:TrackPointExtension>
            <ns3:atemp>25.0</ns3:atemp>
            <ns3:hr>117</ns3:hr>
          </ns3:TrackPointExtension>
        </extensions>
      </trkpt>
      <trkpt lat="31.967223845422267913818359375" lon="118.811117447912693023681640625">
        <ele>11.3999996185302734375</ele>
        <time>2025-12-16T11:15:58.000Z</time>
        <extensions>
          <ns3:TrackPointExtension>
            <ns3:atemp>25.0</ns3:atemp>
            <ns3:hr>117</ns3:hr>
          </ns3:TrackPointExtension>
        </extensions>
      </trkpt>
      <trkpt lat="31.967217139899730682373046875" lon="118.81111568771302700042724609375">
        <ele>11.3999996185302734375</ele>
        <time>2025-12-16T11:16:02.000Z</time>
        <extensions>
          <ns3:TrackPointExtension>
            <ns3:atemp>25.0</ns3:atemp>
            <ns3:hr>116</ns3:hr>
          </ns3:TrackPointExtension>
        </extensions>
      </trkpt>
      <trkpt lat="31.96724404580891132354736328125" lon="118.81131953559815883636474609375">
        <ele>11.19999980926513671875</ele>
        <time>2025-12-16T11:16:35.000Z</time>
        <extensions>
          <ns3:TrackPointExtension>
            <ns3:atemp>26.0</ns3:atemp>
            <ns3:hr>108</ns3:hr>
          </ns3:TrackPointExtension>
        </extensions>
      </trkpt>
      <trkpt lat="31.9672484882175922393798828125" lon="118.81134451366961002349853515625">
        <ele>11.19999980926513671875</ele>
        <time>2025-12-16T11:16:36.000Z</time>
        <extensions>
          <ns3:TrackPointExtension>
            <ns3:atemp>26.0</ns3:atemp>
            <ns3:hr>108</ns3:hr>
          </ns3:TrackPointExtension>
        </extensions>
      </trkpt>
      <trkpt lat="31.96728260256350040435791015625" lon="118.811430595815181732177734375">
        <ele>11.3999996185302734375</ele>
        <time>2025-12-16T11:16:41.000Z</time>
        <extensions>
          <ns3:TrackPointExtension>
            <ns3:atemp>26.0</ns3:atemp>
            <ns3:hr>106</ns3:hr>
          </ns3:TrackPointExtension>
        </extensions>
      </trkpt>
      <trkpt lat="31.96737279184162616729736328125" lon="118.8116124831140041351318359375">
        <ele>11</ele>
        <time>2025-12-16T11:16:47.000Z</time>
        <extensions>
          <ns3:TrackPointExtension>
            <ns3:atemp>26.0</ns3:atemp>
            <ns3:hr>106</ns3:hr>
          </ns3:TrackPointExtension>
        </extensions>
      </trkpt>
      <trkpt lat="31.96739207021892070770263671875" lon="118.81168096326291561126708984375">
        <ele>10.80000019073486328125</ele>
        <time>2025-12-16T11:16:49.000Z</time>
        <extensions>
          <ns3:TrackPointExtension>
            <ns3:atemp>26.0</ns3:atemp>
            <ns3:hr>103</ns3:hr>
          </ns3:TrackPointExtension>
        </extensions>
      </trkpt>
      <trkpt lat="31.9673889689147472381591796875" lon="118.811747767031192779541015625">
        <ele>10.80000019073486328125</ele>
        <time>2025-12-16T11:16:51.000Z</time>
        <extensions>
          <ns3:TrackPointExtension>
            <ns3:atemp>26.0</ns3:atemp>
            <ns3:hr>96</ns3:hr>
          </ns3:TrackPointExtension>
        </extensions>
      </trkpt>
      <trkpt lat="31.9673785753548145294189453125" lon="118.81177224218845367431640625">
        <ele>10.80000019073486328125</ele>
        <time>2025-12-16T11:16:52.000Z</time>
        <extensions>
          <ns3:TrackPointExtension>
            <ns3:atemp>26.0</ns3:atemp>
            <ns3:hr>95</ns3:hr>
          </ns3:TrackPointExtension>
        </extensions>
      </trkpt>
      <trkpt lat="31.96735401637852191925048828125" lon="118.81180853582918643951416015625">
        <ele>10.80000019073486328125</ele>
        <time>2025-12-16T11:16:54.000Z</time>
        <extensions>
          <ns3:TrackPointExtension>
            <ns3:atemp>26.0</ns3:atemp>
            <ns3:hr>96</ns3:hr>
          </ns3:TrackPointExtension>
        </extensions>
      </trkpt>
      <trkpt lat="31.967357285320758819580078125" lon="118.8118676282465457916259765625">
        <ele>10.6000003814697265625</ele>
        <time>2025-12-16T11:16:56.000Z</time>
        <extensions>
          <ns3:TrackPointExtension>
            <ns3:atemp>26.0</ns3:atemp>
            <ns3:hr>96</ns3:hr>
          </ns3:TrackPointExtension>
        </extensions>
      </trkpt>
      <trkpt lat="31.96736591868102550506591796875" lon="118.81208279170095920562744140625">
        <ele>10.6000003814697265625</ele>
        <time>2025-12-16T11:17:01.000Z</time>
        <extensions>
          <ns3:TrackPointExtension>
            <ns3:atemp>26.0</ns3:atemp>
            <ns3:hr>96</ns3:hr>
          </ns3:TrackPointExtension>
        </extensions>
      </trkpt>
      <trkpt lat="31.96731076575815677642822265625" lon="118.81243466399610042572021484375">
        <ele>10.6000003814697265625</ele>
        <time>2025-12-16T11:17:07.000Z</time>
        <extensions>
          <ns3:TrackPointExtension>
            <ns3:atemp>26.0</ns3:atemp>
            <ns3:hr>97</ns3:hr>
          </ns3:TrackPointExtension>
        </extensions>
      </trkpt>
      <trkpt lat="31.96727287955582141876220703125" lon="118.8126112706959247589111328125">
        <ele>10.6000003814697265625</ele>
        <time>2025-12-16T11:17:10.000Z</time>
        <extensions>
          <ns3:TrackPointExtension>
            <ns3:atemp>26.0</ns3:atemp>
            <ns3:hr>100</ns3:hr>
          </ns3:TrackPointExtension>
        </extensions>
      </trkpt>
      <trkpt lat="31.96726642549037933349609375" lon="118.81266541779041290283203125">
        <ele>10.6000003814697265625</ele>
        <time>2025-12-16T11:17:11.000Z</time>
        <extensions>
          <ns3:TrackPointExtension>
            <ns3:atemp>26.0</ns3:atemp>
            <ns3:hr>100</ns3:hr>
          </ns3:TrackPointExtension>
        </extensions>
      </trkpt>
      <trkpt lat="31.96724505163729190826416015625" lon="118.81283967755734920501708984375">
        <ele>10.6000003814697265625</ele>
        <time>2025-12-16T11:17:14.000Z</time>
        <extensions>
          <ns3:TrackPointExtension>
            <ns3:atemp>26.0</ns3:atemp>
            <ns3:hr>102</ns3:hr>
          </ns3:TrackPointExtension>
        </extensions>
      </trkpt>
      <trkpt lat="31.9672119431197643280029296875" lon="118.81302810274064540863037109375">
        <ele>10.6000003814697265625</ele>
        <time>2025-12-16T11:17:17.000Z</time>
        <extensions>
          <ns3:TrackPointExtension>
            <ns3:atemp>26.0</ns3:atemp>
            <ns3:hr>105</ns3:hr>
          </ns3:TrackPointExtension>
        </extensions>
      </trkpt>
      <trkpt lat="31.96719660423696041107177734375" lon="118.813153915107250213623046875">
        <ele>10.6000003814697265625</ele>
        <time>2025-12-16T11:17:19.000Z</time>
        <extensions>
          <ns3:TrackPointExtension>
            <ns3:atemp>26.0</ns3:atemp>
            <ns3:hr>106</ns3:hr>
          </ns3:TrackPointExtension>
        </extensions>
      </trkpt>
      <trkpt lat="31.96718730032444000244140625" lon="118.81328207440674304962158203125">
        <ele>10.3999996185302734375</ele>
        <time>2025-12-16T11:17:21.000Z</time>
        <extensions>
          <ns3:TrackPointExtension>
            <ns3:atemp>26.0</ns3:atemp>
            <ns3:hr>107</ns3:hr>
          </ns3:TrackPointExtension>
        </extensions>
      </trkpt>
      <trkpt lat="31.96717011742293834686279296875" lon="118.8134078867733478546142578125">
        <ele>10</ele>
        <time>2025-12-16T11:17:23.000Z</time>
        <extensions>
          <ns3:TrackPointExtension>
            <ns3:atemp>26.0</ns3:atemp>
            <ns3:hr>108</ns3:hr>
          </ns3:TrackPointExtension>
        </extensions>
      </trkpt>
      <trkpt lat="31.96715637110173702239990234375" lon="118.81355213932693004608154296875">
        <ele>10</ele>
        <time>2025-12-16T11:17:25.000Z</time>
        <extensions>
          <ns3:TrackPointExtension>
            <ns3:atemp>26.0</ns3:atemp>
            <ns3:hr>111</ns3:hr>
          </ns3:TrackPointExtension>
        </extensions>
      </trkpt>
      <trkpt lat="31.96714178659021854400634765625" lon="118.81376604549586772918701171875">
        <ele>10.19999980926513671875</ele>
        <time>2025-12-16T11:17:28.000Z</time>
        <extensions>
          <ns3:TrackPointExtension>
            <ns3:atemp>25.0</ns3:atemp>
            <ns3:hr>113</ns3:hr>
          </ns3:TrackPointExtension>
        </extensions>
      </trkpt>
      <trkpt lat="31.967087723314762115478515625" lon="118.81421179510653018951416015625">
        <ele>10.19999980926513671875</ele>
        <time>2025-12-16T11:17:34.000Z</time>
        <extensions>
          <ns3:TrackPointExtension>
            <ns3:atemp>26.0</ns3:atemp>
            <ns3:hr>116</ns3:hr>
          </ns3:TrackPointExtension>
        </extensions>
      </trkpt>
      <trkpt lat="31.9670771621167659759521484375" lon="118.8143607415258884429931640625">
        <ele>10.19999980926513671875</ele>
        <time>2025-12-16T11:17:36.000Z</time>
        <extensions>
          <ns3:TrackPointExtension>
            <ns3:atemp>25.0</ns3:atemp>
            <ns3:hr>119</ns3:hr>
          </ns3:TrackPointExtension>
        </extensions>
      </trkpt>
      <trkpt lat="31.96705989539623260498046875" lon="118.8145744800567626953125">
        <ele>10</ele>
        <time>2025-12-16T11:17:39.000Z</time>
        <extensions>
          <ns3:TrackPointExtension>
            <ns3:atemp>25.0</ns3:atemp>
            <ns3:hr>122</ns3:hr>
          </ns3:TrackPointExtension>
        </extensions>
      </trkpt>
      <trkpt lat="31.96703416295349597930908203125" lon="118.8148515857756137847900390625">
        <ele>9.80000019073486328125</ele>
        <time>2025-12-16T11:17:43.000Z</time>
        <extensions>
          <ns3:TrackPointExtension>
            <ns3:atemp>26.0</ns3:atemp>
            <ns3:hr>123</ns3:hr>
          </ns3:TrackPointExtension>
        </extensions>
      </trkpt>
      <trkpt lat="31.966988146305084228515625" lon="118.81537847220897674560546875">
        <ele>10.19999980926513671875</ele>
        <time>2025-12-16T11:17:50.000Z</time>
        <extensions>
          <ns3:TrackPointExtension>
            <ns3:atemp>25.0</ns3:atemp>
            <ns3:hr>124</ns3:hr>
          </ns3:TrackPointExtension>
        </extensions>
      </trkpt>
      <trkpt lat="31.9669594801962375640869140625" lon="118.8157407380640506744384765625">
        <ele>10.19999980926513671875</ele>
        <time>2025-12-16T11:17:55.000Z</time>
        <extensions>
          <ns3:TrackPointExtension>
            <ns3:atemp>25.0</ns3:atemp>
            <ns3:hr>121</ns3:hr>
          </ns3:TrackPointExtension>
        </extensions>
      </trkpt>
      <trkpt lat="31.96694078855216503143310546875" lon="118.81595917046070098876953125">
        <ele>10</ele>
        <time>2025-12-16T11:17:58.000Z</time>
        <extensions>
          <ns3:TrackPointExtension>
            <ns3:atemp>25.0</ns3:atemp>
            <ns3:hr>124</ns3:hr>
          </ns3:TrackPointExtension>
        </extensions>
      </trkpt>
      <trkpt lat="31.96690793149173259735107421875" lon="118.8163271360099315643310546875">
        <ele>9.80000019073486328125</ele>
        <time>2025-12-16T11:18:04.000Z</time>
        <extensions>
          <ns3:TrackPointExtension>
            <ns3:atemp>25.0</ns3:atemp>
            <ns3:hr>123</ns3:hr>
          </ns3:TrackPointExtension>
        </extensions>
      </trkpt>
      <trkpt lat="31.9668451510369777679443359375" lon="118.8167780824005603790283203125">
        <ele>9.80000019073486328125</ele>
        <time>2025-12-16T11:18:11.000Z</time>
        <extensions>
          <ns3:TrackPointExtension>
            <ns3:atemp>25.0</ns3:atemp>
            <ns3:hr>122</ns3:hr>
          </ns3:TrackPointExtension>
        </extensions>
      </trkpt>
      <trkpt lat="31.96682117879390716552734375" lon="118.81703364662826061248779296875">
        <ele>9.6000003814697265625</ele>
        <time>2025-12-16T11:18:16.000Z</time>
        <extensions>
          <ns3:TrackPointExtension>
            <ns3:atemp>25.0</ns3:atemp>
            <ns3:hr>121</ns3:hr>
          </ns3:TrackPointExtension>
        </extensions>
      </trkpt>
      <trkpt lat="31.9668163172900676727294921875" lon="118.81705745123326778411865234375">
        <ele>9.6000003814697265625</ele>
        <time>2025-12-16T11:18:17.000Z</time>
        <extensions>
          <ns3:TrackPointExtension>
            <ns3:atemp>25.0</ns3:atemp>
            <ns3:hr>121</ns3:hr>
          </ns3:TrackPointExtension>
        </extensions>
      </trkpt>
      <trkpt lat="31.96681522764265537261962890625" lon="118.81704940460622310638427734375">
        <ele>9.6000003814697265625</ele>
        <time>2025-12-16T11:18:20.000Z</time>
        <extensions>
          <ns3:TrackPointExtension>
            <ns3:atemp>25.0</ns3:atemp>
            <ns3:hr>121</ns3:hr>
          </ns3:TrackPointExtension>
        </extensions>
      </trkpt>
      <trkpt lat="31.96682059206068515777587890625" lon="118.817071616649627685546875">
        <ele>9.3999996185302734375</ele>
        <time>2025-12-16T11:18:23.000Z</time>
        <extensions>
          <ns3:TrackPointExtension>
            <ns3:atemp>25.0</ns3:atemp>
            <ns3:hr>121</ns3:hr>
          </ns3:TrackPointExtension>
        </extensions>
      </trkpt>
      <trkpt lat="31.96680952794849872589111328125" lon="118.8172300346195697784423828125">
        <ele>9</ele>
        <time>2025-12-16T11:19:57.000Z</time>
        <extensions>
          <ns3:TrackPointExtension>
            <ns3:atemp>25.0</ns3:atemp>
            <ns3:hr>96</ns3:hr>
          </ns3:TrackPointExtension>
        </extensions>
      </trkpt>
      <trkpt lat="31.96680835448205471038818359375" lon="118.81727957166731357574462890625">
        <ele>8.80000019073486328125</ele>
        <time>2025-12-16T11:19:58.000Z</time>
        <extensions>
          <ns3:TrackPointExtension>
            <ns3:atemp>25.0</ns3:atemp>
            <ns3:hr>97</ns3:hr>
          </ns3:TrackPointExtension>
        </extensions>
      </trkpt>
      <trkpt lat="31.966779269278049468994140625" lon="118.81759003736078739166259765625">
        <ele>9.6000003814697265625</ele>
        <time>2025-12-16T11:20:03.000Z</time>
        <extensions>
          <ns3:TrackPointExtension>
            <ns3:atemp>25.0</ns3:atemp>
            <ns3:hr>98</ns3:hr>
          </ns3:TrackPointExtension>
        </extensions>
      </trkpt>
      <trkpt lat="31.9667556323111057281494140625" lon="118.81788658909499645233154296875">
        <ele>10</ele>
        <time>2025-12-16T11:20:07.000Z</time>
        <extensions>
          <ns3:TrackPointExtension>
            <ns3:atemp>25.0</ns3:atemp>
            <ns3:hr>101</ns3:hr>
          </ns3:TrackPointExtension>
        </extensions>
      </trkpt>
      <trkpt lat="31.9667502678930759429931640625" lon="118.81796252913773059844970703125">
        <ele>10</ele>
        <time>2025-12-16T11:20:08.000Z</time>
        <extensions>
          <ns3:TrackPointExtension>
            <ns3:atemp>25.0</ns3:atemp>
            <ns3:hr>104</ns3:hr>
          </ns3:TrackPointExtension>
        </extensions>
      </trkpt>
      <trkpt lat="31.9667435623705387115478515625" lon="118.81804148666560649871826171875">
        <ele>10</ele>
        <time>2025-12-16T11:20:09.000Z</time>
        <extensions>
          <ns3:TrackPointExtension>
            <ns3:atemp>25.0</ns3:atemp>
            <ns3:hr>108</ns3:hr>
          </ns3:TrackPointExtension>
        </extensions>
      </trkpt>
      <trkpt lat="31.96673727594316005706787109375" lon="118.81811977364122867584228515625">
        <ele>10.19999980926513671875</ele>
        <time>2025-12-16T11:20:10.000Z</time>
        <extensions>
          <ns3:TrackPointExtension>
            <ns3:atemp>24.0</ns3:atemp>
            <ns3:hr>110</ns3:hr>
          </ns3:TrackPointExtension>
        </extensions>
      </trkpt>
      <trkpt lat="31.966725289821624755859375" lon="118.818197138607501983642578125">
        <ele>10.19999980926513671875</ele>
        <time>2025-12-16T11:20:11.000Z</time>
        <extensions>
          <ns3:TrackPointExtension>
            <ns3:atemp>24.0</ns3:atemp>
            <ns3:hr>112</ns3:hr>
          </ns3:TrackPointExtension>
        </extensions>
      </trkpt>
      <trkpt lat="31.96670324541628360748291015625" lon="118.81835061125457286834716796875">
        <ele>10.3999996185302734375</ele>
        <time>2025-12-16T11:20:13.000Z</time>
        <extensions>
          <ns3:TrackPointExtension>
            <ns3:atemp>24.0</ns3:atemp>
            <ns3:hr>115</ns3:hr>
          </ns3:TrackPointExtension>
        </extensions>
      </trkpt>
      <trkpt lat="31.966694779694080352783203125" lon="118.81842537783086299896240234375">
        <ele>10.3999996185302734375</ele>
        <time>2025-12-16T11:20:14.000Z</time>
        <extensions>
          <ns3:TrackPointExtension>
            <ns3:atemp>24.0</ns3:atemp>
            <ns3:hr>118</ns3:hr>
          </ns3:TrackPointExtension>
        </extensions>
      </trkpt>
      <trkpt lat="31.96666938252747058868408203125" lon="118.81865202449262142181396484375">
        <ele>10.3999996185302734375</ele>
        <time>2025-12-16T11:20:17.000Z</time>
        <extensions>
          <ns3:TrackPointExtension>
            <ns3:atemp>24.0</ns3:atemp>
            <ns3:hr>121</ns3:hr>
          </ns3:TrackPointExtension>
        </extensions>
      </trkpt>
      <trkpt lat="31.966645829379558563232421875" lon="118.8188485801219940185546875">
        <ele>10.19999980926513671875</ele>
        <time>2025-12-16T11:20:20.000Z</time>
        <extensions>
          <ns3:TrackPointExtension>
            <ns3:atemp>24.0</ns3:atemp>
            <ns3:hr>123</ns3:hr>
          </ns3:TrackPointExtension>
        </extensions>
      </trkpt>
      <trkpt lat="31.9665992259979248046875" lon="118.81926633417606353759765625">
        <ele>11</ele>
        <time>2025-12-16T11:20:27.000Z</time>
        <extensions>
          <ns3:TrackPointExtension>
            <ns3:atemp>24.0</ns3:atemp>
            <ns3:hr>126</ns3:hr>
          </ns3:TrackPointExtension>
        </extensions>
      </trkpt>
      <trkpt lat="31.96658958680927753448486328125" lon="118.81937094032764434814453125">
        <ele>11</ele>
        <time>2025-12-16T11:20:29.000Z</time>
        <extensions>
          <ns3:TrackPointExtension>
            <ns3:atemp>24.0</ns3:atemp>
            <ns3:hr>129</ns3:hr>
          </ns3:TrackPointExtension>
        </extensions>
      </trkpt>
      <trkpt lat="31.96655421517789363861083984375" lon="118.81965869106352329254150390625">
        <ele>11.3999996185302734375</ele>
        <time>2025-12-16T11:20:35.000Z</time>
        <extensions>
          <ns3:TrackPointExtension>
            <ns3:atemp>24.0</ns3:atemp>
            <ns3:hr>132</ns3:hr>
          </ns3:TrackPointExtension>
        </extensions>
      </trkpt>
      <trkpt lat="31.966545246541500091552734375" lon="118.81974183954298496246337890625">
        <ele>11.6000003814697265625</ele>
        <time>2025-12-16T11:20:37.000Z</time>
        <extensions>
          <ns3:TrackPointExtension>
            <ns3:atemp>24.0</ns3:atemp>
            <ns3:hr>133</ns3:hr>
          </ns3:TrackPointExtension>
        </extensions>
      </trkpt>
      <trkpt lat="31.96650861762464046478271484375" lon="118.8200721703469753265380859375">
        <ele>11.80000019073486328125</ele>
        <time>2025-12-16T11:20:45.000Z</time>
        <extensions>
          <ns3:TrackPointExtension>
            <ns3:atemp>24.0</ns3:atemp>
            <ns3:hr>130</ns3:hr>
          </ns3:TrackPointExtension>
        </extensions>
      </trkpt>
      <trkpt lat="31.9664766825735569000244140625" lon="118.82032371126115322113037109375">
        <ele>12.19999980926513671875</ele>
        <time>2025-12-16T11:20:52.000Z</time>
        <extensions>
          <ns3:TrackPointExtension>
            <ns3:atemp>24.0</ns3:atemp>
            <ns3:hr>130</ns3:hr>
          </ns3:TrackPointExtension>
        </extensions>
      </trkpt>
      <trkpt lat="31.96644977666437625885009765625" lon="118.82051515392959117889404296875">
        <ele>12.3999996185302734375</ele>
        <time>2025-12-16T11:20:59.000Z</time>
        <extensions>
          <ns3:TrackPointExtension>
            <ns3:atemp>24.0</ns3:atemp>
            <ns3:hr>128</ns3:hr>
          </ns3:TrackPointExtension>
        </extensions>
      </trkpt>
      <trkpt lat="31.96647441945970058441162109375" lon="118.8205774314701557159423828125">
        <ele>12.3999996185302734375</ele>
        <time>2025-12-16T11:21:02.000Z</time>
        <extensions>
          <ns3:TrackPointExtension>
            <ns3:atemp>24.0</ns3:atemp>
            <ns3:hr>127</ns3:hr>
          </ns3:TrackPointExtension>
        </extensions>
      </trkpt>
      <trkpt lat="31.96649738587439060211181640625" lon="118.8205801136791706085205078125">
        <ele>12.3999996185302734375</ele>
        <time>2025-12-16T11:21:03.000Z</time>
        <extensions>
          <ns3:TrackPointExtension>
            <ns3:atemp>24.0</ns3:atemp>
            <ns3:hr>127</ns3:hr>
          </ns3:TrackPointExtension>
        </extensions>
      </trkpt>
      <trkpt lat="31.96659176610410213470458984375" lon="118.82061481475830078125">
        <ele>12.6000003814697265625</ele>
        <time>2025-12-16T11:21:07.000Z</time>
        <extensions>
          <ns3:TrackPointExtension>
            <ns3:atemp>24.0</ns3:atemp>
            <ns3:hr>126</ns3:hr>
          </ns3:TrackPointExtension>
        </extensions>
      </trkpt>
      <trkpt lat="31.9666356034576892852783203125" lon="118.82065974175930023193359375">
        <ele>12.80000019073486328125</ele>
        <time>2025-12-16T11:21:09.000Z</time>
        <extensions>
          <ns3:TrackPointExtension>
            <ns3:atemp>24.0</ns3:atemp>
            <ns3:hr>121</ns3:hr>
          </ns3:TrackPointExtension>
        </extensions>
      </trkpt>
      <trkpt lat="31.966656558215618133544921875" lon="118.82068790495395660400390625">
        <ele>12.80000019073486328125</ele>
        <time>2025-12-16T11:21:10.000Z</time>
        <extensions>
          <ns3:TrackPointExtension>
            <ns3:atemp>24.0</ns3:atemp>
            <ns3:hr>115</ns3:hr>
          </ns3:TrackPointExtension>
        </extensions>
      </trkpt>
      <trkpt lat="31.96666695177555084228515625" lon="118.8207252882421016693115234375">
        <ele>12.80000019073486328125</ele>
        <time>2025-12-16T11:21:11.000Z</time>
        <extensions>
          <ns3:TrackPointExtension>
            <ns3:atemp>24.0</ns3:atemp>
            <ns3:hr>113</ns3:hr>
          </ns3:TrackPointExtension>
        </extensions>
      </trkpt>
      <trkpt lat="31.96666426956653594970703125" lon="118.820789493620395660400390625">
        <ele>12.80000019073486328125</ele>
        <time>2025-12-16T11:21:13.000Z</time>
        <extensions>
          <ns3:TrackPointExtension>
            <ns3:atemp>24.0</ns3:atemp>
            <ns3:hr>112</ns3:hr>
          </ns3:TrackPointExtension>
        </extensions>
      </trkpt>
      <trkpt lat="31.966644823551177978515625" lon="118.820977248251438140869140625">
        <ele>13.19999980926513671875</ele>
        <time>2025-12-16T11:21:19.000Z</time>
        <extensions>
          <ns3:TrackPointExtension>
            <ns3:atemp>25.0</ns3:atemp>
            <ns3:hr>112</ns3:hr>
          </ns3:TrackPointExtension>
        </extensions>
      </trkpt>
      <trkpt lat="31.96662914939224720001220703125" lon="118.8211430422961711883544921875">
        <ele>13.3999996185302734375</ele>
        <time>2025-12-16T11:21:24.000Z</time>
        <extensions>
          <ns3:TrackPointExtension>
            <ns3:atemp>24.0</ns3:atemp>
            <ns3:hr>115</ns3:hr>
          </ns3:TrackPointExtension>
        </extensions>
      </trkpt>
      <trkpt lat="31.9666198454797267913818359375" lon="118.82121370173990726470947265625">
        <ele>13.6000003814697265625</ele>
        <time>2025-12-16T11:21:26.000Z</time>
        <extensions>
          <ns3:TrackPointExtension>
            <ns3:atemp>25.0</ns3:atemp>
            <ns3:hr>117</ns3:hr>
          </ns3:TrackPointExtension>
        </extensions>
      </trkpt>
      <trkpt lat="31.966586150228977203369140625" lon="118.821429871022701263427734375">
        <ele>13.6000003814697265625</ele>
        <time>2025-12-16T11:21:32.000Z</time>
        <extensions>
          <ns3:TrackPointExtension>
            <ns3:atemp>24.0</ns3:atemp>
            <ns3:hr>118</ns3:hr>
          </ns3:TrackPointExtension>
        </extensions>
      </trkpt>
      <trkpt lat="31.9665544666349887847900390625" lon="118.82175299338996410369873046875">
        <ele>13.3999996185302734375</ele>
        <time>2025-12-16T11:21:40.000Z</time>
        <extensions>
          <ns3:TrackPointExtension>
            <ns3:atemp>24.0</ns3:atemp>
            <ns3:hr>118</ns3:hr>
          </ns3:TrackPointExtension>
        </extensions>
      </trkpt>
      <trkpt lat="31.96654600091278553009033203125" lon="118.82182843051850795745849609375">
        <ele>13.3999996185302734375</ele>
        <time>2025-12-16T11:21:42.000Z</time>
        <extensions>
          <ns3:TrackPointExtension>
            <ns3:atemp>24.0</ns3:atemp>
            <ns3:hr>122</ns3:hr>
          </ns3:TrackPointExtension>
        </extensions>
      </trkpt>
      <trkpt lat="31.96651875972747802734375" lon="118.82207904942333698272705078125">
        <ele>13.19999980926513671875</ele>
        <time>2025-12-16T11:21:48.000Z</time>
        <extensions>
          <ns3:TrackPointExtension>
            <ns3:atemp>25.0</ns3:atemp>
            <ns3:hr>120</ns3:hr>
          </ns3:TrackPointExtension>
        </extensions>
      </trkpt>
      <trkpt lat="31.96647928096354007720947265625" lon="118.8223748467862606048583984375">
        <ele>13</ele>
        <time>2025-12-16T11:21:56.000Z</time>
        <extensions>
          <ns3:TrackPointExtension>
            <ns3:atemp>24.0</ns3:atemp>
            <ns3:hr>119</ns3:hr>
          </ns3:TrackPointExtension>
        </extensions>
      </trkpt>
      <trkpt lat="31.966460756957530975341796875" lon="118.82259629666805267333984375">
        <ele>12.6000003814697265625</ele>
        <time>2025-12-16T11:22:02.000Z</time>
        <extensions>
          <ns3:TrackPointExtension>
            <ns3:atemp>24.0</ns3:atemp>
            <ns3:hr>118</ns3:hr>
          </ns3:TrackPointExtension>
        </extensions>
      </trkpt>
      <trkpt lat="31.966460086405277252197265625" lon="118.822693526744842529296875">
        <ele>12</ele>
        <time>2025-12-16T11:22:04.000Z</time>
        <extensions>
          <ns3:TrackPointExtension>
            <ns3:atemp>24.0</ns3:atemp>
            <ns3:hr>118</ns3:hr>
          </ns3:TrackPointExtension>
        </extensions>
      </trkpt>
      <trkpt lat="31.96644424460828304290771484375" lon="118.8229082711040973663330078125">
        <ele>11.6000003814697265625</ele>
        <time>2025-12-16T11:22:09.000Z</time>
        <extensions>
          <ns3:TrackPointExtension>
            <ns3:atemp>24.0</ns3:atemp>
            <ns3:hr>116</ns3:hr>
          </ns3:TrackPointExtension>
        </extensions>
      </trkpt>
      <trkpt lat="31.96645111776888370513916015625" lon="118.82295479066669940948486328125">
        <ele>11.6000003814697265625</ele>
        <time>2025-12-16T11:22:11.000Z</time>
        <extensions>
          <ns3:TrackPointExtension>
            <ns3:atemp>24.0</ns3:atemp>
            <ns3:hr>116</ns3:hr>
          </ns3:TrackPointExtension>
        </extensions>
      </trkpt>
      <trkpt lat="31.96649520657956600189208984375" lon="118.8229729793965816497802734375">
        <ele>11.6000003814697265625</ele>
        <time>2025-12-16T11:22:13.000Z</time>
        <extensions>
          <ns3:TrackPointExtension>
            <ns3:atemp>24.0</ns3:atemp>
            <ns3:hr>117</ns3:hr>
          </ns3:TrackPointExtension>
        </extensions>
      </trkpt>
      <trkpt lat="31.96654449217021465301513671875" lon="118.82296719588339328765869140625">
        <ele>11.19999980926513671875</ele>
        <time>2025-12-16T11:22:15.000Z</time>
        <extensions>
          <ns3:TrackPointExtension>
            <ns3:atemp>24.0</ns3:atemp>
            <ns3:hr>117</ns3:hr>
          </ns3:TrackPointExtension>
        </extensions>
      </trkpt>
      <trkpt lat="31.96656511165201663970947265625" lon="118.82294422946870326995849609375">
        <ele>11.19999980926513671875</ele>
        <time>2025-12-16T11:22:16.000Z</time>
        <extensions>
          <ns3:TrackPointExtension>
            <ns3:atemp>24.0</ns3:atemp>
            <ns3:hr>118</ns3:hr>
          </ns3:TrackPointExtension>
        </extensions>
      </trkpt>
      <trkpt lat="31.96657885797321796417236328125" lon="118.82291438989341259002685546875">
        <ele>11</ele>
        <time>2025-12-16T11:22:17.000Z</time>
        <extensions>
          <ns3:TrackPointExtension>
            <ns3:atemp>24.0</ns3:atemp>
            <ns3:hr>118</ns3:hr>
          </ns3:TrackPointExtension>
        </extensions>
      </trkpt>
      <trkpt lat="31.9665871560573577880859375" lon="118.82274775765836238861083984375">
        <ele>11.19999980926513671875</ele>
        <time>2025-12-16T11:22:22.000Z</time>
        <extensions>
          <ns3:TrackPointExtension>
            <ns3:atemp>24.0</ns3:atemp>
            <ns3:hr>118</ns3:hr>
          </ns3:TrackPointExtension>
        </extensions>
      </trkpt>
      <trkpt lat="31.96662059985101222991943359375" lon="118.8225347734987735748291015625">
        <ele>11.3999996185302734375</ele>
        <time>2025-12-16T11:22:28.000Z</time>
        <extensions>
          <ns3:TrackPointExtension>
            <ns3:atemp>24.0</ns3:atemp>
            <ns3:hr>117</ns3:hr>
          </ns3:TrackPointExtension>
        </extensions>
      </trkpt>
      <trkpt lat="31.9666553847491741180419921875" lon="118.8224776089191436767578125">
        <ele>11.6000003814697265625</ele>
        <time>2025-12-16T11:22:30.000Z</time>
        <extensions>
          <ns3:TrackPointExtension>
            <ns3:atemp>24.0</ns3:atemp>
            <ns3:hr>117</ns3:hr>
          </ns3:TrackPointExtension>
        </extensions>
      </trkpt>
      <trkpt lat="31.9667024910449981689453125" lon="118.82243226282298564910888671875">
        <ele>11.80000019073486328125</ele>
        <time>2025-12-16T11:22:32.000Z</time>
        <extensions>
          <ns3:TrackPointExtension>
            <ns3:atemp>24.0</ns3:atemp>
            <ns3:hr>116</ns3:hr>
          </ns3:TrackPointExtension>
        </extensions>
      </trkpt>
      <trkpt lat="31.966877169907093048095703125" lon="118.8223818875849246978759765625">
        <ele>11.6000003814697265625</ele>
        <time>2025-12-16T11:22:37.000Z</time>
        <extensions>
          <ns3:TrackPointExtension>
            <ns3:atemp>24.0</ns3:atemp>
            <ns3:hr>115</ns3:hr>
          </ns3:TrackPointExtension>
        </extensions>
      </trkpt>
      <trkpt lat="31.96714933030307292938232421875" lon="118.8223698176443576812744140625">
        <ele>11.3999996185302734375</ele>
        <time>2025-12-16T11:22:43.000Z</time>
        <extensions>
          <ns3:TrackPointExtension>
            <ns3:atemp>24.0</ns3:atemp>
            <ns3:hr>113</ns3:hr>
          </ns3:TrackPointExtension>
        </extensions>
      </trkpt>
      <trkpt lat="31.9674825109541416168212890625" lon="118.82235984317958354949951171875">
        <ele>11.6000003814697265625</ele>
        <time>2025-12-16T11:22:50.000Z</time>
        <extensions>
          <ns3:TrackPointExtension>
            <ns3:atemp>24.0</ns3:atemp>
            <ns3:hr>114</ns3:hr>
          </ns3:TrackPointExtension>
        </extensions>
      </trkpt>
      <trkpt lat="31.96766716428101062774658203125" lon="118.82235087454319000244140625">
        <ele>11.3999996185302734375</ele>
        <time>2025-12-16T11:22:54.000Z</time>
        <extensions>
          <ns3:TrackPointExtension>
            <ns3:atemp>24.0</ns3:atemp>
            <ns3:hr>117</ns3:hr>
          </ns3:TrackPointExtension>
        </extensions>
      </trkpt>
      <trkpt lat="31.9677983410656452178955078125" lon="118.82234810851514339447021484375">
        <ele>11.3999996185302734375</ele>
        <time>2025-12-16T11:22:57.000Z</time>
        <extensions>
          <ns3:TrackPointExtension>
            <ns3:atemp>24.0</ns3:atemp>
            <ns3:hr>118</ns3:hr>
          </ns3:TrackPointExtension>
        </extensions>
      </trkpt>
      <trkpt lat="31.96807251311838626861572265625" lon="118.822341151535511016845703125">
        <ele>11.3999996185302734375</ele>
        <time>2025-12-16T11:23:03.000Z</time>
        <extensions>
          <ns3:TrackPointExtension>
            <ns3:atemp>24.0</ns3:atemp>
            <ns3:hr>115</ns3:hr>
          </ns3:TrackPointExtension>
        </extensions>
      </trkpt>
      <trkpt lat="31.968152560293674468994140625" lon="118.82233704440295696258544921875">
        <ele>11.3999996185302734375</ele>
        <time>2025-12-16T11:23:05.000Z</time>
        <extensions>
          <ns3:TrackPointExtension>
            <ns3:atemp>24.0</ns3:atemp>
            <ns3:hr>114</ns3:hr>
          </ns3:TrackPointExtension>
        </extensions>
      </trkpt>
      <trkpt lat="31.96835481561720371246337890625" lon="118.8223584182560443878173828125">
        <ele>11.19999980926513671875</ele>
        <time>2025-12-16T11:23:10.000Z</time>
        <extensions>
          <ns3:TrackPointExtension>
            <ns3:atemp>24.0</ns3:atemp>
            <ns3:hr>114</ns3:hr>
          </ns3:TrackPointExtension>
        </extensions>
      </trkpt>
      <trkpt lat="31.96844349615275859832763671875" lon="118.82238716818392276763916015625">
        <ele>11.19999980926513671875</ele>
        <time>2025-12-16T11:23:12.000Z</time>
        <extensions>
          <ns3:TrackPointExtension>
            <ns3:atemp>24.0</ns3:atemp>
            <ns3:hr>114</ns3:hr>
          </ns3:TrackPointExtension>
        </extensions>
      </trkpt>
      <trkpt lat="31.96861767210066318511962890625" lon="118.82249294780194759368896484375">
        <ele>11.19999980926513671875</ele>
        <time>2025-12-16T11:23:16.000Z</time>
        <extensions>
          <ns3:TrackPointExtension>
            <ns3:atemp>24.0</ns3:atemp>
            <ns3:hr>114</ns3:hr>
          </ns3:TrackPointExtension>
        </extensions>
      </trkpt>
      <trkpt lat="31.96869579143822193145751953125" lon="118.8225659541785717010498046875">
        <ele>11.19999980926513671875</ele>
        <time>2025-12-16T11:23:18.000Z</time>
        <extensions>
          <ns3:TrackPointExtension>
            <ns3:atemp>24.0</ns3:atemp>
            <ns3:hr>114</ns3:hr>
          </ns3:TrackPointExtension>
        </extensions>
      </trkpt>
      <trkpt lat="31.96879285387694835662841796875" lon="118.8226812891662120819091796875">
        <ele>11</ele>
        <time>2025-12-16T11:23:21.000Z</time>
        <extensions>
          <ns3:TrackPointExtension>
            <ns3:atemp>24.0</ns3:atemp>
            <ns3:hr>114</ns3:hr>
          </ns3:TrackPointExtension>
        </extensions>
      </trkpt>
      <trkpt lat="31.968864016234874725341796875" lon="118.8228117115795612335205078125">
        <ele>10.80000019073486328125</ele>
        <time>2025-12-16T11:23:24.000Z</time>
        <extensions>
          <ns3:TrackPointExtension>
            <ns3:atemp>24.0</ns3:atemp>
            <ns3:hr>114</ns3:hr>
          </ns3:TrackPointExtension>
        </extensions>
      </trkpt>
      <trkpt lat="31.96894121356308460235595703125" lon="118.823143802583217620849609375">
        <ele>10.80000019073486328125</ele>
        <time>2025-12-16T11:23:31.000Z</time>
        <extensions>
          <ns3:TrackPointExtension>
            <ns3:atemp>24.0</ns3:atemp>
            <ns3:hr>115</ns3:hr>
          </ns3:TrackPointExtension>
        </extensions>
      </trkpt>
      <trkpt lat="31.96893769316375255584716796875" lon="118.8232388533651828765869140625">
        <ele>10.80000019073486328125</ele>
        <time>2025-12-16T11:23:33.000Z</time>
        <extensions>
          <ns3:TrackPointExtension>
            <ns3:atemp>24.0</ns3:atemp>
            <ns3:hr>115</ns3:hr>
          </ns3:TrackPointExtension>
        </extensions>
      </trkpt>
      <trkpt lat="31.968919672071933746337890625" lon="118.823403976857662200927734375">
        <ele>10.6000003814697265625</ele>
        <time>2025-12-16T11:23:37.000Z</time>
        <extensions>
          <ns3:TrackPointExtension>
            <ns3:atemp>24.0</ns3:atemp>
            <ns3:hr>112</ns3:hr>
          </ns3:TrackPointExtension>
        </extensions>
      </trkpt>
      <trkpt lat="31.9688501022756099700927734375" lon="118.823691643774509429931640625">
        <ele>10.6000003814697265625</ele>
        <time>2025-12-16T11:23:46.000Z</time>
        <extensions>
          <ns3:TrackPointExtension>
            <ns3:atemp>24.0</ns3:atemp>
            <ns3:hr>109</ns3:hr>
          </ns3:TrackPointExtension>
        </extensions>
      </trkpt>
      <trkpt lat="31.96883945725858211517333984375" lon="118.8237457908689975738525390625">
        <ele>10.6000003814697265625</ele>
        <time>2025-12-16T11:23:48.000Z</time>
        <extensions>
          <ns3:TrackPointExtension>
            <ns3:atemp>24.0</ns3:atemp>
            <ns3:hr>106</ns3:hr>
          </ns3:TrackPointExtension>
        </extensions>
      </trkpt>
      <trkpt lat="31.9687991403043270111083984375" lon="118.82379784248769283294677734375">
        <ele>10.6000003814697265625</ele>
        <time>2025-12-16T11:23:51.000Z</time>
        <extensions>
          <ns3:TrackPointExtension>
            <ns3:atemp>24.0</ns3:atemp>
            <ns3:hr>105</ns3:hr>
          </ns3:TrackPointExtension>
        </extensions>
      </trkpt>
      <trkpt lat="31.96877726353704929351806640625" lon="118.823814354836940765380859375">
        <ele>10.6000003814697265625</ele>
        <time>2025-12-16T11:23:53.000Z</time>
        <extensions>
          <ns3:TrackPointExtension>
            <ns3:atemp>24.0</ns3:atemp>
            <ns3:hr>105</ns3:hr>
          </ns3:TrackPointExtension>
        </extensions>
      </trkpt>
      <trkpt lat="31.96875714696943759918212890625" lon="118.82380873896181583404541015625">
        <ele>10.6000003814697265625</ele>
        <time>2025-12-16T11:23:54.000Z</time>
        <extensions>
          <ns3:TrackPointExtension>
            <ns3:atemp>24.0</ns3:atemp>
            <ns3:hr>104</ns3:hr>
          </ns3:TrackPointExtension>
        </extensions>
      </trkpt>
      <trkpt lat="31.96874189190566539764404296875" lon="118.823802955448627471923828125">
        <ele>10.3999996185302734375</ele>
        <time>2025-12-16T11:23:55.000Z</time>
        <extensions>
          <ns3:TrackPointExtension>
            <ns3:atemp>24.0</ns3:atemp>
            <ns3:hr>104</ns3:hr>
          </ns3:TrackPointExtension>
        </extensions>
      </trkpt>
      <trkpt lat="31.96871892549097537994384765625" lon="118.82380756549537181854248046875">
        <ele>9.80000019073486328125</ele>
        <time>2025-12-16T11:23:59.000Z</time>
        <extensions>
          <ns3:TrackPointExtension>
            <ns3:atemp>24.0</ns3:atemp>
            <ns3:hr>102</ns3:hr>
          </ns3:TrackPointExtension>
        </extensions>
      </trkpt>
      <trkpt lat="31.9687257148325443267822265625" lon="118.82381938397884368896484375">
        <ele>9.80000019073486328125</ele>
        <time>2025-12-16T11:24:01.000Z</time>
        <extensions>
          <ns3:TrackPointExtension>
            <ns3:atemp>24.0</ns3:atemp>
            <ns3:hr>100</ns3:hr>
          </ns3:TrackPointExtension>
        </extensions>
      </trkpt>
      <trkpt lat="31.96859680116176605224609375" lon="118.82383991964161396026611328125">
        <ele>9</ele>
        <time>2025-12-16T11:24:16.000Z</time>
        <extensions>
          <ns3:TrackPointExtension>
            <ns3:atemp>24.0</ns3:atemp>
            <ns3:hr>100</ns3:hr>
          </ns3:TrackPointExtension>
        </extensions>
      </trkpt>
      <trkpt lat="31.9685808755457401275634765625" lon="118.8238430209457874298095703125">
        <ele>8.80000019073486328125</ele>
        <time>2025-12-16T11:24:17.000Z</time>
        <extensions>
          <ns3:TrackPointExtension>
            <ns3:atemp>24.0</ns3:atemp>
            <ns3:hr>100</ns3:hr>
          </ns3:TrackPointExtension>
        </extensions>
      </trkpt>
      <trkpt lat="31.9685666263103485107421875" lon="118.82385232485830783843994140625">
        <ele>8.6000003814697265625</ele>
        <time>2025-12-16T11:24:18.000Z</time>
        <extensions>
          <ns3:TrackPointExtension>
            <ns3:atemp>24.0</ns3:atemp>
            <ns3:hr>101</ns3:hr>
          </ns3:TrackPointExtension>
        </extensions>
      </trkpt>
      <trkpt lat="31.96853133849799633026123046875" lon="118.82392155937850475311279296875">
        <ele>8.6000003814697265625</ele>
        <time>2025-12-16T11:24:22.000Z</time>
        <extensions>
          <ns3:TrackPointExtension>
            <ns3:atemp>24.0</ns3:atemp>
            <ns3:hr>101</ns3:hr>
          </ns3:TrackPointExtension>
        </extensions>
      </trkpt>
      <trkpt lat="31.9684957154095172882080078125" lon="118.8240961544215679168701171875">
        <ele>8.80000019073486328125</ele>
        <time>2025-12-16T11:24:28.000Z</time>
        <extensions>
          <ns3:TrackPointExtension>
            <ns3:atemp>24.0</ns3:atemp>
            <ns3:hr>96</ns3:hr>
          </ns3:TrackPointExtension>
        </extensions>
      </trkpt>
      <trkpt lat="31.96848909370601177215576171875" lon="118.824124149978160858154296875">
        <ele>8.80000019073486328125</ele>
        <time>2025-12-16T11:24:29.000Z</time>
        <extensions>
          <ns3:TrackPointExtension>
            <ns3:atemp>24.0</ns3:atemp>
            <ns3:hr>95</ns3:hr>
          </ns3:TrackPointExtension>
        </extensions>
      </trkpt>
      <trkpt lat="31.96844651363790035247802734375" lon="118.82414921186864376068115234375">
        <ele>8.80000019073486328125</ele>
        <time>2025-12-16T11:24:31.000Z</time>
        <extensions>
          <ns3:TrackPointExtension>
            <ns3:atemp>24.0</ns3:atemp>
            <ns3:hr>95</ns3:hr>
          </ns3:TrackPointExtension>
        </extensions>
      </trkpt>
      <trkpt lat="31.96842840872704982757568359375" lon="118.8241514749825000762939453125">
        <ele>8.80000019073486328125</ele>
        <time>2025-12-16T11:24:32.000Z</time>
        <extensions>
          <ns3:TrackPointExtension>
            <ns3:atemp>24.0</ns3:atemp>
            <ns3:hr>95</ns3:hr>
          </ns3:TrackPointExtension>
        </extensions>
      </trkpt>
      <trkpt lat="31.9684055261313915252685546875" lon="118.82414393126964569091796875">
        <ele>8.80000019073486328125</ele>
        <time>2025-12-16T11:24:34.000Z</time>
        <extensions>
          <ns3:TrackPointExtension>
            <ns3:atemp>24.0</ns3:atemp>
            <ns3:hr>95</ns3:hr>
          </ns3:TrackPointExtension>
        </extensions>
      </trkpt>
      <trkpt lat="31.968410722911357879638671875" lon="118.8241474516689777374267578125">
        <ele>8.80000019073486328125</ele>
        <time>2025-12-16T11:24:36.000Z</time>
        <extensions>
          <ns3:TrackPointExtension>
            <ns3:atemp>24.0</ns3:atemp>
            <ns3:hr>95</ns3:hr>
          </ns3:TrackPointExtension>
        </extensions>
      </trkpt>
      <trkpt lat="31.968404352664947509765625" lon="118.8241457752883434295654296875">
        <ele>8.80000019073486328125</ele>
        <time>2025-12-16T11:24:39.000Z</time>
        <extensions>
          <ns3:TrackPointExtension>
            <ns3:atemp>24.0</ns3:atemp>
            <ns3:hr>95</ns3:hr>
          </ns3:TrackPointExtension>
        </extensions>
      </trkpt>
    </trkseg>
  </trk>
</gpx>
