<gpx xmlns:ns3="http://www.garmin.com/xmlschemas/TrackPointExtension/v1" xmlns="http://www.topografix.com/GPX/1/1" xmlns:xsi="http://www.w3.org/2001/XMLSchema-instance" xmlns:ns2="http://www.garmin.com/xmlschemas/GpxExtensions/v3" creator="Garmin Connect" version="1.1" xsi:schemaLocation="http://www.topografix.com/GPX/1/1 http://www.topografix.com/GPX/11.xsd">
  <extensions>
<distance>143.64</distance>
<average_hr>115.0</average_hr>
<average_speed>0.04500000178813934</average_speed>
<start_time>2026-04-25T08:50:49+00:00</start_time>
<end_time>2026-04-25T09:44:23.910000+00:00</end_time>
<moving_time>110.0</moving_time>
<elapsed_time>4042.135</elapsed_time>
</extensions>
<metadata>
    <link href="connect.garmin.com">
      <text>Garmin Connect</text>
    </link>
    <time>2026-04-25T08:50:49.000Z</time>
  </metadata>
  <trk>
    <name>羽毛球</name>
    <type>badminton</type>
    <trkseg/>
  </trk>
</gpx>
