<gpx xmlns:ns3="http://www.garmin.com/xmlschemas/TrackPointExtension/v1" xmlns="http://www.topografix.com/GPX/1/1" xmlns:xsi="http://www.w3.org/2001/XMLSchema-instance" xmlns:ns2="http://www.garmin.com/xmlschemas/GpxExtensions/v3" creator="Garmin Connect" version="1.1" xsi:schemaLocation="http://www.topografix.com/GPX/1/1 http://www.topografix.com/GPX/11.xsd">
  <extensions>
<distance>1223.89</distance>
<average_hr>114.0</average_hr>
<average_speed>4.00600004196167</average_speed>
<start_time>2026-05-23T03:09:45+00:00</start_time>
<end_time>2026-05-23T03:14:50.539000+00:00</end_time>
<moving_time>298.0</moving_time>
<elapsed_time>732.537</elapsed_time>
</extensions>
<metadata>
    <link href="connect.garmin.com">
      <text>Garmin Connect</text>
    </link>
    <time>2026-05-23T03:09:45.000Z</time>
  </metadata>
  <trk>
    <name>南京市 骑行</name>
    <type>cycling</type>
    <trkseg>
      <trkpt lat="31.96705184876918792724609375" lon="118.8118991442024707794189453125">
        <ele>12</ele>
        <time>2026-05-23T03:09:47.000Z</time>
        <extensions>
          <ns3:TrackPointExtension>
            <ns3:atemp>31.0</ns3:atemp>
            <ns3:hr>90</ns3:hr>
          </ns3:TrackPointExtension>
        </extensions>
      </trkpt>
      <trkpt lat="31.9670603983104228973388671875" lon="118.8118475116789340972900390625">
        <ele>11.3999996185302734375</ele>
        <time>2026-05-23T03:09:48.000Z</time>
        <extensions>
          <ns3:TrackPointExtension>
            <ns3:atemp>31.0</ns3:atemp>
            <ns3:hr>90</ns3:hr>
          </ns3:TrackPointExtension>
        </extensions>
      </trkpt>
      <trkpt lat="31.96709635667502880096435546875" lon="118.81190442480146884918212890625">
        <ele>11.3999996185302734375</ele>
        <time>2026-05-23T03:09:50.000Z</time>
        <extensions>
          <ns3:TrackPointExtension>
            <ns3:atemp>31.0</ns3:atemp>
            <ns3:hr>93</ns3:hr>
          </ns3:TrackPointExtension>
        </extensions>
      </trkpt>
      <trkpt lat="31.9670617394149303436279296875" lon="118.81187148392200469970703125">
        <ele>11.19999980926513671875</ele>
        <time>2026-05-23T03:09:53.000Z</time>
        <extensions>
          <ns3:TrackPointExtension>
            <ns3:atemp>31.0</ns3:atemp>
            <ns3:hr>95</ns3:hr>
          </ns3:TrackPointExtension>
        </extensions>
      </trkpt>
      <trkpt lat="31.9670753180980682373046875" lon="118.81184541620314121246337890625">
        <ele>11</ele>
        <time>2026-05-23T03:09:55.000Z</time>
        <extensions>
          <ns3:TrackPointExtension>
            <ns3:atemp>31.0</ns3:atemp>
            <ns3:hr>98</ns3:hr>
          </ns3:TrackPointExtension>
        </extensions>
      </trkpt>
      <trkpt lat="31.9672682695090770721435546875" lon="118.811851702630519866943359375">
        <ele>11.19999980926513671875</ele>
        <time>2026-05-23T03:09:59.000Z</time>
        <extensions>
          <ns3:TrackPointExtension>
            <ns3:atemp>31.0</ns3:atemp>
            <ns3:hr>101</ns3:hr>
          </ns3:TrackPointExtension>
        </extensions>
      </trkpt>
      <trkpt lat="31.96729986928403377532958984375" lon="118.81192957051098346710205078125">
        <ele>11</ele>
        <time>2026-05-23T03:10:01.000Z</time>
        <extensions>
          <ns3:TrackPointExtension>
            <ns3:atemp>31.0</ns3:atemp>
            <ns3:hr>102</ns3:hr>
          </ns3:TrackPointExtension>
        </extensions>
      </trkpt>
      <trkpt lat="31.96730556897819042205810546875" lon="118.81196762435138225555419921875">
        <ele>11</ele>
        <time>2026-05-23T03:10:02.000Z</time>
        <extensions>
          <ns3:TrackPointExtension>
            <ns3:atemp>31.0</ns3:atemp>
            <ns3:hr>103</ns3:hr>
          </ns3:TrackPointExtension>
        </extensions>
      </trkpt>
      <trkpt lat="31.96731998585164546966552734375" lon="118.81218555383384227752685546875">
        <ele>11.19999980926513671875</ele>
        <time>2026-05-23T03:10:07.000Z</time>
        <extensions>
          <ns3:TrackPointExtension>
            <ns3:atemp>31.0</ns3:atemp>
            <ns3:hr>103</ns3:hr>
          </ns3:TrackPointExtension>
        </extensions>
      </trkpt>
      <trkpt lat="31.96731244213879108428955078125" lon="118.81223894655704498291015625">
        <ele>11.3999996185302734375</ele>
        <time>2026-05-23T03:10:08.000Z</time>
        <extensions>
          <ns3:TrackPointExtension>
            <ns3:atemp>31.0</ns3:atemp>
            <ns3:hr>103</ns3:hr>
          </ns3:TrackPointExtension>
        </extensions>
      </trkpt>
      <trkpt lat="31.96731562726199626922607421875" lon="118.81229032762348651885986328125">
        <ele>11.6000003814697265625</ele>
        <time>2026-05-23T03:10:09.000Z</time>
        <extensions>
          <ns3:TrackPointExtension>
            <ns3:atemp>31.0</ns3:atemp>
            <ns3:hr>103</ns3:hr>
          </ns3:TrackPointExtension>
        </extensions>
      </trkpt>
      <trkpt lat="31.967296600341796875" lon="118.812444470822811126708984375">
        <ele>11.3999996185302734375</ele>
        <time>2026-05-23T03:10:12.000Z</time>
        <extensions>
          <ns3:TrackPointExtension>
            <ns3:atemp>31.0</ns3:atemp>
            <ns3:hr>104</ns3:hr>
          </ns3:TrackPointExtension>
        </extensions>
      </trkpt>
      <trkpt lat="31.967280171811580657958984375" lon="118.812785111367702484130859375">
        <ele>11.19999980926513671875</ele>
        <time>2026-05-23T03:10:19.000Z</time>
        <extensions>
          <ns3:TrackPointExtension>
            <ns3:atemp>31.0</ns3:atemp>
            <ns3:hr>104</ns3:hr>
          </ns3:TrackPointExtension>
        </extensions>
      </trkpt>
      <trkpt lat="31.9672732986509799957275390625" lon="118.81289080716669559478759765625">
        <ele>11.19999980926513671875</ele>
        <time>2026-05-23T03:10:21.000Z</time>
        <extensions>
          <ns3:TrackPointExtension>
            <ns3:atemp>31.0</ns3:atemp>
            <ns3:hr>105</ns3:hr>
          </ns3:TrackPointExtension>
        </extensions>
      </trkpt>
      <trkpt lat="31.9672711193561553955078125" lon="118.81300605833530426025390625">
        <ele>11</ele>
        <time>2026-05-23T03:10:23.000Z</time>
        <extensions>
          <ns3:TrackPointExtension>
            <ns3:atemp>31.0</ns3:atemp>
            <ns3:hr>107</ns3:hr>
          </ns3:TrackPointExtension>
        </extensions>
      </trkpt>
      <trkpt lat="31.9672716222703456878662109375" lon="118.81306531839072704315185546875">
        <ele>11</ele>
        <time>2026-05-23T03:10:24.000Z</time>
        <extensions>
          <ns3:TrackPointExtension>
            <ns3:atemp>31.0</ns3:atemp>
            <ns3:hr>108</ns3:hr>
          </ns3:TrackPointExtension>
        </extensions>
      </trkpt>
      <trkpt lat="31.967257373034954071044921875" lon="118.8133532367646694183349609375">
        <ele>11</ele>
        <time>2026-05-23T03:10:29.000Z</time>
        <extensions>
          <ns3:TrackPointExtension>
            <ns3:atemp>31.0</ns3:atemp>
            <ns3:hr>108</ns3:hr>
          </ns3:TrackPointExtension>
        </extensions>
      </trkpt>
      <trkpt lat="31.9672263599932193756103515625" lon="118.81353604607284069061279296875">
        <ele>11.19999980926513671875</ele>
        <time>2026-05-23T03:10:32.000Z</time>
        <extensions>
          <ns3:TrackPointExtension>
            <ns3:atemp>31.0</ns3:atemp>
            <ns3:hr>108</ns3:hr>
          </ns3:TrackPointExtension>
        </extensions>
      </trkpt>
      <trkpt lat="31.96719006635248661041259765625" lon="118.8136556558310985565185546875">
        <ele>11</ele>
        <time>2026-05-23T03:10:34.000Z</time>
        <extensions>
          <ns3:TrackPointExtension>
            <ns3:atemp>31.0</ns3:atemp>
            <ns3:hr>107</ns3:hr>
          </ns3:TrackPointExtension>
        </extensions>
      </trkpt>
      <trkpt lat="31.96713156066834926605224609375" lon="118.81395329721271991729736328125">
        <ele>11</ele>
        <time>2026-05-23T03:10:39.000Z</time>
        <extensions>
          <ns3:TrackPointExtension>
            <ns3:atemp>31.0</ns3:atemp>
            <ns3:hr>107</ns3:hr>
          </ns3:TrackPointExtension>
        </extensions>
      </trkpt>
      <trkpt lat="31.967089734971523284912109375" lon="118.8143183290958404541015625">
        <ele>11</ele>
        <time>2026-05-23T03:10:45.000Z</time>
        <extensions>
          <ns3:TrackPointExtension>
            <ns3:atemp>31.0</ns3:atemp>
            <ns3:hr>106</ns3:hr>
          </ns3:TrackPointExtension>
        </extensions>
      </trkpt>
      <trkpt lat="31.96708713658154010772705078125" lon="118.81437406875193119049072265625">
        <ele>11</ele>
        <time>2026-05-23T03:10:46.000Z</time>
        <extensions>
          <ns3:TrackPointExtension>
            <ns3:atemp>31.0</ns3:atemp>
            <ns3:hr>106</ns3:hr>
          </ns3:TrackPointExtension>
        </extensions>
      </trkpt>
      <trkpt lat="31.967065595090389251708984375" lon="118.81460406817495822906494140625">
        <ele>11.19999980926513671875</ele>
        <time>2026-05-23T03:10:50.000Z</time>
        <extensions>
          <ns3:TrackPointExtension>
            <ns3:atemp>31.0</ns3:atemp>
            <ns3:hr>106</ns3:hr>
          </ns3:TrackPointExtension>
        </extensions>
      </trkpt>
      <trkpt lat="31.967060901224613189697265625" lon="118.81494504399597644805908203125">
        <ele>11.19999980926513671875</ele>
        <time>2026-05-23T03:10:56.000Z</time>
        <extensions>
          <ns3:TrackPointExtension>
            <ns3:atemp>31.0</ns3:atemp>
            <ns3:hr>107</ns3:hr>
          </ns3:TrackPointExtension>
        </extensions>
      </trkpt>
      <trkpt lat="31.9670500047504901885986328125" lon="118.81522533483803272247314453125">
        <ele>11</ele>
        <time>2026-05-23T03:11:01.000Z</time>
        <extensions>
          <ns3:TrackPointExtension>
            <ns3:atemp>32.0</ns3:atemp>
            <ns3:hr>111</ns3:hr>
          </ns3:TrackPointExtension>
        </extensions>
      </trkpt>
      <trkpt lat="31.967046149075031280517578125" lon="118.81528593599796295166015625">
        <ele>11</ele>
        <time>2026-05-23T03:11:02.000Z</time>
        <extensions>
          <ns3:TrackPointExtension>
            <ns3:atemp>32.0</ns3:atemp>
            <ns3:hr>112</ns3:hr>
          </ns3:TrackPointExtension>
        </extensions>
      </trkpt>
      <trkpt lat="31.967028044164180755615234375" lon="118.81558961234986782073974609375">
        <ele>10.19999980926513671875</ele>
        <time>2026-05-23T03:11:08.000Z</time>
        <extensions>
          <ns3:TrackPointExtension>
            <ns3:atemp>32.0</ns3:atemp>
            <ns3:hr>114</ns3:hr>
          </ns3:TrackPointExtension>
        </extensions>
      </trkpt>
      <trkpt lat="31.9669966958463191986083984375" lon="118.81592052988708019256591796875">
        <ele>11</ele>
        <time>2026-05-23T03:11:14.000Z</time>
        <extensions>
          <ns3:TrackPointExtension>
            <ns3:atemp>32.0</ns3:atemp>
            <ns3:hr>115</ns3:hr>
          </ns3:TrackPointExtension>
        </extensions>
      </trkpt>
      <trkpt lat="31.9669661857187747955322265625" lon="118.81614298559725284576416015625">
        <ele>10.3999996185302734375</ele>
        <time>2026-05-23T03:11:18.000Z</time>
        <extensions>
          <ns3:TrackPointExtension>
            <ns3:atemp>32.0</ns3:atemp>
            <ns3:hr>118</ns3:hr>
          </ns3:TrackPointExtension>
        </extensions>
      </trkpt>
      <trkpt lat="31.96694732643663883209228515625" lon="118.81624960340559482574462890625">
        <ele>10</ele>
        <time>2026-05-23T03:11:20.000Z</time>
        <extensions>
          <ns3:TrackPointExtension>
            <ns3:atemp>32.0</ns3:atemp>
            <ns3:hr>118</ns3:hr>
          </ns3:TrackPointExtension>
        </extensions>
      </trkpt>
      <trkpt lat="31.96692754514515399932861328125" lon="118.81629469804465770721435546875">
        <ele>9.80000019073486328125</ele>
        <time>2026-05-23T03:11:21.000Z</time>
        <extensions>
          <ns3:TrackPointExtension>
            <ns3:atemp>32.0</ns3:atemp>
            <ns3:hr>118</ns3:hr>
          </ns3:TrackPointExtension>
        </extensions>
      </trkpt>
      <trkpt lat="31.96689368225634098052978515625" lon="118.81649653427302837371826171875">
        <ele>10</ele>
        <time>2026-05-23T03:11:25.000Z</time>
        <extensions>
          <ns3:TrackPointExtension>
            <ns3:atemp>32.0</ns3:atemp>
            <ns3:hr>119</ns3:hr>
          </ns3:TrackPointExtension>
        </extensions>
      </trkpt>
      <trkpt lat="31.9668699614703655242919921875" lon="118.81684052757918834686279296875">
        <ele>9.80000019073486328125</ele>
        <time>2026-05-23T03:11:31.000Z</time>
        <extensions>
          <ns3:TrackPointExtension>
            <ns3:atemp>32.0</ns3:atemp>
            <ns3:hr>119</ns3:hr>
          </ns3:TrackPointExtension>
        </extensions>
      </trkpt>
      <trkpt lat="31.96684087626636028289794921875" lon="118.8170228339731693267822265625">
        <ele>9.6000003814697265625</ele>
        <time>2026-05-23T03:11:35.000Z</time>
        <extensions>
          <ns3:TrackPointExtension>
            <ns3:atemp>32.0</ns3:atemp>
            <ns3:hr>119</ns3:hr>
          </ns3:TrackPointExtension>
        </extensions>
      </trkpt>
      <trkpt lat="31.96681790985167026519775390625" lon="118.81713037379086017608642578125">
        <ele>9.3999996185302734375</ele>
        <time>2026-05-23T03:11:38.000Z</time>
        <extensions>
          <ns3:TrackPointExtension>
            <ns3:atemp>32.0</ns3:atemp>
            <ns3:hr>118</ns3:hr>
          </ns3:TrackPointExtension>
        </extensions>
      </trkpt>
      <trkpt lat="31.96682444773614406585693359375" lon="118.817171193659305572509765625">
        <ele>9.19999980926513671875</ele>
        <time>2026-05-23T03:11:39.000Z</time>
        <extensions>
          <ns3:TrackPointExtension>
            <ns3:atemp>32.0</ns3:atemp>
            <ns3:hr>118</ns3:hr>
          </ns3:TrackPointExtension>
        </extensions>
      </trkpt>
      <trkpt lat="31.966811455786228179931640625" lon="118.81740932352840900421142578125">
        <ele>9.80000019073486328125</ele>
        <time>2026-05-23T03:11:44.000Z</time>
        <extensions>
          <ns3:TrackPointExtension>
            <ns3:atemp>32.0</ns3:atemp>
            <ns3:hr>118</ns3:hr>
          </ns3:TrackPointExtension>
        </extensions>
      </trkpt>
      <trkpt lat="31.966803073883056640625" lon="118.81746078841388225555419921875">
        <ele>9.80000019073486328125</ele>
        <time>2026-05-23T03:11:45.000Z</time>
        <extensions>
          <ns3:TrackPointExtension>
            <ns3:atemp>32.0</ns3:atemp>
            <ns3:hr>118</ns3:hr>
          </ns3:TrackPointExtension>
        </extensions>
      </trkpt>
      <trkpt lat="31.96678572334349155426025390625" lon="118.81773613393306732177734375">
        <ele>10</ele>
        <time>2026-05-23T03:11:50.000Z</time>
        <extensions>
          <ns3:TrackPointExtension>
            <ns3:atemp>32.0</ns3:atemp>
            <ns3:hr>119</ns3:hr>
          </ns3:TrackPointExtension>
        </extensions>
      </trkpt>
      <trkpt lat="31.96678002364933490753173828125" lon="118.81779740564525127410888671875">
        <ele>10.19999980926513671875</ele>
        <time>2026-05-23T03:11:51.000Z</time>
        <extensions>
          <ns3:TrackPointExtension>
            <ns3:atemp>32.0</ns3:atemp>
            <ns3:hr>119</ns3:hr>
          </ns3:TrackPointExtension>
        </extensions>
      </trkpt>
      <trkpt lat="31.9667693786323070526123046875" lon="118.81784819997847080230712890625">
        <ele>10.19999980926513671875</ele>
        <time>2026-05-23T03:11:52.000Z</time>
        <extensions>
          <ns3:TrackPointExtension>
            <ns3:atemp>32.0</ns3:atemp>
            <ns3:hr>119</ns3:hr>
          </ns3:TrackPointExtension>
        </extensions>
      </trkpt>
      <trkpt lat="31.9667438976466655731201171875" lon="118.81799505092203617095947265625">
        <ele>9.80000019073486328125</ele>
        <time>2026-05-23T03:11:55.000Z</time>
        <extensions>
          <ns3:TrackPointExtension>
            <ns3:atemp>32.0</ns3:atemp>
            <ns3:hr>119</ns3:hr>
          </ns3:TrackPointExtension>
        </extensions>
      </trkpt>
      <trkpt lat="31.96673870086669921875" lon="118.81808557547628879547119140625">
        <ele>9.80000019073486328125</ele>
        <time>2026-05-23T03:11:57.000Z</time>
        <extensions>
          <ns3:TrackPointExtension>
            <ns3:atemp>32.0</ns3:atemp>
            <ns3:hr>119</ns3:hr>
          </ns3:TrackPointExtension>
        </extensions>
      </trkpt>
      <trkpt lat="31.96672487072646617889404296875" lon="118.8182650320231914520263671875">
        <ele>10.19999980926513671875</ele>
        <time>2026-05-23T03:12:01.000Z</time>
        <extensions>
          <ns3:TrackPointExtension>
            <ns3:atemp>32.0</ns3:atemp>
            <ns3:hr>120</ns3:hr>
          </ns3:TrackPointExtension>
        </extensions>
      </trkpt>
      <trkpt lat="31.96669234894216060638427734375" lon="118.81849897094070911407470703125">
        <ele>10.19999980926513671875</ele>
        <time>2026-05-23T03:12:06.000Z</time>
        <extensions>
          <ns3:TrackPointExtension>
            <ns3:atemp>32.0</ns3:atemp>
            <ns3:hr>119</ns3:hr>
          </ns3:TrackPointExtension>
        </extensions>
      </trkpt>
      <trkpt lat="31.96664758957922458648681640625" lon="118.81874992512166500091552734375">
        <ele>10.19999980926513671875</ele>
        <time>2026-05-23T03:12:11.000Z</time>
        <extensions>
          <ns3:TrackPointExtension>
            <ns3:atemp>32.0</ns3:atemp>
            <ns3:hr>118</ns3:hr>
          </ns3:TrackPointExtension>
        </extensions>
      </trkpt>
      <trkpt lat="31.9666112959384918212890625" lon="118.81895645521581172943115234375">
        <ele>9.80000019073486328125</ele>
        <time>2026-05-23T03:12:16.000Z</time>
        <extensions>
          <ns3:TrackPointExtension>
            <ns3:atemp>32.0</ns3:atemp>
            <ns3:hr>118</ns3:hr>
          </ns3:TrackPointExtension>
        </extensions>
      </trkpt>
      <trkpt lat="31.9665822945535182952880859375" lon="118.81926574744284152984619140625">
        <ele>10.80000019073486328125</ele>
        <time>2026-05-23T03:12:23.000Z</time>
        <extensions>
          <ns3:TrackPointExtension>
            <ns3:atemp>32.0</ns3:atemp>
            <ns3:hr>119</ns3:hr>
          </ns3:TrackPointExtension>
        </extensions>
      </trkpt>
      <trkpt lat="31.9665737450122833251953125" lon="118.81932626478374004364013671875">
        <ele>11.19999980926513671875</ele>
        <time>2026-05-23T03:12:25.000Z</time>
        <extensions>
          <ns3:TrackPointExtension>
            <ns3:atemp>32.0</ns3:atemp>
            <ns3:hr>119</ns3:hr>
          </ns3:TrackPointExtension>
        </extensions>
      </trkpt>
      <trkpt lat="31.96656678803265094757080078125" lon="118.81953732110559940338134765625">
        <ele>11.3999996185302734375</ele>
        <time>2026-05-23T03:12:30.000Z</time>
        <extensions>
          <ns3:TrackPointExtension>
            <ns3:atemp>32.0</ns3:atemp>
            <ns3:hr>120</ns3:hr>
          </ns3:TrackPointExtension>
        </extensions>
      </trkpt>
      <trkpt lat="31.96653761900961399078369140625" lon="118.8198163546621799468994140625">
        <ele>11.6000003814697265625</ele>
        <time>2026-05-23T03:12:37.000Z</time>
        <extensions>
          <ns3:TrackPointExtension>
            <ns3:atemp>32.0</ns3:atemp>
            <ns3:hr>120</ns3:hr>
          </ns3:TrackPointExtension>
        </extensions>
      </trkpt>
      <trkpt lat="31.96653024293482303619384765625" lon="118.81993747316300868988037109375">
        <ele>11.80000019073486328125</ele>
        <time>2026-05-23T03:12:40.000Z</time>
        <extensions>
          <ns3:TrackPointExtension>
            <ns3:atemp>32.0</ns3:atemp>
            <ns3:hr>120</ns3:hr>
          </ns3:TrackPointExtension>
        </extensions>
      </trkpt>
      <trkpt lat="31.96652387268841266632080078125" lon="118.82005750201642513275146484375">
        <ele>12.3999996185302734375</ele>
        <time>2026-05-23T03:12:43.000Z</time>
        <extensions>
          <ns3:TrackPointExtension>
            <ns3:atemp>32.0</ns3:atemp>
            <ns3:hr>120</ns3:hr>
          </ns3:TrackPointExtension>
        </extensions>
      </trkpt>
      <trkpt lat="31.9664921052753925323486328125" lon="118.8202555663883686065673828125">
        <ele>12.80000019073486328125</ele>
        <time>2026-05-23T03:12:48.000Z</time>
        <extensions>
          <ns3:TrackPointExtension>
            <ns3:atemp>32.0</ns3:atemp>
            <ns3:hr>121</ns3:hr>
          </ns3:TrackPointExtension>
        </extensions>
      </trkpt>
      <trkpt lat="31.96648850105702877044677734375" lon="118.82033276371657848358154296875">
        <ele>13.19999980926513671875</ele>
        <time>2026-05-23T03:12:50.000Z</time>
        <extensions>
          <ns3:TrackPointExtension>
            <ns3:atemp>32.0</ns3:atemp>
            <ns3:hr>121</ns3:hr>
          </ns3:TrackPointExtension>
        </extensions>
      </trkpt>
      <trkpt lat="31.966508366167545318603515625" lon="118.82050911895930767059326171875">
        <ele>13.19999980926513671875</ele>
        <time>2026-05-23T03:12:55.000Z</time>
        <extensions>
          <ns3:TrackPointExtension>
            <ns3:atemp>32.0</ns3:atemp>
            <ns3:hr>121</ns3:hr>
          </ns3:TrackPointExtension>
        </extensions>
      </trkpt>
      <trkpt lat="31.96656427346169948577880859375" lon="118.82057667709887027740478515625">
        <ele>14.19999980926513671875</ele>
        <time>2026-05-23T03:12:58.000Z</time>
        <extensions>
          <ns3:TrackPointExtension>
            <ns3:atemp>32.0</ns3:atemp>
            <ns3:hr>122</ns3:hr>
          </ns3:TrackPointExtension>
        </extensions>
      </trkpt>
      <trkpt lat="31.96664289571344852447509765625" lon="118.8206357695162296295166015625">
        <ele>14.19999980926513671875</ele>
        <time>2026-05-23T03:13:02.000Z</time>
        <extensions>
          <ns3:TrackPointExtension>
            <ns3:atemp>32.0</ns3:atemp>
            <ns3:hr>121</ns3:hr>
          </ns3:TrackPointExtension>
        </extensions>
      </trkpt>
      <trkpt lat="31.96668681688606739044189453125" lon="118.820713050663471221923828125">
        <ele>13.80000019073486328125</ele>
        <time>2026-05-23T03:13:05.000Z</time>
        <extensions>
          <ns3:TrackPointExtension>
            <ns3:atemp>32.0</ns3:atemp>
            <ns3:hr>119</ns3:hr>
          </ns3:TrackPointExtension>
        </extensions>
      </trkpt>
      <trkpt lat="31.9666808657348155975341796875" lon="118.8207447342574596405029296875">
        <ele>13.80000019073486328125</ele>
        <time>2026-05-23T03:13:06.000Z</time>
        <extensions>
          <ns3:TrackPointExtension>
            <ns3:atemp>32.0</ns3:atemp>
            <ns3:hr>119</ns3:hr>
          </ns3:TrackPointExtension>
        </extensions>
      </trkpt>
      <trkpt lat="31.96665261872112751007080078125" lon="118.82097817026078701019287109375">
        <ele>14.80000019073486328125</ele>
        <time>2026-05-23T03:13:13.000Z</time>
        <extensions>
          <ns3:TrackPointExtension>
            <ns3:atemp>32.0</ns3:atemp>
            <ns3:hr>118</ns3:hr>
          </ns3:TrackPointExtension>
        </extensions>
      </trkpt>
      <trkpt lat="31.966639794409275054931640625" lon="118.821084201335906982421875">
        <ele>15.19999980926513671875</ele>
        <time>2026-05-23T03:13:16.000Z</time>
        <extensions>
          <ns3:TrackPointExtension>
            <ns3:atemp>32.0</ns3:atemp>
            <ns3:hr>120</ns3:hr>
          </ns3:TrackPointExtension>
        </extensions>
      </trkpt>
      <trkpt lat="31.966599561274051666259765625" lon="118.82138259708881378173828125">
        <ele>15.6000003814697265625</ele>
        <time>2026-05-23T03:13:24.000Z</time>
        <extensions>
          <ns3:TrackPointExtension>
            <ns3:atemp>32.0</ns3:atemp>
            <ns3:hr>122</ns3:hr>
          </ns3:TrackPointExtension>
        </extensions>
      </trkpt>
      <trkpt lat="31.9665611721575260162353515625" lon="118.821710161864757537841796875">
        <ele>16</ele>
        <time>2026-05-23T03:13:32.000Z</time>
        <extensions>
          <ns3:TrackPointExtension>
            <ns3:atemp>32.0</ns3:atemp>
            <ns3:hr>124</ns3:hr>
          </ns3:TrackPointExtension>
        </extensions>
      </trkpt>
      <trkpt lat="31.96652906946837902069091796875" lon="118.82204233668744564056396484375">
        <ele>15.3999996185302734375</ele>
        <time>2026-05-23T03:13:40.000Z</time>
        <extensions>
          <ns3:TrackPointExtension>
            <ns3:atemp>32.0</ns3:atemp>
            <ns3:hr>124</ns3:hr>
          </ns3:TrackPointExtension>
        </extensions>
      </trkpt>
      <trkpt lat="31.9664852321147918701171875" lon="118.82244877517223358154296875">
        <ele>15.19999980926513671875</ele>
        <time>2026-05-23T03:13:49.000Z</time>
        <extensions>
          <ns3:TrackPointExtension>
            <ns3:atemp>32.0</ns3:atemp>
            <ns3:hr>123</ns3:hr>
          </ns3:TrackPointExtension>
        </extensions>
      </trkpt>
      <trkpt lat="31.96646310389041900634765625" lon="118.82264415733516216278076171875">
        <ele>14</ele>
        <time>2026-05-23T03:13:53.000Z</time>
        <extensions>
          <ns3:TrackPointExtension>
            <ns3:atemp>32.0</ns3:atemp>
            <ns3:hr>123</ns3:hr>
          </ns3:TrackPointExtension>
        </extensions>
      </trkpt>
      <trkpt lat="31.96645815856754779815673828125" lon="118.82275043986737728118896484375">
        <ele>12.80000019073486328125</ele>
        <time>2026-05-23T03:13:55.000Z</time>
        <extensions>
          <ns3:TrackPointExtension>
            <ns3:atemp>32.0</ns3:atemp>
            <ns3:hr>122</ns3:hr>
          </ns3:TrackPointExtension>
        </extensions>
      </trkpt>
      <trkpt lat="31.9664535485208034515380859375" lon="118.822804503142833709716796875">
        <ele>12.3999996185302734375</ele>
        <time>2026-05-23T03:13:56.000Z</time>
        <extensions>
          <ns3:TrackPointExtension>
            <ns3:atemp>32.0</ns3:atemp>
            <ns3:hr>122</ns3:hr>
          </ns3:TrackPointExtension>
        </extensions>
      </trkpt>
      <trkpt lat="31.966453380882740020751953125" lon="118.822897374629974365234375">
        <ele>12.19999980926513671875</ele>
        <time>2026-05-23T03:13:58.000Z</time>
        <extensions>
          <ns3:TrackPointExtension>
            <ns3:atemp>32.0</ns3:atemp>
            <ns3:hr>122</ns3:hr>
          </ns3:TrackPointExtension>
        </extensions>
      </trkpt>
      <trkpt lat="31.96647726930677890777587890625" lon="118.822953365743160247802734375">
        <ele>12.6000003814697265625</ele>
        <time>2026-05-23T03:14:00.000Z</time>
        <extensions>
          <ns3:TrackPointExtension>
            <ns3:atemp>32.0</ns3:atemp>
            <ns3:hr>121</ns3:hr>
          </ns3:TrackPointExtension>
        </extensions>
      </trkpt>
      <trkpt lat="31.9665698893368244171142578125" lon="118.82293182425200939178466796875">
        <ele>12.6000003814697265625</ele>
        <time>2026-05-23T03:14:03.000Z</time>
        <extensions>
          <ns3:TrackPointExtension>
            <ns3:atemp>32.0</ns3:atemp>
            <ns3:hr>119</ns3:hr>
          </ns3:TrackPointExtension>
        </extensions>
      </trkpt>
      <trkpt lat="31.9666242040693759918212890625" lon="118.82303073070943355560302734375">
        <ele>11.80000019073486328125</ele>
        <time>2026-05-23T03:14:06.000Z</time>
        <extensions>
          <ns3:TrackPointExtension>
            <ns3:atemp>32.0</ns3:atemp>
            <ns3:hr>120</ns3:hr>
          </ns3:TrackPointExtension>
        </extensions>
      </trkpt>
      <trkpt lat="31.9666265510022640228271484375" lon="118.8230676949024200439453125">
        <ele>11.6000003814697265625</ele>
        <time>2026-05-23T03:14:07.000Z</time>
        <extensions>
          <ns3:TrackPointExtension>
            <ns3:atemp>32.0</ns3:atemp>
            <ns3:hr>121</ns3:hr>
          </ns3:TrackPointExtension>
        </extensions>
      </trkpt>
      <trkpt lat="31.96661992929875850677490234375" lon="118.823199458420276641845703125">
        <ele>11.6000003814697265625</ele>
        <time>2026-05-23T03:14:11.000Z</time>
        <extensions>
          <ns3:TrackPointExtension>
            <ns3:atemp>32.0</ns3:atemp>
            <ns3:hr>120</ns3:hr>
          </ns3:TrackPointExtension>
        </extensions>
      </trkpt>
      <trkpt lat="31.9666047580540180206298828125" lon="118.82347111590206623077392578125">
        <ele>11.3999996185302734375</ele>
        <time>2026-05-23T03:14:18.000Z</time>
        <extensions>
          <ns3:TrackPointExtension>
            <ns3:atemp>32.0</ns3:atemp>
            <ns3:hr>118</ns3:hr>
          </ns3:TrackPointExtension>
        </extensions>
      </trkpt>
      <trkpt lat="31.96659159846603870391845703125" lon="118.8236334733664989471435546875">
        <ele>11.6000003814697265625</ele>
        <time>2026-05-23T03:14:23.000Z</time>
        <extensions>
          <ns3:TrackPointExtension>
            <ns3:atemp>32.0</ns3:atemp>
            <ns3:hr>117</ns3:hr>
          </ns3:TrackPointExtension>
        </extensions>
      </trkpt>
      <trkpt lat="31.96657651104032993316650390625" lon="118.8237333856523036956787109375">
        <ele>11.3999996185302734375</ele>
        <time>2026-05-23T03:14:26.000Z</time>
        <extensions>
          <ns3:TrackPointExtension>
            <ns3:atemp>32.0</ns3:atemp>
            <ns3:hr>114</ns3:hr>
          </ns3:TrackPointExtension>
        </extensions>
      </trkpt>
      <trkpt lat="31.9665675424039363861083984375" lon="118.82384243421256542205810546875">
        <ele>11</ele>
        <time>2026-05-23T03:14:31.000Z</time>
        <extensions>
          <ns3:TrackPointExtension>
            <ns3:atemp>32.0</ns3:atemp>
            <ns3:hr>113</ns3:hr>
          </ns3:TrackPointExtension>
        </extensions>
      </trkpt>
      <trkpt lat="31.96653376333415508270263671875" lon="118.82384620606899261474609375">
        <ele>10.80000019073486328125</ele>
        <time>2026-05-23T03:14:33.000Z</time>
        <extensions>
          <ns3:TrackPointExtension>
            <ns3:atemp>33.0</ns3:atemp>
            <ns3:hr>113</ns3:hr>
          </ns3:TrackPointExtension>
        </extensions>
      </trkpt>
      <trkpt lat="31.9665120542049407958984375" lon="118.8239462859928607940673828125">
        <ele>10</ele>
        <time>2026-05-23T03:19:05.000Z</time>
        <extensions>
          <ns3:TrackPointExtension>
            <ns3:atemp>33.0</ns3:atemp>
            <ns3:hr>93</ns3:hr>
          </ns3:TrackPointExtension>
        </extensions>
      </trkpt>
      <trkpt lat="31.9665128923952579498291015625" lon="118.82398157380521297454833984375">
        <ele>10</ele>
        <time>2026-05-23T03:19:06.000Z</time>
        <extensions>
          <ns3:TrackPointExtension>
            <ns3:atemp>33.0</ns3:atemp>
            <ns3:hr>94</ns3:hr>
          </ns3:TrackPointExtension>
        </extensions>
      </trkpt>
      <trkpt lat="31.96648615412414073944091796875" lon="118.82411249913275241851806640625">
        <ele>9.80000019073486328125</ele>
        <time>2026-05-23T03:19:11.000Z</time>
        <extensions>
          <ns3:TrackPointExtension>
            <ns3:atemp>33.0</ns3:atemp>
            <ns3:hr>92</ns3:hr>
          </ns3:TrackPointExtension>
        </extensions>
      </trkpt>
      <trkpt lat="31.96646444499492645263671875" lon="118.8241303525865077972412109375">
        <ele>9.80000019073486328125</ele>
        <time>2026-05-23T03:19:15.000Z</time>
        <extensions>
          <ns3:TrackPointExtension>
            <ns3:atemp>33.0</ns3:atemp>
            <ns3:hr>92</ns3:hr>
          </ns3:TrackPointExtension>
        </extensions>
      </trkpt>
      <trkpt lat="31.96645371615886688232421875" lon="118.82415424101054668426513671875">
        <ele>10</ele>
        <time>2026-05-23T03:19:17.000Z</time>
        <extensions>
          <ns3:TrackPointExtension>
            <ns3:atemp>33.0</ns3:atemp>
            <ns3:hr>92</ns3:hr>
          </ns3:TrackPointExtension>
        </extensions>
      </trkpt>
      <trkpt lat="31.96672864258289337158203125" lon="118.8243576698005199432373046875">
        <ele>8.19999980926513671875</ele>
        <time>2026-05-23T03:21:50.000Z</time>
        <extensions>
          <ns3:TrackPointExtension>
            <ns3:atemp>33.0</ns3:atemp>
            <ns3:hr>102</ns3:hr>
          </ns3:TrackPointExtension>
        </extensions>
      </trkpt>
      <trkpt lat="31.96674079634249210357666015625" lon="118.8243523053824901580810546875">
        <ele>8.19999980926513671875</ele>
        <time>2026-05-23T03:21:51.000Z</time>
        <extensions>
          <ns3:TrackPointExtension>
            <ns3:atemp>33.0</ns3:atemp>
            <ns3:hr>102</ns3:hr>
          </ns3:TrackPointExtension>
        </extensions>
      </trkpt>
      <trkpt lat="31.96675269864499568939208984375" lon="118.8243486173450946807861328125">
        <ele>8.3999996185302734375</ele>
        <time>2026-05-23T03:21:52.000Z</time>
        <extensions>
          <ns3:TrackPointExtension>
            <ns3:atemp>33.0</ns3:atemp>
            <ns3:hr>102</ns3:hr>
          </ns3:TrackPointExtension>
        </extensions>
      </trkpt>
      <trkpt lat="31.96679561398923397064208984375" lon="118.82433914579451084136962890625">
        <ele>8.19999980926513671875</ele>
        <time>2026-05-23T03:21:57.000Z</time>
        <extensions>
          <ns3:TrackPointExtension>
            <ns3:atemp>33.0</ns3:atemp>
            <ns3:hr>101</ns3:hr>
          </ns3:TrackPointExtension>
        </extensions>
      </trkpt>
    </trkseg>
  </trk>
</gpx>
