<gpx xmlns:ns3="http://www.garmin.com/xmlschemas/TrackPointExtension/v1" xmlns="http://www.topografix.com/GPX/1/1" xmlns:xsi="http://www.w3.org/2001/XMLSchema-instance" xmlns:ns2="http://www.garmin.com/xmlschemas/GpxExtensions/v3" creator="Garmin Connect" version="1.1" xsi:schemaLocation="http://www.topografix.com/GPX/1/1 http://www.topografix.com/GPX/11.xsd">
  <extensions>
<distance>3129.14</distance>
<average_hr>117.0</average_hr>
<average_speed>3.5510001182556152</average_speed>
<start_time>2026-06-14T03:21:55+00:00</start_time>
<end_time>2026-06-14T03:36:36.205000+00:00</end_time>
<moving_time>682.0</moving_time>
<elapsed_time>1084.202</elapsed_time>
</extensions>
<metadata>
    <link href="connect.garmin.com">
      <text>Garmin Connect</text>
    </link>
    <time>2026-06-14T03:21:55.000Z</time>
  </metadata>
  <trk>
    <name>南京市 骑行</name>
    <type>cycling</type>
    <trkseg>
      <trkpt lat="31.9682221300899982452392578125" lon="118.8236415199935436248779296875">
        <ele>6.80000019073486328125</ele>
        <time>2026-06-14T03:22:01.000Z</time>
        <extensions>
          <ns3:TrackPointExtension>
            <ns3:atemp>30.0</ns3:atemp>
            <ns3:hr>97</ns3:hr>
          </ns3:TrackPointExtension>
        </extensions>
      </trkpt>
      <trkpt lat="31.9683867506682872772216796875" lon="118.82357488386332988739013671875">
        <ele>7</ele>
        <time>2026-06-14T03:22:02.000Z</time>
        <extensions>
          <ns3:TrackPointExtension>
            <ns3:atemp>30.0</ns3:atemp>
            <ns3:hr>97</ns3:hr>
          </ns3:TrackPointExtension>
        </extensions>
      </trkpt>
      <trkpt lat="31.96837283670902252197265625" lon="118.823588378727436065673828125">
        <ele>7</ele>
        <time>2026-06-14T03:22:04.000Z</time>
        <extensions>
          <ns3:TrackPointExtension>
            <ns3:atemp>30.0</ns3:atemp>
            <ns3:hr>97</ns3:hr>
          </ns3:TrackPointExtension>
        </extensions>
      </trkpt>
      <trkpt lat="31.96829907596111297607421875" lon="118.8235613889992237091064453125">
        <ele>7</ele>
        <time>2026-06-14T03:22:06.000Z</time>
        <extensions>
          <ns3:TrackPointExtension>
            <ns3:atemp>30.0</ns3:atemp>
            <ns3:hr>96</ns3:hr>
          </ns3:TrackPointExtension>
        </extensions>
      </trkpt>
      <trkpt lat="31.9682482816278934478759765625" lon="118.8234651647508144378662109375">
        <ele>6.599999904632568359375</ele>
        <time>2026-06-14T03:22:08.000Z</time>
        <extensions>
          <ns3:TrackPointExtension>
            <ns3:atemp>30.0</ns3:atemp>
            <ns3:hr>92</ns3:hr>
          </ns3:TrackPointExtension>
        </extensions>
      </trkpt>
      <trkpt lat="31.9682087190449237823486328125" lon="118.8233702816069126129150390625">
        <ele>6.400000095367431640625</ele>
        <time>2026-06-14T03:22:10.000Z</time>
        <extensions>
          <ns3:TrackPointExtension>
            <ns3:atemp>30.0</ns3:atemp>
            <ns3:hr>88</ns3:hr>
          </ns3:TrackPointExtension>
        </extensions>
      </trkpt>
      <trkpt lat="31.96812867186963558197021484375" lon="118.82325368933379650115966796875">
        <ele>6.400000095367431640625</ele>
        <time>2026-06-14T03:22:13.000Z</time>
        <extensions>
          <ns3:TrackPointExtension>
            <ns3:atemp>30.0</ns3:atemp>
            <ns3:hr>88</ns3:hr>
          </ns3:TrackPointExtension>
        </extensions>
      </trkpt>
      <trkpt lat="31.96799070574343204498291015625" lon="118.82317288778722286224365234375">
        <ele>6.400000095367431640625</ele>
        <time>2026-06-14T03:22:15.000Z</time>
        <extensions>
          <ns3:TrackPointExtension>
            <ns3:atemp>30.0</ns3:atemp>
            <ns3:hr>87</ns3:hr>
          </ns3:TrackPointExtension>
        </extensions>
      </trkpt>
      <trkpt lat="31.9678684137761592864990234375" lon="118.8231402821838855743408203125">
        <ele>6.19999980926513671875</ele>
        <time>2026-06-14T03:22:18.000Z</time>
        <extensions>
          <ns3:TrackPointExtension>
            <ns3:atemp>30.0</ns3:atemp>
            <ns3:hr>85</ns3:hr>
          </ns3:TrackPointExtension>
        </extensions>
      </trkpt>
      <trkpt lat="31.96778316982090473175048828125" lon="118.82307817228138446807861328125">
        <ele>6</ele>
        <time>2026-06-14T03:22:20.000Z</time>
        <extensions>
          <ns3:TrackPointExtension>
            <ns3:atemp>30.0</ns3:atemp>
            <ns3:hr>82</ns3:hr>
          </ns3:TrackPointExtension>
        </extensions>
      </trkpt>
      <trkpt lat="31.9676833413541316986083984375" lon="118.82306140847504138946533203125">
        <ele>6</ele>
        <time>2026-06-14T03:22:22.000Z</time>
        <extensions>
          <ns3:TrackPointExtension>
            <ns3:atemp>30.0</ns3:atemp>
            <ns3:hr>81</ns3:hr>
          </ns3:TrackPointExtension>
        </extensions>
      </trkpt>
      <trkpt lat="31.96759809739887714385986328125" lon="118.82306895218789577484130859375">
        <ele>5.80000019073486328125</ele>
        <time>2026-06-14T03:22:24.000Z</time>
        <extensions>
          <ns3:TrackPointExtension>
            <ns3:atemp>30.0</ns3:atemp>
            <ns3:hr>80</ns3:hr>
          </ns3:TrackPointExtension>
        </extensions>
      </trkpt>
      <trkpt lat="31.96755065582692623138427734375" lon="118.82308487780392169952392578125">
        <ele>5.80000019073486328125</ele>
        <time>2026-06-14T03:22:25.000Z</time>
        <extensions>
          <ns3:TrackPointExtension>
            <ns3:atemp>30.0</ns3:atemp>
            <ns3:hr>80</ns3:hr>
          </ns3:TrackPointExtension>
        </extensions>
      </trkpt>
      <trkpt lat="31.9671968556940555572509765625" lon="118.8232205808162689208984375">
        <ele>6</ele>
        <time>2026-06-14T03:22:32.000Z</time>
        <extensions>
          <ns3:TrackPointExtension>
            <ns3:atemp>30.0</ns3:atemp>
            <ns3:hr>81</ns3:hr>
          </ns3:TrackPointExtension>
        </extensions>
      </trkpt>
      <trkpt lat="31.96715083904564380645751953125" lon="118.823267519474029541015625">
        <ele>6</ele>
        <time>2026-06-14T03:22:33.000Z</time>
        <extensions>
          <ns3:TrackPointExtension>
            <ns3:atemp>30.0</ns3:atemp>
            <ns3:hr>82</ns3:hr>
          </ns3:TrackPointExtension>
        </extensions>
      </trkpt>
      <trkpt lat="31.96706551127135753631591796875" lon="118.8233521766960620880126953125">
        <ele>5.599999904632568359375</ele>
        <time>2026-06-14T03:22:35.000Z</time>
        <extensions>
          <ns3:TrackPointExtension>
            <ns3:atemp>30.0</ns3:atemp>
            <ns3:hr>86</ns3:hr>
          </ns3:TrackPointExtension>
        </extensions>
      </trkpt>
      <trkpt lat="31.96698009967803955078125" lon="118.82342987693846225738525390625">
        <ele>5.599999904632568359375</ele>
        <time>2026-06-14T03:22:37.000Z</time>
        <extensions>
          <ns3:TrackPointExtension>
            <ns3:atemp>30.0</ns3:atemp>
            <ns3:hr>90</ns3:hr>
          </ns3:TrackPointExtension>
        </extensions>
      </trkpt>
      <trkpt lat="31.96691572666168212890625" lon="118.82351922802627086639404296875">
        <ele>5.599999904632568359375</ele>
        <time>2026-06-14T03:22:39.000Z</time>
        <extensions>
          <ns3:TrackPointExtension>
            <ns3:atemp>30.0</ns3:atemp>
            <ns3:hr>96</ns3:hr>
          </ns3:TrackPointExtension>
        </extensions>
      </trkpt>
      <trkpt lat="31.9668957777321338653564453125" lon="118.8235665857791900634765625">
        <ele>5.599999904632568359375</ele>
        <time>2026-06-14T03:22:40.000Z</time>
        <extensions>
          <ns3:TrackPointExtension>
            <ns3:atemp>30.0</ns3:atemp>
            <ns3:hr>100</ns3:hr>
          </ns3:TrackPointExtension>
        </extensions>
      </trkpt>
      <trkpt lat="31.96687524206936359405517578125" lon="118.8236146979033946990966796875">
        <ele>5.599999904632568359375</ele>
        <time>2026-06-14T03:22:41.000Z</time>
        <extensions>
          <ns3:TrackPointExtension>
            <ns3:atemp>30.0</ns3:atemp>
            <ns3:hr>107</ns3:hr>
          </ns3:TrackPointExtension>
        </extensions>
      </trkpt>
      <trkpt lat="31.9668568857014179229736328125" lon="118.823662139475345611572265625">
        <ele>5.400000095367431640625</ele>
        <time>2026-06-14T03:22:42.000Z</time>
        <extensions>
          <ns3:TrackPointExtension>
            <ns3:atemp>30.0</ns3:atemp>
            <ns3:hr>112</ns3:hr>
          </ns3:TrackPointExtension>
        </extensions>
      </trkpt>
      <trkpt lat="31.9668277166783809661865234375" lon="118.82376196794211864471435546875">
        <ele>5.400000095367431640625</ele>
        <time>2026-06-14T03:22:44.000Z</time>
        <extensions>
          <ns3:TrackPointExtension>
            <ns3:atemp>30.0</ns3:atemp>
            <ns3:hr>115</ns3:hr>
          </ns3:TrackPointExtension>
        </extensions>
      </trkpt>
      <trkpt lat="31.96681371890008449554443359375" lon="118.82387814112007617950439453125">
        <ele>5.400000095367431640625</ele>
        <time>2026-06-14T03:22:46.000Z</time>
        <extensions>
          <ns3:TrackPointExtension>
            <ns3:atemp>30.0</ns3:atemp>
            <ns3:hr>116</ns3:hr>
          </ns3:TrackPointExtension>
        </extensions>
      </trkpt>
      <trkpt lat="31.96680751629173755645751953125" lon="118.8239392451941967010498046875">
        <ele>5.400000095367431640625</ele>
        <time>2026-06-14T03:22:47.000Z</time>
        <extensions>
          <ns3:TrackPointExtension>
            <ns3:atemp>30.0</ns3:atemp>
            <ns3:hr>116</ns3:hr>
          </ns3:TrackPointExtension>
        </extensions>
      </trkpt>
      <trkpt lat="31.96679410524666309356689453125" lon="118.82407980971038341522216796875">
        <ele>5.400000095367431640625</ele>
        <time>2026-06-14T03:22:49.000Z</time>
        <extensions>
          <ns3:TrackPointExtension>
            <ns3:atemp>30.0</ns3:atemp>
            <ns3:hr>119</ns3:hr>
          </ns3:TrackPointExtension>
        </extensions>
      </trkpt>
      <trkpt lat="31.966789327561855316162109375" lon="118.8242098130285739898681640625">
        <ele>5.400000095367431640625</ele>
        <time>2026-06-14T03:22:51.000Z</time>
        <extensions>
          <ns3:TrackPointExtension>
            <ns3:atemp>30.0</ns3:atemp>
            <ns3:hr>119</ns3:hr>
          </ns3:TrackPointExtension>
        </extensions>
      </trkpt>
      <trkpt lat="31.96675688959658145904541015625" lon="118.8243176043033599853515625">
        <ele>5.599999904632568359375</ele>
        <time>2026-06-14T03:22:53.000Z</time>
        <extensions>
          <ns3:TrackPointExtension>
            <ns3:atemp>30.0</ns3:atemp>
            <ns3:hr>120</ns3:hr>
          </ns3:TrackPointExtension>
        </extensions>
      </trkpt>
      <trkpt lat="31.96671187877655029296875" lon="118.82434769533574581146240234375">
        <ele>6.19999980926513671875</ele>
        <time>2026-06-14T03:22:55.000Z</time>
        <extensions>
          <ns3:TrackPointExtension>
            <ns3:atemp>30.0</ns3:atemp>
            <ns3:hr>120</ns3:hr>
          </ns3:TrackPointExtension>
        </extensions>
      </trkpt>
      <trkpt lat="31.966712884604930877685546875" lon="118.8243580050766468048095703125">
        <ele>6.400000095367431640625</ele>
        <time>2026-06-14T03:22:56.000Z</time>
        <extensions>
          <ns3:TrackPointExtension>
            <ns3:atemp>30.0</ns3:atemp>
            <ns3:hr>120</ns3:hr>
          </ns3:TrackPointExtension>
        </extensions>
      </trkpt>
      <trkpt lat="31.96670525707304477691650390625" lon="118.82436328567564487457275390625">
        <ele>6.80000019073486328125</ele>
        <time>2026-06-14T03:22:59.000Z</time>
        <extensions>
          <ns3:TrackPointExtension>
            <ns3:atemp>30.0</ns3:atemp>
            <ns3:hr>119</ns3:hr>
          </ns3:TrackPointExtension>
        </extensions>
      </trkpt>
      <trkpt lat="31.96667374111711978912353515625" lon="118.82431182079017162322998046875">
        <ele>6.599999904632568359375</ele>
        <time>2026-06-14T03:23:05.000Z</time>
        <extensions>
          <ns3:TrackPointExtension>
            <ns3:atemp>30.0</ns3:atemp>
            <ns3:hr>116</ns3:hr>
          </ns3:TrackPointExtension>
        </extensions>
      </trkpt>
      <trkpt lat="31.9666577316820621490478515625" lon="118.8242808915674686431884765625">
        <ele>6.599999904632568359375</ele>
        <time>2026-06-14T03:23:06.000Z</time>
        <extensions>
          <ns3:TrackPointExtension>
            <ns3:atemp>30.0</ns3:atemp>
            <ns3:hr>116</ns3:hr>
          </ns3:TrackPointExtension>
        </extensions>
      </trkpt>
      <trkpt lat="31.9665883295238018035888671875" lon="118.82423219271004199981689453125">
        <ele>6.599999904632568359375</ele>
        <time>2026-06-14T03:23:08.000Z</time>
        <extensions>
          <ns3:TrackPointExtension>
            <ns3:atemp>30.0</ns3:atemp>
            <ns3:hr>115</ns3:hr>
          </ns3:TrackPointExtension>
        </extensions>
      </trkpt>
      <trkpt lat="31.9665410555899143218994140625" lon="118.82422842085361480712890625">
        <ele>6.599999904632568359375</ele>
        <time>2026-06-14T03:23:09.000Z</time>
        <extensions>
          <ns3:TrackPointExtension>
            <ns3:atemp>30.0</ns3:atemp>
            <ns3:hr>114</ns3:hr>
          </ns3:TrackPointExtension>
        </extensions>
      </trkpt>
      <trkpt lat="31.96641088463366031646728515625" lon="118.82420218549668788909912109375">
        <ele>6.599999904632568359375</ele>
        <time>2026-06-14T03:23:12.000Z</time>
        <extensions>
          <ns3:TrackPointExtension>
            <ns3:atemp>30.0</ns3:atemp>
            <ns3:hr>111</ns3:hr>
          </ns3:TrackPointExtension>
        </extensions>
      </trkpt>
      <trkpt lat="31.96638272143900394439697265625" lon="118.82416496984660625457763671875">
        <ele>6.599999904632568359375</ele>
        <time>2026-06-14T03:23:13.000Z</time>
        <extensions>
          <ns3:TrackPointExtension>
            <ns3:atemp>30.0</ns3:atemp>
            <ns3:hr>111</ns3:hr>
          </ns3:TrackPointExtension>
        </extensions>
      </trkpt>
      <trkpt lat="31.96635891683399677276611328125" lon="118.82404577918350696563720703125">
        <ele>7</ele>
        <time>2026-06-14T03:23:16.000Z</time>
        <extensions>
          <ns3:TrackPointExtension>
            <ns3:atemp>30.0</ns3:atemp>
            <ns3:hr>112</ns3:hr>
          </ns3:TrackPointExtension>
        </extensions>
      </trkpt>
      <trkpt lat="31.9663779437541961669921875" lon="118.8239513151347637176513671875">
        <ele>7</ele>
        <time>2026-06-14T03:23:18.000Z</time>
        <extensions>
          <ns3:TrackPointExtension>
            <ns3:atemp>30.0</ns3:atemp>
            <ns3:hr>116</ns3:hr>
          </ns3:TrackPointExtension>
        </extensions>
      </trkpt>
      <trkpt lat="31.9664069451391696929931640625" lon="118.82365903817117214202880859375">
        <ele>7.599999904632568359375</ele>
        <time>2026-06-14T03:23:24.000Z</time>
        <extensions>
          <ns3:TrackPointExtension>
            <ns3:atemp>31.0</ns3:atemp>
            <ns3:hr>116</ns3:hr>
          </ns3:TrackPointExtension>
        </extensions>
      </trkpt>
      <trkpt lat="31.96642479859292507171630859375" lon="118.82346156053245067596435546875">
        <ele>7.80000019073486328125</ele>
        <time>2026-06-14T03:23:28.000Z</time>
        <extensions>
          <ns3:TrackPointExtension>
            <ns3:atemp>31.0</ns3:atemp>
            <ns3:hr>119</ns3:hr>
          </ns3:TrackPointExtension>
        </extensions>
      </trkpt>
      <trkpt lat="31.96643468923866748809814453125" lon="118.82341302931308746337890625">
        <ele>8</ele>
        <time>2026-06-14T03:23:29.000Z</time>
        <extensions>
          <ns3:TrackPointExtension>
            <ns3:atemp>30.0</ns3:atemp>
            <ns3:hr>119</ns3:hr>
          </ns3:TrackPointExtension>
        </extensions>
      </trkpt>
      <trkpt lat="31.96644508279860019683837890625" lon="118.82331521250307559967041015625">
        <ele>8.19999980926513671875</ele>
        <time>2026-06-14T03:23:31.000Z</time>
        <extensions>
          <ns3:TrackPointExtension>
            <ns3:atemp>31.0</ns3:atemp>
            <ns3:hr>120</ns3:hr>
          </ns3:TrackPointExtension>
        </extensions>
      </trkpt>
      <trkpt lat="31.96646687574684619903564453125" lon="118.82317699491977691650390625">
        <ele>8.6000003814697265625</ele>
        <time>2026-06-14T03:23:34.000Z</time>
        <extensions>
          <ns3:TrackPointExtension>
            <ns3:atemp>31.0</ns3:atemp>
            <ns3:hr>122</ns3:hr>
          </ns3:TrackPointExtension>
        </extensions>
      </trkpt>
      <trkpt lat="31.9664750061929225921630859375" lon="118.82303542457520961761474609375">
        <ele>8.6000003814697265625</ele>
        <time>2026-06-14T03:23:37.000Z</time>
        <extensions>
          <ns3:TrackPointExtension>
            <ns3:atemp>31.0</ns3:atemp>
            <ns3:hr>122</ns3:hr>
          </ns3:TrackPointExtension>
        </extensions>
      </trkpt>
      <trkpt lat="31.96650610305368900299072265625" lon="118.8227476738393306732177734375">
        <ele>9</ele>
        <time>2026-06-14T03:23:43.000Z</time>
        <extensions>
          <ns3:TrackPointExtension>
            <ns3:atemp>31.0</ns3:atemp>
            <ns3:hr>124</ns3:hr>
          </ns3:TrackPointExtension>
        </extensions>
      </trkpt>
      <trkpt lat="31.96651004254817962646484375" lon="118.82265740074217319488525390625">
        <ele>9.3999996185302734375</ele>
        <time>2026-06-14T03:23:45.000Z</time>
        <extensions>
          <ns3:TrackPointExtension>
            <ns3:atemp>31.0</ns3:atemp>
            <ns3:hr>124</ns3:hr>
          </ns3:TrackPointExtension>
        </extensions>
      </trkpt>
      <trkpt lat="31.9665263034403324127197265625" lon="118.82246620953083038330078125">
        <ele>10.19999980926513671875</ele>
        <time>2026-06-14T03:23:50.000Z</time>
        <extensions>
          <ns3:TrackPointExtension>
            <ns3:atemp>31.0</ns3:atemp>
            <ns3:hr>128</ns3:hr>
          </ns3:TrackPointExtension>
        </extensions>
      </trkpt>
      <trkpt lat="31.96652823127806186676025390625" lon="118.8224308378994464874267578125">
        <ele>10.3999996185302734375</ele>
        <time>2026-06-14T03:23:51.000Z</time>
        <extensions>
          <ns3:TrackPointExtension>
            <ns3:atemp>31.0</ns3:atemp>
            <ns3:hr>129</ns3:hr>
          </ns3:TrackPointExtension>
        </extensions>
      </trkpt>
      <trkpt lat="31.96656377054750919342041015625" lon="118.8221128284931182861328125">
        <ele>11</ele>
        <time>2026-06-14T03:23:59.000Z</time>
        <extensions>
          <ns3:TrackPointExtension>
            <ns3:atemp>31.0</ns3:atemp>
            <ns3:hr>130</ns3:hr>
          </ns3:TrackPointExtension>
        </extensions>
      </trkpt>
      <trkpt lat="31.9666084460914134979248046875" lon="118.821708150207996368408203125">
        <ele>10.80000019073486328125</ele>
        <time>2026-06-14T03:24:08.000Z</time>
        <extensions>
          <ns3:TrackPointExtension>
            <ns3:atemp>31.0</ns3:atemp>
            <ns3:hr>129</ns3:hr>
          </ns3:TrackPointExtension>
        </extensions>
      </trkpt>
      <trkpt lat="31.966649852693080902099609375" lon="118.8213143683969974517822265625">
        <ele>10.3999996185302734375</ele>
        <time>2026-06-14T03:24:16.000Z</time>
        <extensions>
          <ns3:TrackPointExtension>
            <ns3:atemp>31.0</ns3:atemp>
            <ns3:hr>128</ns3:hr>
          </ns3:TrackPointExtension>
        </extensions>
      </trkpt>
      <trkpt lat="31.96666024625301361083984375" lon="118.82121252827346324920654296875">
        <ele>10.19999980926513671875</ele>
        <time>2026-06-14T03:24:18.000Z</time>
        <extensions>
          <ns3:TrackPointExtension>
            <ns3:atemp>31.0</ns3:atemp>
            <ns3:hr>127</ns3:hr>
          </ns3:TrackPointExtension>
        </extensions>
      </trkpt>
      <trkpt lat="31.96670190431177616119384765625" lon="118.82078446447849273681640625">
        <ele>9.19999980926513671875</ele>
        <time>2026-06-14T03:24:26.000Z</time>
        <extensions>
          <ns3:TrackPointExtension>
            <ns3:atemp>31.0</ns3:atemp>
            <ns3:hr>125</ns3:hr>
          </ns3:TrackPointExtension>
        </extensions>
      </trkpt>
      <trkpt lat="31.96671229787170886993408203125" lon="118.8207261264324188232421875">
        <ele>8.80000019073486328125</ele>
        <time>2026-06-14T03:24:27.000Z</time>
        <extensions>
          <ns3:TrackPointExtension>
            <ns3:atemp>31.0</ns3:atemp>
            <ns3:hr>123</ns3:hr>
          </ns3:TrackPointExtension>
        </extensions>
      </trkpt>
      <trkpt lat="31.96674741804599761962890625" lon="118.82068379782140254974365234375">
        <ele>8.3999996185302734375</ele>
        <time>2026-06-14T03:24:28.000Z</time>
        <extensions>
          <ns3:TrackPointExtension>
            <ns3:atemp>31.0</ns3:atemp>
            <ns3:hr>120</ns3:hr>
          </ns3:TrackPointExtension>
        </extensions>
      </trkpt>
      <trkpt lat="31.96679192595183849334716796875" lon="118.82066485472023487091064453125">
        <ele>8</ele>
        <time>2026-06-14T03:24:29.000Z</time>
        <extensions>
          <ns3:TrackPointExtension>
            <ns3:atemp>31.0</ns3:atemp>
            <ns3:hr>119</ns3:hr>
          </ns3:TrackPointExtension>
        </extensions>
      </trkpt>
      <trkpt lat="31.9669849611818790435791015625" lon="118.8206805288791656494140625">
        <ele>8</ele>
        <time>2026-06-14T03:24:33.000Z</time>
        <extensions>
          <ns3:TrackPointExtension>
            <ns3:atemp>31.0</ns3:atemp>
            <ns3:hr>118</ns3:hr>
          </ns3:TrackPointExtension>
        </extensions>
      </trkpt>
      <trkpt lat="31.96741218678653240203857421875" lon="118.8206401281058788299560546875">
        <ele>8</ele>
        <time>2026-06-14T03:24:41.000Z</time>
        <extensions>
          <ns3:TrackPointExtension>
            <ns3:atemp>31.0</ns3:atemp>
            <ns3:hr>120</ns3:hr>
          </ns3:TrackPointExtension>
        </extensions>
      </trkpt>
      <trkpt lat="31.9675794057548046112060546875" lon="118.8206139765679836273193359375">
        <ele>8.19999980926513671875</ele>
        <time>2026-06-14T03:24:44.000Z</time>
        <extensions>
          <ns3:TrackPointExtension>
            <ns3:atemp>31.0</ns3:atemp>
            <ns3:hr>123</ns3:hr>
          </ns3:TrackPointExtension>
        </extensions>
      </trkpt>
      <trkpt lat="31.96773312985897064208984375" lon="118.82061053998768329620361328125">
        <ele>8.3999996185302734375</ele>
        <time>2026-06-14T03:24:47.000Z</time>
        <extensions>
          <ns3:TrackPointExtension>
            <ns3:atemp>31.0</ns3:atemp>
            <ns3:hr>126</ns3:hr>
          </ns3:TrackPointExtension>
        </extensions>
      </trkpt>
      <trkpt lat="31.967785768210887908935546875" lon="118.82061188109219074249267578125">
        <ele>8.6000003814697265625</ele>
        <time>2026-06-14T03:24:48.000Z</time>
        <extensions>
          <ns3:TrackPointExtension>
            <ns3:atemp>31.0</ns3:atemp>
            <ns3:hr>126</ns3:hr>
          </ns3:TrackPointExtension>
        </extensions>
      </trkpt>
      <trkpt lat="31.96795131079852581024169921875" lon="118.820616491138935089111328125">
        <ele>8.6000003814697265625</ele>
        <time>2026-06-14T03:24:51.000Z</time>
        <extensions>
          <ns3:TrackPointExtension>
            <ns3:atemp>31.0</ns3:atemp>
            <ns3:hr>126</ns3:hr>
          </ns3:TrackPointExtension>
        </extensions>
      </trkpt>
      <trkpt lat="31.968060694634914398193359375" lon="118.82063803263008594512939453125">
        <ele>8.80000019073486328125</ele>
        <time>2026-06-14T03:24:53.000Z</time>
        <extensions>
          <ns3:TrackPointExtension>
            <ns3:atemp>31.0</ns3:atemp>
            <ns3:hr>125</ns3:hr>
          </ns3:TrackPointExtension>
        </extensions>
      </trkpt>
      <trkpt lat="31.96833821944892406463623046875" lon="118.82068698294460773468017578125">
        <ele>9</ele>
        <time>2026-06-14T03:24:58.000Z</time>
        <extensions>
          <ns3:TrackPointExtension>
            <ns3:atemp>31.0</ns3:atemp>
            <ns3:hr>122</ns3:hr>
          </ns3:TrackPointExtension>
        </extensions>
      </trkpt>
      <trkpt lat="31.96849353611469268798828125" lon="118.82071984000504016876220703125">
        <ele>9.6000003814697265625</ele>
        <time>2026-06-14T03:25:01.000Z</time>
        <extensions>
          <ns3:TrackPointExtension>
            <ns3:atemp>31.0</ns3:atemp>
            <ns3:hr>122</ns3:hr>
          </ns3:TrackPointExtension>
        </extensions>
      </trkpt>
      <trkpt lat="31.9685406424105167388916015625" lon="118.8207266293466091156005859375">
        <ele>9.6000003814697265625</ele>
        <time>2026-06-14T03:25:02.000Z</time>
        <extensions>
          <ns3:TrackPointExtension>
            <ns3:atemp>31.0</ns3:atemp>
            <ns3:hr>123</ns3:hr>
          </ns3:TrackPointExtension>
        </extensions>
      </trkpt>
      <trkpt lat="31.9686891697347164154052734375" lon="118.820746243000030517578125">
        <ele>9.6000003814697265625</ele>
        <time>2026-06-14T03:25:05.000Z</time>
        <extensions>
          <ns3:TrackPointExtension>
            <ns3:atemp>31.0</ns3:atemp>
            <ns3:hr>126</ns3:hr>
          </ns3:TrackPointExtension>
        </extensions>
      </trkpt>
      <trkpt lat="31.96884130127727985382080078125" lon="118.82075571455061435699462890625">
        <ele>9.6000003814697265625</ele>
        <time>2026-06-14T03:25:08.000Z</time>
        <extensions>
          <ns3:TrackPointExtension>
            <ns3:atemp>31.0</ns3:atemp>
            <ns3:hr>126</ns3:hr>
          </ns3:TrackPointExtension>
        </extensions>
      </trkpt>
      <trkpt lat="31.968943141400814056396484375" lon="118.820741884410381317138671875">
        <ele>9.6000003814697265625</ele>
        <time>2026-06-14T03:25:10.000Z</time>
        <extensions>
          <ns3:TrackPointExtension>
            <ns3:atemp>31.0</ns3:atemp>
            <ns3:hr>125</ns3:hr>
          </ns3:TrackPointExtension>
        </extensions>
      </trkpt>
      <trkpt lat="31.9690992124378681182861328125" lon="118.82070877589285373687744140625">
        <ele>9.80000019073486328125</ele>
        <time>2026-06-14T03:25:13.000Z</time>
        <extensions>
          <ns3:TrackPointExtension>
            <ns3:atemp>31.0</ns3:atemp>
            <ns3:hr>125</ns3:hr>
          </ns3:TrackPointExtension>
        </extensions>
      </trkpt>
      <trkpt lat="31.96926307864487171173095703125" lon="118.82068547420203685760498046875">
        <ele>9.3999996185302734375</ele>
        <time>2026-06-14T03:25:16.000Z</time>
        <extensions>
          <ns3:TrackPointExtension>
            <ns3:atemp>31.0</ns3:atemp>
            <ns3:hr>125</ns3:hr>
          </ns3:TrackPointExtension>
        </extensions>
      </trkpt>
      <trkpt lat="31.96943230926990509033203125" lon="118.8206897489726543426513671875">
        <ele>9.19999980926513671875</ele>
        <time>2026-06-14T03:25:19.000Z</time>
        <extensions>
          <ns3:TrackPointExtension>
            <ns3:atemp>31.0</ns3:atemp>
            <ns3:hr>126</ns3:hr>
          </ns3:TrackPointExtension>
        </extensions>
      </trkpt>
      <trkpt lat="31.96962811052799224853515625" lon="118.82074297405779361724853515625">
        <ele>9.6000003814697265625</ele>
        <time>2026-06-14T03:25:23.000Z</time>
        <extensions>
          <ns3:TrackPointExtension>
            <ns3:atemp>31.0</ns3:atemp>
            <ns3:hr>128</ns3:hr>
          </ns3:TrackPointExtension>
        </extensions>
      </trkpt>
      <trkpt lat="31.9696698524057865142822265625" lon="118.8207725621759891510009765625">
        <ele>9.80000019073486328125</ele>
        <time>2026-06-14T03:25:24.000Z</time>
        <extensions>
          <ns3:TrackPointExtension>
            <ns3:atemp>31.0</ns3:atemp>
            <ns3:hr>128</ns3:hr>
          </ns3:TrackPointExtension>
        </extensions>
      </trkpt>
      <trkpt lat="31.96970832534134387969970703125" lon="118.820805251598358154296875">
        <ele>9.80000019073486328125</ele>
        <time>2026-06-14T03:25:25.000Z</time>
        <extensions>
          <ns3:TrackPointExtension>
            <ns3:atemp>30.0</ns3:atemp>
            <ns3:hr>128</ns3:hr>
          </ns3:TrackPointExtension>
        </extensions>
      </trkpt>
      <trkpt lat="31.96978007443249225616455078125" lon="118.82088907063007354736328125">
        <ele>9.80000019073486328125</ele>
        <time>2026-06-14T03:25:27.000Z</time>
        <extensions>
          <ns3:TrackPointExtension>
            <ns3:atemp>31.0</ns3:atemp>
            <ns3:hr>128</ns3:hr>
          </ns3:TrackPointExtension>
        </extensions>
      </trkpt>
      <trkpt lat="31.96983556263148784637451171875" lon="118.8209863007068634033203125">
        <ele>9.6000003814697265625</ele>
        <time>2026-06-14T03:25:29.000Z</time>
        <extensions>
          <ns3:TrackPointExtension>
            <ns3:atemp>31.0</ns3:atemp>
            <ns3:hr>127</ns3:hr>
          </ns3:TrackPointExtension>
        </extensions>
      </trkpt>
      <trkpt lat="31.96999012492597103118896484375" lon="118.82125519216060638427734375">
        <ele>8.6000003814697265625</ele>
        <time>2026-06-14T03:25:34.000Z</time>
        <extensions>
          <ns3:TrackPointExtension>
            <ns3:atemp>31.0</ns3:atemp>
            <ns3:hr>127</ns3:hr>
          </ns3:TrackPointExtension>
        </extensions>
      </trkpt>
      <trkpt lat="31.97005064226686954498291015625" lon="118.82134638726711273193359375">
        <ele>8.3999996185302734375</ele>
        <time>2026-06-14T03:25:36.000Z</time>
        <extensions>
          <ns3:TrackPointExtension>
            <ns3:atemp>31.0</ns3:atemp>
            <ns3:hr>126</ns3:hr>
          </ns3:TrackPointExtension>
        </extensions>
      </trkpt>
      <trkpt lat="31.9700767099857330322265625" lon="118.8213978521525859832763671875">
        <ele>8.19999980926513671875</ele>
        <time>2026-06-14T03:25:37.000Z</time>
        <extensions>
          <ns3:TrackPointExtension>
            <ns3:atemp>31.0</ns3:atemp>
            <ns3:hr>126</ns3:hr>
          </ns3:TrackPointExtension>
        </extensions>
      </trkpt>
      <trkpt lat="31.970101855695247650146484375" lon="118.82145191542804241180419921875">
        <ele>8</ele>
        <time>2026-06-14T03:25:38.000Z</time>
        <extensions>
          <ns3:TrackPointExtension>
            <ns3:atemp>31.0</ns3:atemp>
            <ns3:hr>126</ns3:hr>
          </ns3:TrackPointExtension>
        </extensions>
      </trkpt>
      <trkpt lat="31.97020436637103557586669921875" lon="118.821658529341220855712890625">
        <ele>8.19999980926513671875</ele>
        <time>2026-06-14T03:25:42.000Z</time>
        <extensions>
          <ns3:TrackPointExtension>
            <ns3:atemp>31.0</ns3:atemp>
            <ns3:hr>126</ns3:hr>
          </ns3:TrackPointExtension>
        </extensions>
      </trkpt>
      <trkpt lat="31.97026086039841175079345703125" lon="118.82175684906542301177978515625">
        <ele>9</ele>
        <time>2026-06-14T03:25:44.000Z</time>
        <extensions>
          <ns3:TrackPointExtension>
            <ns3:atemp>31.0</ns3:atemp>
            <ns3:hr>126</ns3:hr>
          </ns3:TrackPointExtension>
        </extensions>
      </trkpt>
      <trkpt lat="31.97035892866551876068115234375" lon="118.8219296000897884368896484375">
        <ele>10.19999980926513671875</ele>
        <time>2026-06-14T03:25:48.000Z</time>
        <extensions>
          <ns3:TrackPointExtension>
            <ns3:atemp>31.0</ns3:atemp>
            <ns3:hr>126</ns3:hr>
          </ns3:TrackPointExtension>
        </extensions>
      </trkpt>
      <trkpt lat="31.97038608603179454803466796875" lon="118.82197058759629726409912109375">
        <ele>10</ele>
        <time>2026-06-14T03:25:49.000Z</time>
        <extensions>
          <ns3:TrackPointExtension>
            <ns3:atemp>31.0</ns3:atemp>
            <ns3:hr>126</ns3:hr>
          </ns3:TrackPointExtension>
        </extensions>
      </trkpt>
      <trkpt lat="31.9704574160277843475341796875" lon="118.82209832780063152313232421875">
        <ele>9.80000019073486328125</ele>
        <time>2026-06-14T03:25:52.000Z</time>
        <extensions>
          <ns3:TrackPointExtension>
            <ns3:atemp>31.0</ns3:atemp>
            <ns3:hr>125</ns3:hr>
          </ns3:TrackPointExtension>
        </extensions>
      </trkpt>
      <trkpt lat="31.9704517163336277008056640625" lon="118.82219723425805568695068359375">
        <ele>9.19999980926513671875</ele>
        <time>2026-06-14T03:25:54.000Z</time>
        <extensions>
          <ns3:TrackPointExtension>
            <ns3:atemp>31.0</ns3:atemp>
            <ns3:hr>124</ns3:hr>
          </ns3:TrackPointExtension>
        </extensions>
      </trkpt>
      <trkpt lat="31.9704500399529933929443359375" lon="118.8222414068877696990966796875">
        <ele>9</ele>
        <time>2026-06-14T03:25:55.000Z</time>
        <extensions>
          <ns3:TrackPointExtension>
            <ns3:atemp>31.0</ns3:atemp>
            <ns3:hr>124</ns3:hr>
          </ns3:TrackPointExtension>
        </extensions>
      </trkpt>
      <trkpt lat="31.97046889923512935638427734375" lon="118.8222816400229930877685546875">
        <ele>9</ele>
        <time>2026-06-14T03:25:56.000Z</time>
        <extensions>
          <ns3:TrackPointExtension>
            <ns3:atemp>31.0</ns3:atemp>
            <ns3:hr>124</ns3:hr>
          </ns3:TrackPointExtension>
        </extensions>
      </trkpt>
      <trkpt lat="31.97049857117235660552978515625" lon="118.82230720482766628265380859375">
        <ele>8.6000003814697265625</ele>
        <time>2026-06-14T03:25:57.000Z</time>
        <extensions>
          <ns3:TrackPointExtension>
            <ns3:atemp>31.0</ns3:atemp>
            <ns3:hr>124</ns3:hr>
          </ns3:TrackPointExtension>
        </extensions>
      </trkpt>
      <trkpt lat="31.9705710746347904205322265625" lon="118.82235263474285602569580078125">
        <ele>7.80000019073486328125</ele>
        <time>2026-06-14T03:25:59.000Z</time>
        <extensions>
          <ns3:TrackPointExtension>
            <ns3:atemp>31.0</ns3:atemp>
            <ns3:hr>124</ns3:hr>
          </ns3:TrackPointExtension>
        </extensions>
      </trkpt>
      <trkpt lat="31.97064139880239963531494140625" lon="118.82238331250846385955810546875">
        <ele>6.599999904632568359375</ele>
        <time>2026-06-14T03:26:01.000Z</time>
        <extensions>
          <ns3:TrackPointExtension>
            <ns3:atemp>31.0</ns3:atemp>
            <ns3:hr>123</ns3:hr>
          </ns3:TrackPointExtension>
        </extensions>
      </trkpt>
      <trkpt lat="31.97066637687385082244873046875" lon="118.82238842546939849853515625">
        <ele>6.400000095367431640625</ele>
        <time>2026-06-14T03:26:02.000Z</time>
        <extensions>
          <ns3:TrackPointExtension>
            <ns3:atemp>31.0</ns3:atemp>
            <ns3:hr>123</ns3:hr>
          </ns3:TrackPointExtension>
        </extensions>
      </trkpt>
      <trkpt lat="31.97072538547217845916748046875" lon="118.82236487232148647308349609375">
        <ele>5.599999904632568359375</ele>
        <time>2026-06-14T03:26:05.000Z</time>
        <extensions>
          <ns3:TrackPointExtension>
            <ns3:atemp>31.0</ns3:atemp>
            <ns3:hr>121</ns3:hr>
          </ns3:TrackPointExtension>
        </extensions>
      </trkpt>
      <trkpt lat="31.970722116529941558837890625" lon="118.82232765667140483856201171875">
        <ele>5.400000095367431640625</ele>
        <time>2026-06-14T03:26:06.000Z</time>
        <extensions>
          <ns3:TrackPointExtension>
            <ns3:atemp>31.0</ns3:atemp>
            <ns3:hr>119</ns3:hr>
          </ns3:TrackPointExtension>
        </extensions>
      </trkpt>
      <trkpt lat="31.97072488255798816680908203125" lon="118.82228809408843517303466796875">
        <ele>5</ele>
        <time>2026-06-14T03:26:07.000Z</time>
        <extensions>
          <ns3:TrackPointExtension>
            <ns3:atemp>31.0</ns3:atemp>
            <ns3:hr>115</ns3:hr>
          </ns3:TrackPointExtension>
        </extensions>
      </trkpt>
      <trkpt lat="31.97072379291057586669921875" lon="118.82207787595689296722412109375">
        <ele>5.400000095367431640625</ele>
        <time>2026-06-14T03:26:12.000Z</time>
        <extensions>
          <ns3:TrackPointExtension>
            <ns3:atemp>31.0</ns3:atemp>
            <ns3:hr>114</ns3:hr>
          </ns3:TrackPointExtension>
        </extensions>
      </trkpt>
      <trkpt lat="31.970726139843463897705078125" lon="118.8218682445585727691650390625">
        <ele>5.400000095367431640625</ele>
        <time>2026-06-14T03:26:17.000Z</time>
        <extensions>
          <ns3:TrackPointExtension>
            <ns3:atemp>31.0</ns3:atemp>
            <ns3:hr>116</ns3:hr>
          </ns3:TrackPointExtension>
        </extensions>
      </trkpt>
      <trkpt lat="31.970709376037120819091796875" lon="118.82172969169914722442626953125">
        <ele>5.19999980926513671875</ele>
        <time>2026-06-14T03:26:22.000Z</time>
        <extensions>
          <ns3:TrackPointExtension>
            <ns3:atemp>31.0</ns3:atemp>
            <ns3:hr>117</ns3:hr>
          </ns3:TrackPointExtension>
        </extensions>
      </trkpt>
      <trkpt lat="31.970702670514583587646484375" lon="118.8217163644731044769287109375">
        <ele>5.400000095367431640625</ele>
        <time>2026-06-14T03:26:26.000Z</time>
        <extensions>
          <ns3:TrackPointExtension>
            <ns3:atemp>31.0</ns3:atemp>
            <ns3:hr>113</ns3:hr>
          </ns3:TrackPointExtension>
        </extensions>
      </trkpt>
      <trkpt lat="31.9707365334033966064453125" lon="118.821608908474445343017578125">
        <ele>5.400000095367431640625</ele>
        <time>2026-06-14T03:28:10.000Z</time>
        <extensions>
          <ns3:TrackPointExtension>
            <ns3:atemp>32.0</ns3:atemp>
            <ns3:hr>102</ns3:hr>
          </ns3:TrackPointExtension>
        </extensions>
      </trkpt>
      <trkpt lat="31.9707303307950496673583984375" lon="118.8215715251863002777099609375">
        <ele>5.400000095367431640625</ele>
        <time>2026-06-14T03:28:11.000Z</time>
        <extensions>
          <ns3:TrackPointExtension>
            <ns3:atemp>32.0</ns3:atemp>
            <ns3:hr>102</ns3:hr>
          </ns3:TrackPointExtension>
        </extensions>
      </trkpt>
      <trkpt lat="31.9707259722054004669189453125" lon="118.821533136069774627685546875">
        <ele>5.19999980926513671875</ele>
        <time>2026-06-14T03:28:12.000Z</time>
        <extensions>
          <ns3:TrackPointExtension>
            <ns3:atemp>32.0</ns3:atemp>
            <ns3:hr>102</ns3:hr>
          </ns3:TrackPointExtension>
        </extensions>
      </trkpt>
      <trkpt lat="31.97069789282977581024169921875" lon="118.82134638726711273193359375">
        <ele>5.599999904632568359375</ele>
        <time>2026-06-14T03:28:17.000Z</time>
        <extensions>
          <ns3:TrackPointExtension>
            <ns3:atemp>32.0</ns3:atemp>
            <ns3:hr>98</ns3:hr>
          </ns3:TrackPointExtension>
        </extensions>
      </trkpt>
      <trkpt lat="31.97069026529788970947265625" lon="118.82129064761102199554443359375">
        <ele>5.80000019073486328125</ele>
        <time>2026-06-14T03:28:19.000Z</time>
        <extensions>
          <ns3:TrackPointExtension>
            <ns3:atemp>32.0</ns3:atemp>
            <ns3:hr>96</ns3:hr>
          </ns3:TrackPointExtension>
        </extensions>
      </trkpt>
      <trkpt lat="31.97066369466483592987060546875" lon="118.8210642524063587188720703125">
        <ele>5.19999980926513671875</ele>
        <time>2026-06-14T03:28:25.000Z</time>
        <extensions>
          <ns3:TrackPointExtension>
            <ns3:atemp>32.0</ns3:atemp>
            <ns3:hr>97</ns3:hr>
          </ns3:TrackPointExtension>
        </extensions>
      </trkpt>
      <trkpt lat="31.9706478528678417205810546875" lon="118.82087389938533306121826171875">
        <ele>5.19999980926513671875</ele>
        <time>2026-06-14T03:28:29.000Z</time>
        <extensions>
          <ns3:TrackPointExtension>
            <ns3:atemp>32.0</ns3:atemp>
            <ns3:hr>101</ns3:hr>
          </ns3:TrackPointExtension>
        </extensions>
      </trkpt>
      <trkpt lat="31.97064458392560482025146484375" lon="118.82078203372657299041748046875">
        <ele>5.400000095367431640625</ele>
        <time>2026-06-14T03:28:31.000Z</time>
        <extensions>
          <ns3:TrackPointExtension>
            <ns3:atemp>32.0</ns3:atemp>
            <ns3:hr>103</ns3:hr>
          </ns3:TrackPointExtension>
        </extensions>
      </trkpt>
      <trkpt lat="31.97062144987285137176513671875" lon="118.82070743478834629058837890625">
        <ele>5.400000095367431640625</ele>
        <time>2026-06-14T03:28:33.000Z</time>
        <extensions>
          <ns3:TrackPointExtension>
            <ns3:atemp>32.0</ns3:atemp>
            <ns3:hr>106</ns3:hr>
          </ns3:TrackPointExtension>
        </extensions>
      </trkpt>
      <trkpt lat="31.97061792947351932525634765625" lon="118.8206456601619720458984375">
        <ele>5.400000095367431640625</ele>
        <time>2026-06-14T03:28:35.000Z</time>
        <extensions>
          <ns3:TrackPointExtension>
            <ns3:atemp>32.0</ns3:atemp>
            <ns3:hr>108</ns3:hr>
          </ns3:TrackPointExtension>
        </extensions>
      </trkpt>
      <trkpt lat="31.9706307537853717803955078125" lon="118.82048967294394969940185546875">
        <ele>5.599999904632568359375</ele>
        <time>2026-06-14T03:28:40.000Z</time>
        <extensions>
          <ns3:TrackPointExtension>
            <ns3:atemp>32.0</ns3:atemp>
            <ns3:hr>108</ns3:hr>
          </ns3:TrackPointExtension>
        </extensions>
      </trkpt>
      <trkpt lat="31.97060720063745975494384765625" lon="118.82027258165180683135986328125">
        <ele>5.80000019073486328125</ele>
        <time>2026-06-14T03:28:46.000Z</time>
        <extensions>
          <ns3:TrackPointExtension>
            <ns3:atemp>32.0</ns3:atemp>
            <ns3:hr>110</ns3:hr>
          </ns3:TrackPointExtension>
        </extensions>
      </trkpt>
      <trkpt lat="31.970599405467510223388671875" lon="118.82009941153228282928466796875">
        <ele>5.80000019073486328125</ele>
        <time>2026-06-14T03:28:50.000Z</time>
        <extensions>
          <ns3:TrackPointExtension>
            <ns3:atemp>32.0</ns3:atemp>
            <ns3:hr>113</ns3:hr>
          </ns3:TrackPointExtension>
        </extensions>
      </trkpt>
      <trkpt lat="31.97060032747685909271240234375" lon="118.82000930607318878173828125">
        <ele>6</ele>
        <time>2026-06-14T03:28:52.000Z</time>
        <extensions>
          <ns3:TrackPointExtension>
            <ns3:atemp>32.0</ns3:atemp>
            <ns3:hr>115</ns3:hr>
          </ns3:TrackPointExtension>
        </extensions>
      </trkpt>
      <trkpt lat="31.9705838151276111602783203125" lon="118.81975072436034679412841796875">
        <ele>5.80000019073486328125</ele>
        <time>2026-06-14T03:28:58.000Z</time>
        <extensions>
          <ns3:TrackPointExtension>
            <ns3:atemp>32.0</ns3:atemp>
            <ns3:hr>116</ns3:hr>
          </ns3:TrackPointExtension>
        </extensions>
      </trkpt>
      <trkpt lat="31.9705663807690143585205078125" lon="118.8195273466408252716064453125">
        <ele>5.599999904632568359375</ele>
        <time>2026-06-14T03:29:03.000Z</time>
        <extensions>
          <ns3:TrackPointExtension>
            <ns3:atemp>32.0</ns3:atemp>
            <ns3:hr>115</ns3:hr>
          </ns3:TrackPointExtension>
        </extensions>
      </trkpt>
      <trkpt lat="31.970538385212421417236328125" lon="118.81923289038240909576416015625">
        <ele>5.400000095367431640625</ele>
        <time>2026-06-14T03:29:09.000Z</time>
        <extensions>
          <ns3:TrackPointExtension>
            <ns3:atemp>31.0</ns3:atemp>
            <ns3:hr>116</ns3:hr>
          </ns3:TrackPointExtension>
        </extensions>
      </trkpt>
      <trkpt lat="31.97051902301609516143798828125" lon="118.81889962591230869293212890625">
        <ele>5.80000019073486328125</ele>
        <time>2026-06-14T03:29:16.000Z</time>
        <extensions>
          <ns3:TrackPointExtension>
            <ns3:atemp>31.0</ns3:atemp>
            <ns3:hr>119</ns3:hr>
          </ns3:TrackPointExtension>
        </extensions>
      </trkpt>
      <trkpt lat="31.9705187715590000152587890625" lon="118.8188544474542140960693359375">
        <ele>5.80000019073486328125</ele>
        <time>2026-06-14T03:29:17.000Z</time>
        <extensions>
          <ns3:TrackPointExtension>
            <ns3:atemp>31.0</ns3:atemp>
            <ns3:hr>119</ns3:hr>
          </ns3:TrackPointExtension>
        </extensions>
      </trkpt>
      <trkpt lat="31.9704932905733585357666015625" lon="118.8185288943350315093994140625">
        <ele>5.80000019073486328125</ele>
        <time>2026-06-14T03:29:24.000Z</time>
        <extensions>
          <ns3:TrackPointExtension>
            <ns3:atemp>31.0</ns3:atemp>
            <ns3:hr>119</ns3:hr>
          </ns3:TrackPointExtension>
        </extensions>
      </trkpt>
      <trkpt lat="31.97047007270157337188720703125" lon="118.8183723203837871551513671875">
        <ele>6.400000095367431640625</ele>
        <time>2026-06-14T03:29:29.000Z</time>
        <extensions>
          <ns3:TrackPointExtension>
            <ns3:atemp>31.0</ns3:atemp>
            <ns3:hr>119</ns3:hr>
          </ns3:TrackPointExtension>
        </extensions>
      </trkpt>
      <trkpt lat="31.97045582346618175506591796875" lon="118.818211220204830169677734375">
        <ele>6.400000095367431640625</ele>
        <time>2026-06-14T03:29:34.000Z</time>
        <extensions>
          <ns3:TrackPointExtension>
            <ns3:atemp>31.0</ns3:atemp>
            <ns3:hr>119</ns3:hr>
          </ns3:TrackPointExtension>
        </extensions>
      </trkpt>
      <trkpt lat="31.9704647921025753021240234375" lon="118.8180439174175262451171875">
        <ele>6.599999904632568359375</ele>
        <time>2026-06-14T03:29:39.000Z</time>
        <extensions>
          <ns3:TrackPointExtension>
            <ns3:atemp>31.0</ns3:atemp>
            <ns3:hr>118</ns3:hr>
          </ns3:TrackPointExtension>
        </extensions>
      </trkpt>
      <trkpt lat="31.97045163251459598541259765625" lon="118.8179663009941577911376953125">
        <ele>6.599999904632568359375</ele>
        <time>2026-06-14T03:29:42.000Z</time>
        <extensions>
          <ns3:TrackPointExtension>
            <ns3:atemp>31.0</ns3:atemp>
            <ns3:hr>117</ns3:hr>
          </ns3:TrackPointExtension>
        </extensions>
      </trkpt>
      <trkpt lat="31.97044459171593189239501953125" lon="118.81789195351302623748779296875">
        <ele>6.599999904632568359375</ele>
        <time>2026-06-14T03:29:44.000Z</time>
        <extensions>
          <ns3:TrackPointExtension>
            <ns3:atemp>31.0</ns3:atemp>
            <ns3:hr>117</ns3:hr>
          </ns3:TrackPointExtension>
        </extensions>
      </trkpt>
      <trkpt lat="31.9704262353479862213134765625" lon="118.817698918282985687255859375">
        <ele>6.599999904632568359375</ele>
        <time>2026-06-14T03:29:50.000Z</time>
        <extensions>
          <ns3:TrackPointExtension>
            <ns3:atemp>31.0</ns3:atemp>
            <ns3:hr>117</ns3:hr>
          </ns3:TrackPointExtension>
        </extensions>
      </trkpt>
      <trkpt lat="31.9704067893326282501220703125" lon="118.8174556754529476165771484375">
        <ele>6.80000019073486328125</ele>
        <time>2026-06-14T03:29:58.000Z</time>
        <extensions>
          <ns3:TrackPointExtension>
            <ns3:atemp>31.0</ns3:atemp>
            <ns3:hr>115</ns3:hr>
          </ns3:TrackPointExtension>
        </extensions>
      </trkpt>
      <trkpt lat="31.97040284983813762664794921875" lon="118.81729164160788059234619140625">
        <ele>6.599999904632568359375</ele>
        <time>2026-06-14T03:30:02.000Z</time>
        <extensions>
          <ns3:TrackPointExtension>
            <ns3:atemp>31.0</ns3:atemp>
            <ns3:hr>111</ns3:hr>
          </ns3:TrackPointExtension>
        </extensions>
      </trkpt>
      <trkpt lat="31.970379464328289031982421875" lon="118.81719030439853668212890625">
        <ele>6.599999904632568359375</ele>
        <time>2026-06-14T03:30:05.000Z</time>
        <extensions>
          <ns3:TrackPointExtension>
            <ns3:atemp>31.0</ns3:atemp>
            <ns3:hr>109</ns3:hr>
          </ns3:TrackPointExtension>
        </extensions>
      </trkpt>
      <trkpt lat="31.97027259506285190582275390625" lon="118.817168176174163818359375">
        <ele>6.400000095367431640625</ele>
        <time>2026-06-14T03:30:08.000Z</time>
        <extensions>
          <ns3:TrackPointExtension>
            <ns3:atemp>31.0</ns3:atemp>
            <ns3:hr>110</ns3:hr>
          </ns3:TrackPointExtension>
        </extensions>
      </trkpt>
      <trkpt lat="31.97013211436569690704345703125" lon="118.81716172210872173309326171875">
        <ele>6.400000095367431640625</ele>
        <time>2026-06-14T03:30:11.000Z</time>
        <extensions>
          <ns3:TrackPointExtension>
            <ns3:atemp>31.0</ns3:atemp>
            <ns3:hr>111</ns3:hr>
          </ns3:TrackPointExtension>
        </extensions>
      </trkpt>
      <trkpt lat="31.97004779241979122161865234375" lon="118.8171488977968692779541015625">
        <ele>6.400000095367431640625</ele>
        <time>2026-06-14T03:30:13.000Z</time>
        <extensions>
          <ns3:TrackPointExtension>
            <ns3:atemp>31.0</ns3:atemp>
            <ns3:hr>112</ns3:hr>
          </ns3:TrackPointExtension>
        </extensions>
      </trkpt>
      <trkpt lat="31.97000822983682155609130859375" lon="118.81715132854878902435302734375">
        <ele>6.400000095367431640625</ele>
        <time>2026-06-14T03:30:14.000Z</time>
        <extensions>
          <ns3:TrackPointExtension>
            <ns3:atemp>31.0</ns3:atemp>
            <ns3:hr>113</ns3:hr>
          </ns3:TrackPointExtension>
        </extensions>
      </trkpt>
      <trkpt lat="31.969887278974056243896484375" lon="118.8171683438122272491455078125">
        <ele>6.400000095367431640625</ele>
        <time>2026-06-14T03:30:17.000Z</time>
        <extensions>
          <ns3:TrackPointExtension>
            <ns3:atemp>31.0</ns3:atemp>
            <ns3:hr>116</ns3:hr>
          </ns3:TrackPointExtension>
        </extensions>
      </trkpt>
      <trkpt lat="31.9698083214461803436279296875" lon="118.81717630662024021148681640625">
        <ele>6.599999904632568359375</ele>
        <time>2026-06-14T03:30:19.000Z</time>
        <extensions>
          <ns3:TrackPointExtension>
            <ns3:atemp>31.0</ns3:atemp>
            <ns3:hr>118</ns3:hr>
          </ns3:TrackPointExtension>
        </extensions>
      </trkpt>
      <trkpt lat="31.969675384461879730224609375" lon="118.8171723671257495880126953125">
        <ele>6.400000095367431640625</ele>
        <time>2026-06-14T03:30:23.000Z</time>
        <extensions>
          <ns3:TrackPointExtension>
            <ns3:atemp>31.0</ns3:atemp>
            <ns3:hr>119</ns3:hr>
          </ns3:TrackPointExtension>
        </extensions>
      </trkpt>
      <trkpt lat="31.96959718130528926849365234375" lon="118.81718837656080722808837890625">
        <ele>6.599999904632568359375</ele>
        <time>2026-06-14T03:30:27.000Z</time>
        <extensions>
          <ns3:TrackPointExtension>
            <ns3:atemp>32.0</ns3:atemp>
            <ns3:hr>119</ns3:hr>
          </ns3:TrackPointExtension>
        </extensions>
      </trkpt>
      <trkpt lat="31.96957035921514034271240234375" lon="118.8171985186636447906494140625">
        <ele>6.599999904632568359375</ele>
        <time>2026-06-14T03:30:28.000Z</time>
        <extensions>
          <ns3:TrackPointExtension>
            <ns3:atemp>31.0</ns3:atemp>
            <ns3:hr>119</ns3:hr>
          </ns3:TrackPointExtension>
        </extensions>
      </trkpt>
      <trkpt lat="31.96942652575671672821044921875" lon="118.817199356853961944580078125">
        <ele>6.19999980926513671875</ele>
        <time>2026-06-14T03:30:33.000Z</time>
        <extensions>
          <ns3:TrackPointExtension>
            <ns3:atemp>32.0</ns3:atemp>
            <ns3:hr>117</ns3:hr>
          </ns3:TrackPointExtension>
        </extensions>
      </trkpt>
      <trkpt lat="31.969376988708972930908203125" lon="118.81719508208334445953369140625">
        <ele>6.400000095367431640625</ele>
        <time>2026-06-14T03:30:36.000Z</time>
        <extensions>
          <ns3:TrackPointExtension>
            <ns3:atemp>32.0</ns3:atemp>
            <ns3:hr>119</ns3:hr>
          </ns3:TrackPointExtension>
        </extensions>
      </trkpt>
      <trkpt lat="31.9693791680037975311279296875" lon="118.817183263599872589111328125">
        <ele>6.400000095367431640625</ele>
        <time>2026-06-14T03:30:37.000Z</time>
        <extensions>
          <ns3:TrackPointExtension>
            <ns3:atemp>32.0</ns3:atemp>
            <ns3:hr>119</ns3:hr>
          </ns3:TrackPointExtension>
        </extensions>
      </trkpt>
      <trkpt lat="31.9693795032799243927001953125" lon="118.81717060692608356475830078125">
        <ele>6.19999980926513671875</ele>
        <time>2026-06-14T03:30:42.000Z</time>
        <extensions>
          <ns3:TrackPointExtension>
            <ns3:atemp>32.0</ns3:atemp>
            <ns3:hr>120</ns3:hr>
          </ns3:TrackPointExtension>
        </extensions>
      </trkpt>
      <trkpt lat="31.9692279584705829620361328125" lon="118.8171056471765041351318359375">
        <ele>6.599999904632568359375</ele>
        <time>2026-06-14T03:31:23.000Z</time>
        <extensions>
          <ns3:TrackPointExtension>
            <ns3:atemp>32.0</ns3:atemp>
            <ns3:hr>122</ns3:hr>
          </ns3:TrackPointExtension>
        </extensions>
      </trkpt>
      <trkpt lat="31.96937330067157745361328125" lon="118.81704018451273441314697265625">
        <ele>6.599999904632568359375</ele>
        <time>2026-06-14T03:34:14.000Z</time>
        <extensions>
          <ns3:TrackPointExtension>
            <ns3:atemp>32.0</ns3:atemp>
            <ns3:hr>108</ns3:hr>
          </ns3:TrackPointExtension>
        </extensions>
      </trkpt>
      <trkpt lat="31.96938813664019107818603515625" lon="118.81709466688334941864013671875">
        <ele>6.599999904632568359375</ele>
        <time>2026-06-14T03:34:18.000Z</time>
        <extensions>
          <ns3:TrackPointExtension>
            <ns3:atemp>32.0</ns3:atemp>
            <ns3:hr>108</ns3:hr>
          </ns3:TrackPointExtension>
        </extensions>
      </trkpt>
      <trkpt lat="31.96938411332666873931884765625" lon="118.8170783221721649169921875">
        <ele>6.599999904632568359375</ele>
        <time>2026-06-14T03:34:19.000Z</time>
        <extensions>
          <ns3:TrackPointExtension>
            <ns3:atemp>32.0</ns3:atemp>
            <ns3:hr>108</ns3:hr>
          </ns3:TrackPointExtension>
        </extensions>
      </trkpt>
      <trkpt lat="31.96937464177608489990234375" lon="118.8171110115945339202880859375">
        <ele>6.19999980926513671875</ele>
        <time>2026-06-14T03:34:24.000Z</time>
        <extensions>
          <ns3:TrackPointExtension>
            <ns3:atemp>32.0</ns3:atemp>
            <ns3:hr>109</ns3:hr>
          </ns3:TrackPointExtension>
        </extensions>
      </trkpt>
      <trkpt lat="31.96939819492399692535400390625" lon="118.8170729577541351318359375">
        <ele>6.19999980926513671875</ele>
        <time>2026-06-14T03:34:25.000Z</time>
        <extensions>
          <ns3:TrackPointExtension>
            <ns3:atemp>32.0</ns3:atemp>
            <ns3:hr>109</ns3:hr>
          </ns3:TrackPointExtension>
        </extensions>
      </trkpt>
      <trkpt lat="31.96930616162717342376708984375" lon="118.8171200640499591827392578125">
        <ele>6.400000095367431640625</ele>
        <time>2026-06-14T03:34:54.000Z</time>
        <extensions>
          <ns3:TrackPointExtension>
            <ns3:atemp>33.0</ns3:atemp>
            <ns3:hr>108</ns3:hr>
          </ns3:TrackPointExtension>
        </extensions>
      </trkpt>
      <trkpt lat="31.969275064766407012939453125" lon="118.817119896411895751953125">
        <ele>6.400000095367431640625</ele>
        <time>2026-06-14T03:34:55.000Z</time>
        <extensions>
          <ns3:TrackPointExtension>
            <ns3:atemp>33.0</ns3:atemp>
            <ns3:hr>108</ns3:hr>
          </ns3:TrackPointExtension>
        </extensions>
      </trkpt>
      <trkpt lat="31.96921429596841335296630859375" lon="118.81712014786899089813232421875">
        <ele>6.19999980926513671875</ele>
        <time>2026-06-14T03:34:57.000Z</time>
        <extensions>
          <ns3:TrackPointExtension>
            <ns3:atemp>33.0</ns3:atemp>
            <ns3:hr>112</ns3:hr>
          </ns3:TrackPointExtension>
        </extensions>
      </trkpt>
      <trkpt lat="31.9691196642816066741943359375" lon="118.81713121198117733001708984375">
        <ele>6.19999980926513671875</ele>
        <time>2026-06-14T03:35:00.000Z</time>
        <extensions>
          <ns3:TrackPointExtension>
            <ns3:atemp>33.0</ns3:atemp>
            <ns3:hr>115</ns3:hr>
          </ns3:TrackPointExtension>
        </extensions>
      </trkpt>
      <trkpt lat="31.969056464731693267822265625" lon="118.817135654389858245849609375">
        <ele>6.400000095367431640625</ele>
        <time>2026-06-14T03:35:02.000Z</time>
        <extensions>
          <ns3:TrackPointExtension>
            <ns3:atemp>33.0</ns3:atemp>
            <ns3:hr>116</ns3:hr>
          </ns3:TrackPointExtension>
        </extensions>
      </trkpt>
      <trkpt lat="31.9689845480024814605712890625" lon="118.81716356612741947174072265625">
        <ele>6.400000095367431640625</ele>
        <time>2026-06-14T03:35:06.000Z</time>
        <extensions>
          <ns3:TrackPointExtension>
            <ns3:atemp>33.0</ns3:atemp>
            <ns3:hr>116</ns3:hr>
          </ns3:TrackPointExtension>
        </extensions>
      </trkpt>
      <trkpt lat="31.96887600235641002655029296875" lon="118.8171559385955333709716796875">
        <ele>6.19999980926513671875</ele>
        <time>2026-06-14T03:35:10.000Z</time>
        <extensions>
          <ns3:TrackPointExtension>
            <ns3:atemp>33.0</ns3:atemp>
            <ns3:hr>117</ns3:hr>
          </ns3:TrackPointExtension>
        </extensions>
      </trkpt>
      <trkpt lat="31.96863544173538684844970703125" lon="118.81716708652675151824951171875">
        <ele>6.400000095367431640625</ele>
        <time>2026-06-14T03:35:16.000Z</time>
        <extensions>
          <ns3:TrackPointExtension>
            <ns3:atemp>33.0</ns3:atemp>
            <ns3:hr>113</ns3:hr>
          </ns3:TrackPointExtension>
        </extensions>
      </trkpt>
      <trkpt lat="31.96859235875308513641357421875" lon="118.81716758944094181060791015625">
        <ele>6.400000095367431640625</ele>
        <time>2026-06-14T03:35:17.000Z</time>
        <extensions>
          <ns3:TrackPointExtension>
            <ns3:atemp>33.0</ns3:atemp>
            <ns3:hr>111</ns3:hr>
          </ns3:TrackPointExtension>
        </extensions>
      </trkpt>
      <trkpt lat="31.9684641994535923004150390625" lon="118.81716289557516574859619140625">
        <ele>6.599999904632568359375</ele>
        <time>2026-06-14T03:35:20.000Z</time>
        <extensions>
          <ns3:TrackPointExtension>
            <ns3:atemp>33.0</ns3:atemp>
            <ns3:hr>113</ns3:hr>
          </ns3:TrackPointExtension>
        </extensions>
      </trkpt>
      <trkpt lat="31.96829865686595439910888671875" lon="118.8171673379838466644287109375">
        <ele>6.599999904632568359375</ele>
        <time>2026-06-14T03:35:24.000Z</time>
        <extensions>
          <ns3:TrackPointExtension>
            <ns3:atemp>33.0</ns3:atemp>
            <ns3:hr>115</ns3:hr>
          </ns3:TrackPointExtension>
        </extensions>
      </trkpt>
      <trkpt lat="31.96790839545428752899169921875" lon="118.81717622280120849609375">
        <ele>6.599999904632568359375</ele>
        <time>2026-06-14T03:35:33.000Z</time>
        <extensions>
          <ns3:TrackPointExtension>
            <ns3:atemp>33.0</ns3:atemp>
            <ns3:hr>117</ns3:hr>
          </ns3:TrackPointExtension>
        </extensions>
      </trkpt>
      <trkpt lat="31.96779674850404262542724609375" lon="118.8171884603798389434814453125">
        <ele>6.80000019073486328125</ele>
        <time>2026-06-14T03:35:36.000Z</time>
        <extensions>
          <ns3:TrackPointExtension>
            <ns3:atemp>33.0</ns3:atemp>
            <ns3:hr>118</ns3:hr>
          </ns3:TrackPointExtension>
        </extensions>
      </trkpt>
      <trkpt lat="31.9677229039371013641357421875" lon="118.8171891309320926666259765625">
        <ele>7</ele>
        <time>2026-06-14T03:35:38.000Z</time>
        <extensions>
          <ns3:TrackPointExtension>
            <ns3:atemp>33.0</ns3:atemp>
            <ns3:hr>118</ns3:hr>
          </ns3:TrackPointExtension>
        </extensions>
      </trkpt>
      <trkpt lat="31.96742869913578033447265625" lon="118.817188628017902374267578125">
        <ele>7.19999980926513671875</ele>
        <time>2026-06-14T03:35:45.000Z</time>
        <extensions>
          <ns3:TrackPointExtension>
            <ns3:atemp>33.0</ns3:atemp>
            <ns3:hr>119</ns3:hr>
          </ns3:TrackPointExtension>
        </extensions>
      </trkpt>
      <trkpt lat="31.967300958931446075439453125" lon="118.81719893775880336761474609375">
        <ele>7.19999980926513671875</ele>
        <time>2026-06-14T03:35:48.000Z</time>
        <extensions>
          <ns3:TrackPointExtension>
            <ns3:atemp>33.0</ns3:atemp>
            <ns3:hr>120</ns3:hr>
          </ns3:TrackPointExtension>
        </extensions>
      </trkpt>
      <trkpt lat="31.96718118153512477874755859375" lon="118.8172099180519580841064453125">
        <ele>7</ele>
        <time>2026-06-14T03:35:51.000Z</time>
        <extensions>
          <ns3:TrackPointExtension>
            <ns3:atemp>33.0</ns3:atemp>
            <ns3:hr>121</ns3:hr>
          </ns3:TrackPointExtension>
        </extensions>
      </trkpt>
      <trkpt lat="31.9669899903237819671630859375" lon="118.8173074834048748016357421875">
        <ele>6.599999904632568359375</ele>
        <time>2026-06-14T03:35:56.000Z</time>
        <extensions>
          <ns3:TrackPointExtension>
            <ns3:atemp>33.0</ns3:atemp>
            <ns3:hr>122</ns3:hr>
          </ns3:TrackPointExtension>
        </extensions>
      </trkpt>
      <trkpt lat="31.966951601207256317138671875" lon="118.81733489222824573516845703125">
        <ele>6.80000019073486328125</ele>
        <time>2026-06-14T03:35:57.000Z</time>
        <extensions>
          <ns3:TrackPointExtension>
            <ns3:atemp>33.0</ns3:atemp>
            <ns3:hr>122</ns3:hr>
          </ns3:TrackPointExtension>
        </extensions>
      </trkpt>
      <trkpt lat="31.9668307341635227203369140625" lon="118.8174060545861721038818359375">
        <ele>7</ele>
        <time>2026-06-14T03:36:00.000Z</time>
        <extensions>
          <ns3:TrackPointExtension>
            <ns3:atemp>33.0</ns3:atemp>
            <ns3:hr>121</ns3:hr>
          </ns3:TrackPointExtension>
        </extensions>
      </trkpt>
      <trkpt lat="31.96680902503430843353271484375" lon="118.81745911203324794769287109375">
        <ele>7</ele>
        <time>2026-06-14T03:36:01.000Z</time>
        <extensions>
          <ns3:TrackPointExtension>
            <ns3:atemp>33.0</ns3:atemp>
            <ns3:hr>122</ns3:hr>
          </ns3:TrackPointExtension>
        </extensions>
      </trkpt>
      <trkpt lat="31.9667945243418216705322265625" lon="118.81751493550837039947509765625">
        <ele>7</ele>
        <time>2026-06-14T03:36:02.000Z</time>
        <extensions>
          <ns3:TrackPointExtension>
            <ns3:atemp>33.0</ns3:atemp>
            <ns3:hr>122</ns3:hr>
          </ns3:TrackPointExtension>
        </extensions>
      </trkpt>
      <trkpt lat="31.96678035892546176910400390625" lon="118.81768559105694293975830078125">
        <ele>7.19999980926513671875</ele>
        <time>2026-06-14T03:36:05.000Z</time>
        <extensions>
          <ns3:TrackPointExtension>
            <ns3:atemp>33.0</ns3:atemp>
            <ns3:hr>124</ns3:hr>
          </ns3:TrackPointExtension>
        </extensions>
      </trkpt>
      <trkpt lat="31.966754458844661712646484375" lon="118.817853145301342010498046875">
        <ele>7.400000095367431640625</ele>
        <time>2026-06-14T03:36:08.000Z</time>
        <extensions>
          <ns3:TrackPointExtension>
            <ns3:atemp>33.0</ns3:atemp>
            <ns3:hr>127</ns3:hr>
          </ns3:TrackPointExtension>
        </extensions>
      </trkpt>
      <trkpt lat="31.96673492901027202606201171875" lon="118.818070404231548309326171875">
        <ele>7.19999980926513671875</ele>
        <time>2026-06-14T03:36:12.000Z</time>
        <extensions>
          <ns3:TrackPointExtension>
            <ns3:atemp>33.0</ns3:atemp>
            <ns3:hr>128</ns3:hr>
          </ns3:TrackPointExtension>
        </extensions>
      </trkpt>
      <trkpt lat="31.96671682409942150115966796875" lon="118.8182831369340419769287109375">
        <ele>7.599999904632568359375</ele>
        <time>2026-06-14T03:36:16.000Z</time>
        <extensions>
          <ns3:TrackPointExtension>
            <ns3:atemp>33.0</ns3:atemp>
            <ns3:hr>130</ns3:hr>
          </ns3:TrackPointExtension>
        </extensions>
      </trkpt>
      <trkpt lat="31.96668094955384731292724609375" lon="118.8185533694922924041748046875">
        <ele>7.599999904632568359375</ele>
        <time>2026-06-14T03:36:21.000Z</time>
        <extensions>
          <ns3:TrackPointExtension>
            <ns3:atemp>33.0</ns3:atemp>
            <ns3:hr>129</ns3:hr>
          </ns3:TrackPointExtension>
        </extensions>
      </trkpt>
      <trkpt lat="31.96663417853415012359619140625" lon="118.81893910467624664306640625">
        <ele>8.3999996185302734375</ele>
        <time>2026-06-14T03:36:28.000Z</time>
        <extensions>
          <ns3:TrackPointExtension>
            <ns3:atemp>33.0</ns3:atemp>
            <ns3:hr>130</ns3:hr>
          </ns3:TrackPointExtension>
        </extensions>
      </trkpt>
      <trkpt lat="31.96659050881862640380859375" lon="118.81931595504283905029296875">
        <ele>8.6000003814697265625</ele>
        <time>2026-06-14T03:36:35.000Z</time>
        <extensions>
          <ns3:TrackPointExtension>
            <ns3:atemp>33.0</ns3:atemp>
            <ns3:hr>129</ns3:hr>
          </ns3:TrackPointExtension>
        </extensions>
      </trkpt>
      <trkpt lat="31.96656175889074802398681640625" lon="118.8196363113820552825927734375">
        <ele>9.3999996185302734375</ele>
        <time>2026-06-14T03:36:41.000Z</time>
        <extensions>
          <ns3:TrackPointExtension>
            <ns3:atemp>33.0</ns3:atemp>
            <ns3:hr>131</ns3:hr>
          </ns3:TrackPointExtension>
        </extensions>
      </trkpt>
      <trkpt lat="31.9665390439331531524658203125" lon="118.81978693418204784393310546875">
        <ele>9.80000019073486328125</ele>
        <time>2026-06-14T03:36:44.000Z</time>
        <extensions>
          <ns3:TrackPointExtension>
            <ns3:atemp>33.0</ns3:atemp>
            <ns3:hr>131</ns3:hr>
          </ns3:TrackPointExtension>
        </extensions>
      </trkpt>
      <trkpt lat="31.96650744415819644927978515625" lon="118.8200255669653415679931640625">
        <ele>10.19999980926513671875</ele>
        <time>2026-06-14T03:36:49.000Z</time>
        <extensions>
          <ns3:TrackPointExtension>
            <ns3:atemp>33.0</ns3:atemp>
            <ns3:hr>133</ns3:hr>
          </ns3:TrackPointExtension>
        </extensions>
      </trkpt>
      <trkpt lat="31.9664745032787322998046875" lon="118.8202988170087337493896484375">
        <ele>10.6000003814697265625</ele>
        <time>2026-06-14T03:36:55.000Z</time>
        <extensions>
          <ns3:TrackPointExtension>
            <ns3:atemp>33.0</ns3:atemp>
            <ns3:hr>136</ns3:hr>
          </ns3:TrackPointExtension>
        </extensions>
      </trkpt>
      <trkpt lat="31.96647022850811481475830078125" lon="118.820389844477176666259765625">
        <ele>10.80000019073486328125</ele>
        <time>2026-06-14T03:36:57.000Z</time>
        <extensions>
          <ns3:TrackPointExtension>
            <ns3:atemp>33.0</ns3:atemp>
            <ns3:hr>137</ns3:hr>
          </ns3:TrackPointExtension>
        </extensions>
      </trkpt>
      <trkpt lat="31.966468803584575653076171875" lon="118.82043502293527126312255859375">
        <ele>10.80000019073486328125</ele>
        <time>2026-06-14T03:36:58.000Z</time>
        <extensions>
          <ns3:TrackPointExtension>
            <ns3:atemp>33.0</ns3:atemp>
            <ns3:hr>137</ns3:hr>
          </ns3:TrackPointExtension>
        </extensions>
      </trkpt>
      <trkpt lat="31.966450028121471405029296875" lon="118.82071464322507381439208984375">
        <ele>11</ele>
        <time>2026-06-14T03:37:05.000Z</time>
        <extensions>
          <ns3:TrackPointExtension>
            <ns3:atemp>33.0</ns3:atemp>
            <ns3:hr>138</ns3:hr>
          </ns3:TrackPointExtension>
        </extensions>
      </trkpt>
      <trkpt lat="31.96643435396254062652587890625" lon="118.82090977393090724945068359375">
        <ele>11.6000003814697265625</ele>
        <time>2026-06-14T03:37:10.000Z</time>
        <extensions>
          <ns3:TrackPointExtension>
            <ns3:atemp>33.0</ns3:atemp>
            <ns3:hr>136</ns3:hr>
          </ns3:TrackPointExtension>
        </extensions>
      </trkpt>
      <trkpt lat="31.9664310850203037261962890625" lon="118.82095235399901866912841796875">
        <ele>11.80000019073486328125</ele>
        <time>2026-06-14T03:37:11.000Z</time>
        <extensions>
          <ns3:TrackPointExtension>
            <ns3:atemp>33.0</ns3:atemp>
            <ns3:hr>136</ns3:hr>
          </ns3:TrackPointExtension>
        </extensions>
      </trkpt>
      <trkpt lat="31.96640409529209136962890625" lon="118.8212077505886554718017578125">
        <ele>12.3999996185302734375</ele>
        <time>2026-06-14T03:37:17.000Z</time>
        <extensions>
          <ns3:TrackPointExtension>
            <ns3:atemp>33.0</ns3:atemp>
            <ns3:hr>136</ns3:hr>
          </ns3:TrackPointExtension>
        </extensions>
      </trkpt>
      <trkpt lat="31.96638691239058971405029296875" lon="118.82137999869883060455322265625">
        <ele>12.80000019073486328125</ele>
        <time>2026-06-14T03:37:21.000Z</time>
        <extensions>
          <ns3:TrackPointExtension>
            <ns3:atemp>33.0</ns3:atemp>
            <ns3:hr>137</ns3:hr>
          </ns3:TrackPointExtension>
        </extensions>
      </trkpt>
      <trkpt lat="31.966364867985248565673828125" lon="118.8216875307261943817138671875">
        <ele>12.6000003814697265625</ele>
        <time>2026-06-14T03:37:28.000Z</time>
        <extensions>
          <ns3:TrackPointExtension>
            <ns3:atemp>33.0</ns3:atemp>
            <ns3:hr>139</ns3:hr>
          </ns3:TrackPointExtension>
        </extensions>
      </trkpt>
      <trkpt lat="31.966318599879741668701171875" lon="118.82202138192951679229736328125">
        <ele>12.6000003814697265625</ele>
        <time>2026-06-14T03:37:35.000Z</time>
        <extensions>
          <ns3:TrackPointExtension>
            <ns3:atemp>33.0</ns3:atemp>
            <ns3:hr>139</ns3:hr>
          </ns3:TrackPointExtension>
        </extensions>
      </trkpt>
      <trkpt lat="31.9662902690470218658447265625" lon="118.82232673466205596923828125">
        <ele>12.19999980926513671875</ele>
        <time>2026-06-14T03:37:41.000Z</time>
        <extensions>
          <ns3:TrackPointExtension>
            <ns3:atemp>33.0</ns3:atemp>
            <ns3:hr>136</ns3:hr>
          </ns3:TrackPointExtension>
        </extensions>
      </trkpt>
      <trkpt lat="31.96628532372415065765380859375" lon="118.82247920148074626922607421875">
        <ele>12.19999980926513671875</ele>
        <time>2026-06-14T03:37:44.000Z</time>
        <extensions>
          <ns3:TrackPointExtension>
            <ns3:atemp>32.0</ns3:atemp>
            <ns3:hr>136</ns3:hr>
          </ns3:TrackPointExtension>
        </extensions>
      </trkpt>
      <trkpt lat="31.9662520475685596466064453125" lon="118.8226330094039440155029296875">
        <ele>11.80000019073486328125</ele>
        <time>2026-06-14T03:37:47.000Z</time>
        <extensions>
          <ns3:TrackPointExtension>
            <ns3:atemp>32.0</ns3:atemp>
            <ns3:hr>135</ns3:hr>
          </ns3:TrackPointExtension>
        </extensions>
      </trkpt>
      <trkpt lat="31.96625514887273311614990234375" lon="118.8226933591067790985107421875">
        <ele>11.6000003814697265625</ele>
        <time>2026-06-14T03:37:48.000Z</time>
        <extensions>
          <ns3:TrackPointExtension>
            <ns3:atemp>32.0</ns3:atemp>
            <ns3:hr>134</ns3:hr>
          </ns3:TrackPointExtension>
        </extensions>
      </trkpt>
      <trkpt lat="31.96625095792114734649658203125" lon="118.82275681011378765106201171875">
        <ele>11.19999980926513671875</ele>
        <time>2026-06-14T03:37:49.000Z</time>
        <extensions>
          <ns3:TrackPointExtension>
            <ns3:atemp>32.0</ns3:atemp>
            <ns3:hr>134</ns3:hr>
          </ns3:TrackPointExtension>
        </extensions>
      </trkpt>
      <trkpt lat="31.966228745877742767333984375" lon="118.82288865745067596435546875">
        <ele>10.80000019073486328125</ele>
        <time>2026-06-14T03:37:51.000Z</time>
        <extensions>
          <ns3:TrackPointExtension>
            <ns3:atemp>32.0</ns3:atemp>
            <ns3:hr>131</ns3:hr>
          </ns3:TrackPointExtension>
        </extensions>
      </trkpt>
      <trkpt lat="31.96621508337557315826416015625" lon="118.822955377399921417236328125">
        <ele>10.80000019073486328125</ele>
        <time>2026-06-14T03:37:52.000Z</time>
        <extensions>
          <ns3:TrackPointExtension>
            <ns3:atemp>32.0</ns3:atemp>
            <ns3:hr>129</ns3:hr>
          </ns3:TrackPointExtension>
        </extensions>
      </trkpt>
      <trkpt lat="31.9662034325301647186279296875" lon="118.82302084006369113922119140625">
        <ele>10.6000003814697265625</ele>
        <time>2026-06-14T03:37:53.000Z</time>
        <extensions>
          <ns3:TrackPointExtension>
            <ns3:atemp>32.0</ns3:atemp>
            <ns3:hr>128</ns3:hr>
          </ns3:TrackPointExtension>
        </extensions>
      </trkpt>
      <trkpt lat="31.96618683636188507080078125" lon="118.82316065020859241485595703125">
        <ele>10.3999996185302734375</ele>
        <time>2026-06-14T03:37:55.000Z</time>
        <extensions>
          <ns3:TrackPointExtension>
            <ns3:atemp>32.0</ns3:atemp>
            <ns3:hr>127</ns3:hr>
          </ns3:TrackPointExtension>
        </extensions>
      </trkpt>
      <trkpt lat="31.96614417247474193572998046875" lon="118.82353699766099452972412109375">
        <ele>9.80000019073486328125</ele>
        <time>2026-06-14T03:38:00.000Z</time>
        <extensions>
          <ns3:TrackPointExtension>
            <ns3:atemp>32.0</ns3:atemp>
            <ns3:hr>128</ns3:hr>
          </ns3:TrackPointExtension>
        </extensions>
      </trkpt>
      <trkpt lat="31.9661239720880985260009765625" lon="118.823686279356479644775390625">
        <ele>9.6000003814697265625</ele>
        <time>2026-06-14T03:38:02.000Z</time>
        <extensions>
          <ns3:TrackPointExtension>
            <ns3:atemp>32.0</ns3:atemp>
            <ns3:hr>129</ns3:hr>
          </ns3:TrackPointExtension>
        </extensions>
      </trkpt>
      <trkpt lat="31.96607845835387706756591796875" lon="118.82403572089970111846923828125">
        <ele>8.80000019073486328125</ele>
        <time>2026-06-14T03:38:07.000Z</time>
        <extensions>
          <ns3:TrackPointExtension>
            <ns3:atemp>32.0</ns3:atemp>
            <ns3:hr>129</ns3:hr>
          </ns3:TrackPointExtension>
        </extensions>
      </trkpt>
      <trkpt lat="31.96610662154853343963623046875" lon="118.82415524683892726898193359375">
        <ele>9</ele>
        <time>2026-06-14T03:38:09.000Z</time>
        <extensions>
          <ns3:TrackPointExtension>
            <ns3:atemp>32.0</ns3:atemp>
            <ns3:hr>128</ns3:hr>
          </ns3:TrackPointExtension>
        </extensions>
      </trkpt>
      <trkpt lat="31.9661474414169788360595703125" lon="118.82419212721288204193115234375">
        <ele>9</ele>
        <time>2026-06-14T03:38:10.000Z</time>
        <extensions>
          <ns3:TrackPointExtension>
            <ns3:atemp>32.0</ns3:atemp>
            <ns3:hr>128</ns3:hr>
          </ns3:TrackPointExtension>
        </extensions>
      </trkpt>
      <trkpt lat="31.96619899012148380279541015625" lon="118.82421006448566913604736328125">
        <ele>9.19999980926513671875</ele>
        <time>2026-06-14T03:38:11.000Z</time>
        <extensions>
          <ns3:TrackPointExtension>
            <ns3:atemp>32.0</ns3:atemp>
            <ns3:hr>127</ns3:hr>
          </ns3:TrackPointExtension>
        </extensions>
      </trkpt>
      <trkpt lat="31.9663082063198089599609375" lon="118.82420637644827365875244140625">
        <ele>9</ele>
        <time>2026-06-14T03:38:13.000Z</time>
        <extensions>
          <ns3:TrackPointExtension>
            <ns3:atemp>32.0</ns3:atemp>
            <ns3:hr>125</ns3:hr>
          </ns3:TrackPointExtension>
        </extensions>
      </trkpt>
      <trkpt lat="31.96636210195720195770263671875" lon="118.82421056739985942840576171875">
        <ele>9</ele>
        <time>2026-06-14T03:38:14.000Z</time>
        <extensions>
          <ns3:TrackPointExtension>
            <ns3:atemp>32.0</ns3:atemp>
            <ns3:hr>124</ns3:hr>
          </ns3:TrackPointExtension>
        </extensions>
      </trkpt>
      <trkpt lat="31.96651867590844631195068359375" lon="118.824227415025234222412109375">
        <ele>8.80000019073486328125</ele>
        <time>2026-06-14T03:38:17.000Z</time>
        <extensions>
          <ns3:TrackPointExtension>
            <ns3:atemp>32.0</ns3:atemp>
            <ns3:hr>124</ns3:hr>
          </ns3:TrackPointExtension>
        </extensions>
      </trkpt>
      <trkpt lat="31.96656905114650726318359375" lon="118.82423940114676952362060546875">
        <ele>8.80000019073486328125</ele>
        <time>2026-06-14T03:38:18.000Z</time>
        <extensions>
          <ns3:TrackPointExtension>
            <ns3:atemp>32.0</ns3:atemp>
            <ns3:hr>124</ns3:hr>
          </ns3:TrackPointExtension>
        </extensions>
      </trkpt>
      <trkpt lat="31.96662043221294879913330078125" lon="118.8243331946432590484619140625">
        <ele>8.80000019073486328125</ele>
        <time>2026-06-14T03:38:20.000Z</time>
        <extensions>
          <ns3:TrackPointExtension>
            <ns3:atemp>32.0</ns3:atemp>
            <ns3:hr>125</ns3:hr>
          </ns3:TrackPointExtension>
        </extensions>
      </trkpt>
      <trkpt lat="31.9666594080626964569091796875" lon="118.824371583759784698486328125">
        <ele>9</ele>
        <time>2026-06-14T03:38:23.000Z</time>
        <extensions>
          <ns3:TrackPointExtension>
            <ns3:atemp>32.0</ns3:atemp>
            <ns3:hr>123</ns3:hr>
          </ns3:TrackPointExtension>
        </extensions>
      </trkpt>
      <trkpt lat="31.96666183881461620330810546875" lon="118.82437485270202159881591796875">
        <ele>8.80000019073486328125</ele>
        <time>2026-06-14T03:38:26.000Z</time>
        <extensions>
          <ns3:TrackPointExtension>
            <ns3:atemp>32.0</ns3:atemp>
            <ns3:hr>123</ns3:hr>
          </ns3:TrackPointExtension>
        </extensions>
      </trkpt>
      <trkpt lat="31.96676627732813358306884765625" lon="118.824310563504695892333984375">
        <ele>8.3999996185302734375</ele>
        <time>2026-06-14T03:38:32.000Z</time>
        <extensions>
          <ns3:TrackPointExtension>
            <ns3:atemp>32.0</ns3:atemp>
            <ns3:hr>123</ns3:hr>
          </ns3:TrackPointExtension>
        </extensions>
      </trkpt>
      <trkpt lat="31.96677449159324169158935546875" lon="118.82426538504660129547119140625">
        <ele>8.19999980926513671875</ele>
        <time>2026-06-14T03:38:33.000Z</time>
        <extensions>
          <ns3:TrackPointExtension>
            <ns3:atemp>32.0</ns3:atemp>
            <ns3:hr>123</ns3:hr>
          </ns3:TrackPointExtension>
        </extensions>
      </trkpt>
      <trkpt lat="31.96680969558656215667724609375" lon="118.82387026213109493255615234375">
        <ele>8.6000003814697265625</ele>
        <time>2026-06-14T03:38:40.000Z</time>
        <extensions>
          <ns3:TrackPointExtension>
            <ns3:atemp>32.0</ns3:atemp>
            <ns3:hr>124</ns3:hr>
          </ns3:TrackPointExtension>
        </extensions>
      </trkpt>
      <trkpt lat="31.966854371130466461181640625" lon="118.8236991874873638153076171875">
        <ele>8.80000019073486328125</ele>
        <time>2026-06-14T03:38:43.000Z</time>
        <extensions>
          <ns3:TrackPointExtension>
            <ns3:atemp>32.0</ns3:atemp>
            <ns3:hr>126</ns3:hr>
          </ns3:TrackPointExtension>
        </extensions>
      </trkpt>
      <trkpt lat="31.9669088535010814666748046875" lon="118.823591060936450958251953125">
        <ele>9</ele>
        <time>2026-06-14T03:38:45.000Z</time>
        <extensions>
          <ns3:TrackPointExtension>
            <ns3:atemp>32.0</ns3:atemp>
            <ns3:hr>126</ns3:hr>
          </ns3:TrackPointExtension>
        </extensions>
      </trkpt>
      <trkpt lat="31.9671163894236087799072265625" lon="118.82330247201025485992431640625">
        <ele>9</ele>
        <time>2026-06-14T03:38:51.000Z</time>
        <extensions>
          <ns3:TrackPointExtension>
            <ns3:atemp>32.0</ns3:atemp>
            <ns3:hr>128</ns3:hr>
          </ns3:TrackPointExtension>
        </extensions>
      </trkpt>
      <trkpt lat="31.967214457690715789794921875" lon="118.8232219219207763671875">
        <ele>9</ele>
        <time>2026-06-14T03:38:53.000Z</time>
        <extensions>
          <ns3:TrackPointExtension>
            <ns3:atemp>32.0</ns3:atemp>
            <ns3:hr>128</ns3:hr>
          </ns3:TrackPointExtension>
        </extensions>
      </trkpt>
      <trkpt lat="31.9673121906816959381103515625" lon="118.82317875511944293975830078125">
        <ele>8.80000019073486328125</ele>
        <time>2026-06-14T03:38:55.000Z</time>
        <extensions>
          <ns3:TrackPointExtension>
            <ns3:atemp>32.0</ns3:atemp>
            <ns3:hr>129</ns3:hr>
          </ns3:TrackPointExtension>
        </extensions>
      </trkpt>
      <trkpt lat="31.96740833111107349395751953125" lon="118.8231302239000797271728515625">
        <ele>8.80000019073486328125</ele>
        <time>2026-06-14T03:38:57.000Z</time>
        <extensions>
          <ns3:TrackPointExtension>
            <ns3:atemp>32.0</ns3:atemp>
            <ns3:hr>129</ns3:hr>
          </ns3:TrackPointExtension>
        </extensions>
      </trkpt>
      <trkpt lat="31.96745954453945159912109375" lon="118.82310600019991397857666015625">
        <ele>8.80000019073486328125</ele>
        <time>2026-06-14T03:38:58.000Z</time>
        <extensions>
          <ns3:TrackPointExtension>
            <ns3:atemp>32.0</ns3:atemp>
            <ns3:hr>129</ns3:hr>
          </ns3:TrackPointExtension>
        </extensions>
      </trkpt>
      <trkpt lat="31.9675596244633197784423828125" lon="118.823070712387561798095703125">
        <ele>9</ele>
        <time>2026-06-14T03:39:00.000Z</time>
        <extensions>
          <ns3:TrackPointExtension>
            <ns3:atemp>32.0</ns3:atemp>
            <ns3:hr>129</ns3:hr>
          </ns3:TrackPointExtension>
        </extensions>
      </trkpt>
      <trkpt lat="31.96760983206331729888916015625" lon="118.82306325249373912811279296875">
        <ele>9</ele>
        <time>2026-06-14T03:39:01.000Z</time>
        <extensions>
          <ns3:TrackPointExtension>
            <ns3:atemp>32.0</ns3:atemp>
            <ns3:hr>129</ns3:hr>
          </ns3:TrackPointExtension>
        </extensions>
      </trkpt>
      <trkpt lat="31.967712678015232086181640625" lon="118.8230685330927371978759765625">
        <ele>9</ele>
        <time>2026-06-14T03:39:03.000Z</time>
        <extensions>
          <ns3:TrackPointExtension>
            <ns3:atemp>32.0</ns3:atemp>
            <ns3:hr>130</ns3:hr>
          </ns3:TrackPointExtension>
        </extensions>
      </trkpt>
      <trkpt lat="31.96775995194911956787109375" lon="118.8230784237384796142578125">
        <ele>9</ele>
        <time>2026-06-14T03:39:04.000Z</time>
        <extensions>
          <ns3:TrackPointExtension>
            <ns3:atemp>32.0</ns3:atemp>
            <ns3:hr>130</ns3:hr>
          </ns3:TrackPointExtension>
        </extensions>
      </trkpt>
      <trkpt lat="31.96784268133342266082763671875" lon="118.82306811399757862091064453125">
        <ele>9.19999980926513671875</ele>
        <time>2026-06-14T03:39:06.000Z</time>
        <extensions>
          <ns3:TrackPointExtension>
            <ns3:atemp>32.0</ns3:atemp>
            <ns3:hr>131</ns3:hr>
          </ns3:TrackPointExtension>
        </extensions>
      </trkpt>
      <trkpt lat="31.96793957613408565521240234375" lon="118.82308823056519031524658203125">
        <ele>9.19999980926513671875</ele>
        <time>2026-06-14T03:39:08.000Z</time>
        <extensions>
          <ns3:TrackPointExtension>
            <ns3:atemp>32.0</ns3:atemp>
            <ns3:hr>130</ns3:hr>
          </ns3:TrackPointExtension>
        </extensions>
      </trkpt>
      <trkpt lat="31.96808374486863613128662109375" lon="118.82313533686101436614990234375">
        <ele>9.19999980926513671875</ele>
        <time>2026-06-14T03:39:11.000Z</time>
        <extensions>
          <ns3:TrackPointExtension>
            <ns3:atemp>32.0</ns3:atemp>
            <ns3:hr>130</ns3:hr>
          </ns3:TrackPointExtension>
        </extensions>
      </trkpt>
      <trkpt lat="31.96817628107964992523193359375" lon="118.8231982849538326263427734375">
        <ele>9.3999996185302734375</ele>
        <time>2026-06-14T03:39:13.000Z</time>
        <extensions>
          <ns3:TrackPointExtension>
            <ns3:atemp>32.0</ns3:atemp>
            <ns3:hr>129</ns3:hr>
          </ns3:TrackPointExtension>
        </extensions>
      </trkpt>
      <trkpt lat="31.9682181067764759063720703125" lon="118.82323457859456539154052734375">
        <ele>9.6000003814697265625</ele>
        <time>2026-06-14T03:39:14.000Z</time>
        <extensions>
          <ns3:TrackPointExtension>
            <ns3:atemp>31.0</ns3:atemp>
            <ns3:hr>129</ns3:hr>
          </ns3:TrackPointExtension>
        </extensions>
      </trkpt>
      <trkpt lat="31.96825255639851093292236328125" lon="118.8232737220823764801025390625">
        <ele>9.6000003814697265625</ele>
        <time>2026-06-14T03:39:15.000Z</time>
        <extensions>
          <ns3:TrackPointExtension>
            <ns3:atemp>32.0</ns3:atemp>
            <ns3:hr>129</ns3:hr>
          </ns3:TrackPointExtension>
        </extensions>
      </trkpt>
      <trkpt lat="31.96831248700618743896484375" lon="118.82336718030273914337158203125">
        <ele>9.6000003814697265625</ele>
        <time>2026-06-14T03:39:17.000Z</time>
        <extensions>
          <ns3:TrackPointExtension>
            <ns3:atemp>31.0</ns3:atemp>
            <ns3:hr>128</ns3:hr>
          </ns3:TrackPointExtension>
        </extensions>
      </trkpt>
      <trkpt lat="31.968346349895000457763671875" lon="118.8234111852943897247314453125">
        <ele>9.6000003814697265625</ele>
        <time>2026-06-14T03:39:18.000Z</time>
        <extensions>
          <ns3:TrackPointExtension>
            <ns3:atemp>32.0</ns3:atemp>
            <ns3:hr>128</ns3:hr>
          </ns3:TrackPointExtension>
        </extensions>
      </trkpt>
      <trkpt lat="31.9685097970068454742431640625" lon="118.8236750476062297821044921875">
        <ele>9.19999980926513671875</ele>
        <time>2026-06-14T03:39:24.000Z</time>
        <extensions>
          <ns3:TrackPointExtension>
            <ns3:atemp>31.0</ns3:atemp>
            <ns3:hr>129</ns3:hr>
          </ns3:TrackPointExtension>
        </extensions>
      </trkpt>
      <trkpt lat="31.968558914959430694580078125" lon="118.8239144347608089447021484375">
        <ele>9.80000019073486328125</ele>
        <time>2026-06-14T03:39:29.000Z</time>
        <extensions>
          <ns3:TrackPointExtension>
            <ns3:atemp>31.0</ns3:atemp>
            <ns3:hr>129</ns3:hr>
          </ns3:TrackPointExtension>
        </extensions>
      </trkpt>
      <trkpt lat="31.96852211840450763702392578125" lon="118.824074529111385345458984375">
        <ele>10.19999980926513671875</ele>
        <time>2026-06-14T03:39:33.000Z</time>
        <extensions>
          <ns3:TrackPointExtension>
            <ns3:atemp>31.0</ns3:atemp>
            <ns3:hr>129</ns3:hr>
          </ns3:TrackPointExtension>
        </extensions>
      </trkpt>
      <trkpt lat="31.96850568987429141998291015625" lon="118.82407545112073421478271484375">
        <ele>10.19999980926513671875</ele>
        <time>2026-06-14T03:39:34.000Z</time>
        <extensions>
          <ns3:TrackPointExtension>
            <ns3:atemp>31.0</ns3:atemp>
            <ns3:hr>130</ns3:hr>
          </ns3:TrackPointExtension>
        </extensions>
      </trkpt>
      <trkpt lat="31.96849127300083637237548828125" lon="118.824073188006877899169921875">
        <ele>10.3999996185302734375</ele>
        <time>2026-06-14T03:39:35.000Z</time>
        <extensions>
          <ns3:TrackPointExtension>
            <ns3:atemp>31.0</ns3:atemp>
            <ns3:hr>130</ns3:hr>
          </ns3:TrackPointExtension>
        </extensions>
      </trkpt>
      <trkpt lat="31.96847216226160526275634765625" lon="118.8240803964436054229736328125">
        <ele>10.3999996185302734375</ele>
        <time>2026-06-14T03:39:39.000Z</time>
        <extensions>
          <ns3:TrackPointExtension>
            <ns3:atemp>31.0</ns3:atemp>
            <ns3:hr>129</ns3:hr>
          </ns3:TrackPointExtension>
        </extensions>
      </trkpt>
      <trkpt lat="31.9684615172445774078369140625" lon="118.82408886216580867767333984375">
        <ele>10.3999996185302734375</ele>
        <time>2026-06-14T03:39:40.000Z</time>
        <extensions>
          <ns3:TrackPointExtension>
            <ns3:atemp>31.0</ns3:atemp>
            <ns3:hr>128</ns3:hr>
          </ns3:TrackPointExtension>
        </extensions>
      </trkpt>
    </trkseg>
  </trk>
</gpx>
