<gpx xmlns:ns3="http://www.garmin.com/xmlschemas/TrackPointExtension/v1" xmlns="http://www.topografix.com/GPX/1/1" xmlns:xsi="http://www.w3.org/2001/XMLSchema-instance" xmlns:ns2="http://www.garmin.com/xmlschemas/GpxExtensions/v3" creator="Garmin Connect" version="1.1" xsi:schemaLocation="http://www.topografix.com/GPX/1/1 http://www.topografix.com/GPX/11.xsd">
  <extensions>
<distance>1317.51</distance>
<average_hr>95.0</average_hr>
<average_speed>3.505000114440918</average_speed>
<start_time>2026-06-25T10:11:12+00:00</start_time>
<end_time>2026-06-25T10:17:27.905000+00:00</end_time>
<moving_time>353.0</moving_time>
<elapsed_time>460.923</elapsed_time>
</extensions>
<metadata>
    <link href="connect.garmin.com">
      <text>Garmin Connect</text>
    </link>
    <time>2026-06-25T10:11:12.000Z</time>
  </metadata>
  <trk>
    <name>南京市 骑行</name>
    <type>cycling</type>
    <trkseg>
      <trkpt lat="31.96704790927469730377197265625" lon="118.8136221282184123992919921875">
        <ele>7.19999980926513671875</ele>
        <time>2026-06-25T10:11:29.000Z</time>
        <extensions>
          <ns3:TrackPointExtension>
            <ns3:atemp>31.0</ns3:atemp>
            <ns3:hr>90</ns3:hr>
          </ns3:TrackPointExtension>
        </extensions>
      </trkpt>
      <trkpt lat="31.96704656817018985748291015625" lon="118.8138826377689838409423828125">
        <ele>7</ele>
        <time>2026-06-25T10:11:34.000Z</time>
        <extensions>
          <ns3:TrackPointExtension>
            <ns3:atemp>31.0</ns3:atemp>
            <ns3:hr>91</ns3:hr>
          </ns3:TrackPointExtension>
        </extensions>
      </trkpt>
      <trkpt lat="31.9670392759144306182861328125" lon="118.814218752086162567138671875">
        <ele>7.19999980926513671875</ele>
        <time>2026-06-25T10:11:40.000Z</time>
        <extensions>
          <ns3:TrackPointExtension>
            <ns3:atemp>31.0</ns3:atemp>
            <ns3:hr>92</ns3:hr>
          </ns3:TrackPointExtension>
        </extensions>
      </trkpt>
      <trkpt lat="31.967057548463344573974609375" lon="118.81458990275859832763671875">
        <ele>7.19999980926513671875</ele>
        <time>2026-06-25T10:11:47.000Z</time>
        <extensions>
          <ns3:TrackPointExtension>
            <ns3:atemp>31.0</ns3:atemp>
            <ns3:hr>93</ns3:hr>
          </ns3:TrackPointExtension>
        </extensions>
      </trkpt>
      <trkpt lat="31.96702326647937297821044921875" lon="118.814854435622692108154296875">
        <ele>7.19999980926513671875</ele>
        <time>2026-06-25T10:11:53.000Z</time>
        <extensions>
          <ns3:TrackPointExtension>
            <ns3:atemp>31.0</ns3:atemp>
            <ns3:hr>95</ns3:hr>
          </ns3:TrackPointExtension>
        </extensions>
      </trkpt>
      <trkpt lat="31.9669980369508266448974609375" lon="118.815097175538539886474609375">
        <ele>7.19999980926513671875</ele>
        <time>2026-06-25T10:11:59.000Z</time>
        <extensions>
          <ns3:TrackPointExtension>
            <ns3:atemp>31.0</ns3:atemp>
            <ns3:hr>95</ns3:hr>
          </ns3:TrackPointExtension>
        </extensions>
      </trkpt>
      <trkpt lat="31.96695503778755664825439453125" lon="118.81534838117659091949462890625">
        <ele>7.19999980926513671875</ele>
        <time>2026-06-25T10:12:05.000Z</time>
        <extensions>
          <ns3:TrackPointExtension>
            <ns3:atemp>31.0</ns3:atemp>
            <ns3:hr>96</ns3:hr>
          </ns3:TrackPointExtension>
        </extensions>
      </trkpt>
      <trkpt lat="31.96693173609673976898193359375" lon="118.81564426235854625701904296875">
        <ele>6.80000019073486328125</ele>
        <time>2026-06-25T10:12:11.000Z</time>
        <extensions>
          <ns3:TrackPointExtension>
            <ns3:atemp>31.0</ns3:atemp>
            <ns3:hr>96</ns3:hr>
          </ns3:TrackPointExtension>
        </extensions>
      </trkpt>
      <trkpt lat="31.96692855097353458404541015625" lon="118.815948106348514556884765625">
        <ele>6.80000019073486328125</ele>
        <time>2026-06-25T10:12:17.000Z</time>
        <extensions>
          <ns3:TrackPointExtension>
            <ns3:atemp>31.0</ns3:atemp>
            <ns3:hr>96</ns3:hr>
          </ns3:TrackPointExtension>
        </extensions>
      </trkpt>
      <trkpt lat="31.9669236056506633758544921875" lon="118.8162181712687015533447265625">
        <ele>7</ele>
        <time>2026-06-25T10:12:23.000Z</time>
        <extensions>
          <ns3:TrackPointExtension>
            <ns3:atemp>31.0</ns3:atemp>
            <ns3:hr>93</ns3:hr>
          </ns3:TrackPointExtension>
        </extensions>
      </trkpt>
      <trkpt lat="31.9669091887772083282470703125" lon="118.81637667305767536163330078125">
        <ele>6.80000019073486328125</ele>
        <time>2026-06-25T10:12:27.000Z</time>
        <extensions>
          <ns3:TrackPointExtension>
            <ns3:atemp>31.0</ns3:atemp>
            <ns3:hr>89</ns3:hr>
          </ns3:TrackPointExtension>
        </extensions>
      </trkpt>
      <trkpt lat="31.96690055541694164276123046875" lon="118.81645496003329753875732421875">
        <ele>6.599999904632568359375</ele>
        <time>2026-06-25T10:12:29.000Z</time>
        <extensions>
          <ns3:TrackPointExtension>
            <ns3:atemp>31.0</ns3:atemp>
            <ns3:hr>89</ns3:hr>
          </ns3:TrackPointExtension>
        </extensions>
      </trkpt>
      <trkpt lat="31.96687859483063220977783203125" lon="118.81671865470707416534423828125">
        <ele>6.80000019073486328125</ele>
        <time>2026-06-25T10:12:35.000Z</time>
        <extensions>
          <ns3:TrackPointExtension>
            <ns3:atemp>31.0</ns3:atemp>
            <ns3:hr>87</ns3:hr>
          </ns3:TrackPointExtension>
        </extensions>
      </trkpt>
      <trkpt lat="31.9668153114616870880126953125" lon="118.81704412400722503662109375">
        <ele>6.400000095367431640625</ele>
        <time>2026-06-25T10:12:44.000Z</time>
        <extensions>
          <ns3:TrackPointExtension>
            <ns3:atemp>31.0</ns3:atemp>
            <ns3:hr>87</ns3:hr>
          </ns3:TrackPointExtension>
        </extensions>
      </trkpt>
      <trkpt lat="31.9668210111558437347412109375" lon="118.8170556910336017608642578125">
        <ele>6.80000019073486328125</ele>
        <time>2026-06-25T10:12:48.000Z</time>
        <extensions>
          <ns3:TrackPointExtension>
            <ns3:atemp>31.0</ns3:atemp>
            <ns3:hr>85</ns3:hr>
          </ns3:TrackPointExtension>
        </extensions>
      </trkpt>
      <trkpt lat="31.96693073026835918426513671875" lon="118.81713791750371456146240234375">
        <ele>6.599999904632568359375</ele>
        <time>2026-06-25T10:12:51.000Z</time>
        <extensions>
          <ns3:TrackPointExtension>
            <ns3:atemp>31.0</ns3:atemp>
            <ns3:hr>84</ns3:hr>
          </ns3:TrackPointExtension>
        </extensions>
      </trkpt>
      <trkpt lat="31.9668397866189479827880859375" lon="118.8171458803117275238037109375">
        <ele>6.19999980926513671875</ele>
        <time>2026-06-25T10:14:14.000Z</time>
        <extensions>
          <ns3:TrackPointExtension>
            <ns3:atemp>31.0</ns3:atemp>
            <ns3:hr>69</ns3:hr>
          </ns3:TrackPointExtension>
        </extensions>
      </trkpt>
      <trkpt lat="31.96683484129607677459716796875" lon="118.8171753846108913421630859375">
        <ele>6.19999980926513671875</ele>
        <time>2026-06-25T10:14:15.000Z</time>
        <extensions>
          <ns3:TrackPointExtension>
            <ns3:atemp>31.0</ns3:atemp>
            <ns3:hr>69</ns3:hr>
          </ns3:TrackPointExtension>
        </extensions>
      </trkpt>
      <trkpt lat="31.9668312370777130126953125" lon="118.8172397576272487640380859375">
        <ele>6</ele>
        <time>2026-06-25T10:14:17.000Z</time>
        <extensions>
          <ns3:TrackPointExtension>
            <ns3:atemp>31.0</ns3:atemp>
            <ns3:hr>67</ns3:hr>
          </ns3:TrackPointExtension>
        </extensions>
      </trkpt>
      <trkpt lat="31.96681288070976734161376953125" lon="118.81740094162523746490478515625">
        <ele>5.599999904632568359375</ele>
        <time>2026-06-25T10:14:21.000Z</time>
        <extensions>
          <ns3:TrackPointExtension>
            <ns3:atemp>31.0</ns3:atemp>
            <ns3:hr>69</ns3:hr>
          </ns3:TrackPointExtension>
        </extensions>
      </trkpt>
      <trkpt lat="31.9667791016399860382080078125" lon="118.8177594356238842010498046875">
        <ele>5.400000095367431640625</ele>
        <time>2026-06-25T10:14:29.000Z</time>
        <extensions>
          <ns3:TrackPointExtension>
            <ns3:atemp>31.0</ns3:atemp>
            <ns3:hr>69</ns3:hr>
          </ns3:TrackPointExtension>
        </extensions>
      </trkpt>
      <trkpt lat="31.96674917824566364288330078125" lon="118.8180779479444026947021484375">
        <ele>6.19999980926513671875</ele>
        <time>2026-06-25T10:14:36.000Z</time>
        <extensions>
          <ns3:TrackPointExtension>
            <ns3:atemp>31.0</ns3:atemp>
            <ns3:hr>71</ns3:hr>
          </ns3:TrackPointExtension>
        </extensions>
      </trkpt>
      <trkpt lat="31.96672135032713413238525390625" lon="118.81829914636909961700439453125">
        <ele>6.400000095367431640625</ele>
        <time>2026-06-25T10:14:41.000Z</time>
        <extensions>
          <ns3:TrackPointExtension>
            <ns3:atemp>31.0</ns3:atemp>
            <ns3:hr>81</ns3:hr>
          </ns3:TrackPointExtension>
        </extensions>
      </trkpt>
      <trkpt lat="31.9666976295411586761474609375" lon="118.81842420436441898345947265625">
        <ele>6.400000095367431640625</ele>
        <time>2026-06-25T10:14:44.000Z</time>
        <extensions>
          <ns3:TrackPointExtension>
            <ns3:atemp>31.0</ns3:atemp>
            <ns3:hr>83</ns3:hr>
          </ns3:TrackPointExtension>
        </extensions>
      </trkpt>
      <trkpt lat="31.96664951741695404052734375" lon="118.81872427649796009063720703125">
        <ele>5.80000019073486328125</ele>
        <time>2026-06-25T10:14:51.000Z</time>
        <extensions>
          <ns3:TrackPointExtension>
            <ns3:atemp>31.0</ns3:atemp>
            <ns3:hr>87</ns3:hr>
          </ns3:TrackPointExtension>
        </extensions>
      </trkpt>
      <trkpt lat="31.96664926595985889434814453125" lon="118.81875939667224884033203125">
        <ele>6</ele>
        <time>2026-06-25T10:14:52.000Z</time>
        <extensions>
          <ns3:TrackPointExtension>
            <ns3:atemp>31.0</ns3:atemp>
            <ns3:hr>91</ns3:hr>
          </ns3:TrackPointExtension>
        </extensions>
      </trkpt>
      <trkpt lat="31.9666413031518459320068359375" lon="118.818882443010807037353515625">
        <ele>6.80000019073486328125</ele>
        <time>2026-06-25T10:14:55.000Z</time>
        <extensions>
          <ns3:TrackPointExtension>
            <ns3:atemp>31.0</ns3:atemp>
            <ns3:hr>96</ns3:hr>
          </ns3:TrackPointExtension>
        </extensions>
      </trkpt>
      <trkpt lat="31.96663652546703815460205078125" lon="118.818922005593776702880859375">
        <ele>7</ele>
        <time>2026-06-25T10:14:56.000Z</time>
        <extensions>
          <ns3:TrackPointExtension>
            <ns3:atemp>31.0</ns3:atemp>
            <ns3:hr>99</ns3:hr>
          </ns3:TrackPointExtension>
        </extensions>
      </trkpt>
      <trkpt lat="31.9666138105094432830810546875" lon="118.81907614879310131072998046875">
        <ele>7.19999980926513671875</ele>
        <time>2026-06-25T10:15:00.000Z</time>
        <extensions>
          <ns3:TrackPointExtension>
            <ns3:atemp>31.0</ns3:atemp>
            <ns3:hr>100</ns3:hr>
          </ns3:TrackPointExtension>
        </extensions>
      </trkpt>
      <trkpt lat="31.9665869884192943572998046875" lon="118.8192738778889179229736328125">
        <ele>7.400000095367431640625</ele>
        <time>2026-06-25T10:15:05.000Z</time>
        <extensions>
          <ns3:TrackPointExtension>
            <ns3:atemp>31.0</ns3:atemp>
            <ns3:hr>99</ns3:hr>
          </ns3:TrackPointExtension>
        </extensions>
      </trkpt>
      <trkpt lat="31.96655874140560626983642578125" lon="118.81959498859941959381103515625">
        <ele>7.599999904632568359375</ele>
        <time>2026-06-25T10:15:13.000Z</time>
        <extensions>
          <ns3:TrackPointExtension>
            <ns3:atemp>31.0</ns3:atemp>
            <ns3:hr>101</ns3:hr>
          </ns3:TrackPointExtension>
        </extensions>
      </trkpt>
      <trkpt lat="31.96654465980827808380126953125" lon="118.8197560049593448638916015625">
        <ele>8.19999980926513671875</ele>
        <time>2026-06-25T10:15:17.000Z</time>
        <extensions>
          <ns3:TrackPointExtension>
            <ns3:atemp>31.0</ns3:atemp>
            <ns3:hr>102</ns3:hr>
          </ns3:TrackPointExtension>
        </extensions>
      </trkpt>
      <trkpt lat="31.966538541018962860107421875" lon="118.81983353756368160247802734375">
        <ele>8.3999996185302734375</ele>
        <time>2026-06-25T10:15:19.000Z</time>
        <extensions>
          <ns3:TrackPointExtension>
            <ns3:atemp>31.0</ns3:atemp>
            <ns3:hr>104</ns3:hr>
          </ns3:TrackPointExtension>
        </extensions>
      </trkpt>
      <trkpt lat="31.96651699952781200408935546875" lon="118.82008097134530544281005859375">
        <ele>9</ele>
        <time>2026-06-25T10:15:25.000Z</time>
        <extensions>
          <ns3:TrackPointExtension>
            <ns3:atemp>31.0</ns3:atemp>
            <ns3:hr>107</ns3:hr>
          </ns3:TrackPointExtension>
        </extensions>
      </trkpt>
      <trkpt lat="31.966512389481067657470703125" lon="118.82015624083578586578369140625">
        <ele>9.19999980926513671875</ele>
        <time>2026-06-25T10:15:27.000Z</time>
        <extensions>
          <ns3:TrackPointExtension>
            <ns3:atemp>31.0</ns3:atemp>
            <ns3:hr>107</ns3:hr>
          </ns3:TrackPointExtension>
        </extensions>
      </trkpt>
      <trkpt lat="31.9664897583425045013427734375" lon="118.82037132047116756439208984375">
        <ele>9.80000019073486328125</ele>
        <time>2026-06-25T10:15:33.000Z</time>
        <extensions>
          <ns3:TrackPointExtension>
            <ns3:atemp>31.0</ns3:atemp>
            <ns3:hr>109</ns3:hr>
          </ns3:TrackPointExtension>
        </extensions>
      </trkpt>
      <trkpt lat="31.96650912053883075714111328125" lon="118.820552118122577667236328125">
        <ele>9.80000019073486328125</ele>
        <time>2026-06-25T10:15:39.000Z</time>
        <extensions>
          <ns3:TrackPointExtension>
            <ns3:atemp>31.0</ns3:atemp>
            <ns3:hr>111</ns3:hr>
          </ns3:TrackPointExtension>
        </extensions>
      </trkpt>
      <trkpt lat="31.9665380381047725677490234375" lon="118.8205938600003719329833984375">
        <ele>10</ele>
        <time>2026-06-25T10:15:41.000Z</time>
        <extensions>
          <ns3:TrackPointExtension>
            <ns3:atemp>31.0</ns3:atemp>
            <ns3:hr>114</ns3:hr>
          </ns3:TrackPointExtension>
        </extensions>
      </trkpt>
      <trkpt lat="31.966555975377559661865234375" lon="118.82060349918901920318603515625">
        <ele>10.3999996185302734375</ele>
        <time>2026-06-25T10:15:43.000Z</time>
        <extensions>
          <ns3:TrackPointExtension>
            <ns3:atemp>31.0</ns3:atemp>
            <ns3:hr>114</ns3:hr>
          </ns3:TrackPointExtension>
        </extensions>
      </trkpt>
      <trkpt lat="31.96662931703031063079833984375" lon="118.82064507342875003814697265625">
        <ele>10.3999996185302734375</ele>
        <time>2026-06-25T10:15:48.000Z</time>
        <extensions>
          <ns3:TrackPointExtension>
            <ns3:atemp>31.0</ns3:atemp>
            <ns3:hr>115</ns3:hr>
          </ns3:TrackPointExtension>
        </extensions>
      </trkpt>
      <trkpt lat="31.9666791893541812896728515625" lon="118.82074330933392047882080078125">
        <ele>10.19999980926513671875</ele>
        <time>2026-06-25T10:15:51.000Z</time>
        <extensions>
          <ns3:TrackPointExtension>
            <ns3:atemp>31.0</ns3:atemp>
            <ns3:hr>114</ns3:hr>
          </ns3:TrackPointExtension>
        </extensions>
      </trkpt>
      <trkpt lat="31.966678686439990997314453125" lon="118.820778764784336090087890625">
        <ele>10.19999980926513671875</ele>
        <time>2026-06-25T10:15:52.000Z</time>
        <extensions>
          <ns3:TrackPointExtension>
            <ns3:atemp>31.0</ns3:atemp>
            <ns3:hr>112</ns3:hr>
          </ns3:TrackPointExtension>
        </extensions>
      </trkpt>
      <trkpt lat="31.966651864349842071533203125" lon="118.82107137702405452728271484375">
        <ele>11.3999996185302734375</ele>
        <time>2026-06-25T10:16:01.000Z</time>
        <extensions>
          <ns3:TrackPointExtension>
            <ns3:atemp>31.0</ns3:atemp>
            <ns3:hr>110</ns3:hr>
          </ns3:TrackPointExtension>
        </extensions>
      </trkpt>
      <trkpt lat="31.9666473381221294403076171875" lon="118.8211041502654552459716796875">
        <ele>11.3999996185302734375</ele>
        <time>2026-06-25T10:16:02.000Z</time>
        <extensions>
          <ns3:TrackPointExtension>
            <ns3:atemp>31.0</ns3:atemp>
            <ns3:hr>111</ns3:hr>
          </ns3:TrackPointExtension>
        </extensions>
      </trkpt>
      <trkpt lat="31.96661959402263164520263671875" lon="118.821304477751255035400390625">
        <ele>11.80000019073486328125</ele>
        <time>2026-06-25T10:16:08.000Z</time>
        <extensions>
          <ns3:TrackPointExtension>
            <ns3:atemp>31.0</ns3:atemp>
            <ns3:hr>112</ns3:hr>
          </ns3:TrackPointExtension>
        </extensions>
      </trkpt>
      <trkpt lat="31.96660660207271575927734375" lon="118.82144294679164886474609375">
        <ele>12.19999980926513671875</ele>
        <time>2026-06-25T10:16:12.000Z</time>
        <extensions>
          <ns3:TrackPointExtension>
            <ns3:atemp>31.0</ns3:atemp>
            <ns3:hr>115</ns3:hr>
          </ns3:TrackPointExtension>
        </extensions>
      </trkpt>
      <trkpt lat="31.96659386157989501953125" lon="118.8215889595448970794677734375">
        <ele>12.19999980926513671875</ele>
        <time>2026-06-25T10:16:16.000Z</time>
        <extensions>
          <ns3:TrackPointExtension>
            <ns3:atemp>31.0</ns3:atemp>
            <ns3:hr>114</ns3:hr>
          </ns3:TrackPointExtension>
        </extensions>
      </trkpt>
      <trkpt lat="31.96658941917121410369873046875" lon="118.821659870445728302001953125">
        <ele>12.6000003814697265625</ele>
        <time>2026-06-25T10:16:18.000Z</time>
        <extensions>
          <ns3:TrackPointExtension>
            <ns3:atemp>31.0</ns3:atemp>
            <ns3:hr>114</ns3:hr>
          </ns3:TrackPointExtension>
        </extensions>
      </trkpt>
      <trkpt lat="31.96654985658824443817138671875" lon="118.82194460369646549224853515625">
        <ele>12.80000019073486328125</ele>
        <time>2026-06-25T10:16:26.000Z</time>
        <extensions>
          <ns3:TrackPointExtension>
            <ns3:atemp>30.0</ns3:atemp>
            <ns3:hr>114</ns3:hr>
          </ns3:TrackPointExtension>
        </extensions>
      </trkpt>
      <trkpt lat="31.96651875972747802734375" lon="118.82218281738460063934326171875">
        <ele>12.6000003814697265625</ele>
        <time>2026-06-25T10:16:32.000Z</time>
        <extensions>
          <ns3:TrackPointExtension>
            <ns3:atemp>31.0</ns3:atemp>
            <ns3:hr>111</ns3:hr>
          </ns3:TrackPointExtension>
        </extensions>
      </trkpt>
      <trkpt lat="31.96651146747171878814697265625" lon="118.82226864807307720184326171875">
        <ele>12.6000003814697265625</ele>
        <time>2026-06-25T10:16:34.000Z</time>
        <extensions>
          <ns3:TrackPointExtension>
            <ns3:atemp>30.0</ns3:atemp>
            <ns3:hr>110</ns3:hr>
          </ns3:TrackPointExtension>
        </extensions>
      </trkpt>
      <trkpt lat="31.96649386547505855560302734375" lon="118.822439052164554595947265625">
        <ele>12.3999996185302734375</ele>
        <time>2026-06-25T10:16:38.000Z</time>
        <extensions>
          <ns3:TrackPointExtension>
            <ns3:atemp>31.0</ns3:atemp>
            <ns3:hr>106</ns3:hr>
          </ns3:TrackPointExtension>
        </extensions>
      </trkpt>
      <trkpt lat="31.96647919714450836181640625" lon="118.82257157005369663238525390625">
        <ele>11.80000019073486328125</ele>
        <time>2026-06-25T10:16:41.000Z</time>
        <extensions>
          <ns3:TrackPointExtension>
            <ns3:atemp>30.0</ns3:atemp>
            <ns3:hr>103</ns3:hr>
          </ns3:TrackPointExtension>
        </extensions>
      </trkpt>
      <trkpt lat="31.96647408418357372283935546875" lon="118.82262236438691616058349609375">
        <ele>11.19999980926513671875</ele>
        <time>2026-06-25T10:16:42.000Z</time>
        <extensions>
          <ns3:TrackPointExtension>
            <ns3:atemp>31.0</ns3:atemp>
            <ns3:hr>102</ns3:hr>
          </ns3:TrackPointExtension>
        </extensions>
      </trkpt>
      <trkpt lat="31.96645849384367465972900390625" lon="118.82278094999492168426513671875">
        <ele>10</ele>
        <time>2026-06-25T10:16:45.000Z</time>
        <extensions>
          <ns3:TrackPointExtension>
            <ns3:atemp>31.0</ns3:atemp>
            <ns3:hr>102</ns3:hr>
          </ns3:TrackPointExtension>
        </extensions>
      </trkpt>
      <trkpt lat="31.9664522074162960052490234375" lon="118.82287365384399890899658203125">
        <ele>9.3999996185302734375</ele>
        <time>2026-06-25T10:16:47.000Z</time>
        <extensions>
          <ns3:TrackPointExtension>
            <ns3:atemp>30.0</ns3:atemp>
            <ns3:hr>101</ns3:hr>
          </ns3:TrackPointExtension>
        </extensions>
      </trkpt>
      <trkpt lat="31.9665172509849071502685546875" lon="118.82297541014850139617919921875">
        <ele>10.19999980926513671875</ele>
        <time>2026-06-25T10:16:51.000Z</time>
        <extensions>
          <ns3:TrackPointExtension>
            <ns3:atemp>30.0</ns3:atemp>
            <ns3:hr>100</ns3:hr>
          </ns3:TrackPointExtension>
        </extensions>
      </trkpt>
      <trkpt lat="31.96657148189842700958251953125" lon="118.822950012981891632080078125">
        <ele>10.19999980926513671875</ele>
        <time>2026-06-25T10:16:53.000Z</time>
        <extensions>
          <ns3:TrackPointExtension>
            <ns3:atemp>30.0</ns3:atemp>
            <ns3:hr>97</ns3:hr>
          </ns3:TrackPointExtension>
        </extensions>
      </trkpt>
      <trkpt lat="31.9665869884192943572998046875" lon="118.82292293943464756011962890625">
        <ele>10.19999980926513671875</ele>
        <time>2026-06-25T10:16:54.000Z</time>
        <extensions>
          <ns3:TrackPointExtension>
            <ns3:atemp>30.0</ns3:atemp>
            <ns3:hr>95</ns3:hr>
          </ns3:TrackPointExtension>
        </extensions>
      </trkpt>
      <trkpt lat="31.96659143082797527313232421875" lon="118.82289159111678600311279296875">
        <ele>10</ele>
        <time>2026-06-25T10:16:55.000Z</time>
        <extensions>
          <ns3:TrackPointExtension>
            <ns3:atemp>31.0</ns3:atemp>
            <ns3:hr>93</ns3:hr>
          </ns3:TrackPointExtension>
        </extensions>
      </trkpt>
      <trkpt lat="31.96659587323665618896484375" lon="118.822835348546504974365234375">
        <ele>9.80000019073486328125</ele>
        <time>2026-06-25T10:16:57.000Z</time>
        <extensions>
          <ns3:TrackPointExtension>
            <ns3:atemp>30.0</ns3:atemp>
            <ns3:hr>89</ns3:hr>
          </ns3:TrackPointExtension>
        </extensions>
      </trkpt>
      <trkpt lat="31.966597549617290496826171875" lon="118.8227967917919158935546875">
        <ele>9.6000003814697265625</ele>
        <time>2026-06-25T10:16:58.000Z</time>
        <extensions>
          <ns3:TrackPointExtension>
            <ns3:atemp>30.0</ns3:atemp>
            <ns3:hr>89</ns3:hr>
          </ns3:TrackPointExtension>
        </extensions>
      </trkpt>
      <trkpt lat="31.96662127040326595306396484375" lon="118.82257215678691864013671875">
        <ele>10.3999996185302734375</ele>
        <time>2026-06-25T10:17:05.000Z</time>
        <extensions>
          <ns3:TrackPointExtension>
            <ns3:atemp>30.0</ns3:atemp>
            <ns3:hr>88</ns3:hr>
          </ns3:TrackPointExtension>
        </extensions>
      </trkpt>
      <trkpt lat="31.96663216687738895416259765625" lon="118.82254810072481632232666015625">
        <ele>10.3999996185302734375</ele>
        <time>2026-06-25T10:17:06.000Z</time>
        <extensions>
          <ns3:TrackPointExtension>
            <ns3:atemp>30.0</ns3:atemp>
            <ns3:hr>88</ns3:hr>
          </ns3:TrackPointExtension>
        </extensions>
      </trkpt>
      <trkpt lat="31.9667043350636959075927734375" lon="118.82247467525303363800048828125">
        <ele>11</ele>
        <time>2026-06-25T10:17:10.000Z</time>
        <extensions>
          <ns3:TrackPointExtension>
            <ns3:atemp>30.0</ns3:atemp>
            <ns3:hr>89</ns3:hr>
          </ns3:TrackPointExtension>
        </extensions>
      </trkpt>
      <trkpt lat="31.9668488390743732452392578125" lon="118.82240183651447296142578125">
        <ele>11.19999980926513671875</ele>
        <time>2026-06-25T10:17:16.000Z</time>
        <extensions>
          <ns3:TrackPointExtension>
            <ns3:atemp>30.0</ns3:atemp>
            <ns3:hr>90</ns3:hr>
          </ns3:TrackPointExtension>
        </extensions>
      </trkpt>
      <trkpt lat="31.966920085251331329345703125" lon="118.822394125163555145263671875">
        <ele>11.19999980926513671875</ele>
        <time>2026-06-25T10:17:18.000Z</time>
        <extensions>
          <ns3:TrackPointExtension>
            <ns3:atemp>30.0</ns3:atemp>
            <ns3:hr>90</ns3:hr>
          </ns3:TrackPointExtension>
        </extensions>
      </trkpt>
      <trkpt lat="31.96700465865433216094970703125" lon="118.822385407984256744384765625">
        <ele>10.80000019073486328125</ele>
        <time>2026-06-25T10:17:21.000Z</time>
        <extensions>
          <ns3:TrackPointExtension>
            <ns3:atemp>30.0</ns3:atemp>
            <ns3:hr>90</ns3:hr>
          </ns3:TrackPointExtension>
        </extensions>
      </trkpt>
      <trkpt lat="31.967227198183536529541015625" lon="118.8223788700997829437255859375">
        <ele>11</ele>
        <time>2026-06-25T10:17:28.000Z</time>
        <extensions>
          <ns3:TrackPointExtension>
            <ns3:atemp>30.0</ns3:atemp>
            <ns3:hr>90</ns3:hr>
          </ns3:TrackPointExtension>
        </extensions>
      </trkpt>
      <trkpt lat="31.96746348403394222259521484375" lon="118.82234425283968448638916015625">
        <ele>10.6000003814697265625</ele>
        <time>2026-06-25T10:17:35.000Z</time>
        <extensions>
          <ns3:TrackPointExtension>
            <ns3:atemp>30.0</ns3:atemp>
            <ns3:hr>92</ns3:hr>
          </ns3:TrackPointExtension>
        </extensions>
      </trkpt>
      <trkpt lat="31.96755635552108287811279296875" lon="118.822351209819316864013671875">
        <ele>11.19999980926513671875</ele>
        <time>2026-06-25T10:17:38.000Z</time>
        <extensions>
          <ns3:TrackPointExtension>
            <ns3:atemp>30.0</ns3:atemp>
            <ns3:hr>95</ns3:hr>
          </ns3:TrackPointExtension>
        </extensions>
      </trkpt>
      <trkpt lat="31.96769532747566699981689453125" lon="118.8223336078226566314697265625">
        <ele>11.19999980926513671875</ele>
        <time>2026-06-25T10:17:42.000Z</time>
        <extensions>
          <ns3:TrackPointExtension>
            <ns3:atemp>30.0</ns3:atemp>
            <ns3:hr>97</ns3:hr>
          </ns3:TrackPointExtension>
        </extensions>
      </trkpt>
      <trkpt lat="31.96792381815612316131591796875" lon="118.82230184040963649749755859375">
        <ele>11.3999996185302734375</ele>
        <time>2026-06-25T10:17:49.000Z</time>
        <extensions>
          <ns3:TrackPointExtension>
            <ns3:atemp>30.0</ns3:atemp>
            <ns3:hr>96</ns3:hr>
          </ns3:TrackPointExtension>
        </extensions>
      </trkpt>
      <trkpt lat="31.96806094609200954437255859375" lon="118.8223014213144779205322265625">
        <ele>11.6000003814697265625</ele>
        <time>2026-06-25T10:17:53.000Z</time>
        <extensions>
          <ns3:TrackPointExtension>
            <ns3:atemp>30.0</ns3:atemp>
            <ns3:hr>96</ns3:hr>
          </ns3:TrackPointExtension>
        </extensions>
      </trkpt>
      <trkpt lat="31.96826144121587276458740234375" lon="118.8223265670239925384521484375">
        <ele>11.19999980926513671875</ele>
        <time>2026-06-25T10:18:00.000Z</time>
        <extensions>
          <ns3:TrackPointExtension>
            <ns3:atemp>30.0</ns3:atemp>
            <ns3:hr>95</ns3:hr>
          </ns3:TrackPointExtension>
        </extensions>
      </trkpt>
      <trkpt lat="31.96852396242320537567138671875" lon="118.822413571178913116455078125">
        <ele>11.3999996185302734375</ele>
        <time>2026-06-25T10:18:07.000Z</time>
        <extensions>
          <ns3:TrackPointExtension>
            <ns3:atemp>30.0</ns3:atemp>
            <ns3:hr>94</ns3:hr>
          </ns3:TrackPointExtension>
        </extensions>
      </trkpt>
      <trkpt lat="31.9686690531671047210693359375" lon="118.8225334323942661285400390625">
        <ele>11.3999996185302734375</ele>
        <time>2026-06-25T10:18:12.000Z</time>
        <extensions>
          <ns3:TrackPointExtension>
            <ns3:atemp>30.0</ns3:atemp>
            <ns3:hr>96</ns3:hr>
          </ns3:TrackPointExtension>
        </extensions>
      </trkpt>
      <trkpt lat="31.96882353164255619049072265625" lon="118.8227181695401668548583984375">
        <ele>11.3999996185302734375</ele>
        <time>2026-06-25T10:18:18.000Z</time>
        <extensions>
          <ns3:TrackPointExtension>
            <ns3:atemp>30.0</ns3:atemp>
            <ns3:hr>95</ns3:hr>
          </ns3:TrackPointExtension>
        </extensions>
      </trkpt>
      <trkpt lat="31.96894674561917781829833984375" lon="118.82301061414182186126708984375">
        <ele>11.3999996185302734375</ele>
        <time>2026-06-25T10:18:26.000Z</time>
        <extensions>
          <ns3:TrackPointExtension>
            <ns3:atemp>30.0</ns3:atemp>
            <ns3:hr>94</ns3:hr>
          </ns3:TrackPointExtension>
        </extensions>
      </trkpt>
      <trkpt lat="31.9689580611884593963623046875" lon="118.82324027828872203826904296875">
        <ele>11.3999996185302734375</ele>
        <time>2026-06-25T10:18:32.000Z</time>
        <extensions>
          <ns3:TrackPointExtension>
            <ns3:atemp>30.0</ns3:atemp>
            <ns3:hr>95</ns3:hr>
          </ns3:TrackPointExtension>
        </extensions>
      </trkpt>
      <trkpt lat="31.96891103871166706085205078125" lon="118.8234530948102474212646484375">
        <ele>11.6000003814697265625</ele>
        <time>2026-06-25T10:18:38.000Z</time>
        <extensions>
          <ns3:TrackPointExtension>
            <ns3:atemp>30.0</ns3:atemp>
            <ns3:hr>94</ns3:hr>
          </ns3:TrackPointExtension>
        </extensions>
      </trkpt>
      <trkpt lat="31.96885689161717891693115234375" lon="118.8236596249043941497802734375">
        <ele>11.3999996185302734375</ele>
        <time>2026-06-25T10:18:44.000Z</time>
        <extensions>
          <ns3:TrackPointExtension>
            <ns3:atemp>30.0</ns3:atemp>
            <ns3:hr>92</ns3:hr>
          </ns3:TrackPointExtension>
        </extensions>
      </trkpt>
      <trkpt lat="31.96883543394505977630615234375" lon="118.8237219862639904022216796875">
        <ele>11.3999996185302734375</ele>
        <time>2026-06-25T10:18:48.000Z</time>
        <extensions>
          <ns3:TrackPointExtension>
            <ns3:atemp>30.0</ns3:atemp>
            <ns3:hr>93</ns3:hr>
          </ns3:TrackPointExtension>
        </extensions>
      </trkpt>
      <trkpt lat="31.96883744560182094573974609375" lon="118.82373682223260402679443359375">
        <ele>11.3999996185302734375</ele>
        <time>2026-06-25T10:18:52.000Z</time>
        <extensions>
          <ns3:TrackPointExtension>
            <ns3:atemp>30.0</ns3:atemp>
            <ns3:hr>94</ns3:hr>
          </ns3:TrackPointExtension>
        </extensions>
      </trkpt>
    </trkseg>
  </trk>
</gpx>
