<gpx xmlns:ns3="http://www.garmin.com/xmlschemas/TrackPointExtension/v1" xmlns="http://www.topografix.com/GPX/1/1" xmlns:xsi="http://www.w3.org/2001/XMLSchema-instance" xmlns:ns2="http://www.garmin.com/xmlschemas/GpxExtensions/v3" creator="Garmin Connect" version="1.1" xsi:schemaLocation="http://www.topografix.com/GPX/1/1 http://www.topografix.com/GPX/11.xsd">
  <extensions>
<distance>3250.91</distance>
<average_hr>128.0</average_hr>
<average_speed>4.798999786376953</average_speed>
<start_time>2026-06-28T00:54:05+00:00</start_time>
<end_time>2026-06-28T01:05:22.391000+00:00</end_time>
<moving_time>668.0</moving_time>
<elapsed_time>763.387</elapsed_time>
</extensions>
<metadata>
    <link href="connect.garmin.com">
      <text>Garmin Connect</text>
    </link>
    <time>2026-06-28T00:54:05.000Z</time>
  </metadata>
  <trk>
    <name>南京市 骑行</name>
    <type>cycling</type>
    <trkseg>
      <trkpt lat="31.98821288533508777618408203125" lon="118.83224663324654102325439453125">
        <ele>7.19999980926513671875</ele>
        <time>2026-06-28T00:54:05.000Z</time>
        <extensions>
          <ns3:TrackPointExtension>
            <ns3:atemp>32.0</ns3:atemp>
            <ns3:hr>120</ns3:hr>
          </ns3:TrackPointExtension>
        </extensions>
      </trkpt>
      <trkpt lat="31.9882042519748210906982421875" lon="118.8322408497333526611328125">
        <ele>7.19999980926513671875</ele>
        <time>2026-06-28T00:54:06.000Z</time>
        <extensions>
          <ns3:TrackPointExtension>
            <ns3:atemp>32.0</ns3:atemp>
            <ns3:hr>120</ns3:hr>
          </ns3:TrackPointExtension>
        </extensions>
      </trkpt>
      <trkpt lat="31.98809486813843250274658203125" lon="118.83220732212066650390625">
        <ele>7.400000095367431640625</ele>
        <time>2026-06-28T00:54:11.000Z</time>
        <extensions>
          <ns3:TrackPointExtension>
            <ns3:atemp>32.0</ns3:atemp>
            <ns3:hr>119</ns3:hr>
          </ns3:TrackPointExtension>
        </extensions>
      </trkpt>
      <trkpt lat="31.988067626953125" lon="118.83221377618610858917236328125">
        <ele>7.19999980926513671875</ele>
        <time>2026-06-28T00:54:12.000Z</time>
        <extensions>
          <ns3:TrackPointExtension>
            <ns3:atemp>32.0</ns3:atemp>
            <ns3:hr>119</ns3:hr>
          </ns3:TrackPointExtension>
        </extensions>
      </trkpt>
      <trkpt lat="31.98793360032141208648681640625" lon="118.8322193920612335205078125">
        <ele>7</ele>
        <time>2026-06-28T00:54:16.000Z</time>
        <extensions>
          <ns3:TrackPointExtension>
            <ns3:atemp>32.0</ns3:atemp>
            <ns3:hr>119</ns3:hr>
          </ns3:TrackPointExtension>
        </extensions>
      </trkpt>
      <trkpt lat="31.98757083155214786529541015625" lon="118.8321907259523868560791015625">
        <ele>7.599999904632568359375</ele>
        <time>2026-06-28T00:54:25.000Z</time>
        <extensions>
          <ns3:TrackPointExtension>
            <ns3:atemp>32.0</ns3:atemp>
            <ns3:hr>122</ns3:hr>
          </ns3:TrackPointExtension>
        </extensions>
      </trkpt>
      <trkpt lat="31.9875239767134189605712890625" lon="118.83218779228627681732177734375">
        <ele>7.599999904632568359375</ele>
        <time>2026-06-28T00:54:26.000Z</time>
        <extensions>
          <ns3:TrackPointExtension>
            <ns3:atemp>32.0</ns3:atemp>
            <ns3:hr>122</ns3:hr>
          </ns3:TrackPointExtension>
        </extensions>
      </trkpt>
      <trkpt lat="31.98747821152210235595703125" lon="118.8321877084672451019287109375">
        <ele>7.400000095367431640625</ele>
        <time>2026-06-28T00:54:27.000Z</time>
        <extensions>
          <ns3:TrackPointExtension>
            <ns3:atemp>32.0</ns3:atemp>
            <ns3:hr>122</ns3:hr>
          </ns3:TrackPointExtension>
        </extensions>
      </trkpt>
      <trkpt lat="31.98715207166969776153564453125" lon="118.8322032988071441650390625">
        <ele>7.599999904632568359375</ele>
        <time>2026-06-28T00:54:34.000Z</time>
        <extensions>
          <ns3:TrackPointExtension>
            <ns3:atemp>32.0</ns3:atemp>
            <ns3:hr>122</ns3:hr>
          </ns3:TrackPointExtension>
        </extensions>
      </trkpt>
      <trkpt lat="31.98691586963832378387451171875" lon="118.83222936652600765228271484375">
        <ele>7.599999904632568359375</ele>
        <time>2026-06-28T00:54:39.000Z</time>
        <extensions>
          <ns3:TrackPointExtension>
            <ns3:atemp>32.0</ns3:atemp>
            <ns3:hr>122</ns3:hr>
          </ns3:TrackPointExtension>
        </extensions>
      </trkpt>
      <trkpt lat="31.98683020658791065216064453125" lon="118.83223020471632480621337890625">
        <ele>8</ele>
        <time>2026-06-28T00:54:41.000Z</time>
        <extensions>
          <ns3:TrackPointExtension>
            <ns3:atemp>32.0</ns3:atemp>
            <ns3:hr>122</ns3:hr>
          </ns3:TrackPointExtension>
        </extensions>
      </trkpt>
      <trkpt lat="31.98674387298524379730224609375" lon="118.8322299532592296600341796875">
        <ele>8</ele>
        <time>2026-06-28T00:54:43.000Z</time>
        <extensions>
          <ns3:TrackPointExtension>
            <ns3:atemp>32.0</ns3:atemp>
            <ns3:hr>122</ns3:hr>
          </ns3:TrackPointExtension>
        </extensions>
      </trkpt>
      <trkpt lat="31.98669794015586376190185546875" lon="118.832229115068912506103515625">
        <ele>7.80000019073486328125</ele>
        <time>2026-06-28T00:54:44.000Z</time>
        <extensions>
          <ns3:TrackPointExtension>
            <ns3:atemp>32.0</ns3:atemp>
            <ns3:hr>122</ns3:hr>
          </ns3:TrackPointExtension>
        </extensions>
      </trkpt>
      <trkpt lat="31.98660993017256259918212890625" lon="118.83222232572734355926513671875">
        <ele>7.400000095367431640625</ele>
        <time>2026-06-28T00:54:46.000Z</time>
        <extensions>
          <ns3:TrackPointExtension>
            <ns3:atemp>32.0</ns3:atemp>
            <ns3:hr>121</ns3:hr>
          </ns3:TrackPointExtension>
        </extensions>
      </trkpt>
      <trkpt lat="31.986435838043689727783203125" lon="118.8322105072438716888427734375">
        <ele>7.80000019073486328125</ele>
        <time>2026-06-28T00:54:50.000Z</time>
        <extensions>
          <ns3:TrackPointExtension>
            <ns3:atemp>32.0</ns3:atemp>
            <ns3:hr>121</ns3:hr>
          </ns3:TrackPointExtension>
        </extensions>
      </trkpt>
      <trkpt lat="31.9861262105405330657958984375" lon="118.83222467266023159027099609375">
        <ele>7.400000095367431640625</ele>
        <time>2026-06-28T00:54:57.000Z</time>
        <extensions>
          <ns3:TrackPointExtension>
            <ns3:atemp>32.0</ns3:atemp>
            <ns3:hr>124</ns3:hr>
          </ns3:TrackPointExtension>
        </extensions>
      </trkpt>
      <trkpt lat="31.98608270846307277679443359375" lon="118.83222701959311962127685546875">
        <ele>7.400000095367431640625</ele>
        <time>2026-06-28T00:54:58.000Z</time>
        <extensions>
          <ns3:TrackPointExtension>
            <ns3:atemp>32.0</ns3:atemp>
            <ns3:hr>125</ns3:hr>
          </ns3:TrackPointExtension>
        </extensions>
      </trkpt>
      <trkpt lat="31.98599503375589847564697265625" lon="118.83222735486924648284912109375">
        <ele>7.400000095367431640625</ele>
        <time>2026-06-28T00:55:00.000Z</time>
        <extensions>
          <ns3:TrackPointExtension>
            <ns3:atemp>32.0</ns3:atemp>
            <ns3:hr>125</ns3:hr>
          </ns3:TrackPointExtension>
        </extensions>
      </trkpt>
      <trkpt lat="31.9858603365719318389892578125" lon="118.83222567848861217498779296875">
        <ele>7.80000019073486328125</ele>
        <time>2026-06-28T00:55:03.000Z</time>
        <extensions>
          <ns3:TrackPointExtension>
            <ns3:atemp>32.0</ns3:atemp>
            <ns3:hr>126</ns3:hr>
          </ns3:TrackPointExtension>
        </extensions>
      </trkpt>
      <trkpt lat="31.98581524193286895751953125" lon="118.83222953416407108306884765625">
        <ele>7.80000019073486328125</ele>
        <time>2026-06-28T00:55:04.000Z</time>
        <extensions>
          <ns3:TrackPointExtension>
            <ns3:atemp>32.0</ns3:atemp>
            <ns3:hr>126</ns3:hr>
          </ns3:TrackPointExtension>
        </extensions>
      </trkpt>
      <trkpt lat="31.98577358387410640716552734375" lon="118.8322266004979610443115234375">
        <ele>7.80000019073486328125</ele>
        <time>2026-06-28T00:55:05.000Z</time>
        <extensions>
          <ns3:TrackPointExtension>
            <ns3:atemp>32.0</ns3:atemp>
            <ns3:hr>126</ns3:hr>
          </ns3:TrackPointExtension>
        </extensions>
      </trkpt>
      <trkpt lat="31.98569186031818389892578125" lon="118.832220397889614105224609375">
        <ele>7.80000019073486328125</ele>
        <time>2026-06-28T00:55:07.000Z</time>
        <extensions>
          <ns3:TrackPointExtension>
            <ns3:atemp>32.0</ns3:atemp>
            <ns3:hr>126</ns3:hr>
          </ns3:TrackPointExtension>
        </extensions>
      </trkpt>
      <trkpt lat="31.9856045208871364593505859375" lon="118.8322219066321849822998046875">
        <ele>7.400000095367431640625</ele>
        <time>2026-06-28T00:55:09.000Z</time>
        <extensions>
          <ns3:TrackPointExtension>
            <ns3:atemp>32.0</ns3:atemp>
            <ns3:hr>126</ns3:hr>
          </ns3:TrackPointExtension>
        </extensions>
      </trkpt>
      <trkpt lat="31.98556655086576938629150390625" lon="118.83229642175137996673583984375">
        <ele>7.19999980926513671875</ele>
        <time>2026-06-28T00:55:11.000Z</time>
        <extensions>
          <ns3:TrackPointExtension>
            <ns3:atemp>32.0</ns3:atemp>
            <ns3:hr>126</ns3:hr>
          </ns3:TrackPointExtension>
        </extensions>
      </trkpt>
      <trkpt lat="31.9855019263923168182373046875" lon="118.83236113004386425018310546875">
        <ele>8</ele>
        <time>2026-06-28T00:55:14.000Z</time>
        <extensions>
          <ns3:TrackPointExtension>
            <ns3:atemp>32.0</ns3:atemp>
            <ns3:hr>125</ns3:hr>
          </ns3:TrackPointExtension>
        </extensions>
      </trkpt>
      <trkpt lat="31.985468231141567230224609375" lon="118.832363896071910858154296875">
        <ele>8.19999980926513671875</ele>
        <time>2026-06-28T00:55:15.000Z</time>
        <extensions>
          <ns3:TrackPointExtension>
            <ns3:atemp>32.0</ns3:atemp>
            <ns3:hr>125</ns3:hr>
          </ns3:TrackPointExtension>
        </extensions>
      </trkpt>
      <trkpt lat="31.9854321889579296112060546875" lon="118.83236716501414775848388671875">
        <ele>8.3999996185302734375</ele>
        <time>2026-06-28T00:55:16.000Z</time>
        <extensions>
          <ns3:TrackPointExtension>
            <ns3:atemp>32.0</ns3:atemp>
            <ns3:hr>125</ns3:hr>
          </ns3:TrackPointExtension>
        </extensions>
      </trkpt>
      <trkpt lat="31.98519892059266567230224609375" lon="118.832386024296283721923828125">
        <ele>8</ele>
        <time>2026-06-28T00:55:22.000Z</time>
        <extensions>
          <ns3:TrackPointExtension>
            <ns3:atemp>32.0</ns3:atemp>
            <ns3:hr>123</ns3:hr>
          </ns3:TrackPointExtension>
        </extensions>
      </trkpt>
      <trkpt lat="31.98495601303875446319580078125" lon="118.8324026204645633697509765625">
        <ele>8.19999980926513671875</ele>
        <time>2026-06-28T00:55:28.000Z</time>
        <extensions>
          <ns3:TrackPointExtension>
            <ns3:atemp>32.0</ns3:atemp>
            <ns3:hr>125</ns3:hr>
          </ns3:TrackPointExtension>
        </extensions>
      </trkpt>
      <trkpt lat="31.984915696084499359130859375" lon="118.83239440619945526123046875">
        <ele>8</ele>
        <time>2026-06-28T00:55:29.000Z</time>
        <extensions>
          <ns3:TrackPointExtension>
            <ns3:atemp>32.0</ns3:atemp>
            <ns3:hr>125</ns3:hr>
          </ns3:TrackPointExtension>
        </extensions>
      </trkpt>
      <trkpt lat="31.984792649745941162109375" lon="118.83236951194703578948974609375">
        <ele>8</ele>
        <time>2026-06-28T00:55:32.000Z</time>
        <extensions>
          <ns3:TrackPointExtension>
            <ns3:atemp>32.0</ns3:atemp>
            <ns3:hr>126</ns3:hr>
          </ns3:TrackPointExtension>
        </extensions>
      </trkpt>
      <trkpt lat="31.98475233279168605804443359375" lon="118.832355178892612457275390625">
        <ele>8.19999980926513671875</ele>
        <time>2026-06-28T00:55:33.000Z</time>
        <extensions>
          <ns3:TrackPointExtension>
            <ns3:atemp>32.0</ns3:atemp>
            <ns3:hr>126</ns3:hr>
          </ns3:TrackPointExtension>
        </extensions>
      </trkpt>
      <trkpt lat="31.98467287234961986541748046875" lon="118.83231461048126220703125">
        <ele>8.19999980926513671875</ele>
        <time>2026-06-28T00:55:35.000Z</time>
        <extensions>
          <ns3:TrackPointExtension>
            <ns3:atemp>32.0</ns3:atemp>
            <ns3:hr>127</ns3:hr>
          </ns3:TrackPointExtension>
        </extensions>
      </trkpt>
      <trkpt lat="31.9844679348170757293701171875" lon="118.8322225771844387054443359375">
        <ele>8.19999980926513671875</ele>
        <time>2026-06-28T00:55:40.000Z</time>
        <extensions>
          <ns3:TrackPointExtension>
            <ns3:atemp>32.0</ns3:atemp>
            <ns3:hr>127</ns3:hr>
          </ns3:TrackPointExtension>
        </extensions>
      </trkpt>
      <trkpt lat="31.98427942581474781036376953125" lon="118.832106404006481170654296875">
        <ele>7.599999904632568359375</ele>
        <time>2026-06-28T00:55:45.000Z</time>
        <extensions>
          <ns3:TrackPointExtension>
            <ns3:atemp>32.0</ns3:atemp>
            <ns3:hr>129</ns3:hr>
          </ns3:TrackPointExtension>
        </extensions>
      </trkpt>
      <trkpt lat="31.984243132174015045166015625" lon="118.83208385668694972991943359375">
        <ele>7.400000095367431640625</ele>
        <time>2026-06-28T00:55:46.000Z</time>
        <extensions>
          <ns3:TrackPointExtension>
            <ns3:atemp>32.0</ns3:atemp>
            <ns3:hr>129</ns3:hr>
          </ns3:TrackPointExtension>
        </extensions>
      </trkpt>
      <trkpt lat="31.98420298285782337188720703125" lon="118.83206357248127460479736328125">
        <ele>7</ele>
        <time>2026-06-28T00:55:47.000Z</time>
        <extensions>
          <ns3:TrackPointExtension>
            <ns3:atemp>32.0</ns3:atemp>
            <ns3:hr>129</ns3:hr>
          </ns3:TrackPointExtension>
        </extensions>
      </trkpt>
      <trkpt lat="31.9841128773987293243408203125" lon="118.83202333934605121612548828125">
        <ele>7.400000095367431640625</ele>
        <time>2026-06-28T00:55:51.000Z</time>
        <extensions>
          <ns3:TrackPointExtension>
            <ns3:atemp>32.0</ns3:atemp>
            <ns3:hr>128</ns3:hr>
          </ns3:TrackPointExtension>
        </extensions>
      </trkpt>
      <trkpt lat="31.98409602977335453033447265625" lon="118.83204060606658458709716796875">
        <ele>7.400000095367431640625</ele>
        <time>2026-06-28T00:55:56.000Z</time>
        <extensions>
          <ns3:TrackPointExtension>
            <ns3:atemp>32.0</ns3:atemp>
            <ns3:hr>125</ns3:hr>
          </ns3:TrackPointExtension>
        </extensions>
      </trkpt>
      <trkpt lat="31.98418487794697284698486328125" lon="118.83213347755372524261474609375">
        <ele>6.599999904632568359375</ele>
        <time>2026-06-28T00:56:19.000Z</time>
        <extensions>
          <ns3:TrackPointExtension>
            <ns3:atemp>33.0</ns3:atemp>
            <ns3:hr>112</ns3:hr>
          </ns3:TrackPointExtension>
        </extensions>
      </trkpt>
      <trkpt lat="31.9842080958187580108642578125" lon="118.83216231130063533782958984375">
        <ele>6.400000095367431640625</ele>
        <time>2026-06-28T00:56:20.000Z</time>
        <extensions>
          <ns3:TrackPointExtension>
            <ns3:atemp>33.0</ns3:atemp>
            <ns3:hr>113</ns3:hr>
          </ns3:TrackPointExtension>
        </extensions>
      </trkpt>
      <trkpt lat="31.9842684455215930938720703125" lon="118.83221209980547428131103515625">
        <ele>6.19999980926513671875</ele>
        <time>2026-06-28T00:56:22.000Z</time>
        <extensions>
          <ns3:TrackPointExtension>
            <ns3:atemp>33.0</ns3:atemp>
            <ns3:hr>113</ns3:hr>
          </ns3:TrackPointExtension>
        </extensions>
      </trkpt>
      <trkpt lat="31.98432795703411102294921875" lon="118.832252919673919677734375">
        <ele>6.400000095367431640625</ele>
        <time>2026-06-28T00:56:24.000Z</time>
        <extensions>
          <ns3:TrackPointExtension>
            <ns3:atemp>33.0</ns3:atemp>
            <ns3:hr>116</ns3:hr>
          </ns3:TrackPointExtension>
        </extensions>
      </trkpt>
      <trkpt lat="31.98435804806649684906005859375" lon="118.832274712622165679931640625">
        <ele>6.599999904632568359375</ele>
        <time>2026-06-28T00:56:25.000Z</time>
        <extensions>
          <ns3:TrackPointExtension>
            <ns3:atemp>33.0</ns3:atemp>
            <ns3:hr>117</ns3:hr>
          </ns3:TrackPointExtension>
        </extensions>
      </trkpt>
      <trkpt lat="31.98456625454127788543701171875" lon="118.83239247836172580718994140625">
        <ele>7</ele>
        <time>2026-06-28T00:56:31.000Z</time>
        <extensions>
          <ns3:TrackPointExtension>
            <ns3:atemp>33.0</ns3:atemp>
            <ns3:hr>120</ns3:hr>
          </ns3:TrackPointExtension>
        </extensions>
      </trkpt>
      <trkpt lat="31.984597854316234588623046875" lon="118.8324156962335109710693359375">
        <ele>7.19999980926513671875</ele>
        <time>2026-06-28T00:56:32.000Z</time>
        <extensions>
          <ns3:TrackPointExtension>
            <ns3:atemp>33.0</ns3:atemp>
            <ns3:hr>120</ns3:hr>
          </ns3:TrackPointExtension>
        </extensions>
      </trkpt>
      <trkpt lat="31.98463062755763530731201171875" lon="118.83243991993367671966552734375">
        <ele>7.19999980926513671875</ele>
        <time>2026-06-28T00:56:33.000Z</time>
        <extensions>
          <ns3:TrackPointExtension>
            <ns3:atemp>33.0</ns3:atemp>
            <ns3:hr>120</ns3:hr>
          </ns3:TrackPointExtension>
        </extensions>
      </trkpt>
      <trkpt lat="31.984734646975994110107421875" lon="118.83255709894001483917236328125">
        <ele>7.80000019073486328125</ele>
        <time>2026-06-28T00:56:37.000Z</time>
        <extensions>
          <ns3:TrackPointExtension>
            <ns3:atemp>33.0</ns3:atemp>
            <ns3:hr>123</ns3:hr>
          </ns3:TrackPointExtension>
        </extensions>
      </trkpt>
      <trkpt lat="31.9847545959055423736572265625" lon="118.83259397931396961212158203125">
        <ele>8</ele>
        <time>2026-06-28T00:56:38.000Z</time>
        <extensions>
          <ns3:TrackPointExtension>
            <ns3:atemp>33.0</ns3:atemp>
            <ns3:hr>124</ns3:hr>
          </ns3:TrackPointExtension>
        </extensions>
      </trkpt>
      <trkpt lat="31.98477295227348804473876953125" lon="118.8326306082308292388916015625">
        <ele>8</ele>
        <time>2026-06-28T00:56:39.000Z</time>
        <extensions>
          <ns3:TrackPointExtension>
            <ns3:atemp>33.0</ns3:atemp>
            <ns3:hr>125</ns3:hr>
          </ns3:TrackPointExtension>
        </extensions>
      </trkpt>
      <trkpt lat="31.9847886264324188232421875" lon="118.83270411752164363861083984375">
        <ele>8.3999996185302734375</ele>
        <time>2026-06-28T00:56:41.000Z</time>
        <extensions>
          <ns3:TrackPointExtension>
            <ns3:atemp>33.0</ns3:atemp>
            <ns3:hr>126</ns3:hr>
          </ns3:TrackPointExtension>
        </extensions>
      </trkpt>
      <trkpt lat="31.98479793034493923187255859375" lon="118.832776956260204315185546875">
        <ele>8.6000003814697265625</ele>
        <time>2026-06-28T00:56:43.000Z</time>
        <extensions>
          <ns3:TrackPointExtension>
            <ns3:atemp>33.0</ns3:atemp>
            <ns3:hr>128</ns3:hr>
          </ns3:TrackPointExtension>
        </extensions>
      </trkpt>
      <trkpt lat="31.98483346961438655853271484375" lon="118.8330071233212947845458984375">
        <ele>9</ele>
        <time>2026-06-28T00:56:49.000Z</time>
        <extensions>
          <ns3:TrackPointExtension>
            <ns3:atemp>33.0</ns3:atemp>
            <ns3:hr>128</ns3:hr>
          </ns3:TrackPointExtension>
        </extensions>
      </trkpt>
      <trkpt lat="31.98486699722707271575927734375" lon="118.83321172557771205902099609375">
        <ele>9.19999980926513671875</ele>
        <time>2026-06-28T00:56:54.000Z</time>
        <extensions>
          <ns3:TrackPointExtension>
            <ns3:atemp>33.0</ns3:atemp>
            <ns3:hr>131</ns3:hr>
          </ns3:TrackPointExtension>
        </extensions>
      </trkpt>
      <trkpt lat="31.98487873189151287078857421875" lon="118.833296298980712890625">
        <ele>9</ele>
        <time>2026-06-28T00:56:56.000Z</time>
        <extensions>
          <ns3:TrackPointExtension>
            <ns3:atemp>33.0</ns3:atemp>
            <ns3:hr>134</ns3:hr>
          </ns3:TrackPointExtension>
        </extensions>
      </trkpt>
      <trkpt lat="31.98488711379468441009521484375" lon="118.83334248326718807220458984375">
        <ele>9.19999980926513671875</ele>
        <time>2026-06-28T00:56:57.000Z</time>
        <extensions>
          <ns3:TrackPointExtension>
            <ns3:atemp>33.0</ns3:atemp>
            <ns3:hr>134</ns3:hr>
          </ns3:TrackPointExtension>
        </extensions>
      </trkpt>
      <trkpt lat="31.98490873910486698150634765625" lon="118.83347592316567897796630859375">
        <ele>9</ele>
        <time>2026-06-28T00:57:00.000Z</time>
        <extensions>
          <ns3:TrackPointExtension>
            <ns3:atemp>34.0</ns3:atemp>
            <ns3:hr>137</ns3:hr>
          </ns3:TrackPointExtension>
        </extensions>
      </trkpt>
      <trkpt lat="31.98492147959768772125244140625" lon="118.8335670344531536102294921875">
        <ele>8.80000019073486328125</ele>
        <time>2026-06-28T00:57:02.000Z</time>
        <extensions>
          <ns3:TrackPointExtension>
            <ns3:atemp>34.0</ns3:atemp>
            <ns3:hr>138</ns3:hr>
          </ns3:TrackPointExtension>
        </extensions>
      </trkpt>
      <trkpt lat="31.98492852039635181427001953125" lon="118.83361740969121456146240234375">
        <ele>8.80000019073486328125</ele>
        <time>2026-06-28T00:57:03.000Z</time>
        <extensions>
          <ns3:TrackPointExtension>
            <ns3:atemp>34.0</ns3:atemp>
            <ns3:hr>138</ns3:hr>
          </ns3:TrackPointExtension>
        </extensions>
      </trkpt>
      <trkpt lat="31.9850097410380840301513671875" lon="118.83403457701206207275390625">
        <ele>8</ele>
        <time>2026-06-28T00:57:11.000Z</time>
        <extensions>
          <ns3:TrackPointExtension>
            <ns3:atemp>34.0</ns3:atemp>
            <ns3:hr>138</ns3:hr>
          </ns3:TrackPointExtension>
        </extensions>
      </trkpt>
      <trkpt lat="31.98497747071087360382080078125" lon="118.83411479182541370391845703125">
        <ele>7.599999904632568359375</ele>
        <time>2026-06-28T00:57:13.000Z</time>
        <extensions>
          <ns3:TrackPointExtension>
            <ns3:atemp>34.0</ns3:atemp>
            <ns3:hr>137</ns3:hr>
          </ns3:TrackPointExtension>
        </extensions>
      </trkpt>
      <trkpt lat="31.9849446974694728851318359375" lon="118.8341336511075496673583984375">
        <ele>7.400000095367431640625</ele>
        <time>2026-06-28T00:57:14.000Z</time>
        <extensions>
          <ns3:TrackPointExtension>
            <ns3:atemp>34.0</ns3:atemp>
            <ns3:hr>137</ns3:hr>
          </ns3:TrackPointExtension>
        </extensions>
      </trkpt>
      <trkpt lat="31.98490840382874011993408203125" lon="118.8341507501900196075439453125">
        <ele>7.19999980926513671875</ele>
        <time>2026-06-28T00:57:15.000Z</time>
        <extensions>
          <ns3:TrackPointExtension>
            <ns3:atemp>34.0</ns3:atemp>
            <ns3:hr>137</ns3:hr>
          </ns3:TrackPointExtension>
        </extensions>
      </trkpt>
      <trkpt lat="31.98478401638567447662353515625" lon="118.834177069365978240966796875">
        <ele>6.400000095367431640625</ele>
        <time>2026-06-28T00:57:18.000Z</time>
        <extensions>
          <ns3:TrackPointExtension>
            <ns3:atemp>34.0</ns3:atemp>
            <ns3:hr>135</ns3:hr>
          </ns3:TrackPointExtension>
        </extensions>
      </trkpt>
      <trkpt lat="31.98473791591823101043701171875" lon="118.83417849428951740264892578125">
        <ele>6.19999980926513671875</ele>
        <time>2026-06-28T00:57:19.000Z</time>
        <extensions>
          <ns3:TrackPointExtension>
            <ns3:atemp>34.0</ns3:atemp>
            <ns3:hr>135</ns3:hr>
          </ns3:TrackPointExtension>
        </extensions>
      </trkpt>
      <trkpt lat="31.984576396644115447998046875" lon="118.8341846130788326263427734375">
        <ele>5.599999904632568359375</ele>
        <time>2026-06-28T00:57:22.000Z</time>
        <extensions>
          <ns3:TrackPointExtension>
            <ns3:atemp>34.0</ns3:atemp>
            <ns3:hr>132</ns3:hr>
          </ns3:TrackPointExtension>
        </extensions>
      </trkpt>
      <trkpt lat="31.98441118933260440826416015625" lon="118.83418821729719638824462890625">
        <ele>5.599999904632568359375</ele>
        <time>2026-06-28T00:57:25.000Z</time>
        <extensions>
          <ns3:TrackPointExtension>
            <ns3:atemp>34.0</ns3:atemp>
            <ns3:hr>130</ns3:hr>
          </ns3:TrackPointExtension>
        </extensions>
      </trkpt>
      <trkpt lat="31.9840474985539913177490234375" lon="118.83422811515629291534423828125">
        <ele>5.599999904632568359375</ele>
        <time>2026-06-28T00:57:32.000Z</time>
        <extensions>
          <ns3:TrackPointExtension>
            <ns3:atemp>33.0</ns3:atemp>
            <ns3:hr>127</ns3:hr>
          </ns3:TrackPointExtension>
        </extensions>
      </trkpt>
      <trkpt lat="31.983999721705913543701171875" lon="118.83422367274761199951171875">
        <ele>5.80000019073486328125</ele>
        <time>2026-06-28T00:57:33.000Z</time>
        <extensions>
          <ns3:TrackPointExtension>
            <ns3:atemp>33.0</ns3:atemp>
            <ns3:hr>126</ns3:hr>
          </ns3:TrackPointExtension>
        </extensions>
      </trkpt>
      <trkpt lat="31.98375396430492401123046875" lon="118.83423331193625926971435546875">
        <ele>6.19999980926513671875</ele>
        <time>2026-06-28T00:57:38.000Z</time>
        <extensions>
          <ns3:TrackPointExtension>
            <ns3:atemp>33.0</ns3:atemp>
            <ns3:hr>124</ns3:hr>
          </ns3:TrackPointExtension>
        </extensions>
      </trkpt>
      <trkpt lat="31.98370845057070255279541015625" lon="118.83424420841038227081298828125">
        <ele>6.19999980926513671875</ele>
        <time>2026-06-28T00:57:39.000Z</time>
        <extensions>
          <ns3:TrackPointExtension>
            <ns3:atemp>33.0</ns3:atemp>
            <ns3:hr>124</ns3:hr>
          </ns3:TrackPointExtension>
        </extensions>
      </trkpt>
      <trkpt lat="31.98353092186152935028076171875" lon="118.834307156503200531005859375">
        <ele>6.599999904632568359375</ele>
        <time>2026-06-28T00:57:43.000Z</time>
        <extensions>
          <ns3:TrackPointExtension>
            <ns3:atemp>33.0</ns3:atemp>
            <ns3:hr>125</ns3:hr>
          </ns3:TrackPointExtension>
        </extensions>
      </trkpt>
      <trkpt lat="31.98346889577805995941162109375" lon="118.8343195617198944091796875">
        <ele>7</ele>
        <time>2026-06-28T00:57:45.000Z</time>
        <extensions>
          <ns3:TrackPointExtension>
            <ns3:atemp>33.0</ns3:atemp>
            <ns3:hr>125</ns3:hr>
          </ns3:TrackPointExtension>
        </extensions>
      </trkpt>
      <trkpt lat="31.98343788273632526397705078125" lon="118.834324590861797332763671875">
        <ele>7</ele>
        <time>2026-06-28T00:57:46.000Z</time>
        <extensions>
          <ns3:TrackPointExtension>
            <ns3:atemp>33.0</ns3:atemp>
            <ns3:hr>125</ns3:hr>
          </ns3:TrackPointExtension>
        </extensions>
      </trkpt>
      <trkpt lat="31.9832126609981060028076171875" lon="118.8343566097319126129150390625">
        <ele>7</ele>
        <time>2026-06-28T00:57:50.000Z</time>
        <extensions>
          <ns3:TrackPointExtension>
            <ns3:atemp>33.0</ns3:atemp>
            <ns3:hr>125</ns3:hr>
          </ns3:TrackPointExtension>
        </extensions>
      </trkpt>
      <trkpt lat="31.98315717279911041259765625" lon="118.8343535922467708587646484375">
        <ele>6.80000019073486328125</ele>
        <time>2026-06-28T00:57:51.000Z</time>
        <extensions>
          <ns3:TrackPointExtension>
            <ns3:atemp>33.0</ns3:atemp>
            <ns3:hr>125</ns3:hr>
          </ns3:TrackPointExtension>
        </extensions>
      </trkpt>
      <trkpt lat="31.98295793496072292327880859375" lon="118.8343103416264057159423828125">
        <ele>6.400000095367431640625</ele>
        <time>2026-06-28T00:57:55.000Z</time>
        <extensions>
          <ns3:TrackPointExtension>
            <ns3:atemp>33.0</ns3:atemp>
            <ns3:hr>125</ns3:hr>
          </ns3:TrackPointExtension>
        </extensions>
      </trkpt>
      <trkpt lat="31.98261268436908721923828125" lon="118.83413851261138916015625">
        <ele>5.599999904632568359375</ele>
        <time>2026-06-28T00:58:02.000Z</time>
        <extensions>
          <ns3:TrackPointExtension>
            <ns3:atemp>33.0</ns3:atemp>
            <ns3:hr>126</ns3:hr>
          </ns3:TrackPointExtension>
        </extensions>
      </trkpt>
      <trkpt lat="31.9823278672993183135986328125" lon="118.83400632999837398529052734375">
        <ele>7</ele>
        <time>2026-06-28T00:58:08.000Z</time>
        <extensions>
          <ns3:TrackPointExtension>
            <ns3:atemp>33.0</ns3:atemp>
            <ns3:hr>126</ns3:hr>
          </ns3:TrackPointExtension>
        </extensions>
      </trkpt>
      <trkpt lat="31.982085295021533966064453125" lon="118.83389786817133426666259765625">
        <ele>7.599999904632568359375</ele>
        <time>2026-06-28T00:58:13.000Z</time>
        <extensions>
          <ns3:TrackPointExtension>
            <ns3:atemp>33.0</ns3:atemp>
            <ns3:hr>128</ns3:hr>
          </ns3:TrackPointExtension>
        </extensions>
      </trkpt>
      <trkpt lat="31.98203760199248790740966796875" lon="118.83387724868953227996826171875">
        <ele>7.80000019073486328125</ele>
        <time>2026-06-28T00:58:14.000Z</time>
        <extensions>
          <ns3:TrackPointExtension>
            <ns3:atemp>33.0</ns3:atemp>
            <ns3:hr>128</ns3:hr>
          </ns3:TrackPointExtension>
        </extensions>
      </trkpt>
      <trkpt lat="31.9818162359297275543212890625" lon="118.8337777554988861083984375">
        <ele>6.400000095367431640625</ele>
        <time>2026-06-28T00:58:19.000Z</time>
        <extensions>
          <ns3:TrackPointExtension>
            <ns3:atemp>33.0</ns3:atemp>
            <ns3:hr>130</ns3:hr>
          </ns3:TrackPointExtension>
        </extensions>
      </trkpt>
      <trkpt lat="31.98172076605260372161865234375" lon="118.8337507657706737518310546875">
        <ele>6.400000095367431640625</ele>
        <time>2026-06-28T00:58:21.000Z</time>
        <extensions>
          <ns3:TrackPointExtension>
            <ns3:atemp>33.0</ns3:atemp>
            <ns3:hr>131</ns3:hr>
          </ns3:TrackPointExtension>
        </extensions>
      </trkpt>
      <trkpt lat="31.9814447499811649322509765625" lon="118.83365294896066188812255859375">
        <ele>7.400000095367431640625</ele>
        <time>2026-06-28T00:58:27.000Z</time>
        <extensions>
          <ns3:TrackPointExtension>
            <ns3:atemp>33.0</ns3:atemp>
            <ns3:hr>132</ns3:hr>
          </ns3:TrackPointExtension>
        </extensions>
      </trkpt>
      <trkpt lat="31.981398649513721466064453125" lon="118.83363685570657253265380859375">
        <ele>7.599999904632568359375</ele>
        <time>2026-06-28T00:58:28.000Z</time>
        <extensions>
          <ns3:TrackPointExtension>
            <ns3:atemp>33.0</ns3:atemp>
            <ns3:hr>132</ns3:hr>
          </ns3:TrackPointExtension>
        </extensions>
      </trkpt>
      <trkpt lat="31.98125758208334445953369140625" lon="118.833593018352985382080078125">
        <ele>7.599999904632568359375</ele>
        <time>2026-06-28T00:58:31.000Z</time>
        <extensions>
          <ns3:TrackPointExtension>
            <ns3:atemp>33.0</ns3:atemp>
            <ns3:hr>133</ns3:hr>
          </ns3:TrackPointExtension>
        </extensions>
      </trkpt>
      <trkpt lat="31.9811664707958698272705078125" lon="118.83356359787285327911376953125">
        <ele>7.400000095367431640625</ele>
        <time>2026-06-28T00:58:33.000Z</time>
        <extensions>
          <ns3:TrackPointExtension>
            <ns3:atemp>32.0</ns3:atemp>
            <ns3:hr>133</ns3:hr>
          </ns3:TrackPointExtension>
        </extensions>
      </trkpt>
      <trkpt lat="31.98111894540488719940185546875" lon="118.83355018682777881622314453125">
        <ele>7.80000019073486328125</ele>
        <time>2026-06-28T00:58:34.000Z</time>
        <extensions>
          <ns3:TrackPointExtension>
            <ns3:atemp>33.0</ns3:atemp>
            <ns3:hr>133</ns3:hr>
          </ns3:TrackPointExtension>
        </extensions>
      </trkpt>
      <trkpt lat="31.98107435368001461029052734375" lon="118.8335271365940570831298828125">
        <ele>8</ele>
        <time>2026-06-28T00:58:35.000Z</time>
        <extensions>
          <ns3:TrackPointExtension>
            <ns3:atemp>33.0</ns3:atemp>
            <ns3:hr>133</ns3:hr>
          </ns3:TrackPointExtension>
        </extensions>
      </trkpt>
      <trkpt lat="31.9809854216873645782470703125" lon="118.8334915973246097564697265625">
        <ele>8.3999996185302734375</ele>
        <time>2026-06-28T00:58:37.000Z</time>
        <extensions>
          <ns3:TrackPointExtension>
            <ns3:atemp>32.0</ns3:atemp>
            <ns3:hr>133</ns3:hr>
          </ns3:TrackPointExtension>
        </extensions>
      </trkpt>
      <trkpt lat="31.9809378124773502349853515625" lon="118.83347894065082073211669921875">
        <ele>8.6000003814697265625</ele>
        <time>2026-06-28T00:58:38.000Z</time>
        <extensions>
          <ns3:TrackPointExtension>
            <ns3:atemp>32.0</ns3:atemp>
            <ns3:hr>133</ns3:hr>
          </ns3:TrackPointExtension>
        </extensions>
      </trkpt>
      <trkpt lat="31.9808915443718433380126953125" lon="118.8334647752344608306884765625">
        <ele>8.80000019073486328125</ele>
        <time>2026-06-28T00:58:39.000Z</time>
        <extensions>
          <ns3:TrackPointExtension>
            <ns3:atemp>33.0</ns3:atemp>
            <ns3:hr>133</ns3:hr>
          </ns3:TrackPointExtension>
        </extensions>
      </trkpt>
      <trkpt lat="31.98051930405199527740478515625" lon="118.833330832421779632568359375">
        <ele>9.19999980926513671875</ele>
        <time>2026-06-28T00:58:47.000Z</time>
        <extensions>
          <ns3:TrackPointExtension>
            <ns3:atemp>32.0</ns3:atemp>
            <ns3:hr>135</ns3:hr>
          </ns3:TrackPointExtension>
        </extensions>
      </trkpt>
      <trkpt lat="31.98022157885134220123291015625" lon="118.83318993262946605682373046875">
        <ele>9.19999980926513671875</ele>
        <time>2026-06-28T00:58:54.000Z</time>
        <extensions>
          <ns3:TrackPointExtension>
            <ns3:atemp>33.0</ns3:atemp>
            <ns3:hr>135</ns3:hr>
          </ns3:TrackPointExtension>
        </extensions>
      </trkpt>
      <trkpt lat="31.98000515811145305633544921875" lon="118.83309471420943737030029296875">
        <ele>8</ele>
        <time>2026-06-28T00:58:59.000Z</time>
        <extensions>
          <ns3:TrackPointExtension>
            <ns3:atemp>33.0</ns3:atemp>
            <ns3:hr>135</ns3:hr>
          </ns3:TrackPointExtension>
        </extensions>
      </trkpt>
      <trkpt lat="31.9799122028052806854248046875" lon="118.833055235445499420166015625">
        <ele>7.80000019073486328125</ele>
        <time>2026-06-28T00:59:01.000Z</time>
        <extensions>
          <ns3:TrackPointExtension>
            <ns3:atemp>33.0</ns3:atemp>
            <ns3:hr>134</ns3:hr>
          </ns3:TrackPointExtension>
        </extensions>
      </trkpt>
      <trkpt lat="31.97967725805938243865966796875" lon="118.832938559353351593017578125">
        <ele>7</ele>
        <time>2026-06-28T00:59:06.000Z</time>
        <extensions>
          <ns3:TrackPointExtension>
            <ns3:atemp>33.0</ns3:atemp>
            <ns3:hr>135</ns3:hr>
          </ns3:TrackPointExtension>
        </extensions>
      </trkpt>
      <trkpt lat="31.9795420579612255096435546875" lon="118.83287343196570873260498046875">
        <ele>7.19999980926513671875</ele>
        <time>2026-06-28T00:59:09.000Z</time>
        <extensions>
          <ns3:TrackPointExtension>
            <ns3:atemp>32.0</ns3:atemp>
            <ns3:hr>135</ns3:hr>
          </ns3:TrackPointExtension>
        </extensions>
      </trkpt>
      <trkpt lat="31.9792372919619083404541015625" lon="118.83273303508758544921875">
        <ele>7.19999980926513671875</ele>
        <time>2026-06-28T00:59:16.000Z</time>
        <extensions>
          <ns3:TrackPointExtension>
            <ns3:atemp>32.0</ns3:atemp>
            <ns3:hr>134</ns3:hr>
          </ns3:TrackPointExtension>
        </extensions>
      </trkpt>
      <trkpt lat="31.97904794476926326751708984375" lon="118.83265986107289791107177734375">
        <ele>8.19999980926513671875</ele>
        <time>2026-06-28T00:59:20.000Z</time>
        <extensions>
          <ns3:TrackPointExtension>
            <ns3:atemp>32.0</ns3:atemp>
            <ns3:hr>133</ns3:hr>
          </ns3:TrackPointExtension>
        </extensions>
      </trkpt>
      <trkpt lat="31.97891333140432834625244140625" lon="118.832599259912967681884765625">
        <ele>8.80000019073486328125</ele>
        <time>2026-06-28T00:59:23.000Z</time>
        <extensions>
          <ns3:TrackPointExtension>
            <ns3:atemp>32.0</ns3:atemp>
            <ns3:hr>133</ns3:hr>
          </ns3:TrackPointExtension>
        </extensions>
      </trkpt>
      <trkpt lat="31.97859766893088817596435546875" lon="118.8324666582047939300537109375">
        <ele>8.6000003814697265625</ele>
        <time>2026-06-28T00:59:30.000Z</time>
        <extensions>
          <ns3:TrackPointExtension>
            <ns3:atemp>32.0</ns3:atemp>
            <ns3:hr>132</ns3:hr>
          </ns3:TrackPointExtension>
        </extensions>
      </trkpt>
      <trkpt lat="31.97856430895626544952392578125" lon="118.8324311189353466033935546875">
        <ele>8.80000019073486328125</ele>
        <time>2026-06-28T00:59:31.000Z</time>
        <extensions>
          <ns3:TrackPointExtension>
            <ns3:atemp>32.0</ns3:atemp>
            <ns3:hr>132</ns3:hr>
          </ns3:TrackPointExtension>
        </extensions>
      </trkpt>
      <trkpt lat="31.9784876145422458648681640625" lon="118.83236666209995746612548828125">
        <ele>8.80000019073486328125</ele>
        <time>2026-06-28T00:59:33.000Z</time>
        <extensions>
          <ns3:TrackPointExtension>
            <ns3:atemp>32.0</ns3:atemp>
            <ns3:hr>132</ns3:hr>
          </ns3:TrackPointExtension>
        </extensions>
      </trkpt>
      <trkpt lat="31.9783459603786468505859375" lon="118.8322822563350200653076171875">
        <ele>8</ele>
        <time>2026-06-28T00:59:36.000Z</time>
        <extensions>
          <ns3:TrackPointExtension>
            <ns3:atemp>32.0</ns3:atemp>
            <ns3:hr>131</ns3:hr>
          </ns3:TrackPointExtension>
        </extensions>
      </trkpt>
      <trkpt lat="31.97824177332222461700439453125" lon="118.83221126161515712738037109375">
        <ele>7</ele>
        <time>2026-06-28T00:59:38.000Z</time>
        <extensions>
          <ns3:TrackPointExtension>
            <ns3:atemp>32.0</ns3:atemp>
            <ns3:hr>129</ns3:hr>
          </ns3:TrackPointExtension>
        </extensions>
      </trkpt>
      <trkpt lat="31.97819885797798633575439453125" lon="118.8321665860712528228759765625">
        <ele>6.19999980926513671875</ele>
        <time>2026-06-28T00:59:39.000Z</time>
        <extensions>
          <ns3:TrackPointExtension>
            <ns3:atemp>32.0</ns3:atemp>
            <ns3:hr>128</ns3:hr>
          </ns3:TrackPointExtension>
        </extensions>
      </trkpt>
      <trkpt lat="31.97815678082406520843505859375" lon="118.8321240060031414031982421875">
        <ele>5.599999904632568359375</ele>
        <time>2026-06-28T00:59:40.000Z</time>
        <extensions>
          <ns3:TrackPointExtension>
            <ns3:atemp>32.0</ns3:atemp>
            <ns3:hr>128</ns3:hr>
          </ns3:TrackPointExtension>
        </extensions>
      </trkpt>
      <trkpt lat="31.97810950689017772674560546875" lon="118.83209710009396076202392578125">
        <ele>5</ele>
        <time>2026-06-28T00:59:41.000Z</time>
        <extensions>
          <ns3:TrackPointExtension>
            <ns3:atemp>32.0</ns3:atemp>
            <ns3:hr>128</ns3:hr>
          </ns3:TrackPointExtension>
        </extensions>
      </trkpt>
      <trkpt lat="31.97806022129952907562255859375" lon="118.83207413367927074432373046875">
        <ele>4.599999904632568359375</ele>
        <time>2026-06-28T00:59:42.000Z</time>
        <extensions>
          <ns3:TrackPointExtension>
            <ns3:atemp>32.0</ns3:atemp>
            <ns3:hr>127</ns3:hr>
          </ns3:TrackPointExtension>
        </extensions>
      </trkpt>
      <trkpt lat="31.97782586328685283660888671875" lon="118.83197388611733913421630859375">
        <ele>5</ele>
        <time>2026-06-28T00:59:47.000Z</time>
        <extensions>
          <ns3:TrackPointExtension>
            <ns3:atemp>32.0</ns3:atemp>
            <ns3:hr>126</ns3:hr>
          </ns3:TrackPointExtension>
        </extensions>
      </trkpt>
      <trkpt lat="31.97759921662509441375732421875" lon="118.831875063478946685791015625">
        <ele>5.80000019073486328125</ele>
        <time>2026-06-28T00:59:52.000Z</time>
        <extensions>
          <ns3:TrackPointExtension>
            <ns3:atemp>32.0</ns3:atemp>
            <ns3:hr>125</ns3:hr>
          </ns3:TrackPointExtension>
        </extensions>
      </trkpt>
      <trkpt lat="31.97755244560539722442626953125" lon="118.831861652433872222900390625">
        <ele>6</ele>
        <time>2026-06-28T00:59:53.000Z</time>
        <extensions>
          <ns3:TrackPointExtension>
            <ns3:atemp>32.0</ns3:atemp>
            <ns3:hr>125</ns3:hr>
          </ns3:TrackPointExtension>
        </extensions>
      </trkpt>
      <trkpt lat="31.97733015753328800201416015625" lon="118.83174506016075611114501953125">
        <ele>4.599999904632568359375</ele>
        <time>2026-06-28T00:59:58.000Z</time>
        <extensions>
          <ns3:TrackPointExtension>
            <ns3:atemp>32.0</ns3:atemp>
            <ns3:hr>124</ns3:hr>
          </ns3:TrackPointExtension>
        </extensions>
      </trkpt>
      <trkpt lat="31.977287493646144866943359375" lon="118.83172142319381237030029296875">
        <ele>4.599999904632568359375</ele>
        <time>2026-06-28T00:59:59.000Z</time>
        <extensions>
          <ns3:TrackPointExtension>
            <ns3:atemp>32.0</ns3:atemp>
            <ns3:hr>125</ns3:hr>
          </ns3:TrackPointExtension>
        </extensions>
      </trkpt>
      <trkpt lat="31.97723896242678165435791015625" lon="118.83170398883521556854248046875">
        <ele>4.599999904632568359375</ele>
        <time>2026-06-28T01:00:00.000Z</time>
        <extensions>
          <ns3:TrackPointExtension>
            <ns3:atemp>32.0</ns3:atemp>
            <ns3:hr>125</ns3:hr>
          </ns3:TrackPointExtension>
        </extensions>
      </trkpt>
      <trkpt lat="31.9771438278257846832275390625" lon="118.83165671490132808685302734375">
        <ele>4.599999904632568359375</ele>
        <time>2026-06-28T01:00:02.000Z</time>
        <extensions>
          <ns3:TrackPointExtension>
            <ns3:atemp>32.0</ns3:atemp>
            <ns3:hr>125</ns3:hr>
          </ns3:TrackPointExtension>
        </extensions>
      </trkpt>
      <trkpt lat="31.97705003432929515838623046875" lon="118.8316086865961551666259765625">
        <ele>4.400000095367431640625</ele>
        <time>2026-06-28T01:00:04.000Z</time>
        <extensions>
          <ns3:TrackPointExtension>
            <ns3:atemp>32.0</ns3:atemp>
            <ns3:hr>125</ns3:hr>
          </ns3:TrackPointExtension>
        </extensions>
      </trkpt>
      <trkpt lat="31.9768197834491729736328125" lon="118.8315097801387310028076171875">
        <ele>5</ele>
        <time>2026-06-28T01:00:09.000Z</time>
        <extensions>
          <ns3:TrackPointExtension>
            <ns3:atemp>32.0</ns3:atemp>
            <ns3:hr>128</ns3:hr>
          </ns3:TrackPointExtension>
        </extensions>
      </trkpt>
      <trkpt lat="31.9767713360488414764404296875" lon="118.8314899988472461700439453125">
        <ele>5.19999980926513671875</ele>
        <time>2026-06-28T01:00:10.000Z</time>
        <extensions>
          <ns3:TrackPointExtension>
            <ns3:atemp>32.0</ns3:atemp>
            <ns3:hr>128</ns3:hr>
          </ns3:TrackPointExtension>
        </extensions>
      </trkpt>
      <trkpt lat="31.9766818173229694366455078125" lon="118.8314407132565975189208984375">
        <ele>5.599999904632568359375</ele>
        <time>2026-06-28T01:00:12.000Z</time>
        <extensions>
          <ns3:TrackPointExtension>
            <ns3:atemp>32.0</ns3:atemp>
            <ns3:hr>128</ns3:hr>
          </ns3:TrackPointExtension>
        </extensions>
      </trkpt>
      <trkpt lat="31.9766375608742237091064453125" lon="118.83141984231770038604736328125">
        <ele>6</ele>
        <time>2026-06-28T01:00:13.000Z</time>
        <extensions>
          <ns3:TrackPointExtension>
            <ns3:atemp>32.0</ns3:atemp>
            <ns3:hr>128</ns3:hr>
          </ns3:TrackPointExtension>
        </extensions>
      </trkpt>
      <trkpt lat="31.9765869341790676116943359375" lon="118.83140173740684986114501953125">
        <ele>6</ele>
        <time>2026-06-28T01:00:14.000Z</time>
        <extensions>
          <ns3:TrackPointExtension>
            <ns3:atemp>32.0</ns3:atemp>
            <ns3:hr>128</ns3:hr>
          </ns3:TrackPointExtension>
        </extensions>
      </trkpt>
      <trkpt lat="31.97644301690161228179931640625" lon="118.8313394598662853240966796875">
        <ele>5.599999904632568359375</ele>
        <time>2026-06-28T01:00:17.000Z</time>
        <extensions>
          <ns3:TrackPointExtension>
            <ns3:atemp>32.0</ns3:atemp>
            <ns3:hr>129</ns3:hr>
          </ns3:TrackPointExtension>
        </extensions>
      </trkpt>
      <trkpt lat="31.976396329700946807861328125" lon="118.83131993003189563751220703125">
        <ele>5</ele>
        <time>2026-06-28T01:00:18.000Z</time>
        <extensions>
          <ns3:TrackPointExtension>
            <ns3:atemp>32.0</ns3:atemp>
            <ns3:hr>128</ns3:hr>
          </ns3:TrackPointExtension>
        </extensions>
      </trkpt>
      <trkpt lat="31.9761990197002887725830078125" lon="118.83122890256345272064208984375">
        <ele>3.599999904632568359375</ele>
        <time>2026-06-28T01:00:22.000Z</time>
        <extensions>
          <ns3:TrackPointExtension>
            <ns3:atemp>32.0</ns3:atemp>
            <ns3:hr>129</ns3:hr>
          </ns3:TrackPointExtension>
        </extensions>
      </trkpt>
      <trkpt lat="31.9761031307280063629150390625" lon="118.83117944933474063873291015625">
        <ele>3.599999904632568359375</ele>
        <time>2026-06-28T01:00:24.000Z</time>
        <extensions>
          <ns3:TrackPointExtension>
            <ns3:atemp>32.0</ns3:atemp>
            <ns3:hr>128</ns3:hr>
          </ns3:TrackPointExtension>
        </extensions>
      </trkpt>
      <trkpt lat="31.9757951796054840087890625" lon="118.83104148320853710174560546875">
        <ele>4.19999980926513671875</ele>
        <time>2026-06-28T01:00:31.000Z</time>
        <extensions>
          <ns3:TrackPointExtension>
            <ns3:atemp>32.0</ns3:atemp>
            <ns3:hr>129</ns3:hr>
          </ns3:TrackPointExtension>
        </extensions>
      </trkpt>
      <trkpt lat="31.9754597358405590057373046875" lon="118.83088507689535617828369140625">
        <ele>4.599999904632568359375</ele>
        <time>2026-06-28T01:00:38.000Z</time>
        <extensions>
          <ns3:TrackPointExtension>
            <ns3:atemp>32.0</ns3:atemp>
            <ns3:hr>130</ns3:hr>
          </ns3:TrackPointExtension>
        </extensions>
      </trkpt>
      <trkpt lat="31.9753606617450714111328125" lon="118.83083730004727840423583984375">
        <ele>4.80000019073486328125</ele>
        <time>2026-06-28T01:00:40.000Z</time>
        <extensions>
          <ns3:TrackPointExtension>
            <ns3:atemp>32.0</ns3:atemp>
            <ns3:hr>131</ns3:hr>
          </ns3:TrackPointExtension>
        </extensions>
      </trkpt>
      <trkpt lat="31.97505162097513675689697265625" lon="118.83071123622357845306396484375">
        <ele>4.599999904632568359375</ele>
        <time>2026-06-28T01:00:46.000Z</time>
        <extensions>
          <ns3:TrackPointExtension>
            <ns3:atemp>32.0</ns3:atemp>
            <ns3:hr>131</ns3:hr>
          </ns3:TrackPointExtension>
        </extensions>
      </trkpt>
      <trkpt lat="31.97486923076212406158447265625" lon="118.83062674663960933685302734375">
        <ele>5</ele>
        <time>2026-06-28T01:00:50.000Z</time>
        <extensions>
          <ns3:TrackPointExtension>
            <ns3:atemp>32.0</ns3:atemp>
            <ns3:hr>131</ns3:hr>
          </ns3:TrackPointExtension>
        </extensions>
      </trkpt>
      <trkpt lat="31.9747767783701419830322265625" lon="118.83058316074311733245849609375">
        <ele>5.19999980926513671875</ele>
        <time>2026-06-28T01:00:52.000Z</time>
        <extensions>
          <ns3:TrackPointExtension>
            <ns3:atemp>32.0</ns3:atemp>
            <ns3:hr>131</ns3:hr>
          </ns3:TrackPointExtension>
        </extensions>
      </trkpt>
      <trkpt lat="31.974415518343448638916015625" lon="118.83043211884796619415283203125">
        <ele>4.80000019073486328125</ele>
        <time>2026-06-28T01:00:59.000Z</time>
        <extensions>
          <ns3:TrackPointExtension>
            <ns3:atemp>32.0</ns3:atemp>
            <ns3:hr>132</ns3:hr>
          </ns3:TrackPointExtension>
        </extensions>
      </trkpt>
      <trkpt lat="31.97406607680022716522216796875" lon="118.83031368255615234375">
        <ele>5.400000095367431640625</ele>
        <time>2026-06-28T01:01:06.000Z</time>
        <extensions>
          <ns3:TrackPointExtension>
            <ns3:atemp>31.0</ns3:atemp>
            <ns3:hr>134</ns3:hr>
          </ns3:TrackPointExtension>
        </extensions>
      </trkpt>
      <trkpt lat="31.9737166352570056915283203125" lon="118.83021955378353595733642578125">
        <ele>5.400000095367431640625</ele>
        <time>2026-06-28T01:01:13.000Z</time>
        <extensions>
          <ns3:TrackPointExtension>
            <ns3:atemp>31.0</ns3:atemp>
            <ns3:hr>134</ns3:hr>
          </ns3:TrackPointExtension>
        </extensions>
      </trkpt>
      <trkpt lat="31.97351597249507904052734375" lon="118.83016523905098438262939453125">
        <ele>5.80000019073486328125</ele>
        <time>2026-06-28T01:01:17.000Z</time>
        <extensions>
          <ns3:TrackPointExtension>
            <ns3:atemp>31.0</ns3:atemp>
            <ns3:hr>136</ns3:hr>
          </ns3:TrackPointExtension>
        </extensions>
      </trkpt>
      <trkpt lat="31.97337691672146320343017578125" lon="118.83012517355382442474365234375">
        <ele>6</ele>
        <time>2026-06-28T01:01:20.000Z</time>
        <extensions>
          <ns3:TrackPointExtension>
            <ns3:atemp>31.0</ns3:atemp>
            <ns3:hr>136</ns3:hr>
          </ns3:TrackPointExtension>
        </extensions>
      </trkpt>
      <trkpt lat="31.97315211407840251922607421875" lon="118.83006566204130649566650390625">
        <ele>6.599999904632568359375</ele>
        <time>2026-06-28T01:01:25.000Z</time>
        <extensions>
          <ns3:TrackPointExtension>
            <ns3:atemp>31.0</ns3:atemp>
            <ns3:hr>135</ns3:hr>
          </ns3:TrackPointExtension>
        </extensions>
      </trkpt>
      <trkpt lat="31.9731064327061176300048828125" lon="118.83005409501492977142333984375">
        <ele>6.599999904632568359375</ele>
        <time>2026-06-28T01:01:26.000Z</time>
        <extensions>
          <ns3:TrackPointExtension>
            <ns3:atemp>31.0</ns3:atemp>
            <ns3:hr>135</ns3:hr>
          </ns3:TrackPointExtension>
        </extensions>
      </trkpt>
      <trkpt lat="31.97278616018593311309814453125" lon="118.83000346831977367401123046875">
        <ele>6.599999904632568359375</ele>
        <time>2026-06-28T01:01:33.000Z</time>
        <extensions>
          <ns3:TrackPointExtension>
            <ns3:atemp>31.0</ns3:atemp>
            <ns3:hr>134</ns3:hr>
          </ns3:TrackPointExtension>
        </extensions>
      </trkpt>
      <trkpt lat="31.97265766561031341552734375" lon="118.82998620159924030303955078125">
        <ele>6.400000095367431640625</ele>
        <time>2026-06-28T01:01:36.000Z</time>
        <extensions>
          <ns3:TrackPointExtension>
            <ns3:atemp>31.0</ns3:atemp>
            <ns3:hr>133</ns3:hr>
          </ns3:TrackPointExtension>
        </extensions>
      </trkpt>
      <trkpt lat="31.972569487988948822021484375" lon="118.82998217828571796417236328125">
        <ele>6.19999980926513671875</ele>
        <time>2026-06-28T01:01:38.000Z</time>
        <extensions>
          <ns3:TrackPointExtension>
            <ns3:atemp>32.0</ns3:atemp>
            <ns3:hr>135</ns3:hr>
          </ns3:TrackPointExtension>
        </extensions>
      </trkpt>
      <trkpt lat="31.97247871197760105133056640625" lon="118.82996474392712116241455078125">
        <ele>6</ele>
        <time>2026-06-28T01:01:40.000Z</time>
        <extensions>
          <ns3:TrackPointExtension>
            <ns3:atemp>31.0</ns3:atemp>
            <ns3:hr>130</ns3:hr>
          </ns3:TrackPointExtension>
        </extensions>
      </trkpt>
      <trkpt lat="31.9722425937652587890625" lon="118.82992115803062915802001953125">
        <ele>6.400000095367431640625</ele>
        <time>2026-06-28T01:01:45.000Z</time>
        <extensions>
          <ns3:TrackPointExtension>
            <ns3:atemp>31.0</ns3:atemp>
            <ns3:hr>127</ns3:hr>
          </ns3:TrackPointExtension>
        </extensions>
      </trkpt>
      <trkpt lat="31.9719674997031688690185546875" lon="118.8298823498189449310302734375">
        <ele>6.400000095367431640625</ele>
        <time>2026-06-28T01:01:51.000Z</time>
        <extensions>
          <ns3:TrackPointExtension>
            <ns3:atemp>31.0</ns3:atemp>
            <ns3:hr>124</ns3:hr>
          </ns3:TrackPointExtension>
        </extensions>
      </trkpt>
      <trkpt lat="31.97192600928246974945068359375" lon="118.82987153716385364532470703125">
        <ele>6.400000095367431640625</ele>
        <time>2026-06-28T01:01:52.000Z</time>
        <extensions>
          <ns3:TrackPointExtension>
            <ns3:atemp>31.0</ns3:atemp>
            <ns3:hr>125</ns3:hr>
          </ns3:TrackPointExtension>
        </extensions>
      </trkpt>
      <trkpt lat="31.97165183722972869873046875" lon="118.8298322260379791259765625">
        <ele>5.400000095367431640625</ele>
        <time>2026-06-28T01:01:58.000Z</time>
        <extensions>
          <ns3:TrackPointExtension>
            <ns3:atemp>31.0</ns3:atemp>
            <ns3:hr>124</ns3:hr>
          </ns3:TrackPointExtension>
        </extensions>
      </trkpt>
      <trkpt lat="31.97160531766712665557861328125" lon="118.82985091768205165863037109375">
        <ele>5.599999904632568359375</ele>
        <time>2026-06-28T01:01:59.000Z</time>
        <extensions>
          <ns3:TrackPointExtension>
            <ns3:atemp>31.0</ns3:atemp>
            <ns3:hr>125</ns3:hr>
          </ns3:TrackPointExtension>
        </extensions>
      </trkpt>
      <trkpt lat="31.971446312963962554931640625" lon="118.82990104146301746368408203125">
        <ele>7.400000095367431640625</ele>
        <time>2026-06-28T01:02:03.000Z</time>
        <extensions>
          <ns3:TrackPointExtension>
            <ns3:atemp>31.0</ns3:atemp>
            <ns3:hr>125</ns3:hr>
          </ns3:TrackPointExtension>
        </extensions>
      </trkpt>
      <trkpt lat="31.97138956747949123382568359375" lon="118.8299152068793773651123046875">
        <ele>8.3999996185302734375</ele>
        <time>2026-06-28T01:02:05.000Z</time>
        <extensions>
          <ns3:TrackPointExtension>
            <ns3:atemp>31.0</ns3:atemp>
            <ns3:hr>125</ns3:hr>
          </ns3:TrackPointExtension>
        </extensions>
      </trkpt>
      <trkpt lat="31.9713422097265720367431640625" lon="118.82995384745299816131591796875">
        <ele>9.6000003814697265625</ele>
        <time>2026-06-28T01:02:08.000Z</time>
        <extensions>
          <ns3:TrackPointExtension>
            <ns3:atemp>31.0</ns3:atemp>
            <ns3:hr>125</ns3:hr>
          </ns3:TrackPointExtension>
        </extensions>
      </trkpt>
      <trkpt lat="31.97130423970520496368408203125" lon="118.829969353973865509033203125">
        <ele>10</ele>
        <time>2026-06-28T01:02:10.000Z</time>
        <extensions>
          <ns3:TrackPointExtension>
            <ns3:atemp>31.0</ns3:atemp>
            <ns3:hr>124</ns3:hr>
          </ns3:TrackPointExtension>
        </extensions>
      </trkpt>
      <trkpt lat="31.97114096023142337799072265625" lon="118.82999843917787075042724609375">
        <ele>10</ele>
        <time>2026-06-28T01:02:15.000Z</time>
        <extensions>
          <ns3:TrackPointExtension>
            <ns3:atemp>31.0</ns3:atemp>
            <ns3:hr>126</ns3:hr>
          </ns3:TrackPointExtension>
        </extensions>
      </trkpt>
      <trkpt lat="31.97103216312825679779052734375" lon="118.830036409199237823486328125">
        <ele>10.19999980926513671875</ele>
        <time>2026-06-28T01:02:18.000Z</time>
        <extensions>
          <ns3:TrackPointExtension>
            <ns3:atemp>31.0</ns3:atemp>
            <ns3:hr>129</ns3:hr>
          </ns3:TrackPointExtension>
        </extensions>
      </trkpt>
      <trkpt lat="31.9709630124270915985107421875" lon="118.8300633989274501800537109375">
        <ele>10.19999980926513671875</ele>
        <time>2026-06-28T01:02:20.000Z</time>
        <extensions>
          <ns3:TrackPointExtension>
            <ns3:atemp>32.0</ns3:atemp>
            <ns3:hr>133</ns3:hr>
          </ns3:TrackPointExtension>
        </extensions>
      </trkpt>
      <trkpt lat="31.97092889808118343353271484375" lon="118.830089382827281951904296875">
        <ele>10</ele>
        <time>2026-06-28T01:02:21.000Z</time>
        <extensions>
          <ns3:TrackPointExtension>
            <ns3:atemp>31.0</ns3:atemp>
            <ns3:hr>135</ns3:hr>
          </ns3:TrackPointExtension>
        </extensions>
      </trkpt>
      <trkpt lat="31.97074432857334613800048828125" lon="118.83019524626433849334716796875">
        <ele>9.80000019073486328125</ele>
        <time>2026-06-28T01:02:26.000Z</time>
        <extensions>
          <ns3:TrackPointExtension>
            <ns3:atemp>32.0</ns3:atemp>
            <ns3:hr>137</ns3:hr>
          </ns3:TrackPointExtension>
        </extensions>
      </trkpt>
      <trkpt lat="31.97058725170791149139404296875" lon="118.830179907381534576416015625">
        <ele>9.6000003814697265625</ele>
        <time>2026-06-28T01:02:30.000Z</time>
        <extensions>
          <ns3:TrackPointExtension>
            <ns3:atemp>32.0</ns3:atemp>
            <ns3:hr>139</ns3:hr>
          </ns3:TrackPointExtension>
        </extensions>
      </trkpt>
      <trkpt lat="31.9705465994775295257568359375" lon="118.83017613552510738372802734375">
        <ele>9.6000003814697265625</ele>
        <time>2026-06-28T01:02:31.000Z</time>
        <extensions>
          <ns3:TrackPointExtension>
            <ns3:atemp>32.0</ns3:atemp>
            <ns3:hr>139</ns3:hr>
          </ns3:TrackPointExtension>
        </extensions>
      </trkpt>
      <trkpt lat="31.97028500027954578399658203125" lon="118.8301582820713520050048828125">
        <ele>9.3999996185302734375</ele>
        <time>2026-06-28T01:02:37.000Z</time>
        <extensions>
          <ns3:TrackPointExtension>
            <ns3:atemp>32.0</ns3:atemp>
            <ns3:hr>139</ns3:hr>
          </ns3:TrackPointExtension>
        </extensions>
      </trkpt>
      <trkpt lat="31.97007092647254467010498046875" lon="118.83014537394046783447265625">
        <ele>9.6000003814697265625</ele>
        <time>2026-06-28T01:02:42.000Z</time>
        <extensions>
          <ns3:TrackPointExtension>
            <ns3:atemp>32.0</ns3:atemp>
            <ns3:hr>140</ns3:hr>
          </ns3:TrackPointExtension>
        </extensions>
      </trkpt>
      <trkpt lat="31.97003555484116077423095703125" lon="118.8301401771605014801025390625">
        <ele>9.6000003814697265625</ele>
        <time>2026-06-28T01:02:43.000Z</time>
        <extensions>
          <ns3:TrackPointExtension>
            <ns3:atemp>32.0</ns3:atemp>
            <ns3:hr>141</ns3:hr>
          </ns3:TrackPointExtension>
        </extensions>
      </trkpt>
      <trkpt lat="31.96999716572463512420654296875" lon="118.8301281072199344635009765625">
        <ele>9.80000019073486328125</ele>
        <time>2026-06-28T01:02:44.000Z</time>
        <extensions>
          <ns3:TrackPointExtension>
            <ns3:atemp>32.0</ns3:atemp>
            <ns3:hr>143</ns3:hr>
          </ns3:TrackPointExtension>
        </extensions>
      </trkpt>
      <trkpt lat="31.96991217322647571563720703125" lon="118.83011913858354091644287109375">
        <ele>9.80000019073486328125</ele>
        <time>2026-06-28T01:02:46.000Z</time>
        <extensions>
          <ns3:TrackPointExtension>
            <ns3:atemp>32.0</ns3:atemp>
            <ns3:hr>145</ns3:hr>
          </ns3:TrackPointExtension>
        </extensions>
      </trkpt>
      <trkpt lat="31.9698267616331577301025390625" lon="118.83010824210941791534423828125">
        <ele>10.19999980926513671875</ele>
        <time>2026-06-28T01:02:48.000Z</time>
        <extensions>
          <ns3:TrackPointExtension>
            <ns3:atemp>32.0</ns3:atemp>
            <ns3:hr>145</ns3:hr>
          </ns3:TrackPointExtension>
        </extensions>
      </trkpt>
      <trkpt lat="31.9697858579456806182861328125" lon="118.83011260069906711578369140625">
        <ele>10</ele>
        <time>2026-06-28T01:02:49.000Z</time>
        <extensions>
          <ns3:TrackPointExtension>
            <ns3:atemp>32.0</ns3:atemp>
            <ns3:hr>145</ns3:hr>
          </ns3:TrackPointExtension>
        </extensions>
      </trkpt>
      <trkpt lat="31.9696262665092945098876953125" lon="118.83010723628103733062744140625">
        <ele>9.80000019073486328125</ele>
        <time>2026-06-28T01:02:53.000Z</time>
        <extensions>
          <ns3:TrackPointExtension>
            <ns3:atemp>32.0</ns3:atemp>
            <ns3:hr>144</ns3:hr>
          </ns3:TrackPointExtension>
        </extensions>
      </trkpt>
      <trkpt lat="31.96942233480513095855712890625" lon="118.830087371170520782470703125">
        <ele>9.80000019073486328125</ele>
        <time>2026-06-28T01:02:58.000Z</time>
        <extensions>
          <ns3:TrackPointExtension>
            <ns3:atemp>32.0</ns3:atemp>
            <ns3:hr>141</ns3:hr>
          </ns3:TrackPointExtension>
        </extensions>
      </trkpt>
      <trkpt lat="31.96934035979211330413818359375" lon="118.83007219992578029632568359375">
        <ele>10</ele>
        <time>2026-06-28T01:03:00.000Z</time>
        <extensions>
          <ns3:TrackPointExtension>
            <ns3:atemp>32.0</ns3:atemp>
            <ns3:hr>140</ns3:hr>
          </ns3:TrackPointExtension>
        </extensions>
      </trkpt>
      <trkpt lat="31.96921773254871368408203125" lon="118.8300499878823757171630859375">
        <ele>9.80000019073486328125</ele>
        <time>2026-06-28T01:03:03.000Z</time>
        <extensions>
          <ns3:TrackPointExtension>
            <ns3:atemp>32.0</ns3:atemp>
            <ns3:hr>139</ns3:hr>
          </ns3:TrackPointExtension>
        </extensions>
      </trkpt>
      <trkpt lat="31.96913299150764942169189453125" lon="118.830036409199237823486328125">
        <ele>9.80000019073486328125</ele>
        <time>2026-06-28T01:03:05.000Z</time>
        <extensions>
          <ns3:TrackPointExtension>
            <ns3:atemp>32.0</ns3:atemp>
            <ns3:hr>137</ns3:hr>
          </ns3:TrackPointExtension>
        </extensions>
      </trkpt>
      <trkpt lat="31.969087310135364532470703125" lon="118.8300385884940624237060546875">
        <ele>9.6000003814697265625</ele>
        <time>2026-06-28T01:03:06.000Z</time>
        <extensions>
          <ns3:TrackPointExtension>
            <ns3:atemp>32.0</ns3:atemp>
            <ns3:hr>136</ns3:hr>
          </ns3:TrackPointExtension>
        </extensions>
      </trkpt>
      <trkpt lat="31.968997456133365631103515625" lon="118.83002861402928829193115234375">
        <ele>9.3999996185302734375</ele>
        <time>2026-06-28T01:03:08.000Z</time>
        <extensions>
          <ns3:TrackPointExtension>
            <ns3:atemp>32.0</ns3:atemp>
            <ns3:hr>136</ns3:hr>
          </ns3:TrackPointExtension>
        </extensions>
      </trkpt>
      <trkpt lat="31.96881816722452640533447265625" lon="118.83000045083463191986083984375">
        <ele>9.3999996185302734375</ele>
        <time>2026-06-28T01:03:12.000Z</time>
        <extensions>
          <ns3:TrackPointExtension>
            <ns3:atemp>32.0</ns3:atemp>
            <ns3:hr>134</ns3:hr>
          </ns3:TrackPointExtension>
        </extensions>
      </trkpt>
      <trkpt lat="31.9685969687998294830322265625" lon="118.82997949607670307159423828125">
        <ele>9.6000003814697265625</ele>
        <time>2026-06-28T01:03:17.000Z</time>
        <extensions>
          <ns3:TrackPointExtension>
            <ns3:atemp>32.0</ns3:atemp>
            <ns3:hr>133</ns3:hr>
          </ns3:TrackPointExtension>
        </extensions>
      </trkpt>
      <trkpt lat="31.968551538884639739990234375" lon="118.829972036182880401611328125">
        <ele>9.6000003814697265625</ele>
        <time>2026-06-28T01:03:18.000Z</time>
        <extensions>
          <ns3:TrackPointExtension>
            <ns3:atemp>32.0</ns3:atemp>
            <ns3:hr>134</ns3:hr>
          </ns3:TrackPointExtension>
        </extensions>
      </trkpt>
      <trkpt lat="31.96841332130134105682373046875" lon="118.82993482053279876708984375">
        <ele>9.80000019073486328125</ele>
        <time>2026-06-28T01:03:21.000Z</time>
        <extensions>
          <ns3:TrackPointExtension>
            <ns3:atemp>32.0</ns3:atemp>
            <ns3:hr>132</ns3:hr>
          </ns3:TrackPointExtension>
        </extensions>
      </trkpt>
      <trkpt lat="31.968356072902679443359375" lon="118.8298441283404827117919921875">
        <ele>9.6000003814697265625</ele>
        <time>2026-06-28T01:03:23.000Z</time>
        <extensions>
          <ns3:TrackPointExtension>
            <ns3:atemp>32.0</ns3:atemp>
            <ns3:hr>131</ns3:hr>
          </ns3:TrackPointExtension>
        </extensions>
      </trkpt>
      <trkpt lat="31.96832246147096157073974609375" lon="118.8297381810843944549560546875">
        <ele>9.3999996185302734375</ele>
        <time>2026-06-28T01:03:25.000Z</time>
        <extensions>
          <ns3:TrackPointExtension>
            <ns3:atemp>32.0</ns3:atemp>
            <ns3:hr>130</ns3:hr>
          </ns3:TrackPointExtension>
        </extensions>
      </trkpt>
      <trkpt lat="31.96835448034107685089111328125" lon="118.829642795026302337646484375">
        <ele>9.3999996185302734375</ele>
        <time>2026-06-28T01:03:27.000Z</time>
        <extensions>
          <ns3:TrackPointExtension>
            <ns3:atemp>32.0</ns3:atemp>
            <ns3:hr>129</ns3:hr>
          </ns3:TrackPointExtension>
        </extensions>
      </trkpt>
      <trkpt lat="31.9683830626308917999267578125" lon="118.82954598404467105865478515625">
        <ele>9.19999980926513671875</ele>
        <time>2026-06-28T01:03:29.000Z</time>
        <extensions>
          <ns3:TrackPointExtension>
            <ns3:atemp>32.0</ns3:atemp>
            <ns3:hr>128</ns3:hr>
          </ns3:TrackPointExtension>
        </extensions>
      </trkpt>
      <trkpt lat="31.96841114200651645660400390625" lon="118.82940240204334259033203125">
        <ele>9.3999996185302734375</ele>
        <time>2026-06-28T01:03:32.000Z</time>
        <extensions>
          <ns3:TrackPointExtension>
            <ns3:atemp>32.0</ns3:atemp>
            <ns3:hr>128</ns3:hr>
          </ns3:TrackPointExtension>
        </extensions>
      </trkpt>
      <trkpt lat="31.9684447534382343292236328125" lon="118.82917843759059906005859375">
        <ele>9.3999996185302734375</ele>
        <time>2026-06-28T01:03:37.000Z</time>
        <extensions>
          <ns3:TrackPointExtension>
            <ns3:atemp>32.0</ns3:atemp>
            <ns3:hr>127</ns3:hr>
          </ns3:TrackPointExtension>
        </extensions>
      </trkpt>
      <trkpt lat="31.96845137514173984527587890625" lon="118.828923292458057403564453125">
        <ele>9</ele>
        <time>2026-06-28T01:03:42.000Z</time>
        <extensions>
          <ns3:TrackPointExtension>
            <ns3:atemp>32.0</ns3:atemp>
            <ns3:hr>126</ns3:hr>
          </ns3:TrackPointExtension>
        </extensions>
      </trkpt>
      <trkpt lat="31.96840628050267696380615234375" lon="118.828847520053386688232421875">
        <ele>9</ele>
        <time>2026-06-28T01:03:44.000Z</time>
        <extensions>
          <ns3:TrackPointExtension>
            <ns3:atemp>31.0</ns3:atemp>
            <ns3:hr>126</ns3:hr>
          </ns3:TrackPointExtension>
        </extensions>
      </trkpt>
      <trkpt lat="31.9683802127838134765625" lon="118.82881457917392253875732421875">
        <ele>9</ele>
        <time>2026-06-28T01:03:45.000Z</time>
        <extensions>
          <ns3:TrackPointExtension>
            <ns3:atemp>32.0</ns3:atemp>
            <ns3:hr>126</ns3:hr>
          </ns3:TrackPointExtension>
        </extensions>
      </trkpt>
      <trkpt lat="31.96816186420619487762451171875" lon="118.8285680674016475677490234375">
        <ele>9.19999980926513671875</ele>
        <time>2026-06-28T01:03:52.000Z</time>
        <extensions>
          <ns3:TrackPointExtension>
            <ns3:atemp>31.0</ns3:atemp>
            <ns3:hr>124</ns3:hr>
          </ns3:TrackPointExtension>
        </extensions>
      </trkpt>
      <trkpt lat="31.9679663144052028656005859375" lon="118.82835910655558109283447265625">
        <ele>9.80000019073486328125</ele>
        <time>2026-06-28T01:03:59.000Z</time>
        <extensions>
          <ns3:TrackPointExtension>
            <ns3:atemp>31.0</ns3:atemp>
            <ns3:hr>123</ns3:hr>
          </ns3:TrackPointExtension>
        </extensions>
      </trkpt>
      <trkpt lat="31.9678338803350925445556640625" lon="118.8281291909515857696533203125">
        <ele>9.6000003814697265625</ele>
        <time>2026-06-28T01:04:05.000Z</time>
        <extensions>
          <ns3:TrackPointExtension>
            <ns3:atemp>31.0</ns3:atemp>
            <ns3:hr>122</ns3:hr>
          </ns3:TrackPointExtension>
        </extensions>
      </trkpt>
      <trkpt lat="31.967803202569484710693359375" lon="118.82803020067512989044189453125">
        <ele>9.3999996185302734375</ele>
        <time>2026-06-28T01:04:07.000Z</time>
        <extensions>
          <ns3:TrackPointExtension>
            <ns3:atemp>31.0</ns3:atemp>
            <ns3:hr>121</ns3:hr>
          </ns3:TrackPointExtension>
        </extensions>
      </trkpt>
      <trkpt lat="31.96777579374611377716064453125" lon="118.8278837688267230987548828125">
        <ele>9.3999996185302734375</ele>
        <time>2026-06-28T01:04:10.000Z</time>
        <extensions>
          <ns3:TrackPointExtension>
            <ns3:atemp>31.0</ns3:atemp>
            <ns3:hr>121</ns3:hr>
          </ns3:TrackPointExtension>
        </extensions>
      </trkpt>
      <trkpt lat="31.96777059696614742279052734375" lon="118.82783356122672557830810546875">
        <ele>9.3999996185302734375</ele>
        <time>2026-06-28T01:04:11.000Z</time>
        <extensions>
          <ns3:TrackPointExtension>
            <ns3:atemp>31.0</ns3:atemp>
            <ns3:hr>122</ns3:hr>
          </ns3:TrackPointExtension>
        </extensions>
      </trkpt>
      <trkpt lat="31.9677436910569667816162109375" lon="118.82768453098833560943603515625">
        <ele>9.3999996185302734375</ele>
        <time>2026-06-28T01:04:14.000Z</time>
        <extensions>
          <ns3:TrackPointExtension>
            <ns3:atemp>31.0</ns3:atemp>
            <ns3:hr>122</ns3:hr>
          </ns3:TrackPointExtension>
        </extensions>
      </trkpt>
      <trkpt lat="31.96774729527533054351806640625" lon="118.82758864201605319976806640625">
        <ele>9.3999996185302734375</ele>
        <time>2026-06-28T01:04:16.000Z</time>
        <extensions>
          <ns3:TrackPointExtension>
            <ns3:atemp>31.0</ns3:atemp>
            <ns3:hr>122</ns3:hr>
          </ns3:TrackPointExtension>
        </extensions>
      </trkpt>
      <trkpt lat="31.96775366552174091339111328125" lon="118.82754673250019550323486328125">
        <ele>9.3999996185302734375</ele>
        <time>2026-06-28T01:04:17.000Z</time>
        <extensions>
          <ns3:TrackPointExtension>
            <ns3:atemp>31.0</ns3:atemp>
            <ns3:hr>122</ns3:hr>
          </ns3:TrackPointExtension>
        </extensions>
      </trkpt>
      <trkpt lat="31.967790462076663970947265625" lon="118.8273538649082183837890625">
        <ele>9.6000003814697265625</ele>
        <time>2026-06-28T01:04:21.000Z</time>
        <extensions>
          <ns3:TrackPointExtension>
            <ns3:atemp>31.0</ns3:atemp>
            <ns3:hr>122</ns3:hr>
          </ns3:TrackPointExtension>
        </extensions>
      </trkpt>
      <trkpt lat="31.96782424114644527435302734375" lon="118.8271615840494632720947265625">
        <ele>9.6000003814697265625</ele>
        <time>2026-06-28T01:04:25.000Z</time>
        <extensions>
          <ns3:TrackPointExtension>
            <ns3:atemp>31.0</ns3:atemp>
            <ns3:hr>123</ns3:hr>
          </ns3:TrackPointExtension>
        </extensions>
      </trkpt>
      <trkpt lat="31.96783773601055145263671875" lon="118.82711313664913177490234375">
        <ele>9.80000019073486328125</ele>
        <time>2026-06-28T01:04:26.000Z</time>
        <extensions>
          <ns3:TrackPointExtension>
            <ns3:atemp>31.0</ns3:atemp>
            <ns3:hr>123</ns3:hr>
          </ns3:TrackPointExtension>
        </extensions>
      </trkpt>
      <trkpt lat="31.9679435156285762786865234375" lon="118.82672580890357494354248046875">
        <ele>9.80000019073486328125</ele>
        <time>2026-06-28T01:04:34.000Z</time>
        <extensions>
          <ns3:TrackPointExtension>
            <ns3:atemp>31.0</ns3:atemp>
            <ns3:hr>123</ns3:hr>
          </ns3:TrackPointExtension>
        </extensions>
      </trkpt>
      <trkpt lat="31.96804552339017391204833984375" lon="118.82639472372829914093017578125">
        <ele>10</ele>
        <time>2026-06-28T01:04:41.000Z</time>
        <extensions>
          <ns3:TrackPointExtension>
            <ns3:atemp>31.0</ns3:atemp>
            <ns3:hr>123</ns3:hr>
          </ns3:TrackPointExtension>
        </extensions>
      </trkpt>
      <trkpt lat="31.96814660914242267608642578125" lon="118.82610722444951534271240234375">
        <ele>10</ele>
        <time>2026-06-28T01:04:47.000Z</time>
        <extensions>
          <ns3:TrackPointExtension>
            <ns3:atemp>31.0</ns3:atemp>
            <ns3:hr>121</ns3:hr>
          </ns3:TrackPointExtension>
        </extensions>
      </trkpt>
      <trkpt lat="31.96818650700151920318603515625" lon="118.8260196335613727569580078125">
        <ele>10.19999980926513671875</ele>
        <time>2026-06-28T01:04:49.000Z</time>
        <extensions>
          <ns3:TrackPointExtension>
            <ns3:atemp>31.0</ns3:atemp>
            <ns3:hr>120</ns3:hr>
          </ns3:TrackPointExtension>
        </extensions>
      </trkpt>
      <trkpt lat="31.9682325236499309539794921875" lon="118.82587261497974395751953125">
        <ele>9.80000019073486328125</ele>
        <time>2026-06-28T01:04:52.000Z</time>
        <extensions>
          <ns3:TrackPointExtension>
            <ns3:atemp>31.0</ns3:atemp>
            <ns3:hr>121</ns3:hr>
          </ns3:TrackPointExtension>
        </extensions>
      </trkpt>
      <trkpt lat="31.968352384865283966064453125" lon="118.82547003217041492462158203125">
        <ele>9.80000019073486328125</ele>
        <time>2026-06-28T01:05:00.000Z</time>
        <extensions>
          <ns3:TrackPointExtension>
            <ns3:atemp>31.0</ns3:atemp>
            <ns3:hr>122</ns3:hr>
          </ns3:TrackPointExtension>
        </extensions>
      </trkpt>
      <trkpt lat="31.96847802959382534027099609375" lon="118.82507440634071826934814453125">
        <ele>10</ele>
        <time>2026-06-28T01:05:09.000Z</time>
        <extensions>
          <ns3:TrackPointExtension>
            <ns3:atemp>31.0</ns3:atemp>
            <ns3:hr>122</ns3:hr>
          </ns3:TrackPointExtension>
        </extensions>
      </trkpt>
      <trkpt lat="31.9686100445687770843505859375" lon="118.82462731562554836273193359375">
        <ele>10</ele>
        <time>2026-06-28T01:05:19.000Z</time>
        <extensions>
          <ns3:TrackPointExtension>
            <ns3:atemp>31.0</ns3:atemp>
            <ns3:hr>122</ns3:hr>
          </ns3:TrackPointExtension>
        </extensions>
      </trkpt>
      <trkpt lat="31.96869696490466594696044921875" lon="118.824370242655277252197265625">
        <ele>9.80000019073486328125</ele>
        <time>2026-06-28T01:05:25.000Z</time>
        <extensions>
          <ns3:TrackPointExtension>
            <ns3:atemp>31.0</ns3:atemp>
            <ns3:hr>121</ns3:hr>
          </ns3:TrackPointExtension>
        </extensions>
      </trkpt>
      <trkpt lat="31.9687750004231929779052734375" lon="118.82408601231873035430908203125">
        <ele>10.19999980926513671875</ele>
        <time>2026-06-28T01:05:32.000Z</time>
        <extensions>
          <ns3:TrackPointExtension>
            <ns3:atemp>31.0</ns3:atemp>
            <ns3:hr>121</ns3:hr>
          </ns3:TrackPointExtension>
        </extensions>
      </trkpt>
      <trkpt lat="31.96881473064422607421875" lon="118.82382282055914402008056640625">
        <ele>9.80000019073486328125</ele>
        <time>2026-06-28T01:05:39.000Z</time>
        <extensions>
          <ns3:TrackPointExtension>
            <ns3:atemp>31.0</ns3:atemp>
            <ns3:hr>118</ns3:hr>
          </ns3:TrackPointExtension>
        </extensions>
      </trkpt>
      <trkpt lat="31.9688308238983154296875" lon="118.8237328827381134033203125">
        <ele>9.6000003814697265625</ele>
        <time>2026-06-28T01:05:44.000Z</time>
        <extensions>
          <ns3:TrackPointExtension>
            <ns3:atemp>31.0</ns3:atemp>
            <ns3:hr>118</ns3:hr>
          </ns3:TrackPointExtension>
        </extensions>
      </trkpt>
      <trkpt lat="31.96881045587360858917236328125" lon="118.82374034263193607330322265625">
        <ele>9.6000003814697265625</ele>
        <time>2026-06-28T01:05:47.000Z</time>
        <extensions>
          <ns3:TrackPointExtension>
            <ns3:atemp>31.0</ns3:atemp>
            <ns3:hr>117</ns3:hr>
          </ns3:TrackPointExtension>
        </extensions>
      </trkpt>
      <trkpt lat="31.968656145036220550537109375" lon="118.82385601289570331573486328125">
        <ele>8.6000003814697265625</ele>
        <time>2026-06-28T01:06:45.000Z</time>
        <extensions>
          <ns3:TrackPointExtension>
            <ns3:atemp>32.0</ns3:atemp>
            <ns3:hr>121</ns3:hr>
          </ns3:TrackPointExtension>
        </extensions>
      </trkpt>
      <trkpt lat="31.968645416200160980224609375" lon="118.8238638080656528472900390625">
        <ele>8.6000003814697265625</ele>
        <time>2026-06-28T01:06:46.000Z</time>
        <extensions>
          <ns3:TrackPointExtension>
            <ns3:atemp>32.0</ns3:atemp>
            <ns3:hr>121</ns3:hr>
          </ns3:TrackPointExtension>
        </extensions>
      </trkpt>
      <trkpt lat="31.9686318375170230865478515625" lon="118.82385517470538616180419921875">
        <ele>8.3999996185302734375</ele>
        <time>2026-06-28T01:06:47.000Z</time>
        <extensions>
          <ns3:TrackPointExtension>
            <ns3:atemp>32.0</ns3:atemp>
            <ns3:hr>121</ns3:hr>
          </ns3:TrackPointExtension>
        </extensions>
      </trkpt>
      <trkpt lat="31.96861716918647289276123046875" lon="118.82385366596281528472900390625">
        <ele>8.3999996185302734375</ele>
        <time>2026-06-28T01:06:48.000Z</time>
        <extensions>
          <ns3:TrackPointExtension>
            <ns3:atemp>32.0</ns3:atemp>
            <ns3:hr>121</ns3:hr>
          </ns3:TrackPointExtension>
        </extensions>
      </trkpt>
    </trkseg>
  </trk>
</gpx>
