<gpx xmlns:ns3="http://www.garmin.com/xmlschemas/TrackPointExtension/v1" xmlns="http://www.topografix.com/GPX/1/1" xmlns:xsi="http://www.w3.org/2001/XMLSchema-instance" xmlns:ns2="http://www.garmin.com/xmlschemas/GpxExtensions/v3" creator="Garmin Connect" version="1.1" xsi:schemaLocation="http://www.topografix.com/GPX/1/1 http://www.topografix.com/GPX/11.xsd">
  <extensions>
<distance>2427.59</distance>
<average_hr>91.0</average_hr>
<average_speed>2.7260000705718994</average_speed>
<start_time>2026-08-16T01:29:37+00:00</start_time>
<end_time>2026-08-16T01:44:27.410000+00:00</end_time>
<moving_time>868.0</moving_time>
<elapsed_time>1978.4</elapsed_time>
</extensions>
<metadata>
    <link href="connect.garmin.com">
      <text>Garmin Connect</text>
    </link>
    <time>2026-08-16T01:29:37.000Z</time>
  </metadata>
  <trk>
    <name>南京市 骑行</name>
    <type>cycling</type>
    <trkseg>
      <trkpt lat="31.96781250648200511932373046875" lon="118.82223126478493213653564453125">
        <ele>9.6000003814697265625</ele>
        <time>2026-08-16T01:29:42.000Z</time>
        <extensions>
          <ns3:TrackPointExtension>
            <ns3:atemp>32.0</ns3:atemp>
            <ns3:hr>74</ns3:hr>
          </ns3:TrackPointExtension>
        </extensions>
      </trkpt>
      <trkpt lat="31.96778434328734874725341796875" lon="118.82223688066005706787109375">
        <ele>9.6000003814697265625</ele>
        <time>2026-08-16T01:29:43.000Z</time>
        <extensions>
          <ns3:TrackPointExtension>
            <ns3:atemp>32.0</ns3:atemp>
            <ns3:hr>74</ns3:hr>
          </ns3:TrackPointExtension>
        </extensions>
      </trkpt>
      <trkpt lat="31.967725418508052825927734375" lon="118.8222870044410228729248046875">
        <ele>9.6000003814697265625</ele>
        <time>2026-08-16T01:29:45.000Z</time>
        <extensions>
          <ns3:TrackPointExtension>
            <ns3:atemp>32.0</ns3:atemp>
            <ns3:hr>78</ns3:hr>
          </ns3:TrackPointExtension>
        </extensions>
      </trkpt>
      <trkpt lat="31.9676917232573032379150390625" lon="118.82229144684970378875732421875">
        <ele>9.80000019073486328125</ele>
        <time>2026-08-16T01:29:46.000Z</time>
        <extensions>
          <ns3:TrackPointExtension>
            <ns3:atemp>32.0</ns3:atemp>
            <ns3:hr>83</ns3:hr>
          </ns3:TrackPointExtension>
        </extensions>
      </trkpt>
      <trkpt lat="31.96767588146030902862548828125" lon="118.8222769461572170257568359375">
        <ele>9.6000003814697265625</ele>
        <time>2026-08-16T01:29:47.000Z</time>
        <extensions>
          <ns3:TrackPointExtension>
            <ns3:atemp>32.0</ns3:atemp>
            <ns3:hr>86</ns3:hr>
          </ns3:TrackPointExtension>
        </extensions>
      </trkpt>
      <trkpt lat="31.96759625338017940521240234375" lon="118.82230795919895172119140625">
        <ele>9.80000019073486328125</ele>
        <time>2026-08-16T01:29:49.000Z</time>
        <extensions>
          <ns3:TrackPointExtension>
            <ns3:atemp>32.0</ns3:atemp>
            <ns3:hr>89</ns3:hr>
          </ns3:TrackPointExtension>
        </extensions>
      </trkpt>
      <trkpt lat="31.967510171234607696533203125" lon="118.8223220407962799072265625">
        <ele>9.80000019073486328125</ele>
        <time>2026-08-16T01:29:51.000Z</time>
        <extensions>
          <ns3:TrackPointExtension>
            <ns3:atemp>32.0</ns3:atemp>
            <ns3:hr>90</ns3:hr>
          </ns3:TrackPointExtension>
        </extensions>
      </trkpt>
      <trkpt lat="31.96746516041457653045654296875" lon="118.8223238848149776458740234375">
        <ele>9.80000019073486328125</ele>
        <time>2026-08-16T01:29:52.000Z</time>
        <extensions>
          <ns3:TrackPointExtension>
            <ns3:atemp>32.0</ns3:atemp>
            <ns3:hr>91</ns3:hr>
          </ns3:TrackPointExtension>
        </extensions>
      </trkpt>
      <trkpt lat="31.96722778491675853729248046875" lon="118.8223309256136417388916015625">
        <ele>9.80000019073486328125</ele>
        <time>2026-08-16T01:29:57.000Z</time>
        <extensions>
          <ns3:TrackPointExtension>
            <ns3:atemp>32.0</ns3:atemp>
            <ns3:hr>91</ns3:hr>
          </ns3:TrackPointExtension>
        </extensions>
      </trkpt>
      <trkpt lat="31.96717682294547557830810546875" lon="118.822343163192272186279296875">
        <ele>9.80000019073486328125</ele>
        <time>2026-08-16T01:29:58.000Z</time>
        <extensions>
          <ns3:TrackPointExtension>
            <ns3:atemp>32.0</ns3:atemp>
            <ns3:hr>88</ns3:hr>
          </ns3:TrackPointExtension>
        </extensions>
      </trkpt>
      <trkpt lat="31.96712720207870006561279296875" lon="118.82234810851514339447021484375">
        <ele>10</ele>
        <time>2026-08-16T01:29:59.000Z</time>
        <extensions>
          <ns3:TrackPointExtension>
            <ns3:atemp>32.0</ns3:atemp>
            <ns3:hr>80</ns3:hr>
          </ns3:TrackPointExtension>
        </extensions>
      </trkpt>
      <trkpt lat="31.96698152460157871246337890625" lon="118.82235489785671234130859375">
        <ele>10</ele>
        <time>2026-08-16T01:30:02.000Z</time>
        <extensions>
          <ns3:TrackPointExtension>
            <ns3:atemp>32.0</ns3:atemp>
            <ns3:hr>77</ns3:hr>
          </ns3:TrackPointExtension>
        </extensions>
      </trkpt>
      <trkpt lat="31.9669366814196109771728515625" lon="118.822350203990936279296875">
        <ele>10</ele>
        <time>2026-08-16T01:30:03.000Z</time>
        <extensions>
          <ns3:TrackPointExtension>
            <ns3:atemp>32.0</ns3:atemp>
            <ns3:hr>76</ns3:hr>
          </ns3:TrackPointExtension>
        </extensions>
      </trkpt>
      <trkpt lat="31.96676753461360931396484375" lon="118.822380714118480682373046875">
        <ele>9.6000003814697265625</ele>
        <time>2026-08-16T01:30:07.000Z</time>
        <extensions>
          <ns3:TrackPointExtension>
            <ns3:atemp>32.0</ns3:atemp>
            <ns3:hr>76</ns3:hr>
          </ns3:TrackPointExtension>
        </extensions>
      </trkpt>
      <trkpt lat="31.966692768037319183349609375" lon="118.822408206760883331298828125">
        <ele>9.6000003814697265625</ele>
        <time>2026-08-16T01:30:09.000Z</time>
        <extensions>
          <ns3:TrackPointExtension>
            <ns3:atemp>32.0</ns3:atemp>
            <ns3:hr>78</ns3:hr>
          </ns3:TrackPointExtension>
        </extensions>
      </trkpt>
      <trkpt lat="31.9666166603565216064453125" lon="118.82250585593283176422119140625">
        <ele>9.19999980926513671875</ele>
        <time>2026-08-16T01:30:12.000Z</time>
        <extensions>
          <ns3:TrackPointExtension>
            <ns3:atemp>32.0</ns3:atemp>
            <ns3:hr>79</ns3:hr>
          </ns3:TrackPointExtension>
        </extensions>
      </trkpt>
      <trkpt lat="31.96658439002931118011474609375" lon="118.82264533080160617828369140625">
        <ele>8.80000019073486328125</ele>
        <time>2026-08-16T01:30:15.000Z</time>
        <extensions>
          <ns3:TrackPointExtension>
            <ns3:atemp>32.0</ns3:atemp>
            <ns3:hr>86</ns3:hr>
          </ns3:TrackPointExtension>
        </extensions>
      </trkpt>
      <trkpt lat="31.9665806181728839874267578125" lon="118.822695203125476837158203125">
        <ele>8.80000019073486328125</ele>
        <time>2026-08-16T01:30:16.000Z</time>
        <extensions>
          <ns3:TrackPointExtension>
            <ns3:atemp>32.0</ns3:atemp>
            <ns3:hr>91</ns3:hr>
          </ns3:TrackPointExtension>
        </extensions>
      </trkpt>
      <trkpt lat="31.96657399646937847137451171875" lon="118.82273954339325428009033203125">
        <ele>8.6000003814697265625</ele>
        <time>2026-08-16T01:30:17.000Z</time>
        <extensions>
          <ns3:TrackPointExtension>
            <ns3:atemp>32.0</ns3:atemp>
            <ns3:hr>94</ns3:hr>
          </ns3:TrackPointExtension>
        </extensions>
      </trkpt>
      <trkpt lat="31.96654600091278553009033203125" lon="118.8229508511722087860107421875">
        <ele>8.19999980926513671875</ele>
        <time>2026-08-16T01:30:22.000Z</time>
        <extensions>
          <ns3:TrackPointExtension>
            <ns3:atemp>32.0</ns3:atemp>
            <ns3:hr>97</ns3:hr>
          </ns3:TrackPointExtension>
        </extensions>
      </trkpt>
      <trkpt lat="31.96648498065769672393798828125" lon="118.82293551228940486907958984375">
        <ele>8.19999980926513671875</ele>
        <time>2026-08-16T01:30:25.000Z</time>
        <extensions>
          <ns3:TrackPointExtension>
            <ns3:atemp>32.0</ns3:atemp>
            <ns3:hr>96</ns3:hr>
          </ns3:TrackPointExtension>
        </extensions>
      </trkpt>
      <trkpt lat="31.96646788157522678375244140625" lon="118.822877593338489532470703125">
        <ele>8.19999980926513671875</ele>
        <time>2026-08-16T01:30:27.000Z</time>
        <extensions>
          <ns3:TrackPointExtension>
            <ns3:atemp>32.0</ns3:atemp>
            <ns3:hr>97</ns3:hr>
          </ns3:TrackPointExtension>
        </extensions>
      </trkpt>
      <trkpt lat="31.9664691388607025146484375" lon="118.8228113763034343719482421875">
        <ele>8.3999996185302734375</ele>
        <time>2026-08-16T01:30:29.000Z</time>
        <extensions>
          <ns3:TrackPointExtension>
            <ns3:atemp>32.0</ns3:atemp>
            <ns3:hr>98</ns3:hr>
          </ns3:TrackPointExtension>
        </extensions>
      </trkpt>
      <trkpt lat="31.966478526592254638671875" lon="118.8227453269064426422119140625">
        <ele>8.6000003814697265625</ele>
        <time>2026-08-16T01:30:31.000Z</time>
        <extensions>
          <ns3:TrackPointExtension>
            <ns3:atemp>32.0</ns3:atemp>
            <ns3:hr>94</ns3:hr>
          </ns3:TrackPointExtension>
        </extensions>
      </trkpt>
      <trkpt lat="31.96648715995252132415771484375" lon="118.8226063549518585205078125">
        <ele>9.3999996185302734375</ele>
        <time>2026-08-16T01:30:35.000Z</time>
        <extensions>
          <ns3:TrackPointExtension>
            <ns3:atemp>32.0</ns3:atemp>
            <ns3:hr>94</ns3:hr>
          </ns3:TrackPointExtension>
        </extensions>
      </trkpt>
      <trkpt lat="31.9664924405515193939208984375" lon="118.82253988645970821380615234375">
        <ele>9.80000019073486328125</ele>
        <time>2026-08-16T01:30:37.000Z</time>
        <extensions>
          <ns3:TrackPointExtension>
            <ns3:atemp>32.0</ns3:atemp>
            <ns3:hr>95</ns3:hr>
          </ns3:TrackPointExtension>
        </extensions>
      </trkpt>
      <trkpt lat="31.9665011577308177947998046875" lon="118.8224080391228199005126953125">
        <ele>10.6000003814697265625</ele>
        <time>2026-08-16T01:30:41.000Z</time>
        <extensions>
          <ns3:TrackPointExtension>
            <ns3:atemp>32.0</ns3:atemp>
            <ns3:hr>98</ns3:hr>
          </ns3:TrackPointExtension>
        </extensions>
      </trkpt>
      <trkpt lat="31.9665152393281459808349609375" lon="118.8222621940076351165771484375">
        <ele>10.80000019073486328125</ele>
        <time>2026-08-16T01:30:45.000Z</time>
        <extensions>
          <ns3:TrackPointExtension>
            <ns3:atemp>32.0</ns3:atemp>
            <ns3:hr>98</ns3:hr>
          </ns3:TrackPointExtension>
        </extensions>
      </trkpt>
      <trkpt lat="31.966528482735157012939453125" lon="118.822146356105804443359375">
        <ele>11</ele>
        <time>2026-08-16T01:30:48.000Z</time>
        <extensions>
          <ns3:TrackPointExtension>
            <ns3:atemp>32.0</ns3:atemp>
            <ns3:hr>96</ns3:hr>
          </ns3:TrackPointExtension>
        </extensions>
      </trkpt>
      <trkpt lat="31.966537199914455413818359375" lon="118.82198818959295749664306640625">
        <ele>11.19999980926513671875</ele>
        <time>2026-08-16T01:30:52.000Z</time>
        <extensions>
          <ns3:TrackPointExtension>
            <ns3:atemp>32.0</ns3:atemp>
            <ns3:hr>100</ns3:hr>
          </ns3:TrackPointExtension>
        </extensions>
      </trkpt>
      <trkpt lat="31.9665494374930858612060546875" lon="118.82190831005573272705078125">
        <ele>11.19999980926513671875</ele>
        <time>2026-08-16T01:30:54.000Z</time>
        <extensions>
          <ns3:TrackPointExtension>
            <ns3:atemp>32.0</ns3:atemp>
            <ns3:hr>103</ns3:hr>
          </ns3:TrackPointExtension>
        </extensions>
      </trkpt>
      <trkpt lat="31.96656209416687488555908203125" lon="118.821782581508159637451171875">
        <ele>11.19999980926513671875</ele>
        <time>2026-08-16T01:30:57.000Z</time>
        <extensions>
          <ns3:TrackPointExtension>
            <ns3:atemp>32.0</ns3:atemp>
            <ns3:hr>103</ns3:hr>
          </ns3:TrackPointExtension>
        </extensions>
      </trkpt>
      <trkpt lat="31.96660660207271575927734375" lon="118.82148561067879199981689453125">
        <ele>11.19999980926513671875</ele>
        <time>2026-08-16T01:31:04.000Z</time>
        <extensions>
          <ns3:TrackPointExtension>
            <ns3:atemp>32.0</ns3:atemp>
            <ns3:hr>104</ns3:hr>
          </ns3:TrackPointExtension>
        </extensions>
      </trkpt>
      <trkpt lat="31.96664842776954174041748046875" lon="118.8211477361619472503662109375">
        <ele>10.80000019073486328125</ele>
        <time>2026-08-16T01:31:11.000Z</time>
        <extensions>
          <ns3:TrackPointExtension>
            <ns3:atemp>32.0</ns3:atemp>
            <ns3:hr>106</ns3:hr>
          </ns3:TrackPointExtension>
        </extensions>
      </trkpt>
      <trkpt lat="31.96668631397187709808349609375" lon="118.82078580558300018310546875">
        <ele>9.80000019073486328125</ele>
        <time>2026-08-16T01:31:18.000Z</time>
        <extensions>
          <ns3:TrackPointExtension>
            <ns3:atemp>32.0</ns3:atemp>
            <ns3:hr>103</ns3:hr>
          </ns3:TrackPointExtension>
        </extensions>
      </trkpt>
      <trkpt lat="31.966696120798587799072265625" lon="118.8207410462200641632080078125">
        <ele>9.6000003814697265625</ele>
        <time>2026-08-16T01:31:19.000Z</time>
        <extensions>
          <ns3:TrackPointExtension>
            <ns3:atemp>32.0</ns3:atemp>
            <ns3:hr>101</ns3:hr>
          </ns3:TrackPointExtension>
        </extensions>
      </trkpt>
      <trkpt lat="31.96675789542496204376220703125" lon="118.8206957839429378509521484375">
        <ele>9.3999996185302734375</ele>
        <time>2026-08-16T01:31:21.000Z</time>
        <extensions>
          <ns3:TrackPointExtension>
            <ns3:atemp>32.0</ns3:atemp>
            <ns3:hr>99</ns3:hr>
          </ns3:TrackPointExtension>
        </extensions>
      </trkpt>
      <trkpt lat="31.96699812076985836029052734375" lon="118.8206689618527889251708984375">
        <ele>9.6000003814697265625</ele>
        <time>2026-08-16T01:31:27.000Z</time>
        <extensions>
          <ns3:TrackPointExtension>
            <ns3:atemp>32.0</ns3:atemp>
            <ns3:hr>98</ns3:hr>
          </ns3:TrackPointExtension>
        </extensions>
      </trkpt>
      <trkpt lat="31.96708001196384429931640625" lon="118.82065303623676300048828125">
        <ele>9.80000019073486328125</ele>
        <time>2026-08-16T01:31:29.000Z</time>
        <extensions>
          <ns3:TrackPointExtension>
            <ns3:atemp>32.0</ns3:atemp>
            <ns3:hr>98</ns3:hr>
          </ns3:TrackPointExtension>
        </extensions>
      </trkpt>
      <trkpt lat="31.96720917709171772003173828125" lon="118.8206532038748264312744140625">
        <ele>10</ele>
        <time>2026-08-16T01:31:32.000Z</time>
        <extensions>
          <ns3:TrackPointExtension>
            <ns3:atemp>32.0</ns3:atemp>
            <ns3:hr>97</ns3:hr>
          </ns3:TrackPointExtension>
        </extensions>
      </trkpt>
      <trkpt lat="31.96725360117852687835693359375" lon="118.82064272649586200714111328125">
        <ele>10</ele>
        <time>2026-08-16T01:31:33.000Z</time>
        <extensions>
          <ns3:TrackPointExtension>
            <ns3:atemp>32.0</ns3:atemp>
            <ns3:hr>97</ns3:hr>
          </ns3:TrackPointExtension>
        </extensions>
      </trkpt>
      <trkpt lat="31.96748142130672931671142578125" lon="118.8205985538661479949951171875">
        <ele>10.19999980926513671875</ele>
        <time>2026-08-16T01:31:38.000Z</time>
        <extensions>
          <ns3:TrackPointExtension>
            <ns3:atemp>32.0</ns3:atemp>
            <ns3:hr>98</ns3:hr>
          </ns3:TrackPointExtension>
        </extensions>
      </trkpt>
      <trkpt lat="31.9675234146416187286376953125" lon="118.820595704019069671630859375">
        <ele>10</ele>
        <time>2026-08-16T01:31:39.000Z</time>
        <extensions>
          <ns3:TrackPointExtension>
            <ns3:atemp>32.0</ns3:atemp>
            <ns3:hr>99</ns3:hr>
          </ns3:TrackPointExtension>
        </extensions>
      </trkpt>
      <trkpt lat="31.96780161000788211822509765625" lon="118.82060970179736614227294921875">
        <ele>10</ele>
        <time>2026-08-16T01:31:45.000Z</time>
        <extensions>
          <ns3:TrackPointExtension>
            <ns3:atemp>32.0</ns3:atemp>
            <ns3:hr>100</ns3:hr>
          </ns3:TrackPointExtension>
        </extensions>
      </trkpt>
      <trkpt lat="31.96798316203057765960693359375" lon="118.8206297345459461212158203125">
        <ele>10.19999980926513671875</ele>
        <time>2026-08-16T01:31:49.000Z</time>
        <extensions>
          <ns3:TrackPointExtension>
            <ns3:atemp>32.0</ns3:atemp>
            <ns3:hr>101</ns3:hr>
          </ns3:TrackPointExtension>
        </extensions>
      </trkpt>
      <trkpt lat="31.9681188650429248809814453125" lon="118.820642642676830291748046875">
        <ele>10.3999996185302734375</ele>
        <time>2026-08-16T01:31:52.000Z</time>
        <extensions>
          <ns3:TrackPointExtension>
            <ns3:atemp>32.0</ns3:atemp>
            <ns3:hr>101</ns3:hr>
          </ns3:TrackPointExtension>
        </extensions>
      </trkpt>
      <trkpt lat="31.96843192912638187408447265625" lon="118.82070022635161876678466796875">
        <ele>10.6000003814697265625</ele>
        <time>2026-08-16T01:31:59.000Z</time>
        <extensions>
          <ns3:TrackPointExtension>
            <ns3:atemp>32.0</ns3:atemp>
            <ns3:hr>103</ns3:hr>
          </ns3:TrackPointExtension>
        </extensions>
      </trkpt>
      <trkpt lat="31.9684781134128570556640625" lon="118.820709697902202606201171875">
        <ele>10.80000019073486328125</ele>
        <time>2026-08-16T01:32:00.000Z</time>
        <extensions>
          <ns3:TrackPointExtension>
            <ns3:atemp>32.0</ns3:atemp>
            <ns3:hr>102</ns3:hr>
          </ns3:TrackPointExtension>
        </extensions>
      </trkpt>
      <trkpt lat="31.96852278895676136016845703125" lon="118.820713721215724945068359375">
        <ele>10.80000019073486328125</ele>
        <time>2026-08-16T01:32:01.000Z</time>
        <extensions>
          <ns3:TrackPointExtension>
            <ns3:atemp>32.0</ns3:atemp>
            <ns3:hr>103</ns3:hr>
          </ns3:TrackPointExtension>
        </extensions>
      </trkpt>
      <trkpt lat="31.968703754246234893798828125" lon="118.82073811255395412445068359375">
        <ele>10.6000003814697265625</ele>
        <time>2026-08-16T01:32:05.000Z</time>
        <extensions>
          <ns3:TrackPointExtension>
            <ns3:atemp>32.0</ns3:atemp>
            <ns3:hr>103</ns3:hr>
          </ns3:TrackPointExtension>
        </extensions>
      </trkpt>
      <trkpt lat="31.96875044144690036773681640625" lon="118.82074900902807712554931640625">
        <ele>10.6000003814697265625</ele>
        <time>2026-08-16T01:32:06.000Z</time>
        <extensions>
          <ns3:TrackPointExtension>
            <ns3:atemp>32.0</ns3:atemp>
            <ns3:hr>103</ns3:hr>
          </ns3:TrackPointExtension>
        </extensions>
      </trkpt>
      <trkpt lat="31.96884599514305591583251953125" lon="118.82075361907482147216796875">
        <ele>10.3999996185302734375</ele>
        <time>2026-08-16T01:32:08.000Z</time>
        <extensions>
          <ns3:TrackPointExtension>
            <ns3:atemp>32.0</ns3:atemp>
            <ns3:hr>103</ns3:hr>
          </ns3:TrackPointExtension>
        </extensions>
      </trkpt>
      <trkpt lat="31.968990750610828399658203125" lon="118.8207306526601314544677734375">
        <ele>10.6000003814697265625</ele>
        <time>2026-08-16T01:32:11.000Z</time>
        <extensions>
          <ns3:TrackPointExtension>
            <ns3:atemp>32.0</ns3:atemp>
            <ns3:hr>103</ns3:hr>
          </ns3:TrackPointExtension>
        </extensions>
      </trkpt>
      <trkpt lat="31.969248913228511810302734375" lon="118.82067005150020122528076171875">
        <ele>10.80000019073486328125</ele>
        <time>2026-08-16T01:32:16.000Z</time>
        <extensions>
          <ns3:TrackPointExtension>
            <ns3:atemp>32.0</ns3:atemp>
            <ns3:hr>103</ns3:hr>
          </ns3:TrackPointExtension>
        </extensions>
      </trkpt>
      <trkpt lat="31.96930482052266597747802734375" lon="118.8206684589385986328125">
        <ele>10.80000019073486328125</ele>
        <time>2026-08-16T01:32:17.000Z</time>
        <extensions>
          <ns3:TrackPointExtension>
            <ns3:atemp>32.0</ns3:atemp>
            <ns3:hr>104</ns3:hr>
          </ns3:TrackPointExtension>
        </extensions>
      </trkpt>
      <trkpt lat="31.96950950659811496734619140625" lon="118.82069251500070095062255859375">
        <ele>11</ele>
        <time>2026-08-16T01:32:21.000Z</time>
        <extensions>
          <ns3:TrackPointExtension>
            <ns3:atemp>32.0</ns3:atemp>
            <ns3:hr>107</ns3:hr>
          </ns3:TrackPointExtension>
        </extensions>
      </trkpt>
      <trkpt lat="31.96960304863750934600830078125" lon="118.82072788663208484649658203125">
        <ele>11</ele>
        <time>2026-08-16T01:32:23.000Z</time>
        <extensions>
          <ns3:TrackPointExtension>
            <ns3:atemp>32.0</ns3:atemp>
            <ns3:hr>107</ns3:hr>
          </ns3:TrackPointExtension>
        </extensions>
      </trkpt>
      <trkpt lat="31.9696849398314952850341796875" lon="118.82078421302139759063720703125">
        <ele>10.6000003814697265625</ele>
        <time>2026-08-16T01:32:25.000Z</time>
        <extensions>
          <ns3:TrackPointExtension>
            <ns3:atemp>32.0</ns3:atemp>
            <ns3:hr>107</ns3:hr>
          </ns3:TrackPointExtension>
        </extensions>
      </trkpt>
      <trkpt lat="31.96977672167122364044189453125" lon="118.82089334540069103240966796875">
        <ele>10.6000003814697265625</ele>
        <time>2026-08-16T01:32:28.000Z</time>
        <extensions>
          <ns3:TrackPointExtension>
            <ns3:atemp>32.0</ns3:atemp>
            <ns3:hr>107</ns3:hr>
          </ns3:TrackPointExtension>
        </extensions>
      </trkpt>
      <trkpt lat="31.96988183073699474334716796875" lon="118.82107590325176715850830078125">
        <ele>10.6000003814697265625</ele>
        <time>2026-08-16T01:32:32.000Z</time>
        <extensions>
          <ns3:TrackPointExtension>
            <ns3:atemp>32.0</ns3:atemp>
            <ns3:hr>104</ns3:hr>
          </ns3:TrackPointExtension>
        </extensions>
      </trkpt>
      <trkpt lat="31.9699357263743877410888671875" lon="118.821164667606353759765625">
        <ele>10.3999996185302734375</ele>
        <time>2026-08-16T01:32:34.000Z</time>
        <extensions>
          <ns3:TrackPointExtension>
            <ns3:atemp>32.0</ns3:atemp>
            <ns3:hr>103</ns3:hr>
          </ns3:TrackPointExtension>
        </extensions>
      </trkpt>
      <trkpt lat="31.9700094871222972869873046875" lon="118.82130405865609645843505859375">
        <ele>9.80000019073486328125</ele>
        <time>2026-08-16T01:32:37.000Z</time>
        <extensions>
          <ns3:TrackPointExtension>
            <ns3:atemp>32.0</ns3:atemp>
            <ns3:hr>103</ns3:hr>
          </ns3:TrackPointExtension>
        </extensions>
      </trkpt>
      <trkpt lat="31.97009640745818614959716796875" lon="118.82147504948079586029052734375">
        <ele>10</ele>
        <time>2026-08-16T01:32:41.000Z</time>
        <extensions>
          <ns3:TrackPointExtension>
            <ns3:atemp>32.0</ns3:atemp>
            <ns3:hr>103</ns3:hr>
          </ns3:TrackPointExtension>
        </extensions>
      </trkpt>
      <trkpt lat="31.97026538662612438201904296875" lon="118.82176271639764308929443359375">
        <ele>10.3999996185302734375</ele>
        <time>2026-08-16T01:32:48.000Z</time>
        <extensions>
          <ns3:TrackPointExtension>
            <ns3:atemp>32.0</ns3:atemp>
            <ns3:hr>100</ns3:hr>
          </ns3:TrackPointExtension>
        </extensions>
      </trkpt>
      <trkpt lat="31.97035607881844043731689453125" lon="118.82192985154688358306884765625">
        <ele>10.3999996185302734375</ele>
        <time>2026-08-16T01:32:52.000Z</time>
        <extensions>
          <ns3:TrackPointExtension>
            <ns3:atemp>31.0</ns3:atemp>
            <ns3:hr>99</ns3:hr>
          </ns3:TrackPointExtension>
        </extensions>
      </trkpt>
      <trkpt lat="31.9704081304371356964111328125" lon="118.82201367057859897613525390625">
        <ele>10.3999996185302734375</ele>
        <time>2026-08-16T01:32:54.000Z</time>
        <extensions>
          <ns3:TrackPointExtension>
            <ns3:atemp>31.0</ns3:atemp>
            <ns3:hr>99</ns3:hr>
          </ns3:TrackPointExtension>
        </extensions>
      </trkpt>
      <trkpt lat="31.97042749263346195220947265625" lon="118.82205608300864696502685546875">
        <ele>10.19999980926513671875</ele>
        <time>2026-08-16T01:32:55.000Z</time>
        <extensions>
          <ns3:TrackPointExtension>
            <ns3:atemp>32.0</ns3:atemp>
            <ns3:hr>99</ns3:hr>
          </ns3:TrackPointExtension>
        </extensions>
      </trkpt>
      <trkpt lat="31.97043470107018947601318359375" lon="118.8221884332597255706787109375">
        <ele>10</ele>
        <time>2026-08-16T01:32:58.000Z</time>
        <extensions>
          <ns3:TrackPointExtension>
            <ns3:atemp>31.0</ns3:atemp>
            <ns3:hr>100</ns3:hr>
          </ns3:TrackPointExtension>
        </extensions>
      </trkpt>
      <trkpt lat="31.970480047166347503662109375" lon="118.82230930030345916748046875">
        <ele>9.19999980926513671875</ele>
        <time>2026-08-16T01:33:02.000Z</time>
        <extensions>
          <ns3:TrackPointExtension>
            <ns3:atemp>31.0</ns3:atemp>
            <ns3:hr>98</ns3:hr>
          </ns3:TrackPointExtension>
        </extensions>
      </trkpt>
      <trkpt lat="31.970566213130950927734375" lon="118.82236428558826446533203125">
        <ele>8.6000003814697265625</ele>
        <time>2026-08-16T01:33:05.000Z</time>
        <extensions>
          <ns3:TrackPointExtension>
            <ns3:atemp>31.0</ns3:atemp>
            <ns3:hr>97</ns3:hr>
          </ns3:TrackPointExtension>
        </extensions>
      </trkpt>
      <trkpt lat="31.97059295140206813812255859375" lon="118.82237543351948261260986328125">
        <ele>8.19999980926513671875</ele>
        <time>2026-08-16T01:33:06.000Z</time>
        <extensions>
          <ns3:TrackPointExtension>
            <ns3:atemp>31.0</ns3:atemp>
            <ns3:hr>96</ns3:hr>
          </ns3:TrackPointExtension>
        </extensions>
      </trkpt>
      <trkpt lat="31.970644332468509674072265625" lon="118.8223926164209842681884765625">
        <ele>7.599999904632568359375</ele>
        <time>2026-08-16T01:33:08.000Z</time>
        <extensions>
          <ns3:TrackPointExtension>
            <ns3:atemp>31.0</ns3:atemp>
            <ns3:hr>93</ns3:hr>
          </ns3:TrackPointExtension>
        </extensions>
      </trkpt>
      <trkpt lat="31.9706659577786922454833984375" lon="118.82239772938191890716552734375">
        <ele>7.400000095367431640625</ele>
        <time>2026-08-16T01:33:09.000Z</time>
        <extensions>
          <ns3:TrackPointExtension>
            <ns3:atemp>31.0</ns3:atemp>
            <ns3:hr>92</ns3:hr>
          </ns3:TrackPointExtension>
        </extensions>
      </trkpt>
      <trkpt lat="31.9707102142274379730224609375" lon="118.82239052094519138336181640625">
        <ele>7</ele>
        <time>2026-08-16T01:33:11.000Z</time>
        <extensions>
          <ns3:TrackPointExtension>
            <ns3:atemp>31.0</ns3:atemp>
            <ns3:hr>91</ns3:hr>
          </ns3:TrackPointExtension>
        </extensions>
      </trkpt>
      <trkpt lat="31.97071968577802181243896484375" lon="118.822364620864391326904296875">
        <ele>6.599999904632568359375</ele>
        <time>2026-08-16T01:33:12.000Z</time>
        <extensions>
          <ns3:TrackPointExtension>
            <ns3:atemp>31.0</ns3:atemp>
            <ns3:hr>91</ns3:hr>
          </ns3:TrackPointExtension>
        </extensions>
      </trkpt>
      <trkpt lat="31.97071700356900691986083984375" lon="118.82234006188809871673583984375">
        <ele>6.400000095367431640625</ele>
        <time>2026-08-16T01:33:13.000Z</time>
        <extensions>
          <ns3:TrackPointExtension>
            <ns3:atemp>31.0</ns3:atemp>
            <ns3:hr>91</ns3:hr>
          </ns3:TrackPointExtension>
        </extensions>
      </trkpt>
      <trkpt lat="31.97071549482643604278564453125" lon="118.82231156341731548309326171875">
        <ele>6.19999980926513671875</ele>
        <time>2026-08-16T01:33:14.000Z</time>
        <extensions>
          <ns3:TrackPointExtension>
            <ns3:atemp>31.0</ns3:atemp>
            <ns3:hr>91</ns3:hr>
          </ns3:TrackPointExtension>
        </extensions>
      </trkpt>
      <trkpt lat="31.970718763768672943115234375" lon="118.8221864216029644012451171875">
        <ele>6</ele>
        <time>2026-08-16T01:33:19.000Z</time>
        <extensions>
          <ns3:TrackPointExtension>
            <ns3:atemp>31.0</ns3:atemp>
            <ns3:hr>90</ns3:hr>
          </ns3:TrackPointExtension>
        </extensions>
      </trkpt>
      <trkpt lat="31.97073292918503284454345703125" lon="118.82218650542199611663818359375">
        <ele>6.19999980926513671875</ele>
        <time>2026-08-16T01:33:20.000Z</time>
        <extensions>
          <ns3:TrackPointExtension>
            <ns3:atemp>31.0</ns3:atemp>
            <ns3:hr>90</ns3:hr>
          </ns3:TrackPointExtension>
        </extensions>
      </trkpt>
      <trkpt lat="31.97074399329721927642822265625" lon="118.8221911154687404632568359375">
        <ele>6.19999980926513671875</ele>
        <time>2026-08-16T01:33:22.000Z</time>
        <extensions>
          <ns3:TrackPointExtension>
            <ns3:atemp>32.0</ns3:atemp>
            <ns3:hr>90</ns3:hr>
          </ns3:TrackPointExtension>
        </extensions>
      </trkpt>
      <trkpt lat="31.9707544706761837005615234375" lon="118.822185583412647247314453125">
        <ele>6</ele>
        <time>2026-08-16T01:33:25.000Z</time>
        <extensions>
          <ns3:TrackPointExtension>
            <ns3:atemp>32.0</ns3:atemp>
            <ns3:hr>87</ns3:hr>
          </ns3:TrackPointExtension>
        </extensions>
      </trkpt>
      <trkpt lat="31.97075606323778629302978515625" lon="118.8221850804984569549560546875">
        <ele>5.80000019073486328125</ele>
        <time>2026-08-16T01:33:27.000Z</time>
        <extensions>
          <ns3:TrackPointExtension>
            <ns3:atemp>31.0</ns3:atemp>
            <ns3:hr>87</ns3:hr>
          </ns3:TrackPointExtension>
        </extensions>
      </trkpt>
      <trkpt lat="31.9708295725286006927490234375" lon="118.8221582584083080291748046875">
        <ele>5.80000019073486328125</ele>
        <time>2026-08-16T01:33:33.000Z</time>
        <extensions>
          <ns3:TrackPointExtension>
            <ns3:atemp>32.0</ns3:atemp>
            <ns3:hr>88</ns3:hr>
          </ns3:TrackPointExtension>
        </extensions>
      </trkpt>
      <trkpt lat="31.9709338434040546417236328125" lon="118.82215264253318309783935546875">
        <ele>5.80000019073486328125</ele>
        <time>2026-08-16T01:33:38.000Z</time>
        <extensions>
          <ns3:TrackPointExtension>
            <ns3:atemp>31.0</ns3:atemp>
            <ns3:hr>88</ns3:hr>
          </ns3:TrackPointExtension>
        </extensions>
      </trkpt>
      <trkpt lat="31.97094482369720935821533203125" lon="118.8221490383148193359375">
        <ele>5.400000095367431640625</ele>
        <time>2026-08-16T01:33:40.000Z</time>
        <extensions>
          <ns3:TrackPointExtension>
            <ns3:atemp>32.0</ns3:atemp>
            <ns3:hr>88</ns3:hr>
          </ns3:TrackPointExtension>
        </extensions>
      </trkpt>
      <trkpt lat="31.97095035575330257415771484375" lon="118.8221592642366886138916015625">
        <ele>5.400000095367431640625</ele>
        <time>2026-08-16T01:33:41.000Z</time>
        <extensions>
          <ns3:TrackPointExtension>
            <ns3:atemp>32.0</ns3:atemp>
            <ns3:hr>88</ns3:hr>
          </ns3:TrackPointExtension>
        </extensions>
      </trkpt>
      <trkpt lat="31.97098539210855960845947265625" lon="118.82218868471682071685791015625">
        <ele>5.400000095367431640625</ele>
        <time>2026-08-16T01:33:44.000Z</time>
        <extensions>
          <ns3:TrackPointExtension>
            <ns3:atemp>32.0</ns3:atemp>
            <ns3:hr>88</ns3:hr>
          </ns3:TrackPointExtension>
        </extensions>
      </trkpt>
      <trkpt lat="31.97098220698535442352294921875" lon="118.8221844099462032318115234375">
        <ele>5.400000095367431640625</ele>
        <time>2026-08-16T01:33:46.000Z</time>
        <extensions>
          <ns3:TrackPointExtension>
            <ns3:atemp>32.0</ns3:atemp>
            <ns3:hr>88</ns3:hr>
          </ns3:TrackPointExtension>
        </extensions>
      </trkpt>
      <trkpt lat="31.970963515341281890869140625" lon="118.82221148349344730377197265625">
        <ele>5.599999904632568359375</ele>
        <time>2026-08-16T01:33:51.000Z</time>
        <extensions>
          <ns3:TrackPointExtension>
            <ns3:atemp>32.0</ns3:atemp>
            <ns3:hr>88</ns3:hr>
          </ns3:TrackPointExtension>
        </extensions>
      </trkpt>
      <trkpt lat="31.97096309624612331390380859375" lon="118.82222388871014118194580078125">
        <ele>5.599999904632568359375</ele>
        <time>2026-08-16T01:33:52.000Z</time>
        <extensions>
          <ns3:TrackPointExtension>
            <ns3:atemp>32.0</ns3:atemp>
            <ns3:hr>88</ns3:hr>
          </ns3:TrackPointExtension>
        </extensions>
      </trkpt>
      <trkpt lat="31.97094650007784366607666015625" lon="118.82221969775855541229248046875">
        <ele>5.599999904632568359375</ele>
        <time>2026-08-16T01:33:55.000Z</time>
        <extensions>
          <ns3:TrackPointExtension>
            <ns3:atemp>32.0</ns3:atemp>
            <ns3:hr>88</ns3:hr>
          </ns3:TrackPointExtension>
        </extensions>
      </trkpt>
      <trkpt lat="31.970952451229095458984375" lon="118.82221567444503307342529296875">
        <ele>5.599999904632568359375</ele>
        <time>2026-08-16T01:33:58.000Z</time>
        <extensions>
          <ns3:TrackPointExtension>
            <ns3:atemp>32.0</ns3:atemp>
            <ns3:hr>91</ns3:hr>
          </ns3:TrackPointExtension>
        </extensions>
      </trkpt>
      <trkpt lat="31.97096963413059711456298828125" lon="118.82219606079161167144775390625">
        <ele>5.599999904632568359375</ele>
        <time>2026-08-16T01:34:00.000Z</time>
        <extensions>
          <ns3:TrackPointExtension>
            <ns3:atemp>32.0</ns3:atemp>
            <ns3:hr>93</ns3:hr>
          </ns3:TrackPointExtension>
        </extensions>
      </trkpt>
      <trkpt lat="31.9710247032344341278076171875" lon="118.8221854157745838165283203125">
        <ele>5.80000019073486328125</ele>
        <time>2026-08-16T01:34:04.000Z</time>
        <extensions>
          <ns3:TrackPointExtension>
            <ns3:atemp>32.0</ns3:atemp>
            <ns3:hr>96</ns3:hr>
          </ns3:TrackPointExtension>
        </extensions>
      </trkpt>
      <trkpt lat="31.97104574181139469146728515625" lon="118.822176195681095123291015625">
        <ele>5.80000019073486328125</ele>
        <time>2026-08-16T01:34:06.000Z</time>
        <extensions>
          <ns3:TrackPointExtension>
            <ns3:atemp>32.0</ns3:atemp>
            <ns3:hr>99</ns3:hr>
          </ns3:TrackPointExtension>
        </extensions>
      </trkpt>
      <trkpt lat="31.97107960470020771026611328125" lon="118.82215909659862518310546875">
        <ele>6</ele>
        <time>2026-08-16T01:34:09.000Z</time>
        <extensions>
          <ns3:TrackPointExtension>
            <ns3:atemp>32.0</ns3:atemp>
            <ns3:hr>102</ns3:hr>
          </ns3:TrackPointExtension>
        </extensions>
      </trkpt>
      <trkpt lat="31.971138529479503631591796875" lon="118.82214476354420185089111328125">
        <ele>6</ele>
        <time>2026-08-16T01:34:13.000Z</time>
        <extensions>
          <ns3:TrackPointExtension>
            <ns3:atemp>32.0</ns3:atemp>
            <ns3:hr>103</ns3:hr>
          </ns3:TrackPointExtension>
        </extensions>
      </trkpt>
      <trkpt lat="31.97118647396564483642578125" lon="118.8221220485866069793701171875">
        <ele>6.400000095367431640625</ele>
        <time>2026-08-16T01:34:17.000Z</time>
        <extensions>
          <ns3:TrackPointExtension>
            <ns3:atemp>32.0</ns3:atemp>
            <ns3:hr>104</ns3:hr>
          </ns3:TrackPointExtension>
        </extensions>
      </trkpt>
      <trkpt lat="31.971218995749950408935546875" lon="118.82210469804704189300537109375">
        <ele>6</ele>
        <time>2026-08-16T01:34:20.000Z</time>
        <extensions>
          <ns3:TrackPointExtension>
            <ns3:atemp>32.0</ns3:atemp>
            <ns3:hr>104</ns3:hr>
          </ns3:TrackPointExtension>
        </extensions>
      </trkpt>
      <trkpt lat="31.97128437459468841552734375" lon="118.8220590166747570037841796875">
        <ele>5.80000019073486328125</ele>
        <time>2026-08-16T01:34:27.000Z</time>
        <extensions>
          <ns3:TrackPointExtension>
            <ns3:atemp>32.0</ns3:atemp>
            <ns3:hr>102</ns3:hr>
          </ns3:TrackPointExtension>
        </extensions>
      </trkpt>
      <trkpt lat="31.9713090173900127410888671875" lon="118.82201182655990123748779296875">
        <ele>6</ele>
        <time>2026-08-16T01:34:34.000Z</time>
        <extensions>
          <ns3:TrackPointExtension>
            <ns3:atemp>32.0</ns3:atemp>
            <ns3:hr>103</ns3:hr>
          </ns3:TrackPointExtension>
        </extensions>
      </trkpt>
      <trkpt lat="31.97124238125979900360107421875" lon="118.82211752235889434814453125">
        <ele>6.599999904632568359375</ele>
        <time>2026-08-16T01:43:57.000Z</time>
        <extensions>
          <ns3:TrackPointExtension>
            <ns3:atemp>30.0</ns3:atemp>
            <ns3:hr>78</ns3:hr>
          </ns3:TrackPointExtension>
        </extensions>
      </trkpt>
      <trkpt lat="31.97124020196497440338134765625" lon="118.8221321068704128265380859375">
        <ele>6.599999904632568359375</ele>
        <time>2026-08-16T01:43:58.000Z</time>
        <extensions>
          <ns3:TrackPointExtension>
            <ns3:atemp>30.0</ns3:atemp>
            <ns3:hr>78</ns3:hr>
          </ns3:TrackPointExtension>
        </extensions>
      </trkpt>
      <trkpt lat="31.97116794995963573455810546875" lon="118.822173513472080230712890625">
        <ele>6.400000095367431640625</ele>
        <time>2026-08-16T01:44:05.000Z</time>
        <extensions>
          <ns3:TrackPointExtension>
            <ns3:atemp>30.0</ns3:atemp>
            <ns3:hr>80</ns3:hr>
          </ns3:TrackPointExtension>
        </extensions>
      </trkpt>
      <trkpt lat="31.97112335823476314544677734375" lon="118.8221807219088077545166015625">
        <ele>6.19999980926513671875</ele>
        <time>2026-08-16T01:44:08.000Z</time>
        <extensions>
          <ns3:TrackPointExtension>
            <ns3:atemp>30.0</ns3:atemp>
            <ns3:hr>83</ns3:hr>
          </ns3:TrackPointExtension>
        </extensions>
      </trkpt>
      <trkpt lat="31.97106979787349700927734375" lon="118.82219086401164531707763671875">
        <ele>6</ele>
        <time>2026-08-16T01:44:12.000Z</time>
        <extensions>
          <ns3:TrackPointExtension>
            <ns3:atemp>30.0</ns3:atemp>
            <ns3:hr>87</ns3:hr>
          </ns3:TrackPointExtension>
        </extensions>
      </trkpt>
      <trkpt lat="31.971044652163982391357421875" lon="118.82219723425805568695068359375">
        <ele>5.80000019073486328125</ele>
        <time>2026-08-16T01:44:14.000Z</time>
        <extensions>
          <ns3:TrackPointExtension>
            <ns3:atemp>30.0</ns3:atemp>
            <ns3:hr>88</ns3:hr>
          </ns3:TrackPointExtension>
        </extensions>
      </trkpt>
      <trkpt lat="31.97101389057934284210205078125" lon="118.82220813073217868804931640625">
        <ele>5.599999904632568359375</ele>
        <time>2026-08-16T01:44:17.000Z</time>
        <extensions>
          <ns3:TrackPointExtension>
            <ns3:atemp>31.0</ns3:atemp>
            <ns3:hr>88</ns3:hr>
          </ns3:TrackPointExtension>
        </extensions>
      </trkpt>
      <trkpt lat="31.9710136391222476959228515625" lon="118.8222082145512104034423828125">
        <ele>5.400000095367431640625</ele>
        <time>2026-08-16T01:44:18.000Z</time>
        <extensions>
          <ns3:TrackPointExtension>
            <ns3:atemp>31.0</ns3:atemp>
            <ns3:hr>87</ns3:hr>
          </ns3:TrackPointExtension>
        </extensions>
      </trkpt>
      <trkpt lat="31.97097667492926120758056640625" lon="118.822219781577587127685546875">
        <ele>5.19999980926513671875</ele>
        <time>2026-08-16T01:44:20.000Z</time>
        <extensions>
          <ns3:TrackPointExtension>
            <ns3:atemp>31.0</ns3:atemp>
            <ns3:hr>87</ns3:hr>
          </ns3:TrackPointExtension>
        </extensions>
      </trkpt>
      <trkpt lat="31.97094968520104885101318359375" lon="118.8222343660891056060791015625">
        <ele>4.80000019073486328125</ele>
        <time>2026-08-16T01:44:25.000Z</time>
        <extensions>
          <ns3:TrackPointExtension>
            <ns3:atemp>31.0</ns3:atemp>
            <ns3:hr>87</ns3:hr>
          </ns3:TrackPointExtension>
        </extensions>
      </trkpt>
      <trkpt lat="31.9709569774568080902099609375" lon="118.8222377188503742218017578125">
        <ele>4.80000019073486328125</ele>
        <time>2026-08-16T01:44:26.000Z</time>
        <extensions>
          <ns3:TrackPointExtension>
            <ns3:atemp>31.0</ns3:atemp>
            <ns3:hr>87</ns3:hr>
          </ns3:TrackPointExtension>
        </extensions>
      </trkpt>
      <trkpt lat="31.971005760133266448974609375" lon="118.82219396531581878662109375">
        <ele>4.80000019073486328125</ele>
        <time>2026-08-16T01:44:45.000Z</time>
        <extensions>
          <ns3:TrackPointExtension>
            <ns3:atemp>31.0</ns3:atemp>
            <ns3:hr>79</ns3:hr>
          </ns3:TrackPointExtension>
        </extensions>
      </trkpt>
      <trkpt lat="31.97102260775864124298095703125" lon="118.8221810571849346160888671875">
        <ele>5</ele>
        <time>2026-08-16T01:44:46.000Z</time>
        <extensions>
          <ns3:TrackPointExtension>
            <ns3:atemp>31.0</ns3:atemp>
            <ns3:hr>79</ns3:hr>
          </ns3:TrackPointExtension>
        </extensions>
      </trkpt>
      <trkpt lat="31.9710538722574710845947265625" lon="118.8221720047295093536376953125">
        <ele>5</ele>
        <time>2026-08-16T01:44:48.000Z</time>
        <extensions>
          <ns3:TrackPointExtension>
            <ns3:atemp>31.0</ns3:atemp>
            <ns3:hr>79</ns3:hr>
          </ns3:TrackPointExtension>
        </extensions>
      </trkpt>
      <trkpt lat="31.97108664549887180328369140625" lon="118.82216152735054492950439453125">
        <ele>5.19999980926513671875</ele>
        <time>2026-08-16T01:44:51.000Z</time>
        <extensions>
          <ns3:TrackPointExtension>
            <ns3:atemp>31.0</ns3:atemp>
            <ns3:hr>79</ns3:hr>
          </ns3:TrackPointExtension>
        </extensions>
      </trkpt>
      <trkpt lat="31.97109871543943881988525390625" lon="118.8221585936844348907470703125">
        <ele>5.19999980926513671875</ele>
        <time>2026-08-16T01:44:52.000Z</time>
        <extensions>
          <ns3:TrackPointExtension>
            <ns3:atemp>31.0</ns3:atemp>
            <ns3:hr>80</ns3:hr>
          </ns3:TrackPointExtension>
        </extensions>
      </trkpt>
      <trkpt lat="31.97118001990020275115966796875" lon="118.82213168777525424957275390625">
        <ele>5.599999904632568359375</ele>
        <time>2026-08-16T01:44:57.000Z</time>
        <extensions>
          <ns3:TrackPointExtension>
            <ns3:atemp>31.0</ns3:atemp>
            <ns3:hr>83</ns3:hr>
          </ns3:TrackPointExtension>
        </extensions>
      </trkpt>
      <trkpt lat="31.97122536599636077880859375" lon="118.822119198739528656005859375">
        <ele>5.599999904632568359375</ele>
        <time>2026-08-16T01:45:00.000Z</time>
        <extensions>
          <ns3:TrackPointExtension>
            <ns3:atemp>31.0</ns3:atemp>
            <ns3:hr>86</ns3:hr>
          </ns3:TrackPointExtension>
        </extensions>
      </trkpt>
      <trkpt lat="31.97122796438634395599365234375" lon="118.82210486568510532379150390625">
        <ele>5.599999904632568359375</ele>
        <time>2026-08-16T01:45:01.000Z</time>
        <extensions>
          <ns3:TrackPointExtension>
            <ns3:atemp>31.0</ns3:atemp>
            <ns3:hr>88</ns3:hr>
          </ns3:TrackPointExtension>
        </extensions>
      </trkpt>
      <trkpt lat="31.9712399505078792572021484375" lon="118.82209748961031436920166015625">
        <ele>5.599999904632568359375</ele>
        <time>2026-08-16T01:45:02.000Z</time>
        <extensions>
          <ns3:TrackPointExtension>
            <ns3:atemp>31.0</ns3:atemp>
            <ns3:hr>88</ns3:hr>
          </ns3:TrackPointExtension>
        </extensions>
      </trkpt>
      <trkpt lat="31.9712949357926845550537109375" lon="118.82206446491181850433349609375">
        <ele>5.599999904632568359375</ele>
        <time>2026-08-16T01:45:07.000Z</time>
        <extensions>
          <ns3:TrackPointExtension>
            <ns3:atemp>31.0</ns3:atemp>
            <ns3:hr>90</ns3:hr>
          </ns3:TrackPointExtension>
        </extensions>
      </trkpt>
      <trkpt lat="31.971300132572650909423828125" lon="118.822060860693454742431640625">
        <ele>5.599999904632568359375</ele>
        <time>2026-08-16T01:45:08.000Z</time>
        <extensions>
          <ns3:TrackPointExtension>
            <ns3:atemp>31.0</ns3:atemp>
            <ns3:hr>90</ns3:hr>
          </ns3:TrackPointExtension>
        </extensions>
      </trkpt>
      <trkpt lat="31.97131211869418621063232421875" lon="118.8220536522567272186279296875">
        <ele>5.400000095367431640625</ele>
        <time>2026-08-16T01:45:11.000Z</time>
        <extensions>
          <ns3:TrackPointExtension>
            <ns3:atemp>31.0</ns3:atemp>
            <ns3:hr>90</ns3:hr>
          </ns3:TrackPointExtension>
        </extensions>
      </trkpt>
      <trkpt lat="31.97131211869418621063232421875" lon="118.82206513546407222747802734375">
        <ele>5.400000095367431640625</ele>
        <time>2026-08-16T01:45:12.000Z</time>
        <extensions>
          <ns3:TrackPointExtension>
            <ns3:atemp>31.0</ns3:atemp>
            <ns3:hr>90</ns3:hr>
          </ns3:TrackPointExtension>
        </extensions>
      </trkpt>
      <trkpt lat="31.97128647007048130035400390625" lon="118.8220536522567272186279296875">
        <ele>5.19999980926513671875</ele>
        <time>2026-08-16T01:45:17.000Z</time>
        <extensions>
          <ns3:TrackPointExtension>
            <ns3:atemp>31.0</ns3:atemp>
            <ns3:hr>91</ns3:hr>
          </ns3:TrackPointExtension>
        </extensions>
      </trkpt>
      <trkpt lat="31.971396692097187042236328125" lon="118.82200344465672969818115234375">
        <ele>5.19999980926513671875</ele>
        <time>2026-08-16T01:49:43.000Z</time>
        <extensions>
          <ns3:TrackPointExtension>
            <ns3:atemp>31.0</ns3:atemp>
            <ns3:hr>80</ns3:hr>
          </ns3:TrackPointExtension>
        </extensions>
      </trkpt>
      <trkpt lat="31.9713978655636310577392578125" lon="118.82200931198894977569580078125">
        <ele>5.400000095367431640625</ele>
        <time>2026-08-16T01:49:44.000Z</time>
        <extensions>
          <ns3:TrackPointExtension>
            <ns3:atemp>31.0</ns3:atemp>
            <ns3:hr>80</ns3:hr>
          </ns3:TrackPointExtension>
        </extensions>
      </trkpt>
      <trkpt lat="31.9714397750794887542724609375" lon="118.821966983377933502197265625">
        <ele>5.400000095367431640625</ele>
        <time>2026-08-16T01:49:47.000Z</time>
        <extensions>
          <ns3:TrackPointExtension>
            <ns3:atemp>31.0</ns3:atemp>
            <ns3:hr>80</ns3:hr>
          </ns3:TrackPointExtension>
        </extensions>
      </trkpt>
      <trkpt lat="31.9714508391916751861572265625" lon="118.821939490735530853271484375">
        <ele>5.400000095367431640625</ele>
        <time>2026-08-16T01:49:52.000Z</time>
        <extensions>
          <ns3:TrackPointExtension>
            <ns3:atemp>31.0</ns3:atemp>
            <ns3:hr>79</ns3:hr>
          </ns3:TrackPointExtension>
        </extensions>
      </trkpt>
      <trkpt lat="31.97127255611121654510498046875" lon="118.82211173884570598602294921875">
        <ele>5</ele>
        <time>2026-08-16T01:50:30.000Z</time>
        <extensions>
          <ns3:TrackPointExtension>
            <ns3:atemp>31.0</ns3:atemp>
            <ns3:hr>75</ns3:hr>
          </ns3:TrackPointExtension>
        </extensions>
      </trkpt>
      <trkpt lat="31.9712610729038715362548828125" lon="118.82211995311081409454345703125">
        <ele>5.19999980926513671875</ele>
        <time>2026-08-16T01:50:31.000Z</time>
        <extensions>
          <ns3:TrackPointExtension>
            <ns3:atemp>31.0</ns3:atemp>
            <ns3:hr>75</ns3:hr>
          </ns3:TrackPointExtension>
        </extensions>
      </trkpt>
      <trkpt lat="31.97117549367249011993408203125" lon="118.8221666403114795684814453125">
        <ele>5.400000095367431640625</ele>
        <time>2026-08-16T01:50:37.000Z</time>
        <extensions>
          <ns3:TrackPointExtension>
            <ns3:atemp>31.0</ns3:atemp>
            <ns3:hr>72</ns3:hr>
          </ns3:TrackPointExtension>
        </extensions>
      </trkpt>
      <trkpt lat="31.9711008109152317047119140625" lon="118.8221730105578899383544921875">
        <ele>5.19999980926513671875</ele>
        <time>2026-08-16T01:50:42.000Z</time>
        <extensions>
          <ns3:TrackPointExtension>
            <ns3:atemp>31.0</ns3:atemp>
            <ns3:hr>76</ns3:hr>
          </ns3:TrackPointExtension>
        </extensions>
      </trkpt>
      <trkpt lat="31.9710632599890232086181640625" lon="118.8221823982894420623779296875">
        <ele>4.80000019073486328125</ele>
        <time>2026-08-16T01:50:45.000Z</time>
        <extensions>
          <ns3:TrackPointExtension>
            <ns3:atemp>31.0</ns3:atemp>
            <ns3:hr>80</ns3:hr>
          </ns3:TrackPointExtension>
        </extensions>
      </trkpt>
      <trkpt lat="31.971039287745952606201171875" lon="118.8221914507448673248291015625">
        <ele>4.400000095367431640625</ele>
        <time>2026-08-16T01:50:47.000Z</time>
        <extensions>
          <ns3:TrackPointExtension>
            <ns3:atemp>31.0</ns3:atemp>
            <ns3:hr>84</ns3:hr>
          </ns3:TrackPointExtension>
        </extensions>
      </trkpt>
      <trkpt lat="31.97097063995897769927978515625" lon="118.82221802137792110443115234375">
        <ele>4</ele>
        <time>2026-08-16T01:50:53.000Z</time>
        <extensions>
          <ns3:TrackPointExtension>
            <ns3:atemp>31.0</ns3:atemp>
            <ns3:hr>86</ns3:hr>
          </ns3:TrackPointExtension>
        </extensions>
      </trkpt>
      <trkpt lat="31.970952451229095458984375" lon="118.82222338579595088958740234375">
        <ele>4</ele>
        <time>2026-08-16T01:50:55.000Z</time>
        <extensions>
          <ns3:TrackPointExtension>
            <ns3:atemp>31.0</ns3:atemp>
            <ns3:hr>86</ns3:hr>
          </ns3:TrackPointExtension>
        </extensions>
      </trkpt>
      <trkpt lat="31.97094968520104885101318359375" lon="118.8222343660891056060791015625">
        <ele>3.7999999523162841796875</ele>
        <time>2026-08-16T01:50:58.000Z</time>
        <extensions>
          <ns3:TrackPointExtension>
            <ns3:atemp>31.0</ns3:atemp>
            <ns3:hr>85</ns3:hr>
          </ns3:TrackPointExtension>
        </extensions>
      </trkpt>
      <trkpt lat="31.97096108458936214447021484375" lon="118.82221282459795475006103515625">
        <ele>3.7999999523162841796875</ele>
        <time>2026-08-16T01:50:59.000Z</time>
        <extensions>
          <ns3:TrackPointExtension>
            <ns3:atemp>31.0</ns3:atemp>
            <ns3:hr>85</ns3:hr>
          </ns3:TrackPointExtension>
        </extensions>
      </trkpt>
      <trkpt lat="31.970805935561656951904296875" lon="118.82219203747808933258056640625">
        <ele>3.400000095367431640625</ele>
        <time>2026-08-16T01:51:44.000Z</time>
        <extensions>
          <ns3:TrackPointExtension>
            <ns3:atemp>32.0</ns3:atemp>
            <ns3:hr>83</ns3:hr>
          </ns3:TrackPointExtension>
        </extensions>
      </trkpt>
      <trkpt lat="31.97079193778336048126220703125" lon="118.82221383042633533477783203125">
        <ele>3.400000095367431640625</ele>
        <time>2026-08-16T01:51:46.000Z</time>
        <extensions>
          <ns3:TrackPointExtension>
            <ns3:atemp>32.0</ns3:atemp>
            <ns3:hr>84</ns3:hr>
          </ns3:TrackPointExtension>
        </extensions>
      </trkpt>
      <trkpt lat="31.97078858502209186553955078125" lon="118.822231180965900421142578125">
        <ele>3.400000095367431640625</ele>
        <time>2026-08-16T01:51:47.000Z</time>
        <extensions>
          <ns3:TrackPointExtension>
            <ns3:atemp>32.0</ns3:atemp>
            <ns3:hr>83</ns3:hr>
          </ns3:TrackPointExtension>
        </extensions>
      </trkpt>
      <trkpt lat="31.97077165357768535614013671875" lon="118.822318352758884429931640625">
        <ele>3.400000095367431640625</ele>
        <time>2026-08-16T01:51:52.000Z</time>
        <extensions>
          <ns3:TrackPointExtension>
            <ns3:atemp>32.0</ns3:atemp>
            <ns3:hr>84</ns3:hr>
          </ns3:TrackPointExtension>
        </extensions>
      </trkpt>
      <trkpt lat="31.97075354866683483123779296875" lon="118.8223671354353427886962890625">
        <ele>3.400000095367431640625</ele>
        <time>2026-08-16T01:51:55.000Z</time>
        <extensions>
          <ns3:TrackPointExtension>
            <ns3:atemp>32.0</ns3:atemp>
            <ns3:hr>84</ns3:hr>
          </ns3:TrackPointExtension>
        </extensions>
      </trkpt>
      <trkpt lat="31.970733515918254852294921875" lon="118.822374679148197174072265625">
        <ele>3.400000095367431640625</ele>
        <time>2026-08-16T01:51:58.000Z</time>
        <extensions>
          <ns3:TrackPointExtension>
            <ns3:atemp>32.0</ns3:atemp>
            <ns3:hr>83</ns3:hr>
          </ns3:TrackPointExtension>
        </extensions>
      </trkpt>
      <trkpt lat="31.97067576460540294647216796875" lon="118.82237769663333892822265625">
        <ele>3.599999904632568359375</ele>
        <time>2026-08-16T01:52:04.000Z</time>
        <extensions>
          <ns3:TrackPointExtension>
            <ns3:atemp>32.0</ns3:atemp>
            <ns3:hr>83</ns3:hr>
          </ns3:TrackPointExtension>
        </extensions>
      </trkpt>
      <trkpt lat="31.97061122395098209381103515625" lon="118.822352550923824310302734375">
        <ele>4.400000095367431640625</ele>
        <time>2026-08-16T01:52:09.000Z</time>
        <extensions>
          <ns3:TrackPointExtension>
            <ns3:atemp>32.0</ns3:atemp>
            <ns3:hr>84</ns3:hr>
          </ns3:TrackPointExtension>
        </extensions>
      </trkpt>
      <trkpt lat="31.97059831582009792327880859375" lon="118.8223488628864288330078125">
        <ele>4.599999904632568359375</ele>
        <time>2026-08-16T01:52:10.000Z</time>
        <extensions>
          <ns3:TrackPointExtension>
            <ns3:atemp>32.0</ns3:atemp>
            <ns3:hr>84</ns3:hr>
          </ns3:TrackPointExtension>
        </extensions>
      </trkpt>
      <trkpt lat="31.970587335526943206787109375" lon="118.8223440013825893402099609375">
        <ele>4.599999904632568359375</ele>
        <time>2026-08-16T01:52:11.000Z</time>
        <extensions>
          <ns3:TrackPointExtension>
            <ns3:atemp>32.0</ns3:atemp>
            <ns3:hr>84</ns3:hr>
          </ns3:TrackPointExtension>
        </extensions>
      </trkpt>
      <trkpt lat="31.97057836689054965972900390625" lon="118.82233268581330776214599609375">
        <ele>4.80000019073486328125</ele>
        <time>2026-08-16T01:52:12.000Z</time>
        <extensions>
          <ns3:TrackPointExtension>
            <ns3:atemp>32.0</ns3:atemp>
            <ns3:hr>85</ns3:hr>
          </ns3:TrackPointExtension>
        </extensions>
      </trkpt>
      <trkpt lat="31.97055255062878131866455078125" lon="118.82231910713016986846923828125">
        <ele>5.400000095367431640625</ele>
        <time>2026-08-16T01:52:15.000Z</time>
        <extensions>
          <ns3:TrackPointExtension>
            <ns3:atemp>32.0</ns3:atemp>
            <ns3:hr>89</ns3:hr>
          </ns3:TrackPointExtension>
        </extensions>
      </trkpt>
      <trkpt lat="31.97054618038237094879150390625" lon="118.82231759838759899139404296875">
        <ele>5.599999904632568359375</ele>
        <time>2026-08-16T01:52:16.000Z</time>
        <extensions>
          <ns3:TrackPointExtension>
            <ns3:atemp>32.0</ns3:atemp>
            <ns3:hr>89</ns3:hr>
          </ns3:TrackPointExtension>
        </extensions>
      </trkpt>
      <trkpt lat="31.97054852731525897979736328125" lon="118.8223118148744106292724609375">
        <ele>5.80000019073486328125</ele>
        <time>2026-08-16T01:52:18.000Z</time>
        <extensions>
          <ns3:TrackPointExtension>
            <ns3:atemp>32.0</ns3:atemp>
            <ns3:hr>92</ns3:hr>
          </ns3:TrackPointExtension>
        </extensions>
      </trkpt>
      <trkpt lat="31.97044752538204193115234375" lon="118.82218650542199611663818359375">
        <ele>6.19999980926513671875</ele>
        <time>2026-08-16T01:54:21.000Z</time>
        <extensions>
          <ns3:TrackPointExtension>
            <ns3:atemp>33.0</ns3:atemp>
            <ns3:hr>82</ns3:hr>
          </ns3:TrackPointExtension>
        </extensions>
      </trkpt>
      <trkpt lat="31.97045213542878627777099609375" lon="118.82216186262667179107666015625">
        <ele>6.19999980926513671875</ele>
        <time>2026-08-16T01:54:22.000Z</time>
        <extensions>
          <ns3:TrackPointExtension>
            <ns3:atemp>33.0</ns3:atemp>
            <ns3:hr>83</ns3:hr>
          </ns3:TrackPointExtension>
        </extensions>
      </trkpt>
      <trkpt lat="31.970453560352325439453125" lon="118.82213604636490345001220703125">
        <ele>6.19999980926513671875</ele>
        <time>2026-08-16T01:54:23.000Z</time>
        <extensions>
          <ns3:TrackPointExtension>
            <ns3:atemp>33.0</ns3:atemp>
            <ns3:hr>83</ns3:hr>
          </ns3:TrackPointExtension>
        </extensions>
      </trkpt>
      <trkpt lat="31.97039924561977386474609375" lon="118.8219842500984668731689453125">
        <ele>6</ele>
        <time>2026-08-16T01:54:28.000Z</time>
        <extensions>
          <ns3:TrackPointExtension>
            <ns3:atemp>33.0</ns3:atemp>
            <ns3:hr>85</ns3:hr>
          </ns3:TrackPointExtension>
        </extensions>
      </trkpt>
      <trkpt lat="31.970330178737640380859375" lon="118.82182918488979339599609375">
        <ele>6</ele>
        <time>2026-08-16T01:54:34.000Z</time>
        <extensions>
          <ns3:TrackPointExtension>
            <ns3:atemp>33.0</ns3:atemp>
            <ns3:hr>88</ns3:hr>
          </ns3:TrackPointExtension>
        </extensions>
      </trkpt>
      <trkpt lat="31.97028332389891147613525390625" lon="118.82174930535256862640380859375">
        <ele>6.400000095367431640625</ele>
        <time>2026-08-16T01:54:39.000Z</time>
        <extensions>
          <ns3:TrackPointExtension>
            <ns3:atemp>33.0</ns3:atemp>
            <ns3:hr>91</ns3:hr>
          </ns3:TrackPointExtension>
        </extensions>
      </trkpt>
      <trkpt lat="31.9702639617025852203369140625" lon="118.8217093236744403839111328125">
        <ele>6.400000095367431640625</ele>
        <time>2026-08-16T01:54:41.000Z</time>
        <extensions>
          <ns3:TrackPointExtension>
            <ns3:atemp>33.0</ns3:atemp>
            <ns3:hr>91</ns3:hr>
          </ns3:TrackPointExtension>
        </extensions>
      </trkpt>
      <trkpt lat="31.97020855732262134552001953125" lon="118.82159977219998836517333984375">
        <ele>6.400000095367431640625</ele>
        <time>2026-08-16T01:54:47.000Z</time>
        <extensions>
          <ns3:TrackPointExtension>
            <ns3:atemp>33.0</ns3:atemp>
            <ns3:hr>94</ns3:hr>
          </ns3:TrackPointExtension>
        </extensions>
      </trkpt>
      <trkpt lat="31.97017653845250606536865234375" lon="118.821552582085132598876953125">
        <ele>6.400000095367431640625</ele>
        <time>2026-08-16T01:54:50.000Z</time>
        <extensions>
          <ns3:TrackPointExtension>
            <ns3:atemp>33.0</ns3:atemp>
            <ns3:hr>96</ns3:hr>
          </ns3:TrackPointExtension>
        </extensions>
      </trkpt>
      <trkpt lat="31.97015625424683094024658203125" lon="118.82150866091251373291015625">
        <ele>6.599999904632568359375</ele>
        <time>2026-08-16T01:54:53.000Z</time>
        <extensions>
          <ns3:TrackPointExtension>
            <ns3:atemp>33.0</ns3:atemp>
            <ns3:hr>98</ns3:hr>
          </ns3:TrackPointExtension>
        </extensions>
      </trkpt>
      <trkpt lat="31.97011115960776805877685546875" lon="118.82143079303205013275146484375">
        <ele>6.599999904632568359375</ele>
        <time>2026-08-16T01:54:58.000Z</time>
        <extensions>
          <ns3:TrackPointExtension>
            <ns3:atemp>33.0</ns3:atemp>
            <ns3:hr>100</ns3:hr>
          </ns3:TrackPointExtension>
        </extensions>
      </trkpt>
      <trkpt lat="31.9700490497052669525146484375" lon="118.82132451049983501434326171875">
        <ele>6.80000019073486328125</ele>
        <time>2026-08-16T01:55:06.000Z</time>
        <extensions>
          <ns3:TrackPointExtension>
            <ns3:atemp>33.0</ns3:atemp>
            <ns3:hr>100</ns3:hr>
          </ns3:TrackPointExtension>
        </extensions>
      </trkpt>
      <trkpt lat="31.96999113075435161590576171875" lon="118.82120959460735321044921875">
        <ele>6.599999904632568359375</ele>
        <time>2026-08-16T01:55:12.000Z</time>
        <extensions>
          <ns3:TrackPointExtension>
            <ns3:atemp>33.0</ns3:atemp>
            <ns3:hr>98</ns3:hr>
          </ns3:TrackPointExtension>
        </extensions>
      </trkpt>
      <trkpt lat="31.96995525620877742767333984375" lon="118.82114388048648834228515625">
        <ele>6.80000019073486328125</ele>
        <time>2026-08-16T01:55:16.000Z</time>
        <extensions>
          <ns3:TrackPointExtension>
            <ns3:atemp>33.0</ns3:atemp>
            <ns3:hr>90</ns3:hr>
          </ns3:TrackPointExtension>
        </extensions>
      </trkpt>
      <trkpt lat="31.96994536556303501129150390625" lon="118.821124099195003509521484375">
        <ele>6.80000019073486328125</ele>
        <time>2026-08-16T01:55:17.000Z</time>
        <extensions>
          <ns3:TrackPointExtension>
            <ns3:atemp>33.0</ns3:atemp>
            <ns3:hr>87</ns3:hr>
          </ns3:TrackPointExtension>
        </extensions>
      </trkpt>
      <trkpt lat="31.9699367322027683258056640625" lon="118.82110523991286754608154296875">
        <ele>6.80000019073486328125</ele>
        <time>2026-08-16T01:55:18.000Z</time>
        <extensions>
          <ns3:TrackPointExtension>
            <ns3:atemp>33.0</ns3:atemp>
            <ns3:hr>87</ns3:hr>
          </ns3:TrackPointExtension>
        </extensions>
      </trkpt>
      <trkpt lat="31.9699142687022686004638671875" lon="118.821066431701183319091796875">
        <ele>7</ele>
        <time>2026-08-16T01:55:20.000Z</time>
        <extensions>
          <ns3:TrackPointExtension>
            <ns3:atemp>33.0</ns3:atemp>
            <ns3:hr>87</ns3:hr>
          </ns3:TrackPointExtension>
        </extensions>
      </trkpt>
      <trkpt lat="31.9698321260511875152587890625" lon="118.820905499160289764404296875">
        <ele>7.19999980926513671875</ele>
        <time>2026-08-16T01:55:28.000Z</time>
        <extensions>
          <ns3:TrackPointExtension>
            <ns3:atemp>33.0</ns3:atemp>
            <ns3:hr>87</ns3:hr>
          </ns3:TrackPointExtension>
        </extensions>
      </trkpt>
      <trkpt lat="31.9696963392198085784912109375" lon="118.82071833126246929168701171875">
        <ele>7.19999980926513671875</ele>
        <time>2026-08-16T01:55:38.000Z</time>
        <extensions>
          <ns3:TrackPointExtension>
            <ns3:atemp>33.0</ns3:atemp>
            <ns3:hr>88</ns3:hr>
          </ns3:TrackPointExtension>
        </extensions>
      </trkpt>
      <trkpt lat="31.969593577086925506591796875" lon="118.820643983781337738037109375">
        <ele>7.400000095367431640625</ele>
        <time>2026-08-16T01:55:45.000Z</time>
        <extensions>
          <ns3:TrackPointExtension>
            <ns3:atemp>33.0</ns3:atemp>
            <ns3:hr>88</ns3:hr>
          </ns3:TrackPointExtension>
        </extensions>
      </trkpt>
      <trkpt lat="31.969428621232509613037109375" lon="118.82061338983476161956787109375">
        <ele>7.400000095367431640625</ele>
        <time>2026-08-16T01:55:55.000Z</time>
        <extensions>
          <ns3:TrackPointExtension>
            <ns3:atemp>33.0</ns3:atemp>
            <ns3:hr>88</ns3:hr>
          </ns3:TrackPointExtension>
        </extensions>
      </trkpt>
      <trkpt lat="31.969273388385772705078125" lon="118.82062344811856746673583984375">
        <ele>7.400000095367431640625</ele>
        <time>2026-08-16T01:56:03.000Z</time>
        <extensions>
          <ns3:TrackPointExtension>
            <ns3:atemp>33.0</ns3:atemp>
            <ns3:hr>89</ns3:hr>
          </ns3:TrackPointExtension>
        </extensions>
      </trkpt>
      <trkpt lat="31.96923256851732730865478515625" lon="118.82063417695462703704833984375">
        <ele>7.400000095367431640625</ele>
        <time>2026-08-16T01:56:05.000Z</time>
        <extensions>
          <ns3:TrackPointExtension>
            <ns3:atemp>33.0</ns3:atemp>
            <ns3:hr>92</ns3:hr>
          </ns3:TrackPointExtension>
        </extensions>
      </trkpt>
      <trkpt lat="31.969075910747051239013671875" lon="118.82066384889185428619384765625">
        <ele>7.19999980926513671875</ele>
        <time>2026-08-16T01:56:13.000Z</time>
        <extensions>
          <ns3:TrackPointExtension>
            <ns3:atemp>33.0</ns3:atemp>
            <ns3:hr>90</ns3:hr>
          </ns3:TrackPointExtension>
        </extensions>
      </trkpt>
      <trkpt lat="31.9689205102622509002685546875" lon="118.82071204483509063720703125">
        <ele>7</ele>
        <time>2026-08-16T01:56:21.000Z</time>
        <extensions>
          <ns3:TrackPointExtension>
            <ns3:atemp>33.0</ns3:atemp>
            <ns3:hr>90</ns3:hr>
          </ns3:TrackPointExtension>
        </extensions>
      </trkpt>
      <trkpt lat="31.96878514252603054046630859375" lon="118.82070265710353851318359375">
        <ele>7</ele>
        <time>2026-08-16T01:56:28.000Z</time>
        <extensions>
          <ns3:TrackPointExtension>
            <ns3:atemp>33.0</ns3:atemp>
            <ns3:hr>90</ns3:hr>
          </ns3:TrackPointExtension>
        </extensions>
      </trkpt>
      <trkpt lat="31.96865371428430080413818359375" lon="118.8206656090915203094482421875">
        <ele>6.80000019073486328125</ele>
        <time>2026-08-16T01:56:35.000Z</time>
        <extensions>
          <ns3:TrackPointExtension>
            <ns3:atemp>33.0</ns3:atemp>
            <ns3:hr>91</ns3:hr>
          </ns3:TrackPointExtension>
        </extensions>
      </trkpt>
      <trkpt lat="31.968650780618190765380859375" lon="118.82066736929118633270263671875">
        <ele>6.80000019073486328125</ele>
        <time>2026-08-16T01:56:36.000Z</time>
        <extensions>
          <ns3:TrackPointExtension>
            <ns3:atemp>33.0</ns3:atemp>
            <ns3:hr>91</ns3:hr>
          </ns3:TrackPointExtension>
        </extensions>
      </trkpt>
      <trkpt lat="31.96865254081785678863525390625" lon="118.82067508064210414886474609375">
        <ele>6.80000019073486328125</ele>
        <time>2026-08-16T01:56:39.000Z</time>
        <extensions>
          <ns3:TrackPointExtension>
            <ns3:atemp>33.0</ns3:atemp>
            <ns3:hr>90</ns3:hr>
          </ns3:TrackPointExtension>
        </extensions>
      </trkpt>
      <trkpt lat="31.9685768522322177886962890625" lon="118.82068161852657794952392578125">
        <ele>6.599999904632568359375</ele>
        <time>2026-08-16T01:57:21.000Z</time>
        <extensions>
          <ns3:TrackPointExtension>
            <ns3:atemp>34.0</ns3:atemp>
            <ns3:hr>90</ns3:hr>
          </ns3:TrackPointExtension>
        </extensions>
      </trkpt>
      <trkpt lat="31.96853737346827983856201171875" lon="118.8206679560244083404541015625">
        <ele>6.400000095367431640625</ele>
        <time>2026-08-16T01:57:23.000Z</time>
        <extensions>
          <ns3:TrackPointExtension>
            <ns3:atemp>33.0</ns3:atemp>
            <ns3:hr>92</ns3:hr>
          </ns3:TrackPointExtension>
        </extensions>
      </trkpt>
      <trkpt lat="31.96849219501018524169921875" lon="118.82065781392157077789306640625">
        <ele>6.400000095367431640625</ele>
        <time>2026-08-16T01:57:25.000Z</time>
        <extensions>
          <ns3:TrackPointExtension>
            <ns3:atemp>34.0</ns3:atemp>
            <ns3:hr>95</ns3:hr>
          </ns3:TrackPointExtension>
        </extensions>
      </trkpt>
      <trkpt lat="31.96838834322988986968994140625" lon="118.82064037956297397613525390625">
        <ele>6.400000095367431640625</ele>
        <time>2026-08-16T01:57:29.000Z</time>
        <extensions>
          <ns3:TrackPointExtension>
            <ns3:atemp>34.0</ns3:atemp>
            <ns3:hr>94</ns3:hr>
          </ns3:TrackPointExtension>
        </extensions>
      </trkpt>
      <trkpt lat="31.968145184218883514404296875" lon="118.8205958716571331024169921875">
        <ele>6.400000095367431640625</ele>
        <time>2026-08-16T01:57:38.000Z</time>
        <extensions>
          <ns3:TrackPointExtension>
            <ns3:atemp>34.0</ns3:atemp>
            <ns3:hr>93</ns3:hr>
          </ns3:TrackPointExtension>
        </extensions>
      </trkpt>
      <trkpt lat="31.9679083116352558135986328125" lon="118.82056913338601589202880859375">
        <ele>6.80000019073486328125</ele>
        <time>2026-08-16T01:57:46.000Z</time>
        <extensions>
          <ns3:TrackPointExtension>
            <ns3:atemp>33.0</ns3:atemp>
            <ns3:hr>95</ns3:hr>
          </ns3:TrackPointExtension>
        </extensions>
      </trkpt>
      <trkpt lat="31.96770387701690196990966796875" lon="118.82055454887449741363525390625">
        <ele>7</ele>
        <time>2026-08-16T01:57:53.000Z</time>
        <extensions>
          <ns3:TrackPointExtension>
            <ns3:atemp>33.0</ns3:atemp>
            <ns3:hr>94</ns3:hr>
          </ns3:TrackPointExtension>
        </extensions>
      </trkpt>
      <trkpt lat="31.96756741963326930999755859375" lon="118.82058195769786834716796875">
        <ele>7.19999980926513671875</ele>
        <time>2026-08-16T01:57:58.000Z</time>
        <extensions>
          <ns3:TrackPointExtension>
            <ns3:atemp>33.0</ns3:atemp>
            <ns3:hr>91</ns3:hr>
          </ns3:TrackPointExtension>
        </extensions>
      </trkpt>
      <trkpt lat="31.96747907437384128570556640625" lon="118.82059277035295963287353515625">
        <ele>7.400000095367431640625</ele>
        <time>2026-08-16T01:58:01.000Z</time>
        <extensions>
          <ns3:TrackPointExtension>
            <ns3:atemp>33.0</ns3:atemp>
            <ns3:hr>91</ns3:hr>
          </ns3:TrackPointExtension>
        </extensions>
      </trkpt>
      <trkpt lat="31.9672092609107494354248046875" lon="118.82064825855195522308349609375">
        <ele>7.400000095367431640625</ele>
        <time>2026-08-16T01:58:10.000Z</time>
        <extensions>
          <ns3:TrackPointExtension>
            <ns3:atemp>33.0</ns3:atemp>
            <ns3:hr>92</ns3:hr>
          </ns3:TrackPointExtension>
        </extensions>
      </trkpt>
      <trkpt lat="31.96698504500091075897216796875" lon="118.8206796906888484954833984375">
        <ele>7.400000095367431640625</ele>
        <time>2026-08-16T01:58:18.000Z</time>
        <extensions>
          <ns3:TrackPointExtension>
            <ns3:atemp>33.0</ns3:atemp>
            <ns3:hr>89</ns3:hr>
          </ns3:TrackPointExtension>
        </extensions>
      </trkpt>
      <trkpt lat="31.966903991997241973876953125" lon="118.82068379782140254974365234375">
        <ele>7.400000095367431640625</ele>
        <time>2026-08-16T01:58:21.000Z</time>
        <extensions>
          <ns3:TrackPointExtension>
            <ns3:atemp>33.0</ns3:atemp>
            <ns3:hr>85</ns3:hr>
          </ns3:TrackPointExtension>
        </extensions>
      </trkpt>
      <trkpt lat="31.96681313216686248779296875" lon="118.820698969066143035888671875">
        <ele>7.19999980926513671875</ele>
        <time>2026-08-16T01:58:25.000Z</time>
        <extensions>
          <ns3:TrackPointExtension>
            <ns3:atemp>33.0</ns3:atemp>
            <ns3:hr>83</ns3:hr>
          </ns3:TrackPointExtension>
        </extensions>
      </trkpt>
      <trkpt lat="31.96671464480459690093994140625" lon="118.82069595158100128173828125">
        <ele>7</ele>
        <time>2026-08-16T01:58:30.000Z</time>
        <extensions>
          <ns3:TrackPointExtension>
            <ns3:atemp>33.0</ns3:atemp>
            <ns3:hr>83</ns3:hr>
          </ns3:TrackPointExtension>
        </extensions>
      </trkpt>
      <trkpt lat="31.96670047938823699951171875" lon="118.8207368552684783935546875">
        <ele>6.80000019073486328125</ele>
        <time>2026-08-16T01:58:33.000Z</time>
        <extensions>
          <ns3:TrackPointExtension>
            <ns3:atemp>34.0</ns3:atemp>
            <ns3:hr>83</ns3:hr>
          </ns3:TrackPointExtension>
        </extensions>
      </trkpt>
      <trkpt lat="31.9666852243244647979736328125" lon="118.820770047605037689208984375">
        <ele>7</ele>
        <time>2026-08-16T01:58:35.000Z</time>
        <extensions>
          <ns3:TrackPointExtension>
            <ns3:atemp>33.0</ns3:atemp>
            <ns3:hr>82</ns3:hr>
          </ns3:TrackPointExtension>
        </extensions>
      </trkpt>
      <trkpt lat="31.96666150353848934173583984375" lon="118.82091111503541469573974609375">
        <ele>7.599999904632568359375</ele>
        <time>2026-08-16T01:58:41.000Z</time>
        <extensions>
          <ns3:TrackPointExtension>
            <ns3:atemp>33.0</ns3:atemp>
            <ns3:hr>82</ns3:hr>
          </ns3:TrackPointExtension>
        </extensions>
      </trkpt>
      <trkpt lat="31.96664859540760517120361328125" lon="118.82102695293724536895751953125">
        <ele>7.80000019073486328125</ele>
        <time>2026-08-16T01:58:45.000Z</time>
        <extensions>
          <ns3:TrackPointExtension>
            <ns3:atemp>33.0</ns3:atemp>
            <ns3:hr>86</ns3:hr>
          </ns3:TrackPointExtension>
        </extensions>
      </trkpt>
      <trkpt lat="31.96664373390376567840576171875" lon="118.821087889373302459716796875">
        <ele>8</ele>
        <time>2026-08-16T01:58:47.000Z</time>
        <extensions>
          <ns3:TrackPointExtension>
            <ns3:atemp>33.0</ns3:atemp>
            <ns3:hr>90</ns3:hr>
          </ns3:TrackPointExtension>
        </extensions>
      </trkpt>
      <trkpt lat="31.96663074195384979248046875" lon="118.821212947368621826171875">
        <ele>8.19999980926513671875</ele>
        <time>2026-08-16T01:58:51.000Z</time>
        <extensions>
          <ns3:TrackPointExtension>
            <ns3:atemp>33.0</ns3:atemp>
            <ns3:hr>93</ns3:hr>
          </ns3:TrackPointExtension>
        </extensions>
      </trkpt>
      <trkpt lat="31.96661825291812419891357421875" lon="118.82133423350751399993896484375">
        <ele>8.3999996185302734375</ele>
        <time>2026-08-16T01:58:55.000Z</time>
        <extensions>
          <ns3:TrackPointExtension>
            <ns3:atemp>34.0</ns3:atemp>
            <ns3:hr>96</ns3:hr>
          </ns3:TrackPointExtension>
        </extensions>
      </trkpt>
      <trkpt lat="31.9665952026844024658203125" lon="118.8214959204196929931640625">
        <ele>8.3999996185302734375</ele>
        <time>2026-08-16T01:59:00.000Z</time>
        <extensions>
          <ns3:TrackPointExtension>
            <ns3:atemp>34.0</ns3:atemp>
            <ns3:hr>96</ns3:hr>
          </ns3:TrackPointExtension>
        </extensions>
      </trkpt>
      <trkpt lat="31.96656242944300174713134765625" lon="118.82174871861934661865234375">
        <ele>8.3999996185302734375</ele>
        <time>2026-08-16T01:59:08.000Z</time>
        <extensions>
          <ns3:TrackPointExtension>
            <ns3:atemp>34.0</ns3:atemp>
            <ns3:hr>96</ns3:hr>
          </ns3:TrackPointExtension>
        </extensions>
      </trkpt>
      <trkpt lat="31.9665423966944217681884765625" lon="118.82196706719696521759033203125">
        <ele>8.19999980926513671875</ele>
        <time>2026-08-16T01:59:15.000Z</time>
        <extensions>
          <ns3:TrackPointExtension>
            <ns3:atemp>34.0</ns3:atemp>
            <ns3:hr>96</ns3:hr>
          </ns3:TrackPointExtension>
        </extensions>
      </trkpt>
      <trkpt lat="31.96650543250143527984619140625" lon="118.822276778519153594970703125">
        <ele>8</ele>
        <time>2026-08-16T01:59:24.000Z</time>
        <extensions>
          <ns3:TrackPointExtension>
            <ns3:atemp>34.0</ns3:atemp>
            <ns3:hr>97</ns3:hr>
          </ns3:TrackPointExtension>
        </extensions>
      </trkpt>
      <trkpt lat="31.96648246608674526214599609375" lon="118.82255916483700275421142578125">
        <ele>7.80000019073486328125</ele>
        <time>2026-08-16T01:59:32.000Z</time>
        <extensions>
          <ns3:TrackPointExtension>
            <ns3:atemp>34.0</ns3:atemp>
            <ns3:hr>94</ns3:hr>
          </ns3:TrackPointExtension>
        </extensions>
      </trkpt>
      <trkpt lat="31.9664642773568630218505859375" lon="118.82274809293448925018310546875">
        <ele>6.80000019073486328125</ele>
        <time>2026-08-16T01:59:38.000Z</time>
        <extensions>
          <ns3:TrackPointExtension>
            <ns3:atemp>34.0</ns3:atemp>
            <ns3:hr>92</ns3:hr>
          </ns3:TrackPointExtension>
        </extensions>
      </trkpt>
      <trkpt lat="31.966459751129150390625" lon="118.82282403297722339630126953125">
        <ele>6.80000019073486328125</ele>
        <time>2026-08-16T01:59:40.000Z</time>
        <extensions>
          <ns3:TrackPointExtension>
            <ns3:atemp>34.0</ns3:atemp>
            <ns3:hr>89</ns3:hr>
          </ns3:TrackPointExtension>
        </extensions>
      </trkpt>
      <trkpt lat="31.96644357405602931976318359375" lon="118.82290198467671871185302734375">
        <ele>6.400000095367431640625</ele>
        <time>2026-08-16T01:59:42.000Z</time>
        <extensions>
          <ns3:TrackPointExtension>
            <ns3:atemp>34.0</ns3:atemp>
            <ns3:hr>86</ns3:hr>
          </ns3:TrackPointExtension>
        </extensions>
      </trkpt>
      <trkpt lat="31.96644005365669727325439453125" lon="118.82302385754883289337158203125">
        <ele>6</ele>
        <time>2026-08-16T01:59:45.000Z</time>
        <extensions>
          <ns3:TrackPointExtension>
            <ns3:atemp>34.0</ns3:atemp>
            <ns3:hr>85</ns3:hr>
          </ns3:TrackPointExtension>
        </extensions>
      </trkpt>
      <trkpt lat="31.966423876583576202392578125" lon="118.823251090943813323974609375">
        <ele>5.19999980926513671875</ele>
        <time>2026-08-16T01:59:50.000Z</time>
        <extensions>
          <ns3:TrackPointExtension>
            <ns3:atemp>34.0</ns3:atemp>
            <ns3:hr>85</ns3:hr>
          </ns3:TrackPointExtension>
        </extensions>
      </trkpt>
      <trkpt lat="31.9664069451391696929931640625" lon="118.82339618168771266937255859375">
        <ele>5</ele>
        <time>2026-08-16T01:59:53.000Z</time>
        <extensions>
          <ns3:TrackPointExtension>
            <ns3:atemp>34.0</ns3:atemp>
            <ns3:hr>84</ns3:hr>
          </ns3:TrackPointExtension>
        </extensions>
      </trkpt>
      <trkpt lat="31.96636193431913852691650390625" lon="118.82375090382993221282958984375">
        <ele>4.19999980926513671875</ele>
        <time>2026-08-16T02:00:00.000Z</time>
        <extensions>
          <ns3:TrackPointExtension>
            <ns3:atemp>34.0</ns3:atemp>
            <ns3:hr>81</ns3:hr>
          </ns3:TrackPointExtension>
        </extensions>
      </trkpt>
      <trkpt lat="31.96635539643466472625732421875" lon="118.82380102761089801788330078125">
        <ele>4.19999980926513671875</ele>
        <time>2026-08-16T02:00:01.000Z</time>
        <extensions>
          <ns3:TrackPointExtension>
            <ns3:atemp>34.0</ns3:atemp>
            <ns3:hr>81</ns3:hr>
          </ns3:TrackPointExtension>
        </extensions>
      </trkpt>
      <trkpt lat="31.96634936146438121795654296875" lon="118.82385282777249813079833984375">
        <ele>4</ele>
        <time>2026-08-16T02:00:02.000Z</time>
        <extensions>
          <ns3:TrackPointExtension>
            <ns3:atemp>33.0</ns3:atemp>
            <ns3:hr>80</ns3:hr>
          </ns3:TrackPointExtension>
        </extensions>
      </trkpt>
      <trkpt lat="31.96634433232247829437255859375" lon="118.82416329346597194671630859375">
        <ele>3.7999999523162841796875</ele>
        <time>2026-08-16T02:00:09.000Z</time>
        <extensions>
          <ns3:TrackPointExtension>
            <ns3:atemp>34.0</ns3:atemp>
            <ns3:hr>78</ns3:hr>
          </ns3:TrackPointExtension>
        </extensions>
      </trkpt>
      <trkpt lat="31.9664273969829082489013671875" lon="118.82423806004226207733154296875">
        <ele>3.599999904632568359375</ele>
        <time>2026-08-16T02:00:13.000Z</time>
        <extensions>
          <ns3:TrackPointExtension>
            <ns3:atemp>34.0</ns3:atemp>
            <ns3:hr>77</ns3:hr>
          </ns3:TrackPointExtension>
        </extensions>
      </trkpt>
      <trkpt lat="31.96657299064099788665771484375" lon="118.82429673336446285247802734375">
        <ele>3.400000095367431640625</ele>
        <time>2026-08-16T02:00:19.000Z</time>
        <extensions>
          <ns3:TrackPointExtension>
            <ns3:atemp>34.0</ns3:atemp>
            <ns3:hr>79</ns3:hr>
          </ns3:TrackPointExtension>
        </extensions>
      </trkpt>
      <trkpt lat="31.96662294678390026092529296875" lon="118.8243543170392513275146484375">
        <ele>3.400000095367431640625</ele>
        <time>2026-08-16T02:00:23.000Z</time>
        <extensions>
          <ns3:TrackPointExtension>
            <ns3:atemp>34.0</ns3:atemp>
            <ns3:hr>82</ns3:hr>
          </ns3:TrackPointExtension>
        </extensions>
      </trkpt>
      <trkpt lat="31.96664742194116115570068359375" lon="118.82436194457113742828369140625">
        <ele>3.599999904632568359375</ele>
        <time>2026-08-16T02:00:26.000Z</time>
        <extensions>
          <ns3:TrackPointExtension>
            <ns3:atemp>34.0</ns3:atemp>
            <ns3:hr>83</ns3:hr>
          </ns3:TrackPointExtension>
        </extensions>
      </trkpt>
      <trkpt lat="31.96668514050543308258056640625" lon="118.82437183521687984466552734375">
        <ele>3.7999999523162841796875</ele>
        <time>2026-08-16T02:00:29.000Z</time>
        <extensions>
          <ns3:TrackPointExtension>
            <ns3:atemp>34.0</ns3:atemp>
            <ns3:hr>84</ns3:hr>
          </ns3:TrackPointExtension>
        </extensions>
      </trkpt>
      <trkpt lat="31.96669888682663440704345703125" lon="118.82436546497046947479248046875">
        <ele>3.7999999523162841796875</ele>
        <time>2026-08-16T02:00:30.000Z</time>
        <extensions>
          <ns3:TrackPointExtension>
            <ns3:atemp>34.0</ns3:atemp>
            <ns3:hr>84</ns3:hr>
          </ns3:TrackPointExtension>
        </extensions>
      </trkpt>
      <trkpt lat="31.96675504557788372039794921875" lon="118.82432523183524608612060546875">
        <ele>3.7999999523162841796875</ele>
        <time>2026-08-16T02:00:33.000Z</time>
        <extensions>
          <ns3:TrackPointExtension>
            <ns3:atemp>34.0</ns3:atemp>
            <ns3:hr>83</ns3:hr>
          </ns3:TrackPointExtension>
        </extensions>
      </trkpt>
      <trkpt lat="31.9667633436620235443115234375" lon="118.82429723627865314483642578125">
        <ele>3.7999999523162841796875</ele>
        <time>2026-08-16T02:00:34.000Z</time>
        <extensions>
          <ns3:TrackPointExtension>
            <ns3:atemp>34.0</ns3:atemp>
            <ns3:hr>84</ns3:hr>
          </ns3:TrackPointExtension>
        </extensions>
      </trkpt>
      <trkpt lat="31.96677960455417633056640625" lon="118.82407419383525848388671875">
        <ele>4.19999980926513671875</ele>
        <time>2026-08-16T02:00:41.000Z</time>
        <extensions>
          <ns3:TrackPointExtension>
            <ns3:atemp>33.0</ns3:atemp>
            <ns3:hr>85</ns3:hr>
          </ns3:TrackPointExtension>
        </extensions>
      </trkpt>
      <trkpt lat="31.96682478301227092742919921875" lon="118.823704384267330169677734375">
        <ele>4.400000095367431640625</ele>
        <time>2026-08-16T02:00:50.000Z</time>
        <extensions>
          <ns3:TrackPointExtension>
            <ns3:atemp>34.0</ns3:atemp>
            <ns3:hr>84</ns3:hr>
          </ns3:TrackPointExtension>
        </extensions>
      </trkpt>
      <trkpt lat="31.9669635035097599029541015625" lon="118.82347664795815944671630859375">
        <ele>4.80000019073486328125</ele>
        <time>2026-08-16T02:00:57.000Z</time>
        <extensions>
          <ns3:TrackPointExtension>
            <ns3:atemp>34.0</ns3:atemp>
            <ns3:hr>85</ns3:hr>
          </ns3:TrackPointExtension>
        </extensions>
      </trkpt>
      <trkpt lat="31.967114545404911041259765625" lon="118.82331722415983676910400390625">
        <ele>4.80000019073486328125</ele>
        <time>2026-08-16T02:01:03.000Z</time>
        <extensions>
          <ns3:TrackPointExtension>
            <ns3:atemp>33.0</ns3:atemp>
            <ns3:hr>88</ns3:hr>
          </ns3:TrackPointExtension>
        </extensions>
      </trkpt>
      <trkpt lat="31.9672984443604946136474609375" lon="118.82319501601159572601318359375">
        <ele>4.80000019073486328125</ele>
        <time>2026-08-16T02:01:10.000Z</time>
        <extensions>
          <ns3:TrackPointExtension>
            <ns3:atemp>33.0</ns3:atemp>
            <ns3:hr>89</ns3:hr>
          </ns3:TrackPointExtension>
        </extensions>
      </trkpt>
      <trkpt lat="31.96747756563127040863037109375" lon="118.82310801185667514801025390625">
        <ele>4.599999904632568359375</ele>
        <time>2026-08-16T02:01:16.000Z</time>
        <extensions>
          <ns3:TrackPointExtension>
            <ns3:atemp>33.0</ns3:atemp>
            <ns3:hr>92</ns3:hr>
          </ns3:TrackPointExtension>
        </extensions>
      </trkpt>
      <trkpt lat="31.96763916872441768646240234375" lon="118.8230708800256252288818359375">
        <ele>5.19999980926513671875</ele>
        <time>2026-08-16T02:01:21.000Z</time>
        <extensions>
          <ns3:TrackPointExtension>
            <ns3:atemp>33.0</ns3:atemp>
            <ns3:hr>94</ns3:hr>
          </ns3:TrackPointExtension>
        </extensions>
      </trkpt>
      <trkpt lat="31.96774193085730075836181640625" lon="118.8230624981224536895751953125">
        <ele>5.400000095367431640625</ele>
        <time>2026-08-16T02:01:24.000Z</time>
        <extensions>
          <ns3:TrackPointExtension>
            <ns3:atemp>33.0</ns3:atemp>
            <ns3:hr>97</ns3:hr>
          </ns3:TrackPointExtension>
        </extensions>
      </trkpt>
      <trkpt lat="31.96791945956647396087646484375" lon="118.823074065148830413818359375">
        <ele>5.19999980926513671875</ele>
        <time>2026-08-16T02:01:29.000Z</time>
        <extensions>
          <ns3:TrackPointExtension>
            <ns3:atemp>33.0</ns3:atemp>
            <ns3:hr>95</ns3:hr>
          </ns3:TrackPointExtension>
        </extensions>
      </trkpt>
      <trkpt lat="31.968117691576480865478515625" lon="118.8231852091848850250244140625">
        <ele>5.599999904632568359375</ele>
        <time>2026-08-16T02:01:35.000Z</time>
        <extensions>
          <ns3:TrackPointExtension>
            <ns3:atemp>33.0</ns3:atemp>
            <ns3:hr>93</ns3:hr>
          </ns3:TrackPointExtension>
        </extensions>
      </trkpt>
      <trkpt lat="31.96824350394308567047119140625" lon="118.8233059085905551910400390625">
        <ele>5.599999904632568359375</ele>
        <time>2026-08-16T02:01:40.000Z</time>
        <extensions>
          <ns3:TrackPointExtension>
            <ns3:atemp>33.0</ns3:atemp>
            <ns3:hr>94</ns3:hr>
          </ns3:TrackPointExtension>
        </extensions>
      </trkpt>
      <trkpt lat="31.96834861300885677337646484375" lon="118.82346709258854389190673828125">
        <ele>5.80000019073486328125</ele>
        <time>2026-08-16T02:01:45.000Z</time>
        <extensions>
          <ns3:TrackPointExtension>
            <ns3:atemp>33.0</ns3:atemp>
            <ns3:hr>91</ns3:hr>
          </ns3:TrackPointExtension>
        </extensions>
      </trkpt>
      <trkpt lat="31.968372501432895660400390625" lon="118.8234986923635005950927734375">
        <ele>5.80000019073486328125</ele>
        <time>2026-08-16T02:01:46.000Z</time>
        <extensions>
          <ns3:TrackPointExtension>
            <ns3:atemp>33.0</ns3:atemp>
            <ns3:hr>90</ns3:hr>
          </ns3:TrackPointExtension>
        </extensions>
      </trkpt>
      <trkpt lat="31.9684903509914875030517578125" lon="118.82369332015514373779296875">
        <ele>6.19999980926513671875</ele>
        <time>2026-08-16T02:01:52.000Z</time>
        <extensions>
          <ns3:TrackPointExtension>
            <ns3:atemp>33.0</ns3:atemp>
            <ns3:hr>92</ns3:hr>
          </ns3:TrackPointExtension>
        </extensions>
      </trkpt>
      <trkpt lat="31.9685399718582630157470703125" lon="118.8239016942679882049560546875">
        <ele>6.19999980926513671875</ele>
        <time>2026-08-16T02:01:58.000Z</time>
        <extensions>
          <ns3:TrackPointExtension>
            <ns3:atemp>33.0</ns3:atemp>
            <ns3:hr>93</ns3:hr>
          </ns3:TrackPointExtension>
        </extensions>
      </trkpt>
      <trkpt lat="31.9685292430222034454345703125" lon="118.82409137673676013946533203125">
        <ele>6</ele>
        <time>2026-08-16T02:02:04.000Z</time>
        <extensions>
          <ns3:TrackPointExtension>
            <ns3:atemp>33.0</ns3:atemp>
            <ns3:hr>95</ns3:hr>
          </ns3:TrackPointExtension>
        </extensions>
      </trkpt>
      <trkpt lat="31.96850820444524288177490234375" lon="118.8241652213037014007568359375">
        <ele>6</ele>
        <time>2026-08-16T02:02:07.000Z</time>
        <extensions>
          <ns3:TrackPointExtension>
            <ns3:atemp>33.0</ns3:atemp>
            <ns3:hr>94</ns3:hr>
          </ns3:TrackPointExtension>
        </extensions>
      </trkpt>
      <trkpt lat="31.9684942066669464111328125" lon="118.82416673004627227783203125">
        <ele>5.80000019073486328125</ele>
        <time>2026-08-16T02:02:08.000Z</time>
        <extensions>
          <ns3:TrackPointExtension>
            <ns3:atemp>33.0</ns3:atemp>
            <ns3:hr>89</ns3:hr>
          </ns3:TrackPointExtension>
        </extensions>
      </trkpt>
      <trkpt lat="31.9684769399464130401611328125" lon="118.82416530512273311614990234375">
        <ele>5.80000019073486328125</ele>
        <time>2026-08-16T02:02:09.000Z</time>
        <extensions>
          <ns3:TrackPointExtension>
            <ns3:atemp>33.0</ns3:atemp>
            <ns3:hr>87</ns3:hr>
          </ns3:TrackPointExtension>
        </extensions>
      </trkpt>
      <trkpt lat="31.968448273837566375732421875" lon="118.82416128180921077728271484375">
        <ele>5.80000019073486328125</ele>
        <time>2026-08-16T02:02:11.000Z</time>
        <extensions>
          <ns3:TrackPointExtension>
            <ns3:atemp>33.0</ns3:atemp>
            <ns3:hr>86</ns3:hr>
          </ns3:TrackPointExtension>
        </extensions>
      </trkpt>
      <trkpt lat="31.9684568233788013458251953125" lon="118.82414569146931171417236328125">
        <ele>5.599999904632568359375</ele>
        <time>2026-08-16T02:02:13.000Z</time>
        <extensions>
          <ns3:TrackPointExtension>
            <ns3:atemp>33.0</ns3:atemp>
            <ns3:hr>86</ns3:hr>
          </ns3:TrackPointExtension>
        </extensions>
      </trkpt>
      <trkpt lat="31.96846579201519489288330078125" lon="118.82410705089569091796875">
        <ele>5.80000019073486328125</ele>
        <time>2026-08-16T02:02:19.000Z</time>
        <extensions>
          <ns3:TrackPointExtension>
            <ns3:atemp>33.0</ns3:atemp>
            <ns3:hr>86</ns3:hr>
          </ns3:TrackPointExtension>
        </extensions>
      </trkpt>
      <trkpt lat="31.9684645347297191619873046875" lon="118.8241162709891796112060546875">
        <ele>6</ele>
        <time>2026-08-16T02:02:24.000Z</time>
        <extensions>
          <ns3:TrackPointExtension>
            <ns3:atemp>33.0</ns3:atemp>
            <ns3:hr>85</ns3:hr>
          </ns3:TrackPointExtension>
        </extensions>
      </trkpt>
      <trkpt lat="31.96845523081719875335693359375" lon="118.82414518855512142181396484375">
        <ele>6.19999980926513671875</ele>
        <time>2026-08-16T02:02:27.000Z</time>
        <extensions>
          <ns3:TrackPointExtension>
            <ns3:atemp>33.0</ns3:atemp>
            <ns3:hr>86</ns3:hr>
          </ns3:TrackPointExtension>
        </extensions>
      </trkpt>
      <trkpt lat="31.9684486091136932373046875" lon="118.8241387344896793365478515625">
        <ele>6.400000095367431640625</ele>
        <time>2026-08-16T02:02:29.000Z</time>
        <extensions>
          <ns3:TrackPointExtension>
            <ns3:atemp>33.0</ns3:atemp>
            <ns3:hr>85</ns3:hr>
          </ns3:TrackPointExtension>
        </extensions>
      </trkpt>
      <trkpt lat="31.96845372207462787628173828125" lon="118.824102021753787994384765625">
        <ele>6.599999904632568359375</ele>
        <time>2026-08-16T02:02:33.000Z</time>
        <extensions>
          <ns3:TrackPointExtension>
            <ns3:atemp>33.0</ns3:atemp>
            <ns3:hr>86</ns3:hr>
          </ns3:TrackPointExtension>
        </extensions>
      </trkpt>
      <trkpt lat="31.9684507884085178375244140625" lon="118.8240844197571277618408203125">
        <ele>6.599999904632568359375</ele>
        <time>2026-08-16T02:02:35.000Z</time>
        <extensions>
          <ns3:TrackPointExtension>
            <ns3:atemp>33.0</ns3:atemp>
            <ns3:hr>85</ns3:hr>
          </ns3:TrackPointExtension>
        </extensions>
      </trkpt>
    </trkseg>
  </trk>
</gpx>
