<gpx xmlns:ns3="http://www.garmin.com/xmlschemas/TrackPointExtension/v1" xmlns="http://www.topografix.com/GPX/1/1" xmlns:xsi="http://www.w3.org/2001/XMLSchema-instance" xmlns:ns2="http://www.garmin.com/xmlschemas/GpxExtensions/v3" creator="Garmin Connect" version="1.1" xsi:schemaLocation="http://www.topografix.com/GPX/1/1 http://www.topografix.com/GPX/11.xsd">
  <extensions>
<distance>1701.75</distance>
<average_hr>106.0</average_hr>
<average_speed>1.5870000123977661</average_speed>
<start_time>2026-09-17T08:12:08+00:00</start_time>
<end_time>2026-09-17T08:30:00.489000+00:00</end_time>
<moving_time>995.0</moving_time>
<elapsed_time>1072.489</elapsed_time>
</extensions>
<metadata>
    <link href="connect.garmin.com">
      <text>Garmin Connect</text>
    </link>
    <time>2026-09-17T08:12:08.000Z</time>
  </metadata>
  <trk>
    <name>克孜勒苏柯尔克孜自治州 步行</name>
    <type>walking</type>
    <trkseg>
      <trkpt lat="39.71087786369025707244873046875" lon="76.17092519067227840423583984375">
        <ele>1309.199951171875</ele>
        <time>2026-09-17T08:12:08.000Z</time>
        <extensions>
          <ns3:TrackPointExtension>
            <ns3:hr>92</ns3:hr>
          </ns3:TrackPointExtension>
        </extensions>
      </trkpt>
      <trkpt lat="39.71193918026983737945556640625" lon="76.1702196858823299407958984375">
        <ele>1309</ele>
        <time>2026-09-17T08:12:09.000Z</time>
        <extensions>
          <ns3:TrackPointExtension>
            <ns3:hr>95</ns3:hr>
          </ns3:TrackPointExtension>
        </extensions>
      </trkpt>
      <trkpt lat="39.7117806784808635711669921875" lon="76.1703279800713062286376953125">
        <ele>1309.4000244140625</ele>
        <time>2026-09-17T08:12:14.000Z</time>
        <extensions>
          <ns3:TrackPointExtension>
            <ns3:hr>100</ns3:hr>
          </ns3:TrackPointExtension>
        </extensions>
      </trkpt>
      <trkpt lat="39.71161731518805027008056640625" lon="76.17032856680452823638916015625">
        <ele>1309.4000244140625</ele>
        <time>2026-09-17T08:12:17.000Z</time>
        <extensions>
          <ns3:TrackPointExtension>
            <ns3:hr>100</ns3:hr>
          </ns3:TrackPointExtension>
        </extensions>
      </trkpt>
      <trkpt lat="39.71143794246017932891845703125" lon="76.1703021638095378875732421875">
        <ele>1309.199951171875</ele>
        <time>2026-09-17T08:12:20.000Z</time>
        <extensions>
          <ns3:TrackPointExtension>
            <ns3:hr>100</ns3:hr>
          </ns3:TrackPointExtension>
        </extensions>
      </trkpt>
      <trkpt lat="39.71130919642746448516845703125" lon="76.170316077768802642822265625">
        <ele>1308.5999755859375</ele>
        <time>2026-09-17T08:12:26.000Z</time>
        <extensions>
          <ns3:TrackPointExtension>
            <ns3:hr>99</ns3:hr>
          </ns3:TrackPointExtension>
        </extensions>
      </trkpt>
      <trkpt lat="39.71130953170359134674072265625" lon="76.170350611209869384765625">
        <ele>1308</ele>
        <time>2026-09-17T08:12:29.000Z</time>
        <extensions>
          <ns3:TrackPointExtension>
            <ns3:hr>99</ns3:hr>
          </ns3:TrackPointExtension>
        </extensions>
      </trkpt>
      <trkpt lat="39.71131254918873310089111328125" lon="76.170363686978816986083984375">
        <ele>1307.800048828125</ele>
        <time>2026-09-17T08:12:30.000Z</time>
        <extensions>
          <ns3:TrackPointExtension>
            <ns3:hr>99</ns3:hr>
          </ns3:TrackPointExtension>
        </extensions>
      </trkpt>
      <trkpt lat="39.71130852587521076202392578125" lon="76.1703893356025218963623046875">
        <ele>1307.5999755859375</ele>
        <time>2026-09-17T08:12:32.000Z</time>
        <extensions>
          <ns3:TrackPointExtension>
            <ns3:hr>99</ns3:hr>
          </ns3:TrackPointExtension>
        </extensions>
      </trkpt>
      <trkpt lat="39.7112536244094371795654296875" lon="76.1705251224339008331298828125">
        <ele>1307.4000244140625</ele>
        <time>2026-09-17T08:12:42.000Z</time>
        <extensions>
          <ns3:TrackPointExtension>
            <ns3:hr>97</ns3:hr>
          </ns3:TrackPointExtension>
        </extensions>
      </trkpt>
      <trkpt lat="39.71120241098105907440185546875" lon="76.17058220319449901580810546875">
        <ele>1307.4000244140625</ele>
        <time>2026-09-17T08:12:48.000Z</time>
        <extensions>
          <ns3:TrackPointExtension>
            <ns3:hr>94</ns3:hr>
          </ns3:TrackPointExtension>
        </extensions>
      </trkpt>
      <trkpt lat="39.7111915983259677886962890625" lon="76.17059477604925632476806640625">
        <ele>1307.4000244140625</ele>
        <time>2026-09-17T08:12:50.000Z</time>
        <extensions>
          <ns3:TrackPointExtension>
            <ns3:hr>94</ns3:hr>
          </ns3:TrackPointExtension>
        </extensions>
      </trkpt>
      <trkpt lat="39.71113250590860843658447265625" lon="76.170667111873626708984375">
        <ele>1307.4000244140625</ele>
        <time>2026-09-17T08:12:59.000Z</time>
        <extensions>
          <ns3:TrackPointExtension>
            <ns3:hr>92</ns3:hr>
          </ns3:TrackPointExtension>
        </extensions>
      </trkpt>
      <trkpt lat="39.71111356280744075775146484375" lon="76.1706759966909885406494140625">
        <ele>1307.5999755859375</ele>
        <time>2026-09-17T08:13:04.000Z</time>
        <extensions>
          <ns3:TrackPointExtension>
            <ns3:hr>92</ns3:hr>
          </ns3:TrackPointExtension>
        </extensions>
      </trkpt>
      <trkpt lat="39.7111848928034305572509765625" lon="76.1707220971584320068359375">
        <ele>1308</ele>
        <time>2026-09-17T08:13:06.000Z</time>
        <extensions>
          <ns3:TrackPointExtension>
            <ns3:hr>92</ns3:hr>
          </ns3:TrackPointExtension>
        </extensions>
      </trkpt>
      <trkpt lat="39.71122562885284423828125" lon="76.17075403220951557159423828125">
        <ele>1309</ele>
        <time>2026-09-17T08:13:09.000Z</time>
        <extensions>
          <ns3:TrackPointExtension>
            <ns3:hr>93</ns3:hr>
          </ns3:TrackPointExtension>
        </extensions>
      </trkpt>
      <trkpt lat="39.71129125915467739105224609375" lon="76.17079024203121662139892578125">
        <ele>1309.5999755859375</ele>
        <time>2026-09-17T08:13:14.000Z</time>
        <extensions>
          <ns3:TrackPointExtension>
            <ns3:hr>96</ns3:hr>
          </ns3:TrackPointExtension>
        </extensions>
      </trkpt>
      <trkpt lat="39.71131221391260623931884765625" lon="76.170788146555423736572265625">
        <ele>1309.5999755859375</ele>
        <time>2026-09-17T08:13:15.000Z</time>
        <extensions>
          <ns3:TrackPointExtension>
            <ns3:hr>97</ns3:hr>
          </ns3:TrackPointExtension>
        </extensions>
      </trkpt>
      <trkpt lat="39.71144280396401882171630859375" lon="76.170917563140392303466796875">
        <ele>1309.5999755859375</ele>
        <time>2026-09-17T08:13:22.000Z</time>
        <extensions>
          <ns3:TrackPointExtension>
            <ns3:hr>99</ns3:hr>
          </ns3:TrackPointExtension>
        </extensions>
      </trkpt>
      <trkpt lat="39.7114500962197780609130859375" lon="76.1709304712712764739990234375">
        <ele>1309.5999755859375</ele>
        <time>2026-09-17T08:13:23.000Z</time>
        <extensions>
          <ns3:TrackPointExtension>
            <ns3:hr>99</ns3:hr>
          </ns3:TrackPointExtension>
        </extensions>
      </trkpt>
      <trkpt lat="39.711443893611431121826171875" lon="76.17096391506493091583251953125">
        <ele>1309.4000244140625</ele>
        <time>2026-09-17T08:13:29.000Z</time>
        <extensions>
          <ns3:TrackPointExtension>
            <ns3:hr>97</ns3:hr>
          </ns3:TrackPointExtension>
        </extensions>
      </trkpt>
      <trkpt lat="39.71142184920608997344970703125" lon="76.1709525994956493377685546875">
        <ele>1309.5999755859375</ele>
        <time>2026-09-17T08:13:30.000Z</time>
        <extensions>
          <ns3:TrackPointExtension>
            <ns3:hr>98</ns3:hr>
          </ns3:TrackPointExtension>
        </extensions>
      </trkpt>
      <trkpt lat="39.71140659414231777191162109375" lon="76.1709432117640972137451171875">
        <ele>1309.5999755859375</ele>
        <time>2026-09-17T08:13:31.000Z</time>
        <extensions>
          <ns3:TrackPointExtension>
            <ns3:hr>98</ns3:hr>
          </ns3:TrackPointExtension>
        </extensions>
      </trkpt>
      <trkpt lat="39.711373150348663330078125" lon="76.17092234082520008087158203125">
        <ele>1309</ele>
        <time>2026-09-17T08:13:34.000Z</time>
        <extensions>
          <ns3:TrackPointExtension>
            <ns3:hr>99</ns3:hr>
          </ns3:TrackPointExtension>
        </extensions>
      </trkpt>
      <trkpt lat="39.7113277204334735870361328125" lon="76.17092552594840526580810546875">
        <ele>1308.4000244140625</ele>
        <time>2026-09-17T08:13:36.000Z</time>
        <extensions>
          <ns3:TrackPointExtension>
            <ns3:hr>99</ns3:hr>
          </ns3:TrackPointExtension>
        </extensions>
      </trkpt>
      <trkpt lat="39.7113186679780483245849609375" lon="76.17092988453805446624755859375">
        <ele>1308</ele>
        <time>2026-09-17T08:13:37.000Z</time>
        <extensions>
          <ns3:TrackPointExtension>
            <ns3:hr>99</ns3:hr>
          </ns3:TrackPointExtension>
        </extensions>
      </trkpt>
      <trkpt lat="39.71118262968957424163818359375" lon="76.17093541659414768218994140625">
        <ele>1308.199951171875</ele>
        <time>2026-09-17T08:13:43.000Z</time>
        <extensions>
          <ns3:TrackPointExtension>
            <ns3:hr>101</ns3:hr>
          </ns3:TrackPointExtension>
        </extensions>
      </trkpt>
      <trkpt lat="39.71108271740376949310302734375" lon="76.17097212933003902435302734375">
        <ele>1308.4000244140625</ele>
        <time>2026-09-17T08:13:50.000Z</time>
        <extensions>
          <ns3:TrackPointExtension>
            <ns3:hr>101</ns3:hr>
          </ns3:TrackPointExtension>
        </extensions>
      </trkpt>
      <trkpt lat="39.7109820507466793060302734375" lon="76.17099509574472904205322265625">
        <ele>1308</ele>
        <time>2026-09-17T08:13:56.000Z</time>
        <extensions>
          <ns3:TrackPointExtension>
            <ns3:hr>99</ns3:hr>
          </ns3:TrackPointExtension>
        </extensions>
      </trkpt>
      <trkpt lat="39.71091910265386104583740234375" lon="76.17100532166659832000732421875">
        <ele>1307.5999755859375</ele>
        <time>2026-09-17T08:14:00.000Z</time>
        <extensions>
          <ns3:TrackPointExtension>
            <ns3:hr>96</ns3:hr>
          </ns3:TrackPointExtension>
        </extensions>
      </trkpt>
      <trkpt lat="39.71087333746254444122314453125" lon="76.1710203252732753753662109375">
        <ele>1307.800048828125</ele>
        <time>2026-09-17T08:14:03.000Z</time>
        <extensions>
          <ns3:TrackPointExtension>
            <ns3:hr>93</ns3:hr>
          </ns3:TrackPointExtension>
        </extensions>
      </trkpt>
      <trkpt lat="39.71085305325686931610107421875" lon="76.17104572243988513946533203125">
        <ele>1307.800048828125</ele>
        <time>2026-09-17T08:14:05.000Z</time>
        <extensions>
          <ns3:TrackPointExtension>
            <ns3:hr>93</ns3:hr>
          </ns3:TrackPointExtension>
        </extensions>
      </trkpt>
      <trkpt lat="39.7108345292508602142333984375" lon="76.17104672826826572418212890625">
        <ele>1308.199951171875</ele>
        <time>2026-09-17T08:14:10.000Z</time>
        <extensions>
          <ns3:TrackPointExtension>
            <ns3:hr>93</ns3:hr>
          </ns3:TrackPointExtension>
        </extensions>
      </trkpt>
      <trkpt lat="39.71087031997740268707275390625" lon="76.1710769869387149810791015625">
        <ele>1308.199951171875</ele>
        <time>2026-09-17T08:14:15.000Z</time>
        <extensions>
          <ns3:TrackPointExtension>
            <ns3:hr>95</ns3:hr>
          </ns3:TrackPointExtension>
        </extensions>
      </trkpt>
      <trkpt lat="39.71089915372431278228759765625" lon="76.17112149484455585479736328125">
        <ele>1308.199951171875</ele>
        <time>2026-09-17T08:14:18.000Z</time>
        <extensions>
          <ns3:TrackPointExtension>
            <ns3:hr>97</ns3:hr>
          </ns3:TrackPointExtension>
        </extensions>
      </trkpt>
      <trkpt lat="39.710901081562042236328125" lon="76.17117228917777538299560546875">
        <ele>1308.199951171875</ele>
        <time>2026-09-17T08:14:20.000Z</time>
        <extensions>
          <ns3:TrackPointExtension>
            <ns3:hr>98</ns3:hr>
          </ns3:TrackPointExtension>
        </extensions>
      </trkpt>
      <trkpt lat="39.71089077182114124298095703125" lon="76.17122341878712177276611328125">
        <ele>1308</ele>
        <time>2026-09-17T08:14:23.000Z</time>
        <extensions>
          <ns3:TrackPointExtension>
            <ns3:hr>100</ns3:hr>
          </ns3:TrackPointExtension>
        </extensions>
      </trkpt>
      <trkpt lat="39.71086495555937290191650390625" lon="76.17126851342618465423583984375">
        <ele>1308</ele>
        <time>2026-09-17T08:14:26.000Z</time>
        <extensions>
          <ns3:TrackPointExtension>
            <ns3:hr>103</ns3:hr>
          </ns3:TrackPointExtension>
        </extensions>
      </trkpt>
      <trkpt lat="39.710804186761379241943359375" lon="76.1713577806949615478515625">
        <ele>1308</ele>
        <time>2026-09-17T08:14:31.000Z</time>
        <extensions>
          <ns3:TrackPointExtension>
            <ns3:hr>103</ns3:hr>
          </ns3:TrackPointExtension>
        </extensions>
      </trkpt>
      <trkpt lat="39.71076898276805877685546875" lon="76.17138301022350788116455078125">
        <ele>1307.800048828125</ele>
        <time>2026-09-17T08:14:37.000Z</time>
        <extensions>
          <ns3:TrackPointExtension>
            <ns3:hr>103</ns3:hr>
          </ns3:TrackPointExtension>
        </extensions>
      </trkpt>
      <trkpt lat="39.71076521091163158416748046875" lon="76.1713653244078159332275390625">
        <ele>1307.4000244140625</ele>
        <time>2026-09-17T08:14:45.000Z</time>
        <extensions>
          <ns3:TrackPointExtension>
            <ns3:hr>100</ns3:hr>
          </ns3:TrackPointExtension>
        </extensions>
      </trkpt>
      <trkpt lat="39.7107644565403461456298828125" lon="76.1713639833033084869384765625">
        <ele>1307.5999755859375</ele>
        <time>2026-09-17T08:14:48.000Z</time>
        <extensions>
          <ns3:TrackPointExtension>
            <ns3:hr>96</ns3:hr>
          </ns3:TrackPointExtension>
        </extensions>
      </trkpt>
      <trkpt lat="39.7107584215700626373291015625" lon="76.171370856463909149169921875">
        <ele>1307.5999755859375</ele>
        <time>2026-09-17T08:14:49.000Z</time>
        <extensions>
          <ns3:TrackPointExtension>
            <ns3:hr>94</ns3:hr>
          </ns3:TrackPointExtension>
        </extensions>
      </trkpt>
      <trkpt lat="39.71077392809092998504638671875" lon="76.1713539250195026397705078125">
        <ele>1307.5999755859375</ele>
        <time>2026-09-17T08:14:58.000Z</time>
        <extensions>
          <ns3:TrackPointExtension>
            <ns3:hr>92</ns3:hr>
          </ns3:TrackPointExtension>
        </extensions>
      </trkpt>
      <trkpt lat="39.71074308268725872039794921875" lon="76.17136976681649684906005859375">
        <ele>1307.199951171875</ele>
        <time>2026-09-17T08:15:06.000Z</time>
        <extensions>
          <ns3:TrackPointExtension>
            <ns3:hr>90</ns3:hr>
          </ns3:TrackPointExtension>
        </extensions>
      </trkpt>
      <trkpt lat="39.7107664681971073150634765625" lon="76.17137848399579524993896484375">
        <ele>1307.199951171875</ele>
        <time>2026-09-17T08:15:09.000Z</time>
        <extensions>
          <ns3:TrackPointExtension>
            <ns3:hr>93</ns3:hr>
          </ns3:TrackPointExtension>
        </extensions>
      </trkpt>
      <trkpt lat="39.71083335578441619873046875" lon="76.1713918112218379974365234375">
        <ele>1307.199951171875</ele>
        <time>2026-09-17T08:15:13.000Z</time>
        <extensions>
          <ns3:TrackPointExtension>
            <ns3:hr>93</ns3:hr>
          </ns3:TrackPointExtension>
        </extensions>
      </trkpt>
      <trkpt lat="39.7108181007206439971923828125" lon="76.17140463553369045257568359375">
        <ele>1307.199951171875</ele>
        <time>2026-09-17T08:15:15.000Z</time>
        <extensions>
          <ns3:TrackPointExtension>
            <ns3:hr>93</ns3:hr>
          </ns3:TrackPointExtension>
        </extensions>
      </trkpt>
      <trkpt lat="39.71081600524485111236572265625" lon="76.17144151590764522552490234375">
        <ele>1307.199951171875</ele>
        <time>2026-09-17T08:15:17.000Z</time>
        <extensions>
          <ns3:TrackPointExtension>
            <ns3:hr>93</ns3:hr>
          </ns3:TrackPointExtension>
        </extensions>
      </trkpt>
      <trkpt lat="39.710858166217803955078125" lon="76.17151594720780849456787109375">
        <ele>1307</ele>
        <time>2026-09-17T08:15:22.000Z</time>
        <extensions>
          <ns3:TrackPointExtension>
            <ns3:hr>92</ns3:hr>
          </ns3:TrackPointExtension>
        </extensions>
      </trkpt>
      <trkpt lat="39.710883982479572296142578125" lon="76.1715812422335147857666015625">
        <ele>1307</ele>
        <time>2026-09-17T08:15:25.000Z</time>
        <extensions>
          <ns3:TrackPointExtension>
            <ns3:hr>92</ns3:hr>
          </ns3:TrackPointExtension>
        </extensions>
      </trkpt>
      <trkpt lat="39.7108928672969341278076171875" lon="76.17168190889060497283935546875">
        <ele>1307.5999755859375</ele>
        <time>2026-09-17T08:15:30.000Z</time>
        <extensions>
          <ns3:TrackPointExtension>
            <ns3:hr>94</ns3:hr>
          </ns3:TrackPointExtension>
        </extensions>
      </trkpt>
      <trkpt lat="39.71096101216971874237060546875" lon="76.171744354069232940673828125">
        <ele>1307.5999755859375</ele>
        <time>2026-09-17T08:15:36.000Z</time>
        <extensions>
          <ns3:TrackPointExtension>
            <ns3:hr>95</ns3:hr>
          </ns3:TrackPointExtension>
        </extensions>
      </trkpt>
      <trkpt lat="39.71099789254367351531982421875" lon="76.17176539264619350433349609375">
        <ele>1307.800048828125</ele>
        <time>2026-09-17T08:15:39.000Z</time>
        <extensions>
          <ns3:TrackPointExtension>
            <ns3:hr>100</ns3:hr>
          </ns3:TrackPointExtension>
        </extensions>
      </trkpt>
      <trkpt lat="39.711024798452854156494140625" lon="76.171798668801784515380859375">
        <ele>1307.5999755859375</ele>
        <time>2026-09-17T08:15:41.000Z</time>
        <extensions>
          <ns3:TrackPointExtension>
            <ns3:hr>103</ns3:hr>
          </ns3:TrackPointExtension>
        </extensions>
      </trkpt>
      <trkpt lat="39.71105405129492282867431640625" lon="76.17184066213667392730712890625">
        <ele>1306.800048828125</ele>
        <time>2026-09-17T08:15:44.000Z</time>
        <extensions>
          <ns3:TrackPointExtension>
            <ns3:hr>106</ns3:hr>
          </ns3:TrackPointExtension>
        </extensions>
      </trkpt>
      <trkpt lat="39.71113669686019420623779296875" lon="76.1719782091677188873291015625">
        <ele>1307.199951171875</ele>
        <time>2026-09-17T08:15:52.000Z</time>
        <extensions>
          <ns3:TrackPointExtension>
            <ns3:hr>105</ns3:hr>
          </ns3:TrackPointExtension>
        </extensions>
      </trkpt>
      <trkpt lat="39.71120827831327915191650390625" lon="76.172070242464542388916015625">
        <ele>1306.4000244140625</ele>
        <time>2026-09-17T08:15:58.000Z</time>
        <extensions>
          <ns3:TrackPointExtension>
            <ns3:hr>102</ns3:hr>
          </ns3:TrackPointExtension>
        </extensions>
      </trkpt>
      <trkpt lat="39.71124381758272647857666015625" lon="76.17210821248590946197509765625">
        <ele>1306.4000244140625</ele>
        <time>2026-09-17T08:16:01.000Z</time>
        <extensions>
          <ns3:TrackPointExtension>
            <ns3:hr>103</ns3:hr>
          </ns3:TrackPointExtension>
        </extensions>
      </trkpt>
      <trkpt lat="39.71129092387855052947998046875" lon="76.172174848616123199462890625">
        <ele>1306.800048828125</ele>
        <time>2026-09-17T08:16:06.000Z</time>
        <extensions>
          <ns3:TrackPointExtension>
            <ns3:hr>104</ns3:hr>
          </ns3:TrackPointExtension>
        </extensions>
      </trkpt>
      <trkpt lat="39.71133316867053508758544921875" lon="76.1722370423376560211181640625">
        <ele>1306</ele>
        <time>2026-09-17T08:16:10.000Z</time>
        <extensions>
          <ns3:TrackPointExtension>
            <ns3:hr>104</ns3:hr>
          </ns3:TrackPointExtension>
        </extensions>
      </trkpt>
      <trkpt lat="39.71137139014899730682373046875" lon="76.17229915224015712738037109375">
        <ele>1306</ele>
        <time>2026-09-17T08:16:14.000Z</time>
        <extensions>
          <ns3:TrackPointExtension>
            <ns3:hr>107</ns3:hr>
          </ns3:TrackPointExtension>
        </extensions>
      </trkpt>
      <trkpt lat="39.71139050088822841644287109375" lon="76.172329746186733245849609375">
        <ele>1306</ele>
        <time>2026-09-17T08:16:16.000Z</time>
        <extensions>
          <ns3:TrackPointExtension>
            <ns3:hr>109</ns3:hr>
          </ns3:TrackPointExtension>
        </extensions>
      </trkpt>
      <trkpt lat="39.71143207512795925140380859375" lon="76.17240023799240589141845703125">
        <ele>1306.800048828125</ele>
        <time>2026-09-17T08:16:21.000Z</time>
        <extensions>
          <ns3:TrackPointExtension>
            <ns3:hr>110</ns3:hr>
          </ns3:TrackPointExtension>
        </extensions>
      </trkpt>
      <trkpt lat="39.71152544952929019927978515625" lon="76.17250702343881130218505859375">
        <ele>1306.5999755859375</ele>
        <time>2026-09-17T08:16:29.000Z</time>
        <extensions>
          <ns3:TrackPointExtension>
            <ns3:hr>112</ns3:hr>
          </ns3:TrackPointExtension>
        </extensions>
      </trkpt>
      <trkpt lat="39.71163324080407619476318359375" lon="76.17262504063546657562255859375">
        <ele>1306.5999755859375</ele>
        <time>2026-09-17T08:16:38.000Z</time>
        <extensions>
          <ns3:TrackPointExtension>
            <ns3:hr>112</ns3:hr>
          </ns3:TrackPointExtension>
        </extensions>
      </trkpt>
      <trkpt lat="39.71177103929221630096435546875" lon="76.17278194986283779144287109375">
        <ele>1306.199951171875</ele>
        <time>2026-09-17T08:16:50.000Z</time>
        <extensions>
          <ns3:TrackPointExtension>
            <ns3:hr>112</ns3:hr>
          </ns3:TrackPointExtension>
        </extensions>
      </trkpt>
      <trkpt lat="39.71179065294563770294189453125" lon="76.17280793376266956329345703125">
        <ele>1306.199951171875</ele>
        <time>2026-09-17T08:16:52.000Z</time>
        <extensions>
          <ns3:TrackPointExtension>
            <ns3:hr>109</ns3:hr>
          </ns3:TrackPointExtension>
        </extensions>
      </trkpt>
      <trkpt lat="39.71181713975965976715087890625" lon="76.17284682579338550567626953125">
        <ele>1306</ele>
        <time>2026-09-17T08:16:55.000Z</time>
        <extensions>
          <ns3:TrackPointExtension>
            <ns3:hr>106</ns3:hr>
          </ns3:TrackPointExtension>
        </extensions>
      </trkpt>
      <trkpt lat="39.711886458098888397216796875" lon="76.1729307286441326141357421875">
        <ele>1306</ele>
        <time>2026-09-17T08:17:01.000Z</time>
        <extensions>
          <ns3:TrackPointExtension>
            <ns3:hr>104</ns3:hr>
          </ns3:TrackPointExtension>
        </extensions>
      </trkpt>
      <trkpt lat="39.711994417011737823486328125" lon="76.17306861095130443572998046875">
        <ele>1305.800048828125</ele>
        <time>2026-09-17T08:17:10.000Z</time>
        <extensions>
          <ns3:TrackPointExtension>
            <ns3:hr>103</ns3:hr>
          </ns3:TrackPointExtension>
        </extensions>
      </trkpt>
      <trkpt lat="39.71203976310789585113525390625" lon="76.17313751019537448883056640625">
        <ele>1305</ele>
        <time>2026-09-17T08:17:15.000Z</time>
        <extensions>
          <ns3:TrackPointExtension>
            <ns3:hr>102</ns3:hr>
          </ns3:TrackPointExtension>
        </extensions>
      </trkpt>
      <trkpt lat="39.71207312308251857757568359375" lon="76.17318092845380306243896484375">
        <ele>1304.5999755859375</ele>
        <time>2026-09-17T08:17:18.000Z</time>
        <extensions>
          <ns3:TrackPointExtension>
            <ns3:hr>102</ns3:hr>
          </ns3:TrackPointExtension>
        </extensions>
      </trkpt>
      <trkpt lat="39.71213984303176403045654296875" lon="76.1732683517038822174072265625">
        <ele>1304.5999755859375</ele>
        <time>2026-09-17T08:17:24.000Z</time>
        <extensions>
          <ns3:TrackPointExtension>
            <ns3:hr>106</ns3:hr>
          </ns3:TrackPointExtension>
        </extensions>
      </trkpt>
      <trkpt lat="39.71216373145580291748046875" lon="76.17329358123242855072021484375">
        <ele>1304.800048828125</ele>
        <time>2026-09-17T08:17:26.000Z</time>
        <extensions>
          <ns3:TrackPointExtension>
            <ns3:hr>109</ns3:hr>
          </ns3:TrackPointExtension>
        </extensions>
      </trkpt>
      <trkpt lat="39.71219122409820556640625" lon="76.173312105238437652587890625">
        <ele>1305</ele>
        <time>2026-09-17T08:17:28.000Z</time>
        <extensions>
          <ns3:TrackPointExtension>
            <ns3:hr>111</ns3:hr>
          </ns3:TrackPointExtension>
        </extensions>
      </trkpt>
      <trkpt lat="39.712290465831756591796875" lon="76.17342819459736347198486328125">
        <ele>1305.4000244140625</ele>
        <time>2026-09-17T08:17:36.000Z</time>
        <extensions>
          <ns3:TrackPointExtension>
            <ns3:hr>112</ns3:hr>
          </ns3:TrackPointExtension>
        </extensions>
      </trkpt>
      <trkpt lat="39.7123597003519535064697265625" lon="76.17355442605912685394287109375">
        <ele>1305</ele>
        <time>2026-09-17T08:17:43.000Z</time>
        <extensions>
          <ns3:TrackPointExtension>
            <ns3:hr>111</ns3:hr>
          </ns3:TrackPointExtension>
        </extensions>
      </trkpt>
      <trkpt lat="39.71246958710253238677978515625" lon="76.1737099103629589080810546875">
        <ele>1304.5999755859375</ele>
        <time>2026-09-17T08:17:54.000Z</time>
        <extensions>
          <ns3:TrackPointExtension>
            <ns3:hr>108</ns3:hr>
          </ns3:TrackPointExtension>
        </extensions>
      </trkpt>
      <trkpt lat="39.7125102393329143524169921875" lon="76.1737625487148761749267578125">
        <ele>1304.5999755859375</ele>
        <time>2026-09-17T08:17:58.000Z</time>
        <extensions>
          <ns3:TrackPointExtension>
            <ns3:hr>105</ns3:hr>
          </ns3:TrackPointExtension>
        </extensions>
      </trkpt>
      <trkpt lat="39.71256262622773647308349609375" lon="76.1738560907542705535888671875">
        <ele>1304.800048828125</ele>
        <time>2026-09-17T08:18:04.000Z</time>
        <extensions>
          <ns3:TrackPointExtension>
            <ns3:hr>106</ns3:hr>
          </ns3:TrackPointExtension>
        </extensions>
      </trkpt>
      <trkpt lat="39.71259690821170806884765625" lon="76.173895485699176788330078125">
        <ele>1304.5999755859375</ele>
        <time>2026-09-17T08:18:07.000Z</time>
        <extensions>
          <ns3:TrackPointExtension>
            <ns3:hr>109</ns3:hr>
          </ns3:TrackPointExtension>
        </extensions>
      </trkpt>
      <trkpt lat="39.7126272507011890411376953125" lon="76.1739395745098590850830078125">
        <ele>1304.5999755859375</ele>
        <time>2026-09-17T08:18:10.000Z</time>
        <extensions>
          <ns3:TrackPointExtension>
            <ns3:hr>112</ns3:hr>
          </ns3:TrackPointExtension>
        </extensions>
      </trkpt>
      <trkpt lat="39.712642841041088104248046875" lon="76.17397000081837177276611328125">
        <ele>1304.800048828125</ele>
        <time>2026-09-17T08:18:12.000Z</time>
        <extensions>
          <ns3:TrackPointExtension>
            <ns3:hr>112</ns3:hr>
          </ns3:TrackPointExtension>
        </extensions>
      </trkpt>
      <trkpt lat="39.712736047804355621337890625" lon="76.1740844137966632843017578125">
        <ele>1304.5999755859375</ele>
        <time>2026-09-17T08:18:20.000Z</time>
        <extensions>
          <ns3:TrackPointExtension>
            <ns3:hr>111</ns3:hr>
          </ns3:TrackPointExtension>
        </extensions>
      </trkpt>
      <trkpt lat="39.7128337807953357696533203125" lon="76.17420603521168231964111328125">
        <ele>1304.4000244140625</ele>
        <time>2026-09-17T08:18:28.000Z</time>
        <extensions>
          <ns3:TrackPointExtension>
            <ns3:hr>113</ns3:hr>
          </ns3:TrackPointExtension>
        </extensions>
      </trkpt>
      <trkpt lat="39.71289991401135921478271484375" lon="76.17430217564105987548828125">
        <ele>1304.5999755859375</ele>
        <time>2026-09-17T08:18:35.000Z</time>
        <extensions>
          <ns3:TrackPointExtension>
            <ns3:hr>110</ns3:hr>
          </ns3:TrackPointExtension>
        </extensions>
      </trkpt>
      <trkpt lat="39.71290980465710163116455078125" lon="76.1743130721151828765869140625">
        <ele>1304.5999755859375</ele>
        <time>2026-09-17T08:18:36.000Z</time>
        <extensions>
          <ns3:TrackPointExtension>
            <ns3:hr>110</ns3:hr>
          </ns3:TrackPointExtension>
        </extensions>
      </trkpt>
      <trkpt lat="39.712979458272457122802734375" lon="76.17439211346209049224853515625">
        <ele>1304.4000244140625</ele>
        <time>2026-09-17T08:18:42.000Z</time>
        <extensions>
          <ns3:TrackPointExtension>
            <ns3:hr>111</ns3:hr>
          </ns3:TrackPointExtension>
        </extensions>
      </trkpt>
      <trkpt lat="39.71305229701101779937744140625" lon="76.17449001409113407135009765625">
        <ele>1304.4000244140625</ele>
        <time>2026-09-17T08:18:49.000Z</time>
        <extensions>
          <ns3:TrackPointExtension>
            <ns3:hr>113</ns3:hr>
          </ns3:TrackPointExtension>
        </extensions>
      </trkpt>
      <trkpt lat="39.71315707080066204071044921875" lon="76.17462647147476673126220703125">
        <ele>1304.4000244140625</ele>
        <time>2026-09-17T08:18:57.000Z</time>
        <extensions>
          <ns3:TrackPointExtension>
            <ns3:hr>112</ns3:hr>
          </ns3:TrackPointExtension>
        </extensions>
      </trkpt>
      <trkpt lat="39.7132428176701068878173828125" lon="76.17474549449980258941650390625">
        <ele>1304</ele>
        <time>2026-09-17T08:19:05.000Z</time>
        <extensions>
          <ns3:TrackPointExtension>
            <ns3:hr>113</ns3:hr>
          </ns3:TrackPointExtension>
        </extensions>
      </trkpt>
      <trkpt lat="39.71327290870249271392822265625" lon="76.1747861467301845550537109375">
        <ele>1304</ele>
        <time>2026-09-17T08:19:08.000Z</time>
        <extensions>
          <ns3:TrackPointExtension>
            <ns3:hr>112</ns3:hr>
          </ns3:TrackPointExtension>
        </extensions>
      </trkpt>
      <trkpt lat="39.71335756592452526092529296875" lon="76.17490567266941070556640625">
        <ele>1303.4000244140625</ele>
        <time>2026-09-17T08:19:16.000Z</time>
        <extensions>
          <ns3:TrackPointExtension>
            <ns3:hr>113</ns3:hr>
          </ns3:TrackPointExtension>
        </extensions>
      </trkpt>
      <trkpt lat="39.71347508020699024200439453125" lon="76.1750419624149799346923828125">
        <ele>1303.4000244140625</ele>
        <time>2026-09-17T08:19:26.000Z</time>
        <extensions>
          <ns3:TrackPointExtension>
            <ns3:hr>110</ns3:hr>
          </ns3:TrackPointExtension>
        </extensions>
      </trkpt>
      <trkpt lat="39.71348832361400127410888671875" lon="76.17505579255521297454833984375">
        <ele>1303.199951171875</ele>
        <time>2026-09-17T08:19:27.000Z</time>
        <extensions>
          <ns3:TrackPointExtension>
            <ns3:hr>110</ns3:hr>
          </ns3:TrackPointExtension>
        </extensions>
      </trkpt>
      <trkpt lat="39.71351045183837413787841796875" lon="76.1750832013785839080810546875">
        <ele>1302.800048828125</ele>
        <time>2026-09-17T08:19:29.000Z</time>
        <extensions>
          <ns3:TrackPointExtension>
            <ns3:hr>110</ns3:hr>
          </ns3:TrackPointExtension>
        </extensions>
      </trkpt>
      <trkpt lat="39.71357457339763641357421875" lon="76.17516743950545787811279296875">
        <ele>1303</ele>
        <time>2026-09-17T08:19:35.000Z</time>
        <extensions>
          <ns3:TrackPointExtension>
            <ns3:hr>113</ns3:hr>
          </ns3:TrackPointExtension>
        </extensions>
      </trkpt>
      <trkpt lat="39.7135878168046474456787109375" lon="76.17518194019794464111328125">
        <ele>1303</ele>
        <time>2026-09-17T08:19:36.000Z</time>
        <extensions>
          <ns3:TrackPointExtension>
            <ns3:hr>113</ns3:hr>
          </ns3:TrackPointExtension>
        </extensions>
      </trkpt>
      <trkpt lat="39.71365914680063724517822265625" lon="76.17529300041496753692626953125">
        <ele>1303.4000244140625</ele>
        <time>2026-09-17T08:19:43.000Z</time>
        <extensions>
          <ns3:TrackPointExtension>
            <ns3:hr>114</ns3:hr>
          </ns3:TrackPointExtension>
        </extensions>
      </trkpt>
      <trkpt lat="39.7137313149869441986083984375" lon="76.17540330626070499420166015625">
        <ele>1303.4000244140625</ele>
        <time>2026-09-17T08:19:50.000Z</time>
        <extensions>
          <ns3:TrackPointExtension>
            <ns3:hr>114</ns3:hr>
          </ns3:TrackPointExtension>
        </extensions>
      </trkpt>
      <trkpt lat="39.71381924115121364593505859375" lon="76.17550053633749485015869140625">
        <ele>1303.199951171875</ele>
        <time>2026-09-17T08:19:58.000Z</time>
        <extensions>
          <ns3:TrackPointExtension>
            <ns3:hr>113</ns3:hr>
          </ns3:TrackPointExtension>
        </extensions>
      </trkpt>
      <trkpt lat="39.71384237520396709442138671875" lon="76.1755301244556903839111328125">
        <ele>1303</ele>
        <time>2026-09-17T08:20:00.000Z</time>
        <extensions>
          <ns3:TrackPointExtension>
            <ns3:hr>110</ns3:hr>
          </ns3:TrackPointExtension>
        </extensions>
      </trkpt>
      <trkpt lat="39.713940359652042388916015625" lon="76.1756424419581890106201171875">
        <ele>1302.800048828125</ele>
        <time>2026-09-17T08:20:09.000Z</time>
        <extensions>
          <ns3:TrackPointExtension>
            <ns3:hr>109</ns3:hr>
          </ns3:TrackPointExtension>
        </extensions>
      </trkpt>
      <trkpt lat="39.7140297107398509979248046875" lon="76.17569466121494770050048828125">
        <ele>1302.5999755859375</ele>
        <time>2026-09-17T08:20:16.000Z</time>
        <extensions>
          <ns3:TrackPointExtension>
            <ns3:hr>109</ns3:hr>
          </ns3:TrackPointExtension>
        </extensions>
      </trkpt>
      <trkpt lat="39.71409986726939678192138671875" lon="76.175807230174541473388671875">
        <ele>1303</ele>
        <time>2026-09-17T08:20:24.000Z</time>
        <extensions>
          <ns3:TrackPointExtension>
            <ns3:hr>110</ns3:hr>
          </ns3:TrackPointExtension>
        </extensions>
      </trkpt>
      <trkpt lat="39.71410305239260196685791015625" lon="76.17582307197153568267822265625">
        <ele>1302.800048828125</ele>
        <time>2026-09-17T08:20:25.000Z</time>
        <extensions>
          <ns3:TrackPointExtension>
            <ns3:hr>110</ns3:hr>
          </ns3:TrackPointExtension>
        </extensions>
      </trkpt>
      <trkpt lat="39.7141675092279911041259765625" lon="76.1759388260543346405029296875">
        <ele>1302.5999755859375</ele>
        <time>2026-09-17T08:20:32.000Z</time>
        <extensions>
          <ns3:TrackPointExtension>
            <ns3:hr>111</ns3:hr>
          </ns3:TrackPointExtension>
        </extensions>
      </trkpt>
      <trkpt lat="39.71422241069376468658447265625" lon="76.176015771925449371337890625">
        <ele>1302</ele>
        <time>2026-09-17T08:20:37.000Z</time>
        <extensions>
          <ns3:TrackPointExtension>
            <ns3:hr>112</ns3:hr>
          </ns3:TrackPointExtension>
        </extensions>
      </trkpt>
      <trkpt lat="39.71435702405869960784912109375" lon="76.17619045078754425048828125">
        <ele>1302.5999755859375</ele>
        <time>2026-09-17T08:20:49.000Z</time>
        <extensions>
          <ns3:TrackPointExtension>
            <ns3:hr>111</ns3:hr>
          </ns3:TrackPointExtension>
        </extensions>
      </trkpt>
      <trkpt lat="39.71445861272513866424560546875" lon="76.1763096414506435394287109375">
        <ele>1302.4000244140625</ele>
        <time>2026-09-17T08:20:58.000Z</time>
        <extensions>
          <ns3:TrackPointExtension>
            <ns3:hr>111</ns3:hr>
          </ns3:TrackPointExtension>
        </extensions>
      </trkpt>
      <trkpt lat="39.71454695798456668853759765625" lon="76.17642824538052082061767578125">
        <ele>1302.5999755859375</ele>
        <time>2026-09-17T08:21:06.000Z</time>
        <extensions>
          <ns3:TrackPointExtension>
            <ns3:hr>111</ns3:hr>
          </ns3:TrackPointExtension>
        </extensions>
      </trkpt>
      <trkpt lat="39.71458534710109233856201171875" lon="76.17648356594145298004150390625">
        <ele>1302.4000244140625</ele>
        <time>2026-09-17T08:21:10.000Z</time>
        <extensions>
          <ns3:TrackPointExtension>
            <ns3:hr>108</ns3:hr>
          </ns3:TrackPointExtension>
        </extensions>
      </trkpt>
      <trkpt lat="39.7146409191191196441650390625" lon="76.17655497975647449493408203125">
        <ele>1302.199951171875</ele>
        <time>2026-09-17T08:21:15.000Z</time>
        <extensions>
          <ns3:TrackPointExtension>
            <ns3:hr>107</ns3:hr>
          </ns3:TrackPointExtension>
        </extensions>
      </trkpt>
      <trkpt lat="39.71476078033447265625" lon="76.176711805164813995361328125">
        <ele>1302.199951171875</ele>
        <time>2026-09-17T08:21:26.000Z</time>
        <extensions>
          <ns3:TrackPointExtension>
            <ns3:hr>104</ns3:hr>
          </ns3:TrackPointExtension>
        </extensions>
      </trkpt>
      <trkpt lat="39.71477142535150051116943359375" lon="76.17672798223793506622314453125">
        <ele>1302.199951171875</ele>
        <time>2026-09-17T08:21:27.000Z</time>
        <extensions>
          <ns3:TrackPointExtension>
            <ns3:hr>104</ns3:hr>
          </ns3:TrackPointExtension>
        </extensions>
      </trkpt>
      <trkpt lat="39.7148316912353038787841796875" lon="76.176809035241603851318359375">
        <ele>1301.800048828125</ele>
        <time>2026-09-17T08:21:33.000Z</time>
        <extensions>
          <ns3:TrackPointExtension>
            <ns3:hr>104</ns3:hr>
          </ns3:TrackPointExtension>
        </extensions>
      </trkpt>
      <trkpt lat="39.7148725949227809906005859375" lon="76.17685991339385509490966796875">
        <ele>1301.199951171875</ele>
        <time>2026-09-17T08:21:37.000Z</time>
        <extensions>
          <ns3:TrackPointExtension>
            <ns3:hr>104</ns3:hr>
          </ns3:TrackPointExtension>
        </extensions>
      </trkpt>
      <trkpt lat="39.7149111516773700714111328125" lon="76.17690769024193286895751953125">
        <ele>1301.199951171875</ele>
        <time>2026-09-17T08:21:41.000Z</time>
        <extensions>
          <ns3:TrackPointExtension>
            <ns3:hr>107</ns3:hr>
          </ns3:TrackPointExtension>
        </extensions>
      </trkpt>
      <trkpt lat="39.71496135927736759185791015625" lon="76.1769573949277400970458984375">
        <ele>1301.199951171875</ele>
        <time>2026-09-17T08:21:45.000Z</time>
        <extensions>
          <ns3:TrackPointExtension>
            <ns3:hr>109</ns3:hr>
          </ns3:TrackPointExtension>
        </extensions>
      </trkpt>
      <trkpt lat="39.71504081971943378448486328125" lon="76.17705772630870342254638671875">
        <ele>1301.199951171875</ele>
        <time>2026-09-17T08:21:52.000Z</time>
        <extensions>
          <ns3:TrackPointExtension>
            <ns3:hr>108</ns3:hr>
          </ns3:TrackPointExtension>
        </extensions>
      </trkpt>
      <trkpt lat="39.715059511363506317138671875" lon="76.17708773352205753326416015625">
        <ele>1301</ele>
        <time>2026-09-17T08:21:54.000Z</time>
        <extensions>
          <ns3:TrackPointExtension>
            <ns3:hr>108</ns3:hr>
          </ns3:TrackPointExtension>
        </extensions>
      </trkpt>
      <trkpt lat="39.71513184718787670135498046875" lon="76.17718311958014965057373046875">
        <ele>1301.5999755859375</ele>
        <time>2026-09-17T08:22:01.000Z</time>
        <extensions>
          <ns3:TrackPointExtension>
            <ns3:hr>108</ns3:hr>
          </ns3:TrackPointExtension>
        </extensions>
      </trkpt>
      <trkpt lat="39.7152100503444671630859375" lon="76.1772802658379077911376953125">
        <ele>1301.199951171875</ele>
        <time>2026-09-17T08:22:08.000Z</time>
        <extensions>
          <ns3:TrackPointExtension>
            <ns3:hr>109</ns3:hr>
          </ns3:TrackPointExtension>
        </extensions>
      </trkpt>
      <trkpt lat="39.715258665382862091064453125" lon="76.177340783178806304931640625">
        <ele>1301.4000244140625</ele>
        <time>2026-09-17T08:22:12.000Z</time>
        <extensions>
          <ns3:TrackPointExtension>
            <ns3:hr>112</ns3:hr>
          </ns3:TrackPointExtension>
        </extensions>
      </trkpt>
      <trkpt lat="39.7153067775070667266845703125" lon="76.17738068103790283203125">
        <ele>1301.199951171875</ele>
        <time>2026-09-17T08:22:16.000Z</time>
        <extensions>
          <ns3:TrackPointExtension>
            <ns3:hr>114</ns3:hr>
          </ns3:TrackPointExtension>
        </extensions>
      </trkpt>
      <trkpt lat="39.71543158404529094696044921875" lon="76.177517138421535491943359375">
        <ele>1301.199951171875</ele>
        <time>2026-09-17T08:22:27.000Z</time>
        <extensions>
          <ns3:TrackPointExtension>
            <ns3:hr>113</ns3:hr>
          </ns3:TrackPointExtension>
        </extensions>
      </trkpt>
      <trkpt lat="39.71546729095280170440673828125" lon="76.177547313272953033447265625">
        <ele>1301.199951171875</ele>
        <time>2026-09-17T08:22:30.000Z</time>
        <extensions>
          <ns3:TrackPointExtension>
            <ns3:hr>110</ns3:hr>
          </ns3:TrackPointExtension>
        </extensions>
      </trkpt>
      <trkpt lat="39.71551246941089630126953125" lon="76.17762769572436809539794921875">
        <ele>1301</ele>
        <time>2026-09-17T08:22:35.000Z</time>
        <extensions>
          <ns3:TrackPointExtension>
            <ns3:hr>109</ns3:hr>
          </ns3:TrackPointExtension>
        </extensions>
      </trkpt>
      <trkpt lat="39.715611375868320465087890625" lon="76.17781360633671283721923828125">
        <ele>1300.800048828125</ele>
        <time>2026-09-17T08:22:46.000Z</time>
        <extensions>
          <ns3:TrackPointExtension>
            <ns3:hr>108</ns3:hr>
          </ns3:TrackPointExtension>
        </extensions>
      </trkpt>
      <trkpt lat="39.71575780771672725677490234375" lon="76.17798744700849056243896484375">
        <ele>1300.4000244140625</ele>
        <time>2026-09-17T08:22:59.000Z</time>
        <extensions>
          <ns3:TrackPointExtension>
            <ns3:hr>109</ns3:hr>
          </ns3:TrackPointExtension>
        </extensions>
      </trkpt>
      <trkpt lat="39.71586048603057861328125" lon="76.17811099626123905181884765625">
        <ele>1300.800048828125</ele>
        <time>2026-09-17T08:23:08.000Z</time>
        <extensions>
          <ns3:TrackPointExtension>
            <ns3:hr>109</ns3:hr>
          </ns3:TrackPointExtension>
        </extensions>
      </trkpt>
      <trkpt lat="39.71593667753040790557861328125" lon="76.1782498843967914581298828125">
        <ele>1300.5999755859375</ele>
        <time>2026-09-17T08:23:17.000Z</time>
        <extensions>
          <ns3:TrackPointExtension>
            <ns3:hr>108</ns3:hr>
          </ns3:TrackPointExtension>
        </extensions>
      </trkpt>
      <trkpt lat="39.71600641496479511260986328125" lon="76.1783705838024616241455078125">
        <ele>1300.4000244140625</ele>
        <time>2026-09-17T08:23:25.000Z</time>
        <extensions>
          <ns3:TrackPointExtension>
            <ns3:hr>107</ns3:hr>
          </ns3:TrackPointExtension>
        </extensions>
      </trkpt>
      <trkpt lat="39.715988896787166595458984375" lon="76.17852338589727878570556640625">
        <ele>1300.199951171875</ele>
        <time>2026-09-17T08:23:33.000Z</time>
        <extensions>
          <ns3:TrackPointExtension>
            <ns3:hr>106</ns3:hr>
          </ns3:TrackPointExtension>
        </extensions>
      </trkpt>
      <trkpt lat="39.71599551849067211151123046875" lon="76.178715415298938751220703125">
        <ele>1299.800048828125</ele>
        <time>2026-09-17T08:23:43.000Z</time>
        <extensions>
          <ns3:TrackPointExtension>
            <ns3:hr>107</ns3:hr>
          </ns3:TrackPointExtension>
        </extensions>
      </trkpt>
      <trkpt lat="39.7160480730235576629638671875" lon="76.178879700601100921630859375">
        <ele>1299.5999755859375</ele>
        <time>2026-09-17T08:23:52.000Z</time>
        <extensions>
          <ns3:TrackPointExtension>
            <ns3:hr>108</ns3:hr>
          </ns3:TrackPointExtension>
        </extensions>
      </trkpt>
      <trkpt lat="39.716154523193836212158203125" lon="76.17906217463314533233642578125">
        <ele>1299.5999755859375</ele>
        <time>2026-09-17T08:24:04.000Z</time>
        <extensions>
          <ns3:TrackPointExtension>
            <ns3:hr>108</ns3:hr>
          </ns3:TrackPointExtension>
        </extensions>
      </trkpt>
      <trkpt lat="39.71616692841053009033203125" lon="76.1790718138217926025390625">
        <ele>1299.5999755859375</ele>
        <time>2026-09-17T08:24:05.000Z</time>
        <extensions>
          <ns3:TrackPointExtension>
            <ns3:hr>108</ns3:hr>
          </ns3:TrackPointExtension>
        </extensions>
      </trkpt>
      <trkpt lat="39.716271199285984039306640625" lon="76.17917180992662906646728515625">
        <ele>1299.4000244140625</ele>
        <time>2026-09-17T08:24:14.000Z</time>
        <extensions>
          <ns3:TrackPointExtension>
            <ns3:hr>108</ns3:hr>
          </ns3:TrackPointExtension>
        </extensions>
      </trkpt>
      <trkpt lat="39.71638762392103672027587890625" lon="76.179233752191066741943359375">
        <ele>1298.800048828125</ele>
        <time>2026-09-17T08:24:23.000Z</time>
        <extensions>
          <ns3:TrackPointExtension>
            <ns3:hr>109</ns3:hr>
          </ns3:TrackPointExtension>
        </extensions>
      </trkpt>
      <trkpt lat="39.7164876200258731842041015625" lon="76.17923953570425510406494140625">
        <ele>1298.800048828125</ele>
        <time>2026-09-17T08:24:30.000Z</time>
        <extensions>
          <ns3:TrackPointExtension>
            <ns3:hr>112</ns3:hr>
          </ns3:TrackPointExtension>
        </extensions>
      </trkpt>
      <trkpt lat="39.71654537133872509002685546875" lon="76.17922176606953144073486328125">
        <ele>1299.4000244140625</ele>
        <time>2026-09-17T08:24:34.000Z</time>
        <extensions>
          <ns3:TrackPointExtension>
            <ns3:hr>114</ns3:hr>
          </ns3:TrackPointExtension>
        </extensions>
      </trkpt>
      <trkpt lat="39.7167005203664302825927734375" lon="76.1792144738137722015380859375">
        <ele>1299.4000244140625</ele>
        <time>2026-09-17T08:24:44.000Z</time>
        <extensions>
          <ns3:TrackPointExtension>
            <ns3:hr>112</ns3:hr>
          </ns3:TrackPointExtension>
        </extensions>
      </trkpt>
      <trkpt lat="39.7168326191604137420654296875" lon="76.1793093569576740264892578125">
        <ele>1299.199951171875</ele>
        <time>2026-09-17T08:24:54.000Z</time>
        <extensions>
          <ns3:TrackPointExtension>
            <ns3:hr>113</ns3:hr>
          </ns3:TrackPointExtension>
        </extensions>
      </trkpt>
      <trkpt lat="39.71692121587693691253662109375" lon="76.17944187484681606292724609375">
        <ele>1299</ele>
        <time>2026-09-17T08:25:03.000Z</time>
        <extensions>
          <ns3:TrackPointExtension>
            <ns3:hr>112</ns3:hr>
          </ns3:TrackPointExtension>
        </extensions>
      </trkpt>
      <trkpt lat="39.71703286282718181610107421875" lon="76.179582439363002777099609375">
        <ele>1298.800048828125</ele>
        <time>2026-09-17T08:25:13.000Z</time>
        <extensions>
          <ns3:TrackPointExtension>
            <ns3:hr>109</ns3:hr>
          </ns3:TrackPointExtension>
        </extensions>
      </trkpt>
      <trkpt lat="39.7170673124492168426513671875" lon="76.17961253039538860321044921875">
        <ele>1298.4000244140625</ele>
        <time>2026-09-17T08:25:16.000Z</time>
        <extensions>
          <ns3:TrackPointExtension>
            <ns3:hr>109</ns3:hr>
          </ns3:TrackPointExtension>
        </extensions>
      </trkpt>
      <trkpt lat="39.71714333631098270416259765625" lon="76.1796972714364528656005859375">
        <ele>1298</ele>
        <time>2026-09-17T08:25:23.000Z</time>
        <extensions>
          <ns3:TrackPointExtension>
            <ns3:hr>109</ns3:hr>
          </ns3:TrackPointExtension>
        </extensions>
      </trkpt>
      <trkpt lat="39.71721433103084564208984375" lon="76.17982107214629650115966796875">
        <ele>1298.4000244140625</ele>
        <time>2026-09-17T08:25:31.000Z</time>
        <extensions>
          <ns3:TrackPointExtension>
            <ns3:hr>111</ns3:hr>
          </ns3:TrackPointExtension>
        </extensions>
      </trkpt>
      <trkpt lat="39.717313908040523529052734375" lon="76.1799336411058902740478515625">
        <ele>1298.5999755859375</ele>
        <time>2026-09-17T08:25:40.000Z</time>
        <extensions>
          <ns3:TrackPointExtension>
            <ns3:hr>112</ns3:hr>
          </ns3:TrackPointExtension>
        </extensions>
      </trkpt>
      <trkpt lat="39.71737232990562915802001953125" lon="76.1800234951078891754150390625">
        <ele>1298.4000244140625</ele>
        <time>2026-09-17T08:25:46.000Z</time>
        <extensions>
          <ns3:TrackPointExtension>
            <ns3:hr>116</ns3:hr>
          </ns3:TrackPointExtension>
        </extensions>
      </trkpt>
      <trkpt lat="39.71741457469761371612548828125" lon="76.18007990531623363494873046875">
        <ele>1298.199951171875</ele>
        <time>2026-09-17T08:25:50.000Z</time>
        <extensions>
          <ns3:TrackPointExtension>
            <ns3:hr>119</ns3:hr>
          </ns3:TrackPointExtension>
        </extensions>
      </trkpt>
      <trkpt lat="39.71748347394168376922607421875" lon="76.1801527440547943115234375">
        <ele>1298.199951171875</ele>
        <time>2026-09-17T08:25:56.000Z</time>
        <extensions>
          <ns3:TrackPointExtension>
            <ns3:hr>116</ns3:hr>
          </ns3:TrackPointExtension>
        </extensions>
      </trkpt>
      <trkpt lat="39.71751339733600616455078125" lon="76.18019901216030120849609375">
        <ele>1298.199951171875</ele>
        <time>2026-09-17T08:25:59.000Z</time>
        <extensions>
          <ns3:TrackPointExtension>
            <ns3:hr>113</ns3:hr>
          </ns3:TrackPointExtension>
        </extensions>
      </trkpt>
      <trkpt lat="39.71756092272698879241943359375" lon="76.180240251123905181884765625">
        <ele>1298</ele>
        <time>2026-09-17T08:26:03.000Z</time>
        <extensions>
          <ns3:TrackPointExtension>
            <ns3:hr>111</ns3:hr>
          </ns3:TrackPointExtension>
        </extensions>
      </trkpt>
      <trkpt lat="39.71766519360244274139404296875" lon="76.1803473718464374542236328125">
        <ele>1297.800048828125</ele>
        <time>2026-09-17T08:26:12.000Z</time>
        <extensions>
          <ns3:TrackPointExtension>
            <ns3:hr>110</ns3:hr>
          </ns3:TrackPointExtension>
        </extensions>
      </trkpt>
      <trkpt lat="39.7177755832672119140625" lon="76.1804771237075328826904296875">
        <ele>1297.800048828125</ele>
        <time>2026-09-17T08:26:23.000Z</time>
        <extensions>
          <ns3:TrackPointExtension>
            <ns3:hr>109</ns3:hr>
          </ns3:TrackPointExtension>
        </extensions>
      </trkpt>
      <trkpt lat="39.7178122960031032562255859375" lon="76.18052682839334011077880859375">
        <ele>1297.199951171875</ele>
        <time>2026-09-17T08:26:26.000Z</time>
        <extensions>
          <ns3:TrackPointExtension>
            <ns3:hr>108</ns3:hr>
          </ns3:TrackPointExtension>
        </extensions>
      </trkpt>
      <trkpt lat="39.71787541173398494720458984375" lon="76.180612407624721527099609375">
        <ele>1296.800048828125</ele>
        <time>2026-09-17T08:26:32.000Z</time>
        <extensions>
          <ns3:TrackPointExtension>
            <ns3:hr>108</ns3:hr>
          </ns3:TrackPointExtension>
        </extensions>
      </trkpt>
      <trkpt lat="39.71797297708690166473388671875" lon="76.1807312630116939544677734375">
        <ele>1297.800048828125</ele>
        <time>2026-09-17T08:26:41.000Z</time>
        <extensions>
          <ns3:TrackPointExtension>
            <ns3:hr>107</ns3:hr>
          </ns3:TrackPointExtension>
        </extensions>
      </trkpt>
      <trkpt lat="39.7180389426648616790771484375" lon="76.1808928661048412322998046875">
        <ele>1297.800048828125</ele>
        <time>2026-09-17T08:26:50.000Z</time>
        <extensions>
          <ns3:TrackPointExtension>
            <ns3:hr>107</ns3:hr>
          </ns3:TrackPointExtension>
        </extensions>
      </trkpt>
      <trkpt lat="39.718085713684558868408203125" lon="76.18103493936359882354736328125">
        <ele>1297</ele>
        <time>2026-09-17T08:26:58.000Z</time>
        <extensions>
          <ns3:TrackPointExtension>
            <ns3:hr>107</ns3:hr>
          </ns3:TrackPointExtension>
        </extensions>
      </trkpt>
      <trkpt lat="39.71815385855734348297119140625" lon="76.1811855621635913848876953125">
        <ele>1296.800048828125</ele>
        <time>2026-09-17T08:27:06.000Z</time>
        <extensions>
          <ns3:TrackPointExtension>
            <ns3:hr>107</ns3:hr>
          </ns3:TrackPointExtension>
        </extensions>
      </trkpt>
      <trkpt lat="39.71816383302211761474609375" lon="76.181333921849727630615234375">
        <ele>1296.800048828125</ele>
        <time>2026-09-17T08:27:15.000Z</time>
        <extensions>
          <ns3:TrackPointExtension>
            <ns3:hr>109</ns3:hr>
          </ns3:TrackPointExtension>
        </extensions>
      </trkpt>
      <trkpt lat="39.71814849413931369781494140625" lon="76.1813407950103282928466796875">
        <ele>1296.800048828125</ele>
        <time>2026-09-17T08:27:16.000Z</time>
        <extensions>
          <ns3:TrackPointExtension>
            <ns3:hr>109</ns3:hr>
          </ns3:TrackPointExtension>
        </extensions>
      </trkpt>
      <trkpt lat="39.71807640977203845977783203125" lon="76.1814068444073200225830078125">
        <ele>1296.800048828125</ele>
        <time>2026-09-17T08:27:22.000Z</time>
        <extensions>
          <ns3:TrackPointExtension>
            <ns3:hr>109</ns3:hr>
          </ns3:TrackPointExtension>
        </extensions>
      </trkpt>
      <trkpt lat="39.71797205507755279541015625" lon="76.181490160524845123291015625">
        <ele>1296.800048828125</ele>
        <time>2026-09-17T08:27:31.000Z</time>
        <extensions>
          <ns3:TrackPointExtension>
            <ns3:hr>108</ns3:hr>
          </ns3:TrackPointExtension>
        </extensions>
      </trkpt>
      <trkpt lat="39.717857055366039276123046875" lon="76.181559897959232330322265625">
        <ele>1296.800048828125</ele>
        <time>2026-09-17T08:27:40.000Z</time>
        <extensions>
          <ns3:TrackPointExtension>
            <ns3:hr>105</ns3:hr>
          </ns3:TrackPointExtension>
        </extensions>
      </trkpt>
      <trkpt lat="39.71771682612597942352294921875" lon="76.181620918214321136474609375">
        <ele>1296.800048828125</ele>
        <time>2026-09-17T08:27:51.000Z</time>
        <extensions>
          <ns3:TrackPointExtension>
            <ns3:hr>106</ns3:hr>
          </ns3:TrackPointExtension>
        </extensions>
      </trkpt>
      <trkpt lat="39.71760467626154422760009765625" lon="76.1816697008907794952392578125">
        <ele>1296.4000244140625</ele>
        <time>2026-09-17T08:28:00.000Z</time>
        <extensions>
          <ns3:TrackPointExtension>
            <ns3:hr>107</ns3:hr>
          </ns3:TrackPointExtension>
        </extensions>
      </trkpt>
      <trkpt lat="39.71749789081513881683349609375" lon="76.1817541904747486114501953125">
        <ele>1296.4000244140625</ele>
        <time>2026-09-17T08:28:10.000Z</time>
        <extensions>
          <ns3:TrackPointExtension>
            <ns3:hr>108</ns3:hr>
          </ns3:TrackPointExtension>
        </extensions>
      </trkpt>
      <trkpt lat="39.7174146585166454315185546875" lon="76.181810013949871063232421875">
        <ele>1296.5999755859375</ele>
        <time>2026-09-17T08:28:18.000Z</time>
        <extensions>
          <ns3:TrackPointExtension>
            <ns3:hr>105</ns3:hr>
          </ns3:TrackPointExtension>
        </extensions>
      </trkpt>
      <trkpt lat="39.71740501932799816131591796875" lon="76.1818178929388523101806640625">
        <ele>1296.5999755859375</ele>
        <time>2026-09-17T08:28:19.000Z</time>
        <extensions>
          <ns3:TrackPointExtension>
            <ns3:hr>105</ns3:hr>
          </ns3:TrackPointExtension>
        </extensions>
      </trkpt>
      <trkpt lat="39.7173164226114749908447265625" lon="76.18188570253551006317138671875">
        <ele>1296.4000244140625</ele>
        <time>2026-09-17T08:28:27.000Z</time>
        <extensions>
          <ns3:TrackPointExtension>
            <ns3:hr>101</ns3:hr>
          </ns3:TrackPointExtension>
        </extensions>
      </trkpt>
      <trkpt lat="39.717303849756717681884765625" lon="76.181891150772571563720703125">
        <ele>1296.4000244140625</ele>
        <time>2026-09-17T08:28:28.000Z</time>
        <extensions>
          <ns3:TrackPointExtension>
            <ns3:hr>100</ns3:hr>
          </ns3:TrackPointExtension>
        </extensions>
      </trkpt>
      <trkpt lat="39.71720100380480289459228515625" lon="76.18193708360195159912109375">
        <ele>1296.4000244140625</ele>
        <time>2026-09-17T08:28:37.000Z</time>
        <extensions>
          <ns3:TrackPointExtension>
            <ns3:hr>99</ns3:hr>
          </ns3:TrackPointExtension>
        </extensions>
      </trkpt>
      <trkpt lat="39.717102348804473876953125" lon="76.181977652013301849365234375">
        <ele>1296.4000244140625</ele>
        <time>2026-09-17T08:28:46.000Z</time>
        <extensions>
          <ns3:TrackPointExtension>
            <ns3:hr>100</ns3:hr>
          </ns3:TrackPointExtension>
        </extensions>
      </trkpt>
      <trkpt lat="39.71708684228360652923583984375" lon="76.18198343552649021148681640625">
        <ele>1296.5999755859375</ele>
        <time>2026-09-17T08:28:53.000Z</time>
        <extensions>
          <ns3:TrackPointExtension>
            <ns3:hr>101</ns3:hr>
          </ns3:TrackPointExtension>
        </extensions>
      </trkpt>
      <trkpt lat="39.71711215563118457794189453125" lon="76.181985698640346527099609375">
        <ele>1296.4000244140625</ele>
        <time>2026-09-17T08:29:03.000Z</time>
        <extensions>
          <ns3:TrackPointExtension>
            <ns3:hr>102</ns3:hr>
          </ns3:TrackPointExtension>
        </extensions>
      </trkpt>
      <trkpt lat="39.71709857694804668426513671875" lon="76.18203439749777317047119140625">
        <ele>1296.4000244140625</ele>
        <time>2026-09-17T08:29:10.000Z</time>
        <extensions>
          <ns3:TrackPointExtension>
            <ns3:hr>101</ns3:hr>
          </ns3:TrackPointExtension>
        </extensions>
      </trkpt>
      <trkpt lat="39.71702649258077144622802734375" lon="76.18206758983433246612548828125">
        <ele>1296.4000244140625</ele>
        <time>2026-09-17T08:29:17.000Z</time>
        <extensions>
          <ns3:TrackPointExtension>
            <ns3:hr>99</ns3:hr>
          </ns3:TrackPointExtension>
        </extensions>
      </trkpt>
      <trkpt lat="39.71699564717710018157958984375" lon="76.1820773966610431671142578125">
        <ele>1296.5999755859375</ele>
        <time>2026-09-17T08:29:21.000Z</time>
        <extensions>
          <ns3:TrackPointExtension>
            <ns3:hr>94</ns3:hr>
          </ns3:TrackPointExtension>
        </extensions>
      </trkpt>
      <trkpt lat="39.7169875167310237884521484375" lon="76.18207647465169429779052734375">
        <ele>1296.4000244140625</ele>
        <time>2026-09-17T08:29:23.000Z</time>
        <extensions>
          <ns3:TrackPointExtension>
            <ns3:hr>91</ns3:hr>
          </ns3:TrackPointExtension>
        </extensions>
      </trkpt>
      <trkpt lat="39.71698776818811893463134765625" lon="76.1820743791759014129638671875">
        <ele>1296.4000244140625</ele>
        <time>2026-09-17T08:29:24.000Z</time>
        <extensions>
          <ns3:TrackPointExtension>
            <ns3:hr>91</ns3:hr>
          </ns3:TrackPointExtension>
        </extensions>
      </trkpt>
      <trkpt lat="39.71699916757643222808837890625" lon="76.182099021971225738525390625">
        <ele>1296.4000244140625</ele>
        <time>2026-09-17T08:29:33.000Z</time>
        <extensions>
          <ns3:TrackPointExtension>
            <ns3:hr>95</ns3:hr>
          </ns3:TrackPointExtension>
        </extensions>
      </trkpt>
      <trkpt lat="39.7170062921941280364990234375" lon="76.1820968426764011383056640625">
        <ele>1296.4000244140625</ele>
        <time>2026-09-17T08:29:35.000Z</time>
        <extensions>
          <ns3:TrackPointExtension>
            <ns3:hr>96</ns3:hr>
          </ns3:TrackPointExtension>
        </extensions>
      </trkpt>
      <trkpt lat="39.7170005924999713897705078125" lon="76.18206222541630268096923828125">
        <ele>1296.4000244140625</ele>
        <time>2026-09-17T08:29:40.000Z</time>
        <extensions>
          <ns3:TrackPointExtension>
            <ns3:hr>99</ns3:hr>
          </ns3:TrackPointExtension>
        </extensions>
      </trkpt>
      <trkpt lat="39.7169816493988037109375" lon="76.182031966745853424072265625">
        <ele>1296.199951171875</ele>
        <time>2026-09-17T08:29:45.000Z</time>
        <extensions>
          <ns3:TrackPointExtension>
            <ns3:hr>98</ns3:hr>
          </ns3:TrackPointExtension>
        </extensions>
      </trkpt>
      <trkpt lat="39.7169767878949642181396484375" lon="76.1820250935852527618408203125">
        <ele>1296.4000244140625</ele>
        <time>2026-09-17T08:29:47.000Z</time>
        <extensions>
          <ns3:TrackPointExtension>
            <ns3:hr>95</ns3:hr>
          </ns3:TrackPointExtension>
        </extensions>
      </trkpt>
      <trkpt lat="39.7169741056859493255615234375" lon="76.18201193399727344512939453125">
        <ele>1296.199951171875</ele>
        <time>2026-09-17T08:29:51.000Z</time>
        <extensions>
          <ns3:TrackPointExtension>
            <ns3:hr>97</ns3:hr>
          </ns3:TrackPointExtension>
        </extensions>
      </trkpt>
      <trkpt lat="39.7169741056859493255615234375" lon="76.18201193399727344512939453125">
        <ele>1296.199951171875</ele>
        <time>2026-09-17T08:29:53.000Z</time>
        <extensions>
          <ns3:TrackPointExtension>
            <ns3:hr>102</ns3:hr>
          </ns3:TrackPointExtension>
        </extensions>
      </trkpt>
      <trkpt lat="39.7169741056859493255615234375" lon="76.18201193399727344512939453125">
        <ele>1296.199951171875</ele>
        <time>2026-09-17T08:29:54.000Z</time>
        <extensions>
          <ns3:TrackPointExtension>
            <ns3:hr>102</ns3:hr>
          </ns3:TrackPointExtension>
        </extensions>
      </trkpt>
      <trkpt lat="39.7169741056859493255615234375" lon="76.18201193399727344512939453125">
        <ele>1296.199951171875</ele>
        <time>2026-09-17T08:29:59.000Z</time>
        <extensions>
          <ns3:TrackPointExtension>
            <ns3:hr>99</ns3:hr>
          </ns3:TrackPointExtension>
        </extensions>
      </trkpt>
      <trkpt lat="39.7169741056859493255615234375" lon="76.18201193399727344512939453125">
        <ele>1296.199951171875</ele>
        <time>2026-09-17T08:30:01.000Z</time>
        <extensions>
          <ns3:TrackPointExtension>
            <ns3:hr>98</ns3:hr>
          </ns3:TrackPointExtension>
        </extensions>
      </trkpt>
    </trkseg>
  </trk>
</gpx>
