<gpx xmlns:ns3="http://www.garmin.com/xmlschemas/TrackPointExtension/v1" xmlns="http://www.topografix.com/GPX/1/1" xmlns:xsi="http://www.w3.org/2001/XMLSchema-instance" xmlns:ns2="http://www.garmin.com/xmlschemas/GpxExtensions/v3" creator="Garmin Connect" version="1.1" xsi:schemaLocation="http://www.topografix.com/GPX/1/1 http://www.topografix.com/GPX/11.xsd">
  <extensions>
<distance>162.26</distance>
<average_hr>96.0</average_hr>
<average_speed>0.9980000257492067</average_speed>
<start_time>2026-09-22T12:18:39+00:00</start_time>
<end_time>2026-09-22T12:21:21.609000+00:00</end_time>
<moving_time>159.0</moving_time>
<elapsed_time>267.608</elapsed_time>
</extensions>
<metadata>
    <link href="connect.garmin.com">
      <text>Garmin Connect</text>
    </link>
    <time>2026-09-22T12:18:39.000Z</time>
  </metadata>
  <trk>
    <name>Surabaya 跑步</name>
    <type>running</type>
    <trkseg>
      <trkpt lat="-7.32890018261969089508056640625" lon="112.731108181178569793701171875">
        <ele>9.19999980926513671875</ele>
        <time>2026-09-22T12:18:39.000Z</time>
        <extensions>
          <ns3:TrackPointExtension>
            <ns3:atemp>31.0</ns3:atemp>
            <ns3:hr>93</ns3:hr>
            <ns3:cad>49</ns3:cad>
          </ns3:TrackPointExtension>
        </extensions>
      </trkpt>
      <trkpt lat="-7.32889699749648571014404296875" lon="112.7310902439057826995849609375">
        <ele>9.19999980926513671875</ele>
        <time>2026-09-22T12:18:40.000Z</time>
        <extensions>
          <ns3:TrackPointExtension>
            <ns3:atemp>31.0</ns3:atemp>
            <ns3:hr>93</ns3:hr>
            <ns3:cad>49</ns3:cad>
          </ns3:TrackPointExtension>
        </extensions>
      </trkpt>
      <trkpt lat="-7.32888400554656982421875" lon="112.730994187295436859130859375">
        <ele>8.80000019073486328125</ele>
        <time>2026-09-22T12:18:48.000Z</time>
        <extensions>
          <ns3:TrackPointExtension>
            <ns3:atemp>31.0</ns3:atemp>
            <ns3:hr>90</ns3:hr>
            <ns3:cad>49</ns3:cad>
          </ns3:TrackPointExtension>
        </extensions>
      </trkpt>
      <trkpt lat="-7.3288821615278720855712890625" lon="112.73097750730812549591064453125">
        <ele>8.80000019073486328125</ele>
        <time>2026-09-22T12:18:49.000Z</time>
        <extensions>
          <ns3:TrackPointExtension>
            <ns3:atemp>31.0</ns3:atemp>
            <ns3:hr>90</ns3:hr>
            <ns3:cad>50</ns3:cad>
          </ns3:TrackPointExtension>
        </extensions>
      </trkpt>
      <trkpt lat="-7.328882999718189239501953125" lon="112.7309735678136348724365234375">
        <ele>9</ele>
        <time>2026-09-22T12:18:50.000Z</time>
        <extensions>
          <ns3:TrackPointExtension>
            <ns3:atemp>31.0</ns3:atemp>
            <ns3:hr>90</ns3:hr>
            <ns3:cad>50</ns3:cad>
          </ns3:TrackPointExtension>
        </extensions>
      </trkpt>
      <trkpt lat="-7.3288727737963199615478515625" lon="112.7309410460293292999267578125">
        <ele>9</ele>
        <time>2026-09-22T12:18:51.000Z</time>
        <extensions>
          <ns3:TrackPointExtension>
            <ns3:atemp>31.0</ns3:atemp>
            <ns3:hr>91</ns3:hr>
            <ns3:cad>49</ns3:cad>
          </ns3:TrackPointExtension>
        </extensions>
      </trkpt>
      <trkpt lat="-7.32887906022369861602783203125" lon="112.730952613055706024169921875">
        <ele>9</ele>
        <time>2026-09-22T12:18:52.000Z</time>
        <extensions>
          <ns3:TrackPointExtension>
            <ns3:atemp>31.0</ns3:atemp>
            <ns3:hr>91</ns3:hr>
            <ns3:cad>48</ns3:cad>
          </ns3:TrackPointExtension>
        </extensions>
      </trkpt>
      <trkpt lat="-7.3288791440427303314208984375" lon="112.73093341849744319915771484375">
        <ele>9</ele>
        <time>2026-09-22T12:18:53.000Z</time>
        <extensions>
          <ns3:TrackPointExtension>
            <ns3:atemp>31.0</ns3:atemp>
            <ns3:hr>92</ns3:hr>
            <ns3:cad>48</ns3:cad>
          </ns3:TrackPointExtension>
        </extensions>
      </trkpt>
      <trkpt lat="-7.3288858495652675628662109375" lon="112.73092947900295257568359375">
        <ele>9</ele>
        <time>2026-09-22T12:18:54.000Z</time>
        <extensions>
          <ns3:TrackPointExtension>
            <ns3:atemp>31.0</ns3:atemp>
            <ns3:hr>92</ns3:hr>
            <ns3:cad>48</ns3:cad>
          </ns3:TrackPointExtension>
        </extensions>
      </trkpt>
      <trkpt lat="-7.32889138162136077880859375" lon="112.730930149555206298828125">
        <ele>8.80000019073486328125</ele>
        <time>2026-09-22T12:18:55.000Z</time>
        <extensions>
          <ns3:TrackPointExtension>
            <ns3:atemp>31.0</ns3:atemp>
            <ns3:hr>93</ns3:hr>
            <ns3:cad>48</ns3:cad>
          </ns3:TrackPointExtension>
        </extensions>
      </trkpt>
      <trkpt lat="-7.3289026133716106414794921875" lon="112.73092268966138362884521484375">
        <ele>8.80000019073486328125</ele>
        <time>2026-09-22T12:18:56.000Z</time>
        <extensions>
          <ns3:TrackPointExtension>
            <ns3:atemp>31.0</ns3:atemp>
            <ns3:hr>93</ns3:hr>
            <ns3:cad>48</ns3:cad>
          </ns3:TrackPointExtension>
        </extensions>
      </trkpt>
      <trkpt lat="-7.3289203830063343048095703125" lon="112.73092537187039852142333984375">
        <ele>8.80000019073486328125</ele>
        <time>2026-09-22T12:18:57.000Z</time>
        <extensions>
          <ns3:TrackPointExtension>
            <ns3:atemp>31.0</ns3:atemp>
            <ns3:hr>93</ns3:hr>
            <ns3:cad>48</ns3:cad>
          </ns3:TrackPointExtension>
        </extensions>
      </trkpt>
      <trkpt lat="-7.3289002664387226104736328125" lon="112.73090056143701076507568359375">
        <ele>8.80000019073486328125</ele>
        <time>2026-09-22T12:18:58.000Z</time>
        <extensions>
          <ns3:TrackPointExtension>
            <ns3:atemp>31.0</ns3:atemp>
            <ns3:hr>93</ns3:hr>
            <ns3:cad>47</ns3:cad>
          </ns3:TrackPointExtension>
        </extensions>
      </trkpt>
      <trkpt lat="-7.328891046345233917236328125" lon="112.7308927662670612335205078125">
        <ele>8.80000019073486328125</ele>
        <time>2026-09-22T12:18:59.000Z</time>
        <extensions>
          <ns3:TrackPointExtension>
            <ns3:atemp>31.0</ns3:atemp>
            <ns3:hr>93</ns3:hr>
            <ns3:cad>47</ns3:cad>
          </ns3:TrackPointExtension>
        </extensions>
      </trkpt>
      <trkpt lat="-7.3288828320801258087158203125" lon="112.73088715039193630218505859375">
        <ele>9</ele>
        <time>2026-09-22T12:19:00.000Z</time>
        <extensions>
          <ns3:TrackPointExtension>
            <ns3:atemp>31.0</ns3:atemp>
            <ns3:hr>93</ns3:hr>
            <ns3:cad>47</ns3:cad>
          </ns3:TrackPointExtension>
        </extensions>
      </trkpt>
      <trkpt lat="-7.32887235470116138458251953125" lon="112.7308900840580463409423828125">
        <ele>9</ele>
        <time>2026-09-22T12:19:01.000Z</time>
        <extensions>
          <ns3:TrackPointExtension>
            <ns3:atemp>31.0</ns3:atemp>
            <ns3:hr>94</ns3:hr>
            <ns3:cad>0</ns3:cad>
          </ns3:TrackPointExtension>
        </extensions>
      </trkpt>
      <trkpt lat="-7.328865230083465576171875" lon="112.7308863960206508636474609375">
        <ele>9</ele>
        <time>2026-09-22T12:19:02.000Z</time>
        <extensions>
          <ns3:TrackPointExtension>
            <ns3:atemp>31.0</ns3:atemp>
            <ns3:hr>93</ns3:hr>
            <ns3:cad>0</ns3:cad>
          </ns3:TrackPointExtension>
        </extensions>
      </trkpt>
      <trkpt lat="-7.3288519866764545440673828125" lon="112.73089050315320491790771484375">
        <ele>9.19999980926513671875</ele>
        <time>2026-09-22T12:19:03.000Z</time>
        <extensions>
          <ns3:TrackPointExtension>
            <ns3:atemp>31.0</ns3:atemp>
            <ns3:hr>93</ns3:hr>
            <ns3:cad>0</ns3:cad>
          </ns3:TrackPointExtension>
        </extensions>
      </trkpt>
      <trkpt lat="-7.3288357257843017578125" lon="112.73089419119060039520263671875">
        <ele>9.19999980926513671875</ele>
        <time>2026-09-22T12:19:04.000Z</time>
        <extensions>
          <ns3:TrackPointExtension>
            <ns3:atemp>31.0</ns3:atemp>
            <ns3:hr>93</ns3:hr>
            <ns3:cad>0</ns3:cad>
          </ns3:TrackPointExtension>
        </extensions>
      </trkpt>
      <trkpt lat="-7.32882759533822536468505859375" lon="112.73089435882866382598876953125">
        <ele>9.19999980926513671875</ele>
        <time>2026-09-22T12:19:05.000Z</time>
        <extensions>
          <ns3:TrackPointExtension>
            <ns3:atemp>31.0</ns3:atemp>
            <ns3:hr>93</ns3:hr>
            <ns3:cad>0</ns3:cad>
          </ns3:TrackPointExtension>
        </extensions>
      </trkpt>
      <trkpt lat="-7.32882658950984477996826171875" lon="112.7308914251625537872314453125">
        <ele>9.19999980926513671875</ele>
        <time>2026-09-22T12:19:06.000Z</time>
        <extensions>
          <ns3:TrackPointExtension>
            <ns3:atemp>31.0</ns3:atemp>
            <ns3:hr>93</ns3:hr>
            <ns3:cad>0</ns3:cad>
          </ns3:TrackPointExtension>
        </extensions>
      </trkpt>
      <trkpt lat="-7.32881921343505382537841796875" lon="112.73089285008609294891357421875">
        <ele>8.80000019073486328125</ele>
        <time>2026-09-22T12:19:07.000Z</time>
        <extensions>
          <ns3:TrackPointExtension>
            <ns3:atemp>31.0</ns3:atemp>
            <ns3:hr>93</ns3:hr>
            <ns3:cad>0</ns3:cad>
          </ns3:TrackPointExtension>
        </extensions>
      </trkpt>
      <trkpt lat="-7.328811585903167724609375" lon="112.7308952808380126953125">
        <ele>8.6000003814697265625</ele>
        <time>2026-09-22T12:19:08.000Z</time>
        <extensions>
          <ns3:TrackPointExtension>
            <ns3:atemp>31.0</ns3:atemp>
            <ns3:hr>94</ns3:hr>
            <ns3:cad>0</ns3:cad>
          </ns3:TrackPointExtension>
        </extensions>
      </trkpt>
      <trkpt lat="-7.3288073949515819549560546875" lon="112.730897963047027587890625">
        <ele>8</ele>
        <time>2026-09-22T12:19:09.000Z</time>
        <extensions>
          <ns3:TrackPointExtension>
            <ns3:atemp>31.0</ns3:atemp>
            <ns3:hr>93</ns3:hr>
            <ns3:cad>47</ns3:cad>
          </ns3:TrackPointExtension>
        </extensions>
      </trkpt>
      <trkpt lat="-7.32880747877061367034912109375" lon="112.7308984659612178802490234375">
        <ele>7.599999904632568359375</ele>
        <time>2026-09-22T12:19:10.000Z</time>
        <extensions>
          <ns3:TrackPointExtension>
            <ns3:atemp>31.0</ns3:atemp>
            <ns3:hr>93</ns3:hr>
            <ns3:cad>47</ns3:cad>
          </ns3:TrackPointExtension>
        </extensions>
      </trkpt>
      <trkpt lat="-7.32880286872386932373046875" lon="112.7309041656553745269775390625">
        <ele>7.19999980926513671875</ele>
        <time>2026-09-22T12:19:11.000Z</time>
        <extensions>
          <ns3:TrackPointExtension>
            <ns3:atemp>31.0</ns3:atemp>
            <ns3:hr>93</ns3:hr>
            <ns3:cad>47</ns3:cad>
          </ns3:TrackPointExtension>
        </extensions>
      </trkpt>
      <trkpt lat="-7.329124398529529571533203125" lon="112.73085228167474269866943359375">
        <ele>2.599999904632568359375</ele>
        <time>2026-09-22T12:19:54.000Z</time>
        <extensions>
          <ns3:TrackPointExtension>
            <ns3:atemp>31.0</ns3:atemp>
            <ns3:hr>90</ns3:hr>
            <ns3:cad>0</ns3:cad>
          </ns3:TrackPointExtension>
        </extensions>
      </trkpt>
      <trkpt lat="-7.32913403771817684173583984375" lon="112.730855047702789306640625">
        <ele>2.599999904632568359375</ele>
        <time>2026-09-22T12:19:55.000Z</time>
        <extensions>
          <ns3:TrackPointExtension>
            <ns3:atemp>31.0</ns3:atemp>
            <ns3:hr>90</ns3:hr>
            <ns3:cad>0</ns3:cad>
          </ns3:TrackPointExtension>
        </extensions>
      </trkpt>
      <trkpt lat="-7.32914107851684093475341796875" lon="112.73085110820829868316650390625">
        <ele>2.599999904632568359375</ele>
        <time>2026-09-22T12:19:56.000Z</time>
        <extensions>
          <ns3:TrackPointExtension>
            <ns3:atemp>31.0</ns3:atemp>
            <ns3:hr>89</ns3:hr>
            <ns3:cad>0</ns3:cad>
          </ns3:TrackPointExtension>
        </extensions>
      </trkpt>
      <trkpt lat="-7.32915298081934452056884765625" lon="112.73084892891347408294677734375">
        <ele>2.599999904632568359375</ele>
        <time>2026-09-22T12:19:57.000Z</time>
        <extensions>
          <ns3:TrackPointExtension>
            <ns3:atemp>31.0</ns3:atemp>
            <ns3:hr>90</ns3:hr>
            <ns3:cad>0</ns3:cad>
          </ns3:TrackPointExtension>
        </extensions>
      </trkpt>
      <trkpt lat="-7.32916320674121379852294921875" lon="112.730847336351871490478515625">
        <ele>2.7999999523162841796875</ele>
        <time>2026-09-22T12:19:58.000Z</time>
        <extensions>
          <ns3:TrackPointExtension>
            <ns3:atemp>31.0</ns3:atemp>
            <ns3:hr>90</ns3:hr>
            <ns3:cad>51</ns3:cad>
          </ns3:TrackPointExtension>
        </extensions>
      </trkpt>
      <trkpt lat="-7.32917779125273227691650390625" lon="112.73084473796188831329345703125">
        <ele>2.7999999523162841796875</ele>
        <time>2026-09-22T12:19:59.000Z</time>
        <extensions>
          <ns3:TrackPointExtension>
            <ns3:atemp>31.0</ns3:atemp>
            <ns3:hr>90</ns3:hr>
            <ns3:cad>104</ns3:cad>
          </ns3:TrackPointExtension>
        </extensions>
      </trkpt>
      <trkpt lat="-7.32919455505907535552978515625" lon="112.73084222339093685150146484375">
        <ele>2.7999999523162841796875</ele>
        <time>2026-09-22T12:20:00.000Z</time>
        <extensions>
          <ns3:TrackPointExtension>
            <ns3:atemp>31.0</ns3:atemp>
            <ns3:hr>90</ns3:hr>
            <ns3:cad>104</ns3:cad>
          </ns3:TrackPointExtension>
        </extensions>
      </trkpt>
      <trkpt lat="-7.32920679263770580291748046875" lon="112.73084230720996856689453125">
        <ele>2.7999999523162841796875</ele>
        <time>2026-09-22T12:20:01.000Z</time>
        <extensions>
          <ns3:TrackPointExtension>
            <ns3:atemp>31.0</ns3:atemp>
            <ns3:hr>90</ns3:hr>
            <ns3:cad>104</ns3:cad>
          </ns3:TrackPointExtension>
        </extensions>
      </trkpt>
      <trkpt lat="-7.32921869494020938873291015625" lon="112.73084230720996856689453125">
        <ele>2.7999999523162841796875</ele>
        <time>2026-09-22T12:20:02.000Z</time>
        <extensions>
          <ns3:TrackPointExtension>
            <ns3:atemp>31.0</ns3:atemp>
            <ns3:hr>90</ns3:hr>
            <ns3:cad>53</ns3:cad>
          </ns3:TrackPointExtension>
        </extensions>
      </trkpt>
      <trkpt lat="-7.3292271606624126434326171875" lon="112.73084498941898345947265625">
        <ele>2.7999999523162841796875</ele>
        <time>2026-09-22T12:20:03.000Z</time>
        <extensions>
          <ns3:TrackPointExtension>
            <ns3:atemp>31.0</ns3:atemp>
            <ns3:hr>90</ns3:hr>
            <ns3:cad>53</ns3:cad>
          </ns3:TrackPointExtension>
        </extensions>
      </trkpt>
      <trkpt lat="-7.32923545874655246734619140625" lon="112.73084574379026889801025390625">
        <ele>2.599999904632568359375</ele>
        <time>2026-09-22T12:20:04.000Z</time>
        <extensions>
          <ns3:TrackPointExtension>
            <ns3:atemp>31.0</ns3:atemp>
            <ns3:hr>90</ns3:hr>
            <ns3:cad>53</ns3:cad>
          </ns3:TrackPointExtension>
        </extensions>
      </trkpt>
      <trkpt lat="-7.32924166135489940643310546875" lon="112.7308451570570468902587890625">
        <ele>2.599999904632568359375</ele>
        <time>2026-09-22T12:20:05.000Z</time>
        <extensions>
          <ns3:TrackPointExtension>
            <ns3:atemp>31.0</ns3:atemp>
            <ns3:hr>91</ns3:hr>
            <ns3:cad>53</ns3:cad>
          </ns3:TrackPointExtension>
        </extensions>
      </trkpt>
      <trkpt lat="-7.32925079762935638427734375" lon="112.730844318866729736328125">
        <ele>2.599999904632568359375</ele>
        <time>2026-09-22T12:20:06.000Z</time>
        <extensions>
          <ns3:TrackPointExtension>
            <ns3:atemp>31.0</ns3:atemp>
            <ns3:hr>91</ns3:hr>
            <ns3:cad>53</ns3:cad>
          </ns3:TrackPointExtension>
        </extensions>
      </trkpt>
      <trkpt lat="-7.329257838428020477294921875" lon="112.7308350987732410430908203125">
        <ele>2.599999904632568359375</ele>
        <time>2026-09-22T12:20:07.000Z</time>
        <extensions>
          <ns3:TrackPointExtension>
            <ns3:atemp>31.0</ns3:atemp>
            <ns3:hr>92</ns3:hr>
            <ns3:cad>53</ns3:cad>
          </ns3:TrackPointExtension>
        </extensions>
      </trkpt>
      <trkpt lat="-7.3292647115886211395263671875" lon="112.73082965053617954254150390625">
        <ele>2.599999904632568359375</ele>
        <time>2026-09-22T12:20:08.000Z</time>
        <extensions>
          <ns3:TrackPointExtension>
            <ns3:atemp>31.0</ns3:atemp>
            <ns3:hr>92</ns3:hr>
            <ns3:cad>53</ns3:cad>
          </ns3:TrackPointExtension>
        </extensions>
      </trkpt>
      <trkpt lat="-7.32926286756992340087890625" lon="112.7308280579745769500732421875">
        <ele>2.599999904632568359375</ele>
        <time>2026-09-22T12:20:09.000Z</time>
        <extensions>
          <ns3:TrackPointExtension>
            <ns3:atemp>31.0</ns3:atemp>
            <ns3:hr>92</ns3:hr>
            <ns3:cad>53</ns3:cad>
          </ns3:TrackPointExtension>
        </extensions>
      </trkpt>
      <trkpt lat="-7.32926814816892147064208984375" lon="112.73082395084202289581298828125">
        <ele>2.599999904632568359375</ele>
        <time>2026-09-22T12:20:10.000Z</time>
        <extensions>
          <ns3:TrackPointExtension>
            <ns3:atemp>31.0</ns3:atemp>
            <ns3:hr>92</ns3:hr>
            <ns3:cad>52</ns3:cad>
          </ns3:TrackPointExtension>
        </extensions>
      </trkpt>
      <trkpt lat="-7.3292814753949642181396484375" lon="112.7308176644146442413330078125">
        <ele>2.7999999523162841796875</ele>
        <time>2026-09-22T12:20:11.000Z</time>
        <extensions>
          <ns3:TrackPointExtension>
            <ns3:atemp>31.0</ns3:atemp>
            <ns3:hr>92</ns3:hr>
            <ns3:cad>50</ns3:cad>
          </ns3:TrackPointExtension>
        </extensions>
      </trkpt>
      <trkpt lat="-7.32929530553519725799560546875" lon="112.73081238381564617156982421875">
        <ele>2.7999999523162841796875</ele>
        <time>2026-09-22T12:20:12.000Z</time>
        <extensions>
          <ns3:TrackPointExtension>
            <ns3:atemp>31.0</ns3:atemp>
            <ns3:hr>92</ns3:hr>
            <ns3:cad>50</ns3:cad>
          </ns3:TrackPointExtension>
        </extensions>
      </trkpt>
      <trkpt lat="-7.32931374572217464447021484375" lon="112.730805762112140655517578125">
        <ele>2.7999999523162841796875</ele>
        <time>2026-09-22T12:20:13.000Z</time>
        <extensions>
          <ns3:TrackPointExtension>
            <ns3:atemp>31.0</ns3:atemp>
            <ns3:hr>93</ns3:hr>
            <ns3:cad>50</ns3:cad>
          </ns3:TrackPointExtension>
        </extensions>
      </trkpt>
      <trkpt lat="-7.32932883314788341522216796875" lon="112.730801403522491455078125">
        <ele>2.7999999523162841796875</ele>
        <time>2026-09-22T12:20:14.000Z</time>
        <extensions>
          <ns3:TrackPointExtension>
            <ns3:atemp>31.0</ns3:atemp>
            <ns3:hr>93</ns3:hr>
            <ns3:cad>101</ns3:cad>
          </ns3:TrackPointExtension>
        </extensions>
      </trkpt>
      <trkpt lat="-7.32934090308845043182373046875" lon="112.7307985536754131317138671875">
        <ele>2.7999999523162841796875</ele>
        <time>2026-09-22T12:20:15.000Z</time>
        <extensions>
          <ns3:TrackPointExtension>
            <ns3:atemp>31.0</ns3:atemp>
            <ns3:hr>94</ns3:hr>
            <ns3:cad>101</ns3:cad>
          </ns3:TrackPointExtension>
        </extensions>
      </trkpt>
      <trkpt lat="-7.32934224419295787811279296875" lon="112.73080199025571346282958984375">
        <ele>2.7999999523162841796875</ele>
        <time>2026-09-22T12:20:16.000Z</time>
        <extensions>
          <ns3:TrackPointExtension>
            <ns3:atemp>31.0</ns3:atemp>
            <ns3:hr>94</ns3:hr>
            <ns3:cad>104</ns3:cad>
          </ns3:TrackPointExtension>
        </extensions>
      </trkpt>
      <trkpt lat="-7.32935129664838314056396484375" lon="112.73079947568476200103759765625">
        <ele>2.7999999523162841796875</ele>
        <time>2026-09-22T12:20:17.000Z</time>
        <extensions>
          <ns3:TrackPointExtension>
            <ns3:atemp>31.0</ns3:atemp>
            <ns3:hr>94</ns3:hr>
            <ns3:cad>104</ns3:cad>
          </ns3:TrackPointExtension>
        </extensions>
      </trkpt>
      <trkpt lat="-7.32936537824571132659912109375" lon="112.7307941950857639312744140625">
        <ele>2.7999999523162841796875</ele>
        <time>2026-09-22T12:20:18.000Z</time>
        <extensions>
          <ns3:TrackPointExtension>
            <ns3:atemp>31.0</ns3:atemp>
            <ns3:hr>93</ns3:hr>
            <ns3:cad>104</ns3:cad>
          </ns3:TrackPointExtension>
        </extensions>
      </trkpt>
      <trkpt lat="-7.329377867281436920166015625" lon="112.7307844720780849456787109375">
        <ele>2.7999999523162841796875</ele>
        <time>2026-09-22T12:20:19.000Z</time>
        <extensions>
          <ns3:TrackPointExtension>
            <ns3:atemp>31.0</ns3:atemp>
            <ns3:hr>94</ns3:hr>
            <ns3:cad>101</ns3:cad>
          </ns3:TrackPointExtension>
        </extensions>
      </trkpt>
      <trkpt lat="-7.32939253561198711395263671875" lon="112.730778269469738006591796875">
        <ele>2.7999999523162841796875</ele>
        <time>2026-09-22T12:20:20.000Z</time>
        <extensions>
          <ns3:TrackPointExtension>
            <ns3:atemp>31.0</ns3:atemp>
            <ns3:hr>94</ns3:hr>
            <ns3:cad>98</ns3:cad>
          </ns3:TrackPointExtension>
        </extensions>
      </trkpt>
      <trkpt lat="-7.32939957641065120697021484375" lon="112.7307770960032939910888671875">
        <ele>2.7999999523162841796875</ele>
        <time>2026-09-22T12:20:21.000Z</time>
        <extensions>
          <ns3:TrackPointExtension>
            <ns3:atemp>31.0</ns3:atemp>
            <ns3:hr>93</ns3:hr>
            <ns3:cad>97</ns3:cad>
          </ns3:TrackPointExtension>
        </extensions>
      </trkpt>
      <trkpt lat="-7.3294018395245075225830078125" lon="112.73077885620296001434326171875">
        <ele>2.7999999523162841796875</ele>
        <time>2026-09-22T12:20:22.000Z</time>
        <extensions>
          <ns3:TrackPointExtension>
            <ns3:atemp>31.0</ns3:atemp>
            <ns3:hr>93</ns3:hr>
            <ns3:cad>97</ns3:cad>
          </ns3:TrackPointExtension>
        </extensions>
      </trkpt>
      <trkpt lat="-7.3293981514871120452880859375" lon="112.73078329861164093017578125">
        <ele>2.7999999523162841796875</ele>
        <time>2026-09-22T12:20:23.000Z</time>
        <extensions>
          <ns3:TrackPointExtension>
            <ns3:atemp>31.0</ns3:atemp>
            <ns3:hr>93</ns3:hr>
            <ns3:cad>49</ns3:cad>
          </ns3:TrackPointExtension>
        </extensions>
      </trkpt>
      <trkpt lat="-7.329408042132854461669921875" lon="112.73077935911715030670166015625">
        <ele>2.7999999523162841796875</ele>
        <time>2026-09-22T12:20:24.000Z</time>
        <extensions>
          <ns3:TrackPointExtension>
            <ns3:atemp>31.0</ns3:atemp>
            <ns3:hr>94</ns3:hr>
            <ns3:cad>49</ns3:cad>
          </ns3:TrackPointExtension>
        </extensions>
      </trkpt>
      <trkpt lat="-7.32942438684403896331787109375" lon="112.73077525198459625244140625">
        <ele>2.7999999523162841796875</ele>
        <time>2026-09-22T12:20:25.000Z</time>
        <extensions>
          <ns3:TrackPointExtension>
            <ns3:atemp>31.0</ns3:atemp>
            <ns3:hr>94</ns3:hr>
            <ns3:cad>49</ns3:cad>
          </ns3:TrackPointExtension>
        </extensions>
      </trkpt>
      <trkpt lat="-7.3294410668313503265380859375" lon="112.7307760901749134063720703125">
        <ele>2.7999999523162841796875</ele>
        <time>2026-09-22T12:20:26.000Z</time>
        <extensions>
          <ns3:TrackPointExtension>
            <ns3:atemp>31.0</ns3:atemp>
            <ns3:hr>94</ns3:hr>
            <ns3:cad>50</ns3:cad>
          </ns3:TrackPointExtension>
        </extensions>
      </trkpt>
      <trkpt lat="-7.32944953255355358123779296875" lon="112.73077600635588169097900390625">
        <ele>2.7999999523162841796875</ele>
        <time>2026-09-22T12:20:27.000Z</time>
        <extensions>
          <ns3:TrackPointExtension>
            <ns3:atemp>31.0</ns3:atemp>
            <ns3:hr>94</ns3:hr>
            <ns3:cad>100</ns3:cad>
          </ns3:TrackPointExtension>
        </extensions>
      </trkpt>
      <trkpt lat="-7.32945674099028110504150390625" lon="112.730774916708469390869140625">
        <ele>2.7999999523162841796875</ele>
        <time>2026-09-22T12:20:28.000Z</time>
        <extensions>
          <ns3:TrackPointExtension>
            <ns3:atemp>31.0</ns3:atemp>
            <ns3:hr>94</ns3:hr>
            <ns3:cad>101</ns3:cad>
          </ns3:TrackPointExtension>
        </extensions>
      </trkpt>
      <trkpt lat="-7.329456992447376251220703125" lon="112.7307784371078014373779296875">
        <ele>2.599999904632568359375</ele>
        <time>2026-09-22T12:20:29.000Z</time>
        <extensions>
          <ns3:TrackPointExtension>
            <ns3:atemp>31.0</ns3:atemp>
            <ns3:hr>94</ns3:hr>
            <ns3:cad>101</ns3:cad>
          </ns3:TrackPointExtension>
        </extensions>
      </trkpt>
      <trkpt lat="-7.32945992611348628997802734375" lon="112.73077885620296001434326171875">
        <ele>2.599999904632568359375</ele>
        <time>2026-09-22T12:20:30.000Z</time>
        <extensions>
          <ns3:TrackPointExtension>
            <ns3:atemp>31.0</ns3:atemp>
            <ns3:hr>93</ns3:hr>
            <ns3:cad>52</ns3:cad>
          </ns3:TrackPointExtension>
        </extensions>
      </trkpt>
      <trkpt lat="-7.32947266660630702972412109375" lon="112.73077432997524738311767578125">
        <ele>2.599999904632568359375</ele>
        <time>2026-09-22T12:20:31.000Z</time>
        <extensions>
          <ns3:TrackPointExtension>
            <ns3:atemp>31.0</ns3:atemp>
            <ns3:hr>93</ns3:hr>
            <ns3:cad>52</ns3:cad>
          </ns3:TrackPointExtension>
        </extensions>
      </trkpt>
      <trkpt lat="-7.3294896818697452545166015625" lon="112.73076812736690044403076171875">
        <ele>2.400000095367431640625</ele>
        <time>2026-09-22T12:20:32.000Z</time>
        <extensions>
          <ns3:TrackPointExtension>
            <ns3:atemp>31.0</ns3:atemp>
            <ns3:hr>93</ns3:hr>
            <ns3:cad>52</ns3:cad>
          </ns3:TrackPointExtension>
        </extensions>
      </trkpt>
      <trkpt lat="-7.3295104689896106719970703125" lon="112.730764187872409820556640625">
        <ele>2.400000095367431640625</ele>
        <time>2026-09-22T12:20:33.000Z</time>
        <extensions>
          <ns3:TrackPointExtension>
            <ns3:atemp>31.0</ns3:atemp>
            <ns3:hr>93</ns3:hr>
            <ns3:cad>51</ns3:cad>
          </ns3:TrackPointExtension>
        </extensions>
      </trkpt>
      <trkpt lat="-7.32952362857758998870849609375" lon="112.73076611571013927459716796875">
        <ele>2.599999904632568359375</ele>
        <time>2026-09-22T12:20:34.000Z</time>
        <extensions>
          <ns3:TrackPointExtension>
            <ns3:atemp>31.0</ns3:atemp>
            <ns3:hr>93</ns3:hr>
            <ns3:cad>51</ns3:cad>
          </ns3:TrackPointExtension>
        </extensions>
      </trkpt>
      <trkpt lat="-7.32952949590981006622314453125" lon="112.7307677082717418670654296875">
        <ele>2.599999904632568359375</ele>
        <time>2026-09-22T12:20:35.000Z</time>
        <extensions>
          <ns3:TrackPointExtension>
            <ns3:atemp>31.0</ns3:atemp>
            <ns3:hr>93</ns3:hr>
            <ns3:cad>51</ns3:cad>
          </ns3:TrackPointExtension>
        </extensions>
      </trkpt>
      <trkpt lat="-7.3295290768146514892578125" lon="112.73077097721397876739501953125">
        <ele>2.7999999523162841796875</ele>
        <time>2026-09-22T12:20:36.000Z</time>
        <extensions>
          <ns3:TrackPointExtension>
            <ns3:atemp>31.0</ns3:atemp>
            <ns3:hr>92</ns3:hr>
            <ns3:cad>51</ns3:cad>
          </ns3:TrackPointExtension>
        </extensions>
      </trkpt>
      <trkpt lat="-7.32953905127942562103271484375" lon="112.73078070022165775299072265625">
        <ele>2.7999999523162841796875</ele>
        <time>2026-09-22T12:20:37.000Z</time>
        <extensions>
          <ns3:TrackPointExtension>
            <ns3:atemp>31.0</ns3:atemp>
            <ns3:hr>92</ns3:hr>
            <ns3:cad>51</ns3:cad>
          </ns3:TrackPointExtension>
        </extensions>
      </trkpt>
      <trkpt lat="-7.32954776845872402191162109375" lon="112.73077793419361114501953125">
        <ele>3</ele>
        <time>2026-09-22T12:20:38.000Z</time>
        <extensions>
          <ns3:TrackPointExtension>
            <ns3:atemp>31.0</ns3:atemp>
            <ns3:hr>93</ns3:hr>
            <ns3:cad>51</ns3:cad>
          </ns3:TrackPointExtension>
        </extensions>
      </trkpt>
      <trkpt lat="-7.32955950312316417694091796875" lon="112.73076980374753475189208984375">
        <ele>3</ele>
        <time>2026-09-22T12:20:39.000Z</time>
        <extensions>
          <ns3:TrackPointExtension>
            <ns3:atemp>31.0</ns3:atemp>
            <ns3:hr>93</ns3:hr>
            <ns3:cad>51</ns3:cad>
          </ns3:TrackPointExtension>
        </extensions>
      </trkpt>
      <trkpt lat="-7.329572327435016632080078125" lon="112.7307633496820926666259765625">
        <ele>3</ele>
        <time>2026-09-22T12:20:40.000Z</time>
        <extensions>
          <ns3:TrackPointExtension>
            <ns3:atemp>31.0</ns3:atemp>
            <ns3:hr>94</ns3:hr>
            <ns3:cad>51</ns3:cad>
          </ns3:TrackPointExtension>
        </extensions>
      </trkpt>
      <trkpt lat="-7.3295849002897739410400390625" lon="112.73075471632182598114013671875">
        <ele>2.7999999523162841796875</ele>
        <time>2026-09-22T12:20:41.000Z</time>
        <extensions>
          <ns3:TrackPointExtension>
            <ns3:atemp>31.0</ns3:atemp>
            <ns3:hr>94</ns3:hr>
            <ns3:cad>50</ns3:cad>
          </ns3:TrackPointExtension>
        </extensions>
      </trkpt>
      <trkpt lat="-7.3295973055064678192138671875" lon="112.73074985481798648834228515625">
        <ele>2.7999999523162841796875</ele>
        <time>2026-09-22T12:20:42.000Z</time>
        <extensions>
          <ns3:TrackPointExtension>
            <ns3:atemp>31.0</ns3:atemp>
            <ns3:hr>94</ns3:hr>
            <ns3:cad>50</ns3:cad>
          </ns3:TrackPointExtension>
        </extensions>
      </trkpt>
      <trkpt lat="-7.32960174791514873504638671875" lon="112.73074532859027385711669921875">
        <ele>2.599999904632568359375</ele>
        <time>2026-09-22T12:20:43.000Z</time>
        <extensions>
          <ns3:TrackPointExtension>
            <ns3:atemp>31.0</ns3:atemp>
            <ns3:hr>93</ns3:hr>
            <ns3:cad>51</ns3:cad>
          </ns3:TrackPointExtension>
        </extensions>
      </trkpt>
      <trkpt lat="-7.32960426248610019683837890625" lon="112.73074734024703502655029296875">
        <ele>2.599999904632568359375</ele>
        <time>2026-09-22T12:20:44.000Z</time>
        <extensions>
          <ns3:TrackPointExtension>
            <ns3:atemp>31.0</ns3:atemp>
            <ns3:hr>94</ns3:hr>
            <ns3:cad>52</ns3:cad>
          </ns3:TrackPointExtension>
        </extensions>
      </trkpt>
      <trkpt lat="-7.3296133987605571746826171875" lon="112.73074650205671787261962890625">
        <ele>2.599999904632568359375</ele>
        <time>2026-09-22T12:20:45.000Z</time>
        <extensions>
          <ns3:TrackPointExtension>
            <ns3:atemp>31.0</ns3:atemp>
            <ns3:hr>93</ns3:hr>
            <ns3:cad>52</ns3:cad>
          </ns3:TrackPointExtension>
        </extensions>
      </trkpt>
      <trkpt lat="-7.329626642167568206787109375" lon="112.73073996417224407196044921875">
        <ele>2.599999904632568359375</ele>
        <time>2026-09-22T12:20:46.000Z</time>
        <extensions>
          <ns3:TrackPointExtension>
            <ns3:atemp>31.0</ns3:atemp>
            <ns3:hr>93</ns3:hr>
            <ns3:cad>52</ns3:cad>
          </ns3:TrackPointExtension>
        </extensions>
      </trkpt>
      <trkpt lat="-7.3296422325074672698974609375" lon="112.73073694668710231781005859375">
        <ele>2.599999904632568359375</ele>
        <time>2026-09-22T12:20:47.000Z</time>
        <extensions>
          <ns3:TrackPointExtension>
            <ns3:atemp>31.0</ns3:atemp>
            <ns3:hr>93</ns3:hr>
            <ns3:cad>52</ns3:cad>
          </ns3:TrackPointExtension>
        </extensions>
      </trkpt>
      <trkpt lat="-7.3296569846570491790771484375" lon="112.730735354125499725341796875">
        <ele>2.7999999523162841796875</ele>
        <time>2026-09-22T12:20:48.000Z</time>
        <extensions>
          <ns3:TrackPointExtension>
            <ns3:atemp>31.0</ns3:atemp>
            <ns3:hr>94</ns3:hr>
            <ns3:cad>52</ns3:cad>
          </ns3:TrackPointExtension>
        </extensions>
      </trkpt>
      <trkpt lat="-7.32966830022633075714111328125" lon="112.73073409684002399444580078125">
        <ele>2.7999999523162841796875</ele>
        <time>2026-09-22T12:20:49.000Z</time>
        <extensions>
          <ns3:TrackPointExtension>
            <ns3:atemp>31.0</ns3:atemp>
            <ns3:hr>93</ns3:hr>
            <ns3:cad>51</ns3:cad>
          </ns3:TrackPointExtension>
        </extensions>
      </trkpt>
      <trkpt lat="-7.32967617921531200408935546875" lon="112.7307341806590557098388671875">
        <ele>2.7999999523162841796875</ele>
        <time>2026-09-22T12:20:50.000Z</time>
        <extensions>
          <ns3:TrackPointExtension>
            <ns3:atemp>31.0</ns3:atemp>
            <ns3:hr>93</ns3:hr>
            <ns3:cad>51</ns3:cad>
          </ns3:TrackPointExtension>
        </extensions>
      </trkpt>
      <trkpt lat="-7.329684309661388397216796875" lon="112.73073409684002399444580078125">
        <ele>2.7999999523162841796875</ele>
        <time>2026-09-22T12:20:51.000Z</time>
        <extensions>
          <ns3:TrackPointExtension>
            <ns3:atemp>31.0</ns3:atemp>
            <ns3:hr>93</ns3:hr>
            <ns3:cad>51</ns3:cad>
          </ns3:TrackPointExtension>
        </extensions>
      </trkpt>
      <trkpt lat="-7.32969202101230621337890625" lon="112.73073309101164340972900390625">
        <ele>2.7999999523162841796875</ele>
        <time>2026-09-22T12:20:52.000Z</time>
        <extensions>
          <ns3:TrackPointExtension>
            <ns3:atemp>31.0</ns3:atemp>
            <ns3:hr>93</ns3:hr>
            <ns3:cad>51</ns3:cad>
          </ns3:TrackPointExtension>
        </extensions>
      </trkpt>
      <trkpt lat="-7.32970132492482662200927734375" lon="112.73072755895555019378662109375">
        <ele>2.7999999523162841796875</ele>
        <time>2026-09-22T12:20:53.000Z</time>
        <extensions>
          <ns3:TrackPointExtension>
            <ns3:atemp>31.0</ns3:atemp>
            <ns3:hr>93</ns3:hr>
            <ns3:cad>49</ns3:cad>
          </ns3:TrackPointExtension>
        </extensions>
      </trkpt>
      <trkpt lat="-7.32970886863768100738525390625" lon="112.7307231165468692779541015625">
        <ele>2.7999999523162841796875</ele>
        <time>2026-09-22T12:20:54.000Z</time>
        <extensions>
          <ns3:TrackPointExtension>
            <ns3:atemp>31.0</ns3:atemp>
            <ns3:hr>93</ns3:hr>
            <ns3:cad>49</ns3:cad>
          </ns3:TrackPointExtension>
        </extensions>
      </trkpt>
      <trkpt lat="-7.3297133110463619232177734375" lon="112.7307271398603916168212890625">
        <ele>2.7999999523162841796875</ele>
        <time>2026-09-22T12:20:55.000Z</time>
        <extensions>
          <ns3:TrackPointExtension>
            <ns3:atemp>31.0</ns3:atemp>
            <ns3:hr>92</ns3:hr>
            <ns3:cad>49</ns3:cad>
          </ns3:TrackPointExtension>
        </extensions>
      </trkpt>
      <trkpt lat="-7.32970702461898326873779296875" lon="112.73072185926139354705810546875">
        <ele>2.7999999523162841796875</ele>
        <time>2026-09-22T12:20:56.000Z</time>
        <extensions>
          <ns3:TrackPointExtension>
            <ns3:atemp>31.0</ns3:atemp>
            <ns3:hr>93</ns3:hr>
            <ns3:cad>49</ns3:cad>
          </ns3:TrackPointExtension>
        </extensions>
      </trkpt>
      <trkpt lat="-7.32970283366739749908447265625" lon="112.73071951232850551605224609375">
        <ele>2.7999999523162841796875</ele>
        <time>2026-09-22T12:20:57.000Z</time>
        <extensions>
          <ns3:TrackPointExtension>
            <ns3:atemp>31.0</ns3:atemp>
            <ns3:hr>93</ns3:hr>
            <ns3:cad>49</ns3:cad>
          </ns3:TrackPointExtension>
        </extensions>
      </trkpt>
      <trkpt lat="-7.329704761505126953125" lon="112.73072102107107639312744140625">
        <ele>2.599999904632568359375</ele>
        <time>2026-09-22T12:20:58.000Z</time>
        <extensions>
          <ns3:TrackPointExtension>
            <ns3:atemp>31.0</ns3:atemp>
            <ns3:hr>92</ns3:hr>
            <ns3:cad>99</ns3:cad>
          </ns3:TrackPointExtension>
        </extensions>
      </trkpt>
      <trkpt lat="-7.329707443714141845703125" lon="112.730722613632678985595703125">
        <ele>2.599999904632568359375</ele>
        <time>2026-09-22T12:20:59.000Z</time>
        <extensions>
          <ns3:TrackPointExtension>
            <ns3:atemp>31.0</ns3:atemp>
            <ns3:hr>93</ns3:hr>
            <ns3:cad>99</ns3:cad>
          </ns3:TrackPointExtension>
        </extensions>
      </trkpt>
      <trkpt lat="-7.32971004210412502288818359375" lon="112.7307221107184886932373046875">
        <ele>2.400000095367431640625</ele>
        <time>2026-09-22T12:21:00.000Z</time>
        <extensions>
          <ns3:TrackPointExtension>
            <ns3:atemp>31.0</ns3:atemp>
            <ns3:hr>92</ns3:hr>
            <ns3:cad>81</ns3:cad>
          </ns3:TrackPointExtension>
        </extensions>
      </trkpt>
      <trkpt lat="-7.3297116346657276153564453125" lon="112.73072152398526668548583984375">
        <ele>2.2000000476837158203125</ele>
        <time>2026-09-22T12:21:01.000Z</time>
        <extensions>
          <ns3:TrackPointExtension>
            <ns3:atemp>31.0</ns3:atemp>
            <ns3:hr>92</ns3:hr>
            <ns3:cad>81</ns3:cad>
          </ns3:TrackPointExtension>
        </extensions>
      </trkpt>
      <trkpt lat="-7.32971272431313991546630859375" lon="112.7307190932333469390869140625">
        <ele>2.2000000476837158203125</ele>
        <time>2026-09-22T12:21:02.000Z</time>
        <extensions>
          <ns3:TrackPointExtension>
            <ns3:atemp>31.0</ns3:atemp>
            <ns3:hr>92</ns3:hr>
            <ns3:cad>43</ns3:cad>
          </ns3:TrackPointExtension>
        </extensions>
      </trkpt>
      <trkpt lat="-7.32971305958926677703857421875" lon="112.7307204343378543853759765625">
        <ele>2.2000000476837158203125</ele>
        <time>2026-09-22T12:21:03.000Z</time>
        <extensions>
          <ns3:TrackPointExtension>
            <ns3:atemp>31.0</ns3:atemp>
            <ns3:hr>91</ns3:hr>
            <ns3:cad>42</ns3:cad>
          </ns3:TrackPointExtension>
        </extensions>
      </trkpt>
      <trkpt lat="-7.3298504389822483062744140625" lon="112.730708532035350799560546875">
        <ele>2.400000095367431640625</ele>
        <time>2026-09-22T12:21:43.000Z</time>
        <extensions>
          <ns3:TrackPointExtension>
            <ns3:atemp>31.0</ns3:atemp>
            <ns3:hr>100</ns3:hr>
            <ns3:cad>0</ns3:cad>
          </ns3:TrackPointExtension>
        </extensions>
      </trkpt>
      <trkpt lat="-7.32986259274184703826904296875" lon="112.7307083643972873687744140625">
        <ele>2.599999904632568359375</ele>
        <time>2026-09-22T12:21:44.000Z</time>
        <extensions>
          <ns3:TrackPointExtension>
            <ns3:atemp>31.0</ns3:atemp>
            <ns3:hr>100</ns3:hr>
            <ns3:cad>0</ns3:cad>
          </ns3:TrackPointExtension>
        </extensions>
      </trkpt>
      <trkpt lat="-7.329877428710460662841796875" lon="112.73070962168276309967041015625">
        <ele>2.7999999523162841796875</ele>
        <time>2026-09-22T12:21:45.000Z</time>
        <extensions>
          <ns3:TrackPointExtension>
            <ns3:atemp>31.0</ns3:atemp>
            <ns3:hr>100</ns3:hr>
            <ns3:cad>0</ns3:cad>
          </ns3:TrackPointExtension>
        </extensions>
      </trkpt>
      <trkpt lat="-7.32988991774618625640869140625" lon="112.7307107113301753997802734375">
        <ele>3</ele>
        <time>2026-09-22T12:21:46.000Z</time>
        <extensions>
          <ns3:TrackPointExtension>
            <ns3:atemp>31.0</ns3:atemp>
            <ns3:hr>100</ns3:hr>
            <ns3:cad>0</ns3:cad>
          </ns3:TrackPointExtension>
        </extensions>
      </trkpt>
      <trkpt lat="-7.32989964075386524200439453125" lon="112.73070928640663623809814453125">
        <ele>3</ele>
        <time>2026-09-22T12:21:47.000Z</time>
        <extensions>
          <ns3:TrackPointExtension>
            <ns3:atemp>31.0</ns3:atemp>
            <ns3:hr>101</ns3:hr>
            <ns3:cad>114</ns3:cad>
          </ns3:TrackPointExtension>
        </extensions>
      </trkpt>
      <trkpt lat="-7.329914309084415435791015625" lon="112.73070526309311389923095703125">
        <ele>3.2000000476837158203125</ele>
        <time>2026-09-22T12:21:48.000Z</time>
        <extensions>
          <ns3:TrackPointExtension>
            <ns3:atemp>31.0</ns3:atemp>
            <ns3:hr>101</ns3:hr>
            <ns3:cad>114</ns3:cad>
          </ns3:TrackPointExtension>
        </extensions>
      </trkpt>
      <trkpt lat="-7.32992931269109249114990234375" lon="112.7307035028934478759765625">
        <ele>3.2000000476837158203125</ele>
        <time>2026-09-22T12:21:49.000Z</time>
        <extensions>
          <ns3:TrackPointExtension>
            <ns3:atemp>31.0</ns3:atemp>
            <ns3:hr>102</ns3:hr>
            <ns3:cad>53</ns3:cad>
          </ns3:TrackPointExtension>
        </extensions>
      </trkpt>
      <trkpt lat="-7.3299433104693889617919921875" lon="112.73070157505571842193603515625">
        <ele>3.400000095367431640625</ele>
        <time>2026-09-22T12:21:50.000Z</time>
        <extensions>
          <ns3:TrackPointExtension>
            <ns3:atemp>31.0</ns3:atemp>
            <ns3:hr>102</ns3:hr>
            <ns3:cad>53</ns3:cad>
          </ns3:TrackPointExtension>
        </extensions>
      </trkpt>
      <trkpt lat="-7.329953201115131378173828125" lon="112.73070040158927440643310546875">
        <ele>3.400000095367431640625</ele>
        <time>2026-09-22T12:21:51.000Z</time>
        <extensions>
          <ns3:TrackPointExtension>
            <ns3:atemp>31.0</ns3:atemp>
            <ns3:hr>102</ns3:hr>
            <ns3:cad>108</ns3:cad>
          </ns3:TrackPointExtension>
        </extensions>
      </trkpt>
      <trkpt lat="-7.32996032573282718658447265625" lon="112.73069880902767181396484375">
        <ele>3.400000095367431640625</ele>
        <time>2026-09-22T12:21:52.000Z</time>
        <extensions>
          <ns3:TrackPointExtension>
            <ns3:atemp>31.0</ns3:atemp>
            <ns3:hr>102</ns3:hr>
            <ns3:cad>108</ns3:cad>
          </ns3:TrackPointExtension>
        </extensions>
      </trkpt>
      <trkpt lat="-7.32996485196053981781005859375" lon="112.73069939576089382171630859375">
        <ele>3.400000095367431640625</ele>
        <time>2026-09-22T12:21:53.000Z</time>
        <extensions>
          <ns3:TrackPointExtension>
            <ns3:atemp>31.0</ns3:atemp>
            <ns3:hr>103</ns3:hr>
            <ns3:cad>107</ns3:cad>
          </ns3:TrackPointExtension>
        </extensions>
      </trkpt>
      <trkpt lat="-7.3299728147685527801513671875" lon="112.730697803199291229248046875">
        <ele>3.400000095367431640625</ele>
        <time>2026-09-22T12:21:54.000Z</time>
        <extensions>
          <ns3:TrackPointExtension>
            <ns3:atemp>31.0</ns3:atemp>
            <ns3:hr>103</ns3:hr>
            <ns3:cad>107</ns3:cad>
          </ns3:TrackPointExtension>
        </extensions>
      </trkpt>
      <trkpt lat="-7.3299822025001049041748046875" lon="112.7306946180760860443115234375">
        <ele>3.2000000476837158203125</ele>
        <time>2026-09-22T12:21:55.000Z</time>
        <extensions>
          <ns3:TrackPointExtension>
            <ns3:atemp>31.0</ns3:atemp>
            <ns3:hr>103</ns3:hr>
            <ns3:cad>108</ns3:cad>
          </ns3:TrackPointExtension>
        </extensions>
      </trkpt>
      <trkpt lat="-7.329991757869720458984375" lon="112.73069185204803943634033203125">
        <ele>3.2000000476837158203125</ele>
        <time>2026-09-22T12:21:56.000Z</time>
        <extensions>
          <ns3:TrackPointExtension>
            <ns3:atemp>31.0</ns3:atemp>
            <ns3:hr>104</ns3:hr>
            <ns3:cad>108</ns3:cad>
          </ns3:TrackPointExtension>
        </extensions>
      </trkpt>
      <trkpt lat="-7.33000206761062145233154296875" lon="112.730679027736186981201171875">
        <ele>3.2000000476837158203125</ele>
        <time>2026-09-22T12:21:57.000Z</time>
        <extensions>
          <ns3:TrackPointExtension>
            <ns3:atemp>31.0</ns3:atemp>
            <ns3:hr>104</ns3:hr>
            <ns3:cad>105</ns3:cad>
          </ns3:TrackPointExtension>
        </extensions>
      </trkpt>
      <trkpt lat="-7.33002050779759883880615234375" lon="112.73067223839461803436279296875">
        <ele>3.2000000476837158203125</ele>
        <time>2026-09-22T12:21:58.000Z</time>
        <extensions>
          <ns3:TrackPointExtension>
            <ns3:atemp>31.0</ns3:atemp>
            <ns3:hr>104</ns3:hr>
            <ns3:cad>105</ns3:cad>
          </ns3:TrackPointExtension>
        </extensions>
      </trkpt>
      <trkpt lat="-7.33003668487071990966796875" lon="112.73066670633852481842041015625">
        <ele>3.2000000476837158203125</ele>
        <time>2026-09-22T12:21:59.000Z</time>
        <extensions>
          <ns3:TrackPointExtension>
            <ns3:atemp>31.0</ns3:atemp>
            <ns3:hr>104</ns3:hr>
            <ns3:cad>105</ns3:cad>
          </ns3:TrackPointExtension>
        </extensions>
      </trkpt>
      <trkpt lat="-7.330048084259033203125" lon="112.73066536523401737213134765625">
        <ele>3.2000000476837158203125</ele>
        <time>2026-09-22T12:22:00.000Z</time>
        <extensions>
          <ns3:TrackPointExtension>
            <ns3:atemp>31.0</ns3:atemp>
            <ns3:hr>104</ns3:hr>
            <ns3:cad>105</ns3:cad>
          </ns3:TrackPointExtension>
        </extensions>
      </trkpt>
      <trkpt lat="-7.33005085028707981109619140625" lon="112.7306691370904445648193359375">
        <ele>3.2000000476837158203125</ele>
        <time>2026-09-22T12:22:01.000Z</time>
        <extensions>
          <ns3:TrackPointExtension>
            <ns3:atemp>31.0</ns3:atemp>
            <ns3:hr>105</ns3:hr>
            <ns3:cad>105</ns3:cad>
          </ns3:TrackPointExtension>
        </extensions>
      </trkpt>
      <trkpt lat="-7.33006174676120281219482421875" lon="112.730672992765903472900390625">
        <ele>3.2000000476837158203125</ele>
        <time>2026-09-22T12:22:02.000Z</time>
        <extensions>
          <ns3:TrackPointExtension>
            <ns3:atemp>31.0</ns3:atemp>
            <ns3:hr>104</ns3:hr>
            <ns3:cad>105</ns3:cad>
          </ns3:TrackPointExtension>
        </extensions>
      </trkpt>
      <trkpt lat="-7.33006308786571025848388671875" lon="112.7306765131652355194091796875">
        <ele>3.2000000476837158203125</ele>
        <time>2026-09-22T12:22:03.000Z</time>
        <extensions>
          <ns3:TrackPointExtension>
            <ns3:atemp>31.0</ns3:atemp>
            <ns3:hr>105</ns3:hr>
            <ns3:cad>105</ns3:cad>
          </ns3:TrackPointExtension>
        </extensions>
      </trkpt>
      <trkpt lat="-7.330061495304107666015625" lon="112.730676345527172088623046875">
        <ele>3</ele>
        <time>2026-09-22T12:22:04.000Z</time>
        <extensions>
          <ns3:TrackPointExtension>
            <ns3:atemp>31.0</ns3:atemp>
            <ns3:hr>104</ns3:hr>
            <ns3:cad>105</ns3:cad>
          </ns3:TrackPointExtension>
        </extensions>
      </trkpt>
      <trkpt lat="-7.33006426133215427398681640625" lon="112.730680368840694427490234375">
        <ele>3</ele>
        <time>2026-09-22T12:22:05.000Z</time>
        <extensions>
          <ns3:TrackPointExtension>
            <ns3:atemp>31.0</ns3:atemp>
            <ns3:hr>104</ns3:hr>
            <ns3:cad>0</ns3:cad>
          </ns3:TrackPointExtension>
        </extensions>
      </trkpt>
      <trkpt lat="-7.3300754092633724212646484375" lon="112.73067592643201351165771484375">
        <ele>3</ele>
        <time>2026-09-22T12:22:06.000Z</time>
        <extensions>
          <ns3:TrackPointExtension>
            <ns3:atemp>31.0</ns3:atemp>
            <ns3:hr>104</ns3:hr>
            <ns3:cad>0</ns3:cad>
          </ns3:TrackPointExtension>
        </extensions>
      </trkpt>
      <trkpt lat="-7.33008136041462421417236328125" lon="112.7306677959859371185302734375">
        <ele>3</ele>
        <time>2026-09-22T12:22:07.000Z</time>
        <extensions>
          <ns3:TrackPointExtension>
            <ns3:atemp>31.0</ns3:atemp>
            <ns3:hr>104</ns3:hr>
            <ns3:cad>0</ns3:cad>
          </ns3:TrackPointExtension>
        </extensions>
      </trkpt>
      <trkpt lat="-7.33009058050811290740966796875" lon="112.7306614257395267486572265625">
        <ele>3.2000000476837158203125</ele>
        <time>2026-09-22T12:22:08.000Z</time>
        <extensions>
          <ns3:TrackPointExtension>
            <ns3:atemp>31.0</ns3:atemp>
            <ns3:hr>104</ns3:hr>
            <ns3:cad>0</ns3:cad>
          </ns3:TrackPointExtension>
        </extensions>
      </trkpt>
      <trkpt lat="-7.33009778894484043121337890625" lon="112.73065664805471897125244140625">
        <ele>3.2000000476837158203125</ele>
        <time>2026-09-22T12:22:09.000Z</time>
        <extensions>
          <ns3:TrackPointExtension>
            <ns3:atemp>31.0</ns3:atemp>
            <ns3:hr>103</ns3:hr>
            <ns3:cad>0</ns3:cad>
          </ns3:TrackPointExtension>
        </extensions>
      </trkpt>
      <trkpt lat="-7.33010499738156795501708984375" lon="112.73065128363668918609619140625">
        <ele>3.2000000476837158203125</ele>
        <time>2026-09-22T12:22:10.000Z</time>
        <extensions>
          <ns3:TrackPointExtension>
            <ns3:atemp>31.0</ns3:atemp>
            <ns3:hr>103</ns3:hr>
            <ns3:cad>0</ns3:cad>
          </ns3:TrackPointExtension>
        </extensions>
      </trkpt>
      <trkpt lat="-7.330111451447010040283203125" lon="112.730646841228008270263671875">
        <ele>3.2000000476837158203125</ele>
        <time>2026-09-22T12:22:11.000Z</time>
        <extensions>
          <ns3:TrackPointExtension>
            <ns3:atemp>31.0</ns3:atemp>
            <ns3:hr>103</ns3:hr>
            <ns3:cad>52</ns3:cad>
          </ns3:TrackPointExtension>
        </extensions>
      </trkpt>
      <trkpt lat="-7.3301166482269763946533203125" lon="112.73064407519996166229248046875">
        <ele>3.2000000476837158203125</ele>
        <time>2026-09-22T12:22:12.000Z</time>
        <extensions>
          <ns3:TrackPointExtension>
            <ns3:atemp>31.0</ns3:atemp>
            <ns3:hr>103</ns3:hr>
            <ns3:cad>53</ns3:cad>
          </ns3:TrackPointExtension>
        </extensions>
      </trkpt>
      <trkpt lat="-7.33012008480727672576904296875" lon="112.7306433208286762237548828125">
        <ele>3.400000095367431640625</ele>
        <time>2026-09-22T12:22:13.000Z</time>
        <extensions>
          <ns3:TrackPointExtension>
            <ns3:atemp>31.0</ns3:atemp>
            <ns3:hr>103</ns3:hr>
            <ns3:cad>53</ns3:cad>
          </ns3:TrackPointExtension>
        </extensions>
      </trkpt>
      <trkpt lat="-7.33013098128139972686767578125" lon="112.73063686676323413848876953125">
        <ele>3.400000095367431640625</ele>
        <time>2026-09-22T12:22:14.000Z</time>
        <extensions>
          <ns3:TrackPointExtension>
            <ns3:atemp>31.0</ns3:atemp>
            <ns3:hr>102</ns3:hr>
            <ns3:cad>53</ns3:cad>
          </ns3:TrackPointExtension>
        </extensions>
      </trkpt>
      <trkpt lat="-7.3301434703171253204345703125" lon="112.73063384927809238433837890625">
        <ele>3.400000095367431640625</ele>
        <time>2026-09-22T12:22:15.000Z</time>
        <extensions>
          <ns3:TrackPointExtension>
            <ns3:atemp>31.0</ns3:atemp>
            <ns3:hr>102</ns3:hr>
            <ns3:cad>53</ns3:cad>
          </ns3:TrackPointExtension>
        </extensions>
      </trkpt>
      <trkpt lat="-7.33030096627771854400634765625" lon="112.730583809316158294677734375">
        <ele>3.2000000476837158203125</ele>
        <time>2026-09-22T12:22:29.000Z</time>
        <extensions>
          <ns3:TrackPointExtension>
            <ns3:atemp>31.0</ns3:atemp>
            <ns3:hr>101</ns3:hr>
            <ns3:cad>107</ns3:cad>
          </ns3:TrackPointExtension>
        </extensions>
      </trkpt>
      <trkpt lat="-7.33031387440860271453857421875" lon="112.73057886399328708648681640625">
        <ele>3.2000000476837158203125</ele>
        <time>2026-09-22T12:22:30.000Z</time>
        <extensions>
          <ns3:TrackPointExtension>
            <ns3:atemp>31.0</ns3:atemp>
            <ns3:hr>102</ns3:hr>
            <ns3:cad>106</ns3:cad>
          </ns3:TrackPointExtension>
        </extensions>
      </trkpt>
      <trkpt lat="-7.3303218372166156768798828125" lon="112.73057551123201847076416015625">
        <ele>3.2000000476837158203125</ele>
        <time>2026-09-22T12:22:31.000Z</time>
        <extensions>
          <ns3:TrackPointExtension>
            <ns3:atemp>31.0</ns3:atemp>
            <ns3:hr>102</ns3:hr>
            <ns3:cad>106</ns3:cad>
          </ns3:TrackPointExtension>
        </extensions>
      </trkpt>
      <trkpt lat="-7.33032368123531341552734375" lon="112.73057919926941394805908203125">
        <ele>3.2000000476837158203125</ele>
        <time>2026-09-22T12:22:32.000Z</time>
        <extensions>
          <ns3:TrackPointExtension>
            <ns3:atemp>31.0</ns3:atemp>
            <ns3:hr>103</ns3:hr>
            <ns3:cad>106</ns3:cad>
          </ns3:TrackPointExtension>
        </extensions>
      </trkpt>
      <trkpt lat="-7.33033172786235809326171875" lon="112.7305828034877777099609375">
        <ele>3.2000000476837158203125</ele>
        <time>2026-09-22T12:22:33.000Z</time>
        <extensions>
          <ns3:TrackPointExtension>
            <ns3:atemp>31.0</ns3:atemp>
            <ns3:hr>103</ns3:hr>
            <ns3:cad>108</ns3:cad>
          </ns3:TrackPointExtension>
        </extensions>
      </trkpt>
      <trkpt lat="-7.33034203760325908660888671875" lon="112.73058406077325344085693359375">
        <ele>3.2000000476837158203125</ele>
        <time>2026-09-22T12:22:34.000Z</time>
        <extensions>
          <ns3:TrackPointExtension>
            <ns3:atemp>31.0</ns3:atemp>
            <ns3:hr>103</ns3:hr>
            <ns3:cad>108</ns3:cad>
          </ns3:TrackPointExtension>
        </extensions>
      </trkpt>
      <trkpt lat="-7.330360226333141326904296875" lon="112.73058054037392139434814453125">
        <ele>3.2000000476837158203125</ele>
        <time>2026-09-22T12:22:35.000Z</time>
        <extensions>
          <ns3:TrackPointExtension>
            <ns3:atemp>31.0</ns3:atemp>
            <ns3:hr>102</ns3:hr>
            <ns3:cad>110</ns3:cad>
          </ns3:TrackPointExtension>
        </extensions>
      </trkpt>
      <trkpt lat="-7.330370955169200897216796875" lon="112.730573751032352447509765625">
        <ele>3.400000095367431640625</ele>
        <time>2026-09-22T12:22:36.000Z</time>
        <extensions>
          <ns3:TrackPointExtension>
            <ns3:atemp>31.0</ns3:atemp>
            <ns3:hr>102</ns3:hr>
            <ns3:cad>110</ns3:cad>
          </ns3:TrackPointExtension>
        </extensions>
      </trkpt>
      <trkpt lat="-7.33038134872913360595703125" lon="112.7305668778717517852783203125">
        <ele>3.400000095367431640625</ele>
        <time>2026-09-22T12:22:37.000Z</time>
        <extensions>
          <ns3:TrackPointExtension>
            <ns3:atemp>31.0</ns3:atemp>
            <ns3:hr>102</ns3:hr>
            <ns3:cad>109</ns3:cad>
          </ns3:TrackPointExtension>
        </extensions>
      </trkpt>
      <trkpt lat="-7.330399118363857269287109375" lon="112.7305652014911174774169921875">
        <ele>3.400000095367431640625</ele>
        <time>2026-09-22T12:22:38.000Z</time>
        <extensions>
          <ns3:TrackPointExtension>
            <ns3:atemp>31.0</ns3:atemp>
            <ns3:hr>101</ns3:hr>
            <ns3:cad>109</ns3:cad>
          </ns3:TrackPointExtension>
        </extensions>
      </trkpt>
      <trkpt lat="-7.3304130323231220245361328125" lon="112.73055941797792911529541015625">
        <ele>3.400000095367431640625</ele>
        <time>2026-09-22T12:22:39.000Z</time>
        <extensions>
          <ns3:TrackPointExtension>
            <ns3:atemp>31.0</ns3:atemp>
            <ns3:hr>101</ns3:hr>
            <ns3:cad>108</ns3:cad>
          </ns3:TrackPointExtension>
        </extensions>
      </trkpt>
      <trkpt lat="-7.3304267786443233489990234375" lon="112.73055707104504108428955078125">
        <ele>3.2000000476837158203125</ele>
        <time>2026-09-22T12:22:40.000Z</time>
        <extensions>
          <ns3:TrackPointExtension>
            <ns3:atemp>31.0</ns3:atemp>
            <ns3:hr>101</ns3:hr>
            <ns3:cad>108</ns3:cad>
          </ns3:TrackPointExtension>
        </extensions>
      </trkpt>
      <trkpt lat="-7.33043356798589229583740234375" lon="112.73055891506373882293701171875">
        <ele>3.2000000476837158203125</ele>
        <time>2026-09-22T12:22:41.000Z</time>
        <extensions>
          <ns3:TrackPointExtension>
            <ns3:atemp>31.0</ns3:atemp>
            <ns3:hr>101</ns3:hr>
            <ns3:cad>108</ns3:cad>
          </ns3:TrackPointExtension>
        </extensions>
      </trkpt>
      <trkpt lat="-7.330438680946826934814453125" lon="112.73055656813085079193115234375">
        <ele>3.2000000476837158203125</ele>
        <time>2026-09-22T12:22:42.000Z</time>
        <extensions>
          <ns3:TrackPointExtension>
            <ns3:atemp>31.0</ns3:atemp>
            <ns3:hr>101</ns3:hr>
            <ns3:cad>108</ns3:cad>
          </ns3:TrackPointExtension>
        </extensions>
      </trkpt>
      <trkpt lat="-7.3304425366222858428955078125" lon="112.73055665194988250732421875">
        <ele>3.2000000476837158203125</ele>
        <time>2026-09-22T12:22:43.000Z</time>
        <extensions>
          <ns3:TrackPointExtension>
            <ns3:atemp>31.0</ns3:atemp>
            <ns3:hr>100</ns3:hr>
            <ns3:cad>108</ns3:cad>
          </ns3:TrackPointExtension>
        </extensions>
      </trkpt>
      <trkpt lat="-7.33045469038188457489013671875" lon="112.7305588312447071075439453125">
        <ele>3.2000000476837158203125</ele>
        <time>2026-09-22T12:22:44.000Z</time>
        <extensions>
          <ns3:TrackPointExtension>
            <ns3:atemp>31.0</ns3:atemp>
            <ns3:hr>101</ns3:hr>
            <ns3:cad>107</ns3:cad>
          </ns3:TrackPointExtension>
        </extensions>
      </trkpt>
      <trkpt lat="-7.3304646648466587066650390625" lon="112.73055531084537506103515625">
        <ele>3.2000000476837158203125</ele>
        <time>2026-09-22T12:22:45.000Z</time>
        <extensions>
          <ns3:TrackPointExtension>
            <ns3:atemp>31.0</ns3:atemp>
            <ns3:hr>100</ns3:hr>
            <ns3:cad>107</ns3:cad>
          </ns3:TrackPointExtension>
        </extensions>
      </trkpt>
      <trkpt lat="-7.330471538007259368896484375" lon="112.7305517904460430145263671875">
        <ele>3.2000000476837158203125</ele>
        <time>2026-09-22T12:22:46.000Z</time>
        <extensions>
          <ns3:TrackPointExtension>
            <ns3:atemp>31.0</ns3:atemp>
            <ns3:hr>100</ns3:hr>
            <ns3:cad>107</ns3:cad>
          </ns3:TrackPointExtension>
        </extensions>
      </trkpt>
      <trkpt lat="-7.33048729598522186279296875" lon="112.73054994642734527587890625">
        <ele>3</ele>
        <time>2026-09-22T12:22:47.000Z</time>
        <extensions>
          <ns3:TrackPointExtension>
            <ns3:atemp>31.0</ns3:atemp>
            <ns3:hr>100</ns3:hr>
            <ns3:cad>107</ns3:cad>
          </ns3:TrackPointExtension>
        </extensions>
      </trkpt>
      <trkpt lat="-7.33050347305834293365478515625" lon="112.73054592311382293701171875">
        <ele>3</ele>
        <time>2026-09-22T12:22:48.000Z</time>
        <extensions>
          <ns3:TrackPointExtension>
            <ns3:atemp>31.0</ns3:atemp>
            <ns3:hr>100</ns3:hr>
            <ns3:cad>107</ns3:cad>
          </ns3:TrackPointExtension>
        </extensions>
      </trkpt>
      <trkpt lat="-7.3305166326463222503662109375" lon="112.73054215125739574432373046875">
        <ele>3</ele>
        <time>2026-09-22T12:22:49.000Z</time>
        <extensions>
          <ns3:TrackPointExtension>
            <ns3:atemp>31.0</ns3:atemp>
            <ns3:hr>100</ns3:hr>
            <ns3:cad>107</ns3:cad>
          </ns3:TrackPointExtension>
        </extensions>
      </trkpt>
      <trkpt lat="-7.3305250145494937896728515625" lon="112.7305407263338565826416015625">
        <ele>3</ele>
        <time>2026-09-22T12:22:50.000Z</time>
        <extensions>
          <ns3:TrackPointExtension>
            <ns3:atemp>31.0</ns3:atemp>
            <ns3:hr>100</ns3:hr>
            <ns3:cad>107</ns3:cad>
          </ns3:TrackPointExtension>
        </extensions>
      </trkpt>
      <trkpt lat="-7.330532558262348175048828125" lon="112.730543576180934906005859375">
        <ele>3.2000000476837158203125</ele>
        <time>2026-09-22T12:22:51.000Z</time>
        <extensions>
          <ns3:TrackPointExtension>
            <ns3:atemp>31.0</ns3:atemp>
            <ns3:hr>100</ns3:hr>
            <ns3:cad>53</ns3:cad>
          </ns3:TrackPointExtension>
        </extensions>
      </trkpt>
      <trkpt lat="-7.3305350728332996368408203125" lon="112.7305474318563938140869140625">
        <ele>3.2000000476837158203125</ele>
        <time>2026-09-22T12:22:52.000Z</time>
        <extensions>
          <ns3:TrackPointExtension>
            <ns3:atemp>31.0</ns3:atemp>
            <ns3:hr>100</ns3:hr>
            <ns3:cad>53</ns3:cad>
          </ns3:TrackPointExtension>
        </extensions>
      </trkpt>
      <trkpt lat="-7.3305451311171054840087890625" lon="112.73054047487676143646240234375">
        <ele>3.2000000476837158203125</ele>
        <time>2026-09-22T12:22:53.000Z</time>
        <extensions>
          <ns3:TrackPointExtension>
            <ns3:atemp>31.0</ns3:atemp>
            <ns3:hr>100</ns3:hr>
            <ns3:cad>53</ns3:cad>
          </ns3:TrackPointExtension>
        </extensions>
      </trkpt>
      <trkpt lat="-7.3305488191545009613037109375" lon="112.73053695447742938995361328125">
        <ele>3.2000000476837158203125</ele>
        <time>2026-09-22T12:22:54.000Z</time>
        <extensions>
          <ns3:TrackPointExtension>
            <ns3:atemp>31.0</ns3:atemp>
            <ns3:hr>99</ns3:hr>
            <ns3:cad>105</ns3:cad>
          </ns3:TrackPointExtension>
        </extensions>
      </trkpt>
      <trkpt lat="-7.33055309392511844635009765625" lon="112.73053879849612712860107421875">
        <ele>3.2000000476837158203125</ele>
        <time>2026-09-22T12:22:55.000Z</time>
        <extensions>
          <ns3:TrackPointExtension>
            <ns3:atemp>31.0</ns3:atemp>
            <ns3:hr>99</ns3:hr>
            <ns3:cad>106</ns3:cad>
          </ns3:TrackPointExtension>
        </extensions>
      </trkpt>
      <trkpt lat="-7.3305649124085903167724609375" lon="112.7305403910577297210693359375">
        <ele>3</ele>
        <time>2026-09-22T12:22:56.000Z</time>
        <extensions>
          <ns3:TrackPointExtension>
            <ns3:atemp>31.0</ns3:atemp>
            <ns3:hr>99</ns3:hr>
            <ns3:cad>106</ns3:cad>
          </ns3:TrackPointExtension>
        </extensions>
      </trkpt>
      <trkpt lat="-7.33057756908237934112548828125" lon="112.7305326797068119049072265625">
        <ele>3</ele>
        <time>2026-09-22T12:22:57.000Z</time>
        <extensions>
          <ns3:TrackPointExtension>
            <ns3:atemp>31.0</ns3:atemp>
            <ns3:hr>99</ns3:hr>
            <ns3:cad>106</ns3:cad>
          </ns3:TrackPointExtension>
        </extensions>
      </trkpt>
      <trkpt lat="-7.33058293350040912628173828125" lon="112.7305263094604015350341796875">
        <ele>3.2000000476837158203125</ele>
        <time>2026-09-22T12:22:58.000Z</time>
        <extensions>
          <ns3:TrackPointExtension>
            <ns3:atemp>31.0</ns3:atemp>
            <ns3:hr>99</ns3:hr>
            <ns3:cad>106</ns3:cad>
          </ns3:TrackPointExtension>
        </extensions>
      </trkpt>
      <trkpt lat="-7.33058762736618518829345703125" lon="112.73052857257425785064697265625">
        <ele>3.2000000476837158203125</ele>
        <time>2026-09-22T12:22:59.000Z</time>
        <extensions>
          <ns3:TrackPointExtension>
            <ns3:atemp>31.0</ns3:atemp>
            <ns3:hr>99</ns3:hr>
            <ns3:cad>106</ns3:cad>
          </ns3:TrackPointExtension>
        </extensions>
      </trkpt>
      <trkpt lat="-7.330596260726451873779296875" lon="112.73052304051816463470458984375">
        <ele>3.400000095367431640625</ele>
        <time>2026-09-22T12:23:00.000Z</time>
        <extensions>
          <ns3:TrackPointExtension>
            <ns3:atemp>31.0</ns3:atemp>
            <ns3:hr>99</ns3:hr>
            <ns3:cad>0</ns3:cad>
          </ns3:TrackPointExtension>
        </extensions>
      </trkpt>
      <trkpt lat="-7.33061009086668491363525390625" lon="112.730509378015995025634765625">
        <ele>3.400000095367431640625</ele>
        <time>2026-09-22T12:23:01.000Z</time>
        <extensions>
          <ns3:TrackPointExtension>
            <ns3:atemp>31.0</ns3:atemp>
            <ns3:hr>98</ns3:hr>
            <ns3:cad>0</ns3:cad>
          </ns3:TrackPointExtension>
        </extensions>
      </trkpt>
      <trkpt lat="-7.330612353980541229248046875" lon="112.7305082045495510101318359375">
        <ele>3.400000095367431640625</ele>
        <time>2026-09-22T12:23:02.000Z</time>
        <extensions>
          <ns3:TrackPointExtension>
            <ns3:atemp>31.0</ns3:atemp>
            <ns3:hr>98</ns3:hr>
            <ns3:cad>0</ns3:cad>
          </ns3:TrackPointExtension>
        </extensions>
      </trkpt>
      <trkpt lat="-7.33061713166534900665283203125" lon="112.73049898445606231689453125">
        <ele>3.400000095367431640625</ele>
        <time>2026-09-22T12:23:03.000Z</time>
        <extensions>
          <ns3:TrackPointExtension>
            <ns3:atemp>31.0</ns3:atemp>
            <ns3:hr>98</ns3:hr>
            <ns3:cad>46</ns3:cad>
          </ns3:TrackPointExtension>
        </extensions>
      </trkpt>
      <trkpt lat="-7.33062450774013996124267578125" lon="112.73049898445606231689453125">
        <ele>3.2000000476837158203125</ele>
        <time>2026-09-22T12:23:04.000Z</time>
        <extensions>
          <ns3:TrackPointExtension>
            <ns3:atemp>31.0</ns3:atemp>
            <ns3:hr>98</ns3:hr>
            <ns3:cad>46</ns3:cad>
          </ns3:TrackPointExtension>
        </extensions>
      </trkpt>
      <trkpt lat="-7.330627776682376861572265625" lon="112.73049085400998592376708984375">
        <ele>3.2000000476837158203125</ele>
        <time>2026-09-22T12:23:05.000Z</time>
        <extensions>
          <ns3:TrackPointExtension>
            <ns3:atemp>31.0</ns3:atemp>
            <ns3:hr>98</ns3:hr>
            <ns3:cad>46</ns3:cad>
          </ns3:TrackPointExtension>
        </extensions>
      </trkpt>
      <trkpt lat="-7.3306212387979030609130859375" lon="112.7304847352206707000732421875">
        <ele>3.2000000476837158203125</ele>
        <time>2026-09-22T12:23:06.000Z</time>
        <extensions>
          <ns3:TrackPointExtension>
            <ns3:atemp>31.0</ns3:atemp>
            <ns3:hr>98</ns3:hr>
            <ns3:cad>46</ns3:cad>
          </ns3:TrackPointExtension>
        </extensions>
      </trkpt>
      <trkpt lat="-7.330617047846317291259765625" lon="112.73048289120197296142578125">
        <ele>3.2000000476837158203125</ele>
        <time>2026-09-22T12:23:07.000Z</time>
        <extensions>
          <ns3:TrackPointExtension>
            <ns3:atemp>31.0</ns3:atemp>
            <ns3:hr>98</ns3:hr>
            <ns3:cad>45</ns3:cad>
          </ns3:TrackPointExtension>
        </extensions>
      </trkpt>
    </trkseg>
  </trk>
</gpx>
